ACTSTATUS,AOGUID,AOID,AOLEVEL,AREACODE,AUTOCODE,CENTSTATUS,CITYCODE,CODE,CURRSTATUS,ENDDATE,FORMALNAME,IFNSFL,IFNSUL,NEXTID,OFFNAME,OKATO,OKTMO,OPERSTATUS,PARENTGUID,PLACECODE,PLAINCODE,POSTALCODE,PREVID,REGIONCODE,SHORTNAME,STARTDATE,STREETCODE,TERRIFNSFL,TERRIFNSUL,UPDATEDATE,CTARCODE,EXTRCODE,SEXTCODE,LIVESTATUS,NORMDOC,PLANCODE,CADNUM,DIVTYPE
0,002e5786-32aa-4100-834c-9576375a485d,fca7883e-1015-4403-b4be-6852a491c3a8,7,001,0,0,001,02001001037000151,51.0,2079-06-06,Сиреневый,0274,0274,442d6b91-2a0a-4680-918b-546da9471d71,,80401000000,80701000,1,3c90f35b-8811-47b3-a956-07dce513a40f,037,020010010370001,450056,,02,б-р,1900-01-01,0001,,,2020-08-29,000,0000,000,0,,0000,,0
0,002e5786-32aa-4100-834c-9576375a485d,442d6b91-2a0a-4680-918b-546da9471d71,7,001,0,0,001,02001001000134451,51.0,1900-01-01,Сиреневый,0274,0274,07b99b46-43dc-4b18-b1f9-1b849583eff1,,80401375000,80701000,50,7339e834-2cb4-4734-a4c7-1fca2c66e562,000,020010010001344,450056,fca7883e-1015-4403-b4be-6852a491c3a8,02,б-р,1900-01-01,1344,,,2020-08-29,000,0000,000,0,,0000,,0
0,002e5786-32aa-4100-834c-9576375a485d,07b99b46-43dc-4b18-b1f9-1b849583eff1,7,000,0,0,001,02000001000027700,0.0,2079-06-06,Сиреневый,0274,0274,c2bb89c7-f3b5-4aab-992b-ae61b8815eb0,,80401375000,80701000,51,7339e834-2cb4-4734-a4c7-1fca2c66e562,000,020000010000277,450004,442d6b91-2a0a-4680-918b-546da9471d71,02,б-р,1900-01-01,0277,,,2020-08-29,000,0000,000,0,091e1de6-2bcd-48a4-b1c2-e50638d0036d,0000,,0
1,002e5786-32aa-4100-834c-9576375a485d,c2bb89c7-f3b5-4aab-992b-ae61b8815eb0,7,000,0,0,001,02000001000027700,0.0,2079-06-06,Сиреневый,0274,0274,,,80401375000,80701000001,21,7339e834-2cb4-4734-a4c7-1fca2c66e562,000,020000010000277,450004,07b99b46-43dc-4b18-b1f9-1b849583eff1,02,б-р,2020-07-10,0277,,,2020-08-29,000,0000,000,1,,0000,,0
1,f4bf4e98-04d3-47d4-986e-2e3c9e0bfd08,f4bf4e98-04d3-47d4-986e-2e3c9e0bfd08,7,024,0,0,015,02024015000000500,0.0,2079-06-06,Виноградная,0273,0273,,,80228855000,80628455,10,56eb521c-f9ca-43d8-a1e3-1f12e9667271,000,020240150000005,,,02,ул,2020-08-27,0005,0224,0224,2020-08-30,000,0000,000,1,,0002,,0
0,8cf070ad-de47-45fc-bbb8-d8b0db3d003f,8cf070ad-de47-45fc-bbb8-d8b0db3d003f,90,000,0,0,001,02000001000154251,51.0,2016-09-29,СНО им Мичурина,0272,0272,b1a53f77-fdc9-44b6-baee-180ad8eeccbe,,80401365000,80701000,10,7339e834-2cb4-4734-a4c7-1fca2c66e562,000,020000010001542,450000,,02,снт,2015-06-09,0000,,,2020-08-30,000,0000,000,0,,0000,,0
0,8cf070ad-de47-45fc-bbb8-d8b0db3d003f,b1a53f77-fdc9-44b6-baee-180ad8eeccbe,65,000,0,0,001,02000001000154201,1.0,2019-01-21,СНО им Мичурина,0272,0272,e8434ef0-4d0d-48a4-887e-d7de475a3980,,80401365000,80701000,50,7339e834-2cb4-4734-a4c7-1fca2c66e562,000,020000010001542,450000,8cf070ad-de47-45fc-bbb8-d8b0db3d003f,02,снт,2016-09-29,0000,,,2020-08-30,000,0000,000,0,,1542,,0
0,8cf070ad-de47-45fc-bbb8-d8b0db3d003f,e8434ef0-4d0d-48a4-887e-d7de475a3980,65,000,0,0,001,02000001000154200,0.0,2079-06-06,СНО им. Мичурина,0272,0272,04efa760-03fe-4f9c-bcb7-4b34f3b3f542,,80401365000,80701000001,20,7339e834-2cb4-4734-a4c7-1fca2c66e562,000,020000010001542,,b1a53f77-fdc9-44b6-baee-180ad8eeccbe,02,тер,2019-01-21,0000,,,2020-08-30,000,0000,000,0,1c12d8df-7a1d-4879-af01-413c2c96f073,1542,,0
1,8cf070ad-de47-45fc-bbb8-d8b0db3d003f,04efa760-03fe-4f9c-bcb7-4b34f3b3f542,65,000,0,0,001,02000001000154200,0.0,2079-06-06,СНО им. Мичурина,0272,0272,,,80401365000,80701000001,21,7339e834-2cb4-4734-a4c7-1fca2c66e562,000,020000010001542,450095,e8434ef0-4d0d-48a4-887e-d7de475a3980,02,тер,2020-08-27,0000,,,2020-08-30,000,0000,000,1,,1542,,0
1,a8dab04a-14e3-489f-bdef-751ec8967913,a8dab04a-14e3-489f-bdef-751ec8967913,65,028,0,0,000,02028000089000800,0.0,2079-06-06,Павловское раздолье,0277,0277,,,80234832009,80634432131,10,77f783b9-583f-4b84-a6b9-858b59c9878d,089,020280000890008,452360,,02,тер. ТСН,2020-08-28,0000,0228,0228,2020-08-30,000,0000,000,1,,0008,,0
0,80543fe8-5346-48b6-b77e-7d734a518ecf,80543fe8-5346-48b6-b77e-7d734a518ecf,7,014,0,0,000,02014000001005101,1.0,2079-06-06,Габдуллы Тукая,0272,0272,c1c41a18-51d9-4150-9af2-d242db0437a1,,80214837001,80614437101,10,d27dc9ed-f6a6-4adf-94b7-906e5b146705,001,020140000010051,452740,,02,ул,2013-12-24,0051,0214,0214,2020-08-30,000,0000,000,0,,0000,,0
0,80543fe8-5346-48b6-b77e-7d734a518ecf,c1c41a18-51d9-4150-9af2-d242db0437a1,7,014,0,0,000,02014000001005100,0.0,2079-06-06,Габдуллы Тукая,0272,0272,fc763be8-aed0-486e-a1a7-397bb65d1200,,80214837001,80614437101,21,d27dc9ed-f6a6-4adf-94b7-906e5b146705,001,020140000010051,,80543fe8-5346-48b6-b77e-7d734a518ecf,02,ул,2018-04-16,0051,0214,0214,2020-08-30,000,0000,000,0,d5090567-6614-45eb-8ea4-8afb3ba066fb,0000,,0
1,80543fe8-5346-48b6-b77e-7d734a518ecf,fc763be8-aed0-486e-a1a7-397bb65d1200,7,014,0,0,000,02014000001005100,0.0,2079-06-06,Габдуллы Тукая,0272,0272,,,80214837001,80614437101,21,d27dc9ed-f6a6-4adf-94b7-906e5b146705,001,020140000010051,452740,c1c41a18-51d9-4150-9af2-d242db0437a1,02,ул,2020-08-27,0051,0214,0214,2020-08-30,000,0000,000,1,,0000,,0
0,3cda60fb-95bb-46da-a81b-8c793fd2b0ef,3cda60fb-95bb-46da-a81b-8c793fd2b0ef,90,001,0,0,001,02001001000052151,51.0,2016-09-28,СНТ Поиск,0276,0276,938abc5c-e2f5-4989-acdb-9c9c637a34cd,,80401384000,80701000,10,67123c23-a198-422c-8c74-13c8ca57ba09,000,020010010000521,450000,,02,снт,2012-02-01,0000,,,2020-08-30,000,0000,000,0,,0000,,0
0,3cda60fb-95bb-46da-a81b-8c793fd2b0ef,938abc5c-e2f5-4989-acdb-9c9c637a34cd,90,000,0,0,001,02000001000145351,51.0,2017-01-20,СНТ Поиск,0276,0276,aa935910-4ad2-4b3f-b936-ad1e004964b1,,80401384000,80701000,51,67123c23-a198-422c-8c74-13c8ca57ba09,000,020000010001453,450000,3cda60fb-95bb-46da-a81b-8c793fd2b0ef,02,снт,2012-02-01,0000,,,2020-08-30,000,0000,000,0,091e1de6-2bcd-48a4-b1c2-e50638d0036d,0000,,0
0,3cda60fb-95bb-46da-a81b-8c793fd2b0ef,aa935910-4ad2-4b3f-b936-ad1e004964b1,65,000,0,0,001,02000001000145351,51.0,2018-11-14,СНТ Поиск,0276,0276,c8f4ddf0-5c03-41c6-9cf0-40a98216b8de,,80401384000,80701000,50,67123c23-a198-422c-8c74-13c8ca57ba09,000,020000010001453,450000,938abc5c-e2f5-4989-acdb-9c9c637a34cd,02,снт,2016-09-28,0000,,,2020-08-30,000,0000,000,0,,1453,,0
0,3cda60fb-95bb-46da-a81b-8c793fd2b0ef,c8f4ddf0-5c03-41c6-9cf0-40a98216b8de,65,000,0,0,001,02000001000176201,1.0,2018-11-14,СНТ Поиск,0276,0276,140132a9-35a1-4a31-86ae-1c88ba18ae4c,,80401384000,80701000001,50,7339e834-2cb4-4734-a4c7-1fca2c66e562,000,020000010001762,450000,aa935910-4ad2-4b3f-b936-ad1e004964b1,02,снт,2017-01-20,0000,,,2020-08-30,000,0000,000,0,75fa6475-40fe-4263-a18f-8511aa1a07d3,1762,,0
0,3cda60fb-95bb-46da-a81b-8c793fd2b0ef,140132a9-35a1-4a31-86ae-1c88ba18ae4c,65,000,0,0,001,02000001000176200,0.0,2079-06-06,Поиск,0276,0276,6bbdbce6-0565-4468-b3ee-10f47bfc45f7,,80401384000,80701000001,20,7339e834-2cb4-4734-a4c7-1fca2c66e562,000,020000010001762,,c8f4ddf0-5c03-41c6-9cf0-40a98216b8de,02,тер. СНТ,2018-11-14,0000,,,2020-08-30,000,0000,000,0,90f8ff38-a0c6-4411-88c4-2463360a5cce,1762,,0
1,3cda60fb-95bb-46da-a81b-8c793fd2b0ef,6bbdbce6-0565-4468-b3ee-10f47bfc45f7,65,000,0,0,001,02000001000176200,0.0,2079-06-06,Поиск,0276,0276,,,80401384000,80701000001,21,7339e834-2cb4-4734-a4c7-1fca2c66e562,000,020000010001762,450902,140132a9-35a1-4a31-86ae-1c88ba18ae4c,02,тер. СНТ,2020-08-27,0000,,,2020-08-30,000,0000,000,1,,1762,,0
0,dc53d052-5e4c-4daa-b190-fb686287423e,dc53d052-5e4c-4daa-b190-fb686287423e,7,001,0,0,000,02001000000036801,1.0,2079-06-06,Аграрная,0272,0272,4060d93a-ad24-4afa-874d-ccd92e347c40,,80252820000,80652420,10,5266799f-a05a-4aed-9672-7e9150fb937b,000,020010000000368,,,02,ул,2017-09-18,0368,,,2020-08-30,000,0000,000,0,b60cad83-b022-4779-9d28-dcec1c10a498,0363,,0
0,dc53d052-5e4c-4daa-b190-fb686287423e,4060d93a-ad24-4afa-874d-ccd92e347c40,7,001,0,0,000,02001000000036800,0.0,2079-06-06,Аграрная,0272,0272,1fa5bd7c-9d11-4603-a946-b398cfe17a5c,,80252820000,80652420,21,5266799f-a05a-4aed-9672-7e9150fb937b,000,020010000000368,,dc53d052-5e4c-4daa-b190-fb686287423e,02,ул,2019-07-09,0368,0245,0245,2020-08-30,000,0000,000,0,a9f7e6e0-9e60-46e4-ada9-3ab6c56169f6,0363,,0
1,dc53d052-5e4c-4daa-b190-fb686287423e,1fa5bd7c-9d11-4603-a946-b398cfe17a5c,7,001,0,0,000,02001000000036800,0.0,2079-06-06,Аграрная,0272,0272,,,80252820000,80652420,21,5266799f-a05a-4aed-9672-7e9150fb937b,000,020010000000368,450056,4060d93a-ad24-4afa-874d-ccd92e347c40,02,ул,2020-08-27,0368,0245,0245,2020-08-30,000,0000,000,1,,0363,,0
1,87c376c2-a3fd-4060-9ef4-c9b48c7ea681,87c376c2-a3fd-4060-9ef4-c9b48c7ea681,7,042,0,0,000,02042000000013600,0.0,2079-06-06,№4,0268,0268,,,80249804000,80649404,10,d73f2cd6-7762-40bf-bc8f-0c1c6ac3ddbe,000,020420000000136,453141,,02,ул,2020-08-28,0136,0242,0242,2020-08-30,000,0000,000,1,,0115,,0
0,73f2e600-6ea4-41a7-a745-a1199cb03f37,73f2e600-6ea4-41a7-a745-a1199cb03f37,65,000,0,0,001,02000001000180601,1.0,2018-08-08,СТ Дуслык,0274,0274,a407d0f3-9e89-405a-b3ae-d2f993d92ffe,,80401375000,80701000001,10,7339e834-2cb4-4734-a4c7-1fca2c66e562,000,020000010001806,450000,,02,снт,2017-02-09,0000,,,2020-08-30,000,0000,000,0,d29a9a74-e844-4e32-b186-85c170f043b8,1806,,0
0,73f2e600-6ea4-41a7-a745-a1199cb03f37,a407d0f3-9e89-405a-b3ae-d2f993d92ffe,65,000,0,0,001,02000001000180600,0.0,2079-06-06,СТ Дуслык,0274,0274,a6a1f95a-bdf4-4a47-aacd-177d1a1a3a4e,,80401375000,80701000001,20,7339e834-2cb4-4734-a4c7-1fca2c66e562,000,020000010001806,,73f2e600-6ea4-41a7-a745-a1199cb03f37,02,тер.,2018-08-08,0000,,,2020-08-30,000,0000,000,0,e924dc5b-d51e-4915-894a-e37c1ce2fb60,1806,,0
1,73f2e600-6ea4-41a7-a745-a1199cb03f37,a6a1f95a-bdf4-4a47-aacd-177d1a1a3a4e,65,000,0,0,001,02000001000180600,0.0,2079-06-06,СТ Дуслык,0274,0274,,,80401375000,80701000001,21,7339e834-2cb4-4734-a4c7-1fca2c66e562,000,020000010001806,450080,a407d0f3-9e89-405a-b3ae-d2f993d92ffe,02,тер.,2020-08-27,0000,,,2020-08-30,000,0000,000,1,,1806,,0
1,5644d8b3-f65f-4dfa-9c68-750f239c2e6f,5644d8b3-f65f-4dfa-9c68-750f239c2e6f,65,035,0,0,000,02035000000003800,0.0,2079-06-06,Кутлубулатовское кладбище,0261,0261,,,80241802000,80641402,10,a04fc116-04ac-477f-8f4b-08b7159280fc,000,020350000000038,,,02,тер.,2020-08-27,0000,0263,0263,2020-08-30,000,0000,000,1,,0038,,0
1,529eeeb5-d2e6-419b-8720-bd618fec0f4f,529eeeb5-d2e6-419b-8720-bd618fec0f4f,65,001,0,0,000,02001000000063100,0.0,2079-06-06,Вольно-Сухаревский пруд,0272,0272,,,80252850000,80652450,10,c7a81174-8d01-4ae6-83e6-386ae23ee629,000,020010000000631,,,02,тер.,2020-09-02,0000,0245,0245,2020-09-03,000,0000,000,1,,0631,,0
0,faeaedcb-243e-4c56-aa3c-5caeb8d838cb,b7973033-50fa-45d1-80eb-c6fbfc2102fe,7,011,0,0,000,02011001000034951,51.0,2020-08-31,Садко 2,0256,0256,6a96f82c-9969-4042-b5fb-7c65dbf90ea1,,80410000000,80611101,1,041ebde9-5f12-44e5-9e5d-32769ba01152,000,020110010000349,453500,,02,сад,1900-01-01,0000,,,2020-09-03,000,0000,000,0,,0038,,0
0,faeaedcb-243e-4c56-aa3c-5caeb8d838cb,6a96f82c-9969-4042-b5fb-7c65dbf90ea1,7,011,0,0,000,02011000096003601,1.0,2020-06-29,Садко 2,0256,0256,3bd419f9-82fa-4cc7-8065-c057fc6f6fab,,80211827001,80611427,1,041ebde9-5f12-44e5-9e5d-32769ba01152,000,020110000960036,453512,b7973033-50fa-45d1-80eb-c6fbfc2102fe,02,сад,1900-01-01,0000,,,2020-09-03,000,0000,000,0,,0038,,0
0,faeaedcb-243e-4c56-aa3c-5caeb8d838cb,3bd419f9-82fa-4cc7-8065-c057fc6f6fab,7,011,0,0,000,02011000096003602,2.0,2015-08-21,Садко 2,0256,0256,a89521fa-b3c6-4843-934b-19207f183c03,,80211827001,80611427101,21,041ebde9-5f12-44e5-9e5d-32769ba01152,000,020110000960036,453512,6a96f82c-9969-4042-b5fb-7c65dbf90ea1,02,сад,2015-08-20,0000,,,2020-09-03,000,0000,000,0,16247fb6-8455-4bcb-92e1-41b048b2baa7,0038,,0
0,faeaedcb-243e-4c56-aa3c-5caeb8d838cb,a89521fa-b3c6-4843-934b-19207f183c03,7,011,0,0,000,02011000096003651,51.0,2020-08-31,Садко 2,0256,0256,aadf2d8a-3694-4505-92bb-e6bbd8c3783b,,80211827001,80611427,20,041ebde9-5f12-44e5-9e5d-32769ba01152,000,020110000960036,453512,3bd419f9-82fa-4cc7-8065-c057fc6f6fab,02,сад,2015-08-21,0000,,,2020-09-03,000,0000,000,0,9f0beebd-95b4-42de-87e5-e8b2d25fce60,0038,,0
0,faeaedcb-243e-4c56-aa3c-5caeb8d838cb,aadf2d8a-3694-4505-92bb-e6bbd8c3783b,7,011,0,0,000,02011000096003651,51.0,2020-06-29,Садко 2,0256,0256,2e1937ef-ae43-4a87-af22-843ba35df1ec,,80211827001,80611101001,21,041ebde9-5f12-44e5-9e5d-32769ba01152,000,020110000960036,453512,a89521fa-b3c6-4843-934b-19207f183c03,02,сад,2020-03-05,0000,,,2020-09-03,000,0000,000,0,,0038,,0
0,faeaedcb-243e-4c56-aa3c-5caeb8d838cb,2e1937ef-ae43-4a87-af22-843ba35df1ec,7,011,0,0,000,02011000096003651,51.0,2020-06-29,Садко 2,0256,0256,08176738-287b-4557-8d3e-49f33f76a5ae,,80410000000,80611101001,21,041ebde9-5f12-44e5-9e5d-32769ba01152,000,020110000960036,453512,aadf2d8a-3694-4505-92bb-e6bbd8c3783b,02,сад,2020-06-29,0000,,,2020-09-03,000,0000,000,0,,0038,,0
0,faeaedcb-243e-4c56-aa3c-5caeb8d838cb,08176738-287b-4557-8d3e-49f33f76a5ae,7,011,0,0,000,02011000096003651,51.0,2079-06-06,Садко 2,0256,0256,17811f55-53c4-4732-b594-84d1d71a2c43,,80211827001,80611427101,21,041ebde9-5f12-44e5-9e5d-32769ba01152,000,020110000960036,453512,2e1937ef-ae43-4a87-af22-843ba35df1ec,02,сад,2020-06-29,0000,,,2020-09-03,000,0000,000,0,,0038,,0
1,faeaedcb-243e-4c56-aa3c-5caeb8d838cb,17811f55-53c4-4732-b594-84d1d71a2c43,65,011,0,0,000,02011000000003800,0.0,2079-06-06,Садко 2,0256,0256,,,80211827001,80611427,50,041ebde9-5f12-44e5-9e5d-32769ba01152,000,020110000000038,453512,08176738-287b-4557-8d3e-49f33f76a5ae,02,сад,2020-08-31,0000,,,2020-09-03,000,0000,000,1,,0038,,0
1,c323f3d7-5062-4a70-827a-9c07fb227053,c323f3d7-5062-4a70-827a-9c07fb227053,65,035,0,0,002,02035002000000200,0.0,2079-06-06,Зириковское кладбище,0261,0261,,,80241802000,80641402,10,1154ab82-d003-4cc6-8326-bc37deda3003,000,020350020000002,,,02,тер.,2020-09-01,0000,0263,0263,2020-09-03,000,0000,000,1,,0002,,0
1,949aa23b-58d0-40f1-a76b-3e8922a40022,949aa23b-58d0-40f1-a76b-3e8922a40022,7,051,0,0,000,02051000028000500,0.0,2079-06-06,Школьная,0269,0269,,,80258815004,80658415116,10,0d18430b-da86-45ad-95a3-d09fe8e9d557,028,020510000280005,452630,,02,ул,2020-09-01,0005,0251,0251,2020-09-03,000,0000,000,1,,0000,,0
0,df1ed6c2-51d5-4434-aa4c-620ac2a982bf,2f5f4cf3-287a-4521-9d6c-e207781f4e06,7,011,0,0,000,02011001000036351,51.0,2020-08-31,Солнечный,0256,0256,277d646c-0d9e-4638-81b6-d04aed44e345,,80410000000,80611101,1,041ebde9-5f12-44e5-9e5d-32769ba01152,000,020110010000363,453500,,02,сад,1900-01-01,0000,,,2020-09-03,000,0000,000,0,,0041,,0
0,df1ed6c2-51d5-4434-aa4c-620ac2a982bf,277d646c-0d9e-4638-81b6-d04aed44e345,7,011,0,0,000,02011000096003701,1.0,2020-06-29,Солнечный,0256,0256,80e965e2-274b-4a33-bfee-623a8fdead86,,80211827001,80611427,1,041ebde9-5f12-44e5-9e5d-32769ba01152,000,020110000960037,453512,2f5f4cf3-287a-4521-9d6c-e207781f4e06,02,сад,1900-01-01,0000,,,2020-09-03,000,0000,000,0,,0041,,0
0,df1ed6c2-51d5-4434-aa4c-620ac2a982bf,80e965e2-274b-4a33-bfee-623a8fdead86,7,011,0,0,000,02011000096003702,2.0,2015-08-21,Солнечный,0256,0256,98691fcd-4e48-47ff-a4a1-30bf6e27ef1c,,80211827001,80611427101,21,041ebde9-5f12-44e5-9e5d-32769ba01152,000,020110000960037,453512,277d646c-0d9e-4638-81b6-d04aed44e345,02,сад,2015-08-20,0000,,,2020-09-03,000,0000,000,0,16247fb6-8455-4bcb-92e1-41b048b2baa7,0041,,0
0,df1ed6c2-51d5-4434-aa4c-620ac2a982bf,98691fcd-4e48-47ff-a4a1-30bf6e27ef1c,7,011,0,0,000,02011000096003751,51.0,2020-08-31,Солнечный,0256,0256,c14d1b47-3a89-4b3c-ae14-3402168bb7d4,,80211827001,80611427,20,041ebde9-5f12-44e5-9e5d-32769ba01152,000,020110000960037,453512,80e965e2-274b-4a33-bfee-623a8fdead86,02,сад,2015-08-21,0000,,,2020-09-03,000,0000,000,0,6d31e5f9-e093-4c38-a4b7-adcc07b74f82,0041,,0
0,df1ed6c2-51d5-4434-aa4c-620ac2a982bf,c14d1b47-3a89-4b3c-ae14-3402168bb7d4,7,011,0,0,000,02011000096003751,51.0,2020-06-29,Солнечный,0256,0256,835d592c-8366-49e5-a4a0-6847a04c9e4b,,80211827001,80611101001,21,041ebde9-5f12-44e5-9e5d-32769ba01152,000,020110000960037,453512,98691fcd-4e48-47ff-a4a1-30bf6e27ef1c,02,сад,2020-03-05,0000,,,2020-09-03,000,0000,000,0,,0041,,0
0,df1ed6c2-51d5-4434-aa4c-620ac2a982bf,835d592c-8366-49e5-a4a0-6847a04c9e4b,7,011,0,0,000,02011000096003751,51.0,2020-06-29,Солнечный,0256,0256,974e50ca-0a7f-4594-a156-6fcea105c5d6,,80410000000,80611101001,21,041ebde9-5f12-44e5-9e5d-32769ba01152,000,020110000960037,453512,c14d1b47-3a89-4b3c-ae14-3402168bb7d4,02,сад,2020-06-29,0000,,,2020-09-03,000,0000,000,0,,0041,,0
0,df1ed6c2-51d5-4434-aa4c-620ac2a982bf,974e50ca-0a7f-4594-a156-6fcea105c5d6,7,011,0,0,000,02011000096003751,51.0,2079-06-06,Солнечный,0256,0256,a223b0e1-d8cd-44da-8dc8-97512499d607,,80211827001,80611427101,21,041ebde9-5f12-44e5-9e5d-32769ba01152,000,020110000960037,453512,835d592c-8366-49e5-a4a0-6847a04c9e4b,02,сад,2020-06-29,0000,,,2020-09-03,000,0000,000,0,,0041,,0
1,df1ed6c2-51d5-4434-aa4c-620ac2a982bf,a223b0e1-d8cd-44da-8dc8-97512499d607,65,011,0,0,000,02011000000004100,0.0,2079-06-06,Солнечный,0256,0256,,,80211827001,80611427,50,041ebde9-5f12-44e5-9e5d-32769ba01152,000,020110000000041,453512,974e50ca-0a7f-4594-a156-6fcea105c5d6,02,сад,2020-08-31,0000,,,2020-09-03,000,0000,000,1,,0041,,0
1,1613c99e-f718-458f-a913-5d09b8b3a814,1613c99e-f718-458f-a913-5d09b8b3a814,7,024,0,0,000,02024000000048100,0.0,2079-06-06,Жемчужная,0273,0273,,,80228803000,80628403,10,73b1cde1-79e0-43e6-bcab-236de3a2e2d3,000,020240000000481,452418,,02,ул,2020-09-02,0481,0224,0224,2020-09-03,000,0000,000,1,,0242,,0
0,69c9c36e-433d-4087-9257-d6bbabed7bed,69c9c36e-433d-4087-9257-d6bbabed7bed,7,030,0,0,009,02030009001000200,0.0,2079-06-06,Гагарина,0276,0276,9f73694c-2d64-4cc3-8099-3e1ff2eb73ef,,80236840000,80636440101,10,db215838-d923-4dd2-86f2-ff6eb4528c95,001,020300090010002,452506,,02,ул,2017-03-15,0002,0230,0230,2020-09-03,000,0000,000,0,f5960ea4-ce76-4d7b-9902-1a728aa62410,0000,,0
1,69c9c36e-433d-4087-9257-d6bbabed7bed,9f73694c-2d64-4cc3-8099-3e1ff2eb73ef,7,030,0,0,009,02030009001000200,0.0,2079-06-06,Гагарина,0276,0276,,,80236840001,80636440101,21,db215838-d923-4dd2-86f2-ff6eb4528c95,001,020300090010002,452506,69c9c36e-433d-4087-9257-d6bbabed7bed,02,ул,2020-09-02,0002,0230,0230,2020-09-03,000,0000,000,1,,0000,,0
0,a699c015-e2d7-46ec-b8e6-5183a0b57a61,a699c015-e2d7-46ec-b8e6-5183a0b57a61,7,030,0,0,009,02030009001000100,0.0,2079-06-06,Показательская,0276,0276,dfe5d369-5b40-4ad7-bd25-29ae069d9b2b,,80236840000,80636440101,10,db215838-d923-4dd2-86f2-ff6eb4528c95,001,020300090010001,452506,,02,ул,2017-03-16,0001,0230,0230,2020-09-03,000,0000,000,0,2332974a-369d-46ef-9fb8-a7db3c40c832,0000,,0
1,a699c015-e2d7-46ec-b8e6-5183a0b57a61,dfe5d369-5b40-4ad7-bd25-29ae069d9b2b,7,030,0,0,009,02030009001000100,0.0,2079-06-06,Показательская,0276,0276,,,80236840001,80636440101,21,db215838-d923-4dd2-86f2-ff6eb4528c95,001,020300090010001,452506,a699c015-e2d7-46ec-b8e6-5183a0b57a61,02,ул,2020-09-02,0001,0230,0230,2020-09-03,000,0000,000,1,,0000,,0
1,7d22eb77-33ac-4f1f-b4dc-d345c0ca8ebb,7d22eb77-33ac-4f1f-b4dc-d345c0ca8ebb,65,035,0,0,002,02035002000000100,0.0,2079-06-06,Нижнеташевское кладбище,0261,0261,,,80241802000,80641402,10,1154ab82-d003-4cc6-8326-bc37deda3003,000,020350020000001,,,02,тер.,2020-09-01,0000,0263,0263,2020-09-03,000,0000,000,1,,0001,,0
0,db215838-d923-4dd2-86f2-ff6eb4528c95,db215838-d923-4dd2-86f2-ff6eb4528c95,6,030,0,0,009,0203000900100,0.0,2079-06-06,Леуза,0276,0276,a7cb270d-e5dd-491b-b8c2-c11d9ef4ff99,,80236840000,80636440101,10,4def0338-8915-4f99-8c87-524927a371cd,001,02030009001,452506,,02,с,2017-02-20,0000,0230,0230,2020-09-03,000,0000,000,0,506f852f-4f6a-45a2-9fde-4886ac11b294,0000,,0
1,db215838-d923-4dd2-86f2-ff6eb4528c95,a7cb270d-e5dd-491b-b8c2-c11d9ef4ff99,6,030,0,0,009,0203000900100,0.0,2079-06-06,Леуза,0276,0276,,,80236840001,80636440101,21,4def0338-8915-4f99-8c87-524927a371cd,001,02030009001,452506,db215838-d923-4dd2-86f2-ff6eb4528c95,02,с,2020-09-02,0000,0230,0230,2020-09-03,000,0000,000,1,,0000,,0
0,01e1bfba-62a0-4ffa-9a22-f1c10a0cecf9,01e1bfba-62a0-4ffa-9a22-f1c10a0cecf9,7,018,0,0,005,02018005000000199,99.0,2020-09-02,Салавата Юлаева,0256,0256,54bb009d-a053-4d20-877a-1532c0d24902,,80219810000,80619410,10,b2970191-ecfd-4bc8-a00a-0e65c0e5d748,000,020180050000001,453591,,02,ул,2015-11-19,0001,0218,0218,2020-09-03,000,0000,000,0,b4703638-ed37-465e-87b3-9b70e3f4281e,0000,,0
1,01e1bfba-62a0-4ffa-9a22-f1c10a0cecf9,54bb009d-a053-4d20-877a-1532c0d24902,7,018,0,0,005,02018005000000199,99.0,2079-06-06,Салавата Юлаева,0256,0256,,,80219810000,80619410,30,b2970191-ecfd-4bc8-a00a-0e65c0e5d748,000,020180050000001,453591,01e1bfba-62a0-4ffa-9a22-f1c10a0cecf9,02,ул,2020-09-02,0001,0218,0218,2020-09-03,000,0000,000,0,,0000,,0
0,36121d3b-20f2-46ac-a93f-d9eb006c256c,36121d3b-20f2-46ac-a93f-d9eb006c256c,7,030,0,0,009,02030009001000300,0.0,2079-06-06,Красноармейская,0276,0276,5de71824-5d44-4bd6-96d0-7c7977e01ace,,80236840000,80636440101,10,db215838-d923-4dd2-86f2-ff6eb4528c95,001,020300090010003,452506,,02,ул,2017-03-16,0003,0230,0230,2020-09-03,000,0000,000,0,f9c50d1d-952b-426b-a1e4-e9d8aab0c44a,0000,,0
1,36121d3b-20f2-46ac-a93f-d9eb006c256c,5de71824-5d44-4bd6-96d0-7c7977e01ace,7,030,0,0,009,02030009001000300,0.0,2079-06-06,Красноармейская,0276,0276,,,80236840001,80636440101,21,db215838-d923-4dd2-86f2-ff6eb4528c95,001,020300090010003,452506,36121d3b-20f2-46ac-a93f-d9eb006c256c,02,ул,2020-09-02,0003,0230,0230,2020-09-03,000,0000,000,1,,0000,,0
0,711ba848-ffe6-4751-b8be-1c6a9926c8f4,4b82282e-eb36-4953-a1a4-05c22610ebce,7,011,0,0,000,02011001000034851,51.0,2020-08-31,Садко 1,0256,0256,ce180115-64b8-4697-ae3c-d8264cfabcf2,,80410000000,80611101,1,041ebde9-5f12-44e5-9e5d-32769ba01152,000,020110010000348,453500,,02,сад,1900-01-01,0000,,,2020-09-03,000,0000,000,0,,0039,,0
0,711ba848-ffe6-4751-b8be-1c6a9926c8f4,ce180115-64b8-4697-ae3c-d8264cfabcf2,7,011,0,0,000,02011000096003501,1.0,2020-06-29,Садко 1,0256,0256,cb9110ef-8f30-455e-82fa-42cb236927ee,,80211827001,80611427,1,041ebde9-5f12-44e5-9e5d-32769ba01152,000,020110000960035,453512,4b82282e-eb36-4953-a1a4-05c22610ebce,02,сад,1900-01-01,0000,,,2020-09-03,000,0000,000,0,,0039,,0
0,711ba848-ffe6-4751-b8be-1c6a9926c8f4,cb9110ef-8f30-455e-82fa-42cb236927ee,7,011,0,0,000,02011000096003502,2.0,2015-08-21,Садко 1,0256,0256,c8c897d1-c896-4a9a-b21a-2aa0832cc6a8,,80211827001,80611427101,21,041ebde9-5f12-44e5-9e5d-32769ba01152,000,020110000960035,453512,ce180115-64b8-4697-ae3c-d8264cfabcf2,02,сад,2015-08-20,0000,,,2020-09-03,000,0000,000,0,16247fb6-8455-4bcb-92e1-41b048b2baa7,0039,,0
0,711ba848-ffe6-4751-b8be-1c6a9926c8f4,c8c897d1-c896-4a9a-b21a-2aa0832cc6a8,7,011,0,0,000,02011000096003551,51.0,2020-08-31,Садко 1,0256,0256,ad817b00-4df6-4525-9f30-11c09b4e024e,,80211827001,80611427,20,041ebde9-5f12-44e5-9e5d-32769ba01152,000,020110000960035,453512,cb9110ef-8f30-455e-82fa-42cb236927ee,02,сад,2015-08-21,0000,,,2020-09-03,000,0000,000,0,3aff78f2-c46f-4262-8990-cc323cced327,0039,,0
0,711ba848-ffe6-4751-b8be-1c6a9926c8f4,ad817b00-4df6-4525-9f30-11c09b4e024e,7,011,0,0,000,02011000096003551,51.0,2020-06-29,Садко 1,0256,0256,ddb3d670-31ab-4c0f-b986-f538d03cc8a0,,80211827001,80611101001,21,041ebde9-5f12-44e5-9e5d-32769ba01152,000,020110000960035,453512,c8c897d1-c896-4a9a-b21a-2aa0832cc6a8,02,сад,2020-03-05,0000,,,2020-09-03,000,0000,000,0,,0039,,0
0,711ba848-ffe6-4751-b8be-1c6a9926c8f4,ddb3d670-31ab-4c0f-b986-f538d03cc8a0,7,011,0,0,000,02011000096003551,51.0,2020-06-29,Садко 1,0256,0256,1fffc6b9-a190-4934-ad05-e6e7395a53b0,,80410000000,80611101001,21,041ebde9-5f12-44e5-9e5d-32769ba01152,000,020110000960035,453512,ad817b00-4df6-4525-9f30-11c09b4e024e,02,сад,2020-06-29,0000,,,2020-09-03,000,0000,000,0,,0039,,0
0,711ba848-ffe6-4751-b8be-1c6a9926c8f4,1fffc6b9-a190-4934-ad05-e6e7395a53b0,7,011,0,0,000,02011000096003551,51.0,2079-06-06,Садко 1,0256,0256,b2b1f2ed-7aaf-428a-89c3-146eacbc20be,,80211827001,80611427101,21,041ebde9-5f12-44e5-9e5d-32769ba01152,000,020110000960035,453512,ddb3d670-31ab-4c0f-b986-f538d03cc8a0,02,сад,2020-06-29,0000,,,2020-09-03,000,0000,000,0,,0039,,0
1,711ba848-ffe6-4751-b8be-1c6a9926c8f4,b2b1f2ed-7aaf-428a-89c3-146eacbc20be,65,011,0,0,000,02011000000003900,0.0,2079-06-06,Садко 1,0256,0256,,,80211827001,80611427,50,041ebde9-5f12-44e5-9e5d-32769ba01152,000,020110000000039,453512,1fffc6b9-a190-4934-ad05-e6e7395a53b0,02,сад,2020-08-31,0000,,,2020-09-03,000,0000,000,1,,0039,,0
0,655d821f-6f9e-4691-b8ba-3414abdf976b,6b62d3d1-400d-443a-b012-2e76bba8c496,7,011,0,0,000,02011001000034751,51.0,2020-08-31,Кояшлы,0256,0256,906d8eb2-1cf6-4fdc-a6e3-07eff478b098,,80410000000,80611101,1,041ebde9-5f12-44e5-9e5d-32769ba01152,000,020110010000347,453500,,02,сад,1900-01-01,0000,,,2020-09-03,000,0000,000,0,,0040,,0
0,655d821f-6f9e-4691-b8ba-3414abdf976b,906d8eb2-1cf6-4fdc-a6e3-07eff478b098,7,011,0,0,000,02011000096003401,1.0,2020-06-29,Кояшлы,0256,0256,0469d26d-ef7f-4d78-8382-2df7ac4bbb58,,80211827001,80611427,1,041ebde9-5f12-44e5-9e5d-32769ba01152,000,020110000960034,453512,6b62d3d1-400d-443a-b012-2e76bba8c496,02,сад,1900-01-01,0000,,,2020-09-03,000,0000,000,0,,0040,,0
0,655d821f-6f9e-4691-b8ba-3414abdf976b,0469d26d-ef7f-4d78-8382-2df7ac4bbb58,7,011,0,0,000,02011000096003402,2.0,2020-03-05,Кояшлы,0256,0256,89f5d655-80e5-432d-beff-27558eae11f5,,80211827001,80611427101,21,041ebde9-5f12-44e5-9e5d-32769ba01152,000,020110000960034,453512,906d8eb2-1cf6-4fdc-a6e3-07eff478b098,02,сад,2015-08-20,0000,,,2020-09-03,000,0000,000,0,16247fb6-8455-4bcb-92e1-41b048b2baa7,0040,,0
0,655d821f-6f9e-4691-b8ba-3414abdf976b,89f5d655-80e5-432d-beff-27558eae11f5,7,011,0,0,000,02011000096003451,51.0,2020-08-31,Кояшлы,0256,0256,dac62b5e-8da2-4144-81f7-753176ba0d89,,80211827001,80611427101,20,041ebde9-5f12-44e5-9e5d-32769ba01152,000,020110000960034,453512,0469d26d-ef7f-4d78-8382-2df7ac4bbb58,02,сад,2015-08-21,0000,,,2020-09-03,000,0000,000,0,a3364179-63db-4761-8fb4-fdb480a9f2a5,0040,,0
0,655d821f-6f9e-4691-b8ba-3414abdf976b,dac62b5e-8da2-4144-81f7-753176ba0d89,7,011,0,0,000,02011000096003451,51.0,2020-06-29,Кояшлы,0256,0256,010b0efb-14fe-41cb-9ed2-47c4da60b665,,80211827001,80611101001,21,041ebde9-5f12-44e5-9e5d-32769ba01152,000,020110000960034,453512,89f5d655-80e5-432d-beff-27558eae11f5,02,сад,2020-03-05,0000,,,2020-09-03,000,0000,000,0,,0040,,0
0,655d821f-6f9e-4691-b8ba-3414abdf976b,010b0efb-14fe-41cb-9ed2-47c4da60b665,7,011,0,0,000,02011000096003451,51.0,2020-06-29,Кояшлы,0256,0256,57e83ad0-6be1-4667-b920-50eb1a56f61e,,80410000000,80611101001,21,041ebde9-5f12-44e5-9e5d-32769ba01152,000,020110000960034,453512,dac62b5e-8da2-4144-81f7-753176ba0d89,02,сад,2020-06-29,0000,,,2020-09-03,000,0000,000,0,,0040,,0
0,655d821f-6f9e-4691-b8ba-3414abdf976b,57e83ad0-6be1-4667-b920-50eb1a56f61e,7,011,0,0,000,02011000096003451,51.0,2079-06-06,Кояшлы,0256,0256,2aa7f0ee-e7ec-4f15-a3e7-964610f5466f,,80211827001,80611427101,21,041ebde9-5f12-44e5-9e5d-32769ba01152,000,020110000960034,453512,010b0efb-14fe-41cb-9ed2-47c4da60b665,02,сад,2020-06-29,0000,,,2020-09-03,000,0000,000,0,,0040,,0
1,655d821f-6f9e-4691-b8ba-3414abdf976b,2aa7f0ee-e7ec-4f15-a3e7-964610f5466f,65,011,0,0,000,02011000000004000,0.0,2079-06-06,Кояшлы,0256,0256,,,80211827001,80611427,50,041ebde9-5f12-44e5-9e5d-32769ba01152,000,020110000000040,453512,57e83ad0-6be1-4667-b920-50eb1a56f61e,02,сад,2020-08-31,0000,,,2020-09-03,000,0000,000,1,,0040,,0
0,b1f07d1e-9cfd-4930-b40d-6e009ece8742,b1f07d1e-9cfd-4930-b40d-6e009ece8742,7,006,0,0,000,02006000059002799,99.0,2020-08-13,З.Биишева,0267,0267,dee1a065-a5d9-4da1-a0e2-09c12cce25d5,,80206810001,80606410101,10,4e9b2787-224d-4926-8e78-676b3cd3c64b,059,020060000590027,453666,,02,ул,2015-08-10,0027,0254,0254,2020-08-16,000,0000,000,0,,0000,,0
1,b1f07d1e-9cfd-4930-b40d-6e009ece8742,dee1a065-a5d9-4da1-a0e2-09c12cce25d5,7,006,0,0,000,02006000059002799,99.0,2079-06-06,З.Биишева,0267,0267,,,80206810001,80606410101,30,4e9b2787-224d-4926-8e78-676b3cd3c64b,059,020060000590027,453666,b1f07d1e-9cfd-4930-b40d-6e009ece8742,02,ул,2020-08-13,0027,0254,0254,2020-08-16,000,0000,000,0,,0000,,0
1,b49d3052-399a-40c5-a854-329e3569aaee,b49d3052-399a-40c5-a854-329e3569aaee,7,024,0,0,000,02024000030002300,0.0,2079-06-06,Солнечная,0273,0273,,,80228803007,80628403131,10,214cb431-dfce-4f8d-9a89-e07fad51c308,030,020240000300023,,,02,ул,2020-08-13,0023,0224,0224,2020-08-16,000,0000,000,1,,0000,,0
0,1a5ed0c2-3ea7-4619-be89-9128d2bdacdb,71cee8bd-c169-4136-b975-4f813871c14b,7,019,0,0,000,02019000001002001,1.0,2020-08-13,Горького,0242,0242,b06ed734-eaa4-4121-bc73-779dab2eaf7e,,80221823001,80621423,1,62db7d4d-3ff2-4814-841d-872fd43c3f9c,001,020190000010020,453050,,02,ул,1900-01-01,0020,0219,0219,2020-08-16,000,0000,000,0,,0000,,0
0,1a5ed0c2-3ea7-4619-be89-9128d2bdacdb,b06ed734-eaa4-4121-bc73-779dab2eaf7e,7,019,0,0,000,02019000001002002,2.0,2014-01-05,Горького,0268,0268,cb181ca8-5890-440c-a23c-e84b40065953,,80221823001,80621423,21,62db7d4d-3ff2-4814-841d-872fd43c3f9c,001,020190000010020,453050,71cee8bd-c169-4136-b975-4f813871c14b,02,ул,2013-01-01,0020,0219,0219,2020-08-16,000,0000,000,0,,0000,,0
0,1a5ed0c2-3ea7-4619-be89-9128d2bdacdb,cb181ca8-5890-440c-a23c-e84b40065953,7,019,0,0,000,02019000001002003,3.0,2018-04-11,Горького,0268,0268,a811d910-32e3-482b-a5a1-44134b985b8c,,80221823001,80621423101,21,62db7d4d-3ff2-4814-841d-872fd43c3f9c,001,020190000010020,453050,b06ed734-eaa4-4121-bc73-779dab2eaf7e,02,ул,2014-01-05,0020,0219,0219,2020-08-16,000,0000,000,0,,0000,,0
0,1a5ed0c2-3ea7-4619-be89-9128d2bdacdb,a811d910-32e3-482b-a5a1-44134b985b8c,7,019,0,0,000,02019000001002099,99.0,2020-08-13,Горького,0268,0268,6f215d79-98b2-4776-94f9-2be682ec9c4a,,80221823001,80621423101,21,62db7d4d-3ff2-4814-841d-872fd43c3f9c,001,020190000010020,453050,cb181ca8-5890-440c-a23c-e84b40065953,02,ул,2018-04-11,0020,0219,0219,2020-08-16,000,0000,000,0,d5090567-6614-45eb-8ea4-8afb3ba066fb,0000,,0
1,1a5ed0c2-3ea7-4619-be89-9128d2bdacdb,6f215d79-98b2-4776-94f9-2be682ec9c4a,7,019,0,0,000,02019000001002099,99.0,2079-06-06,Горького,0268,0268,,,80221823001,80621423101,30,62db7d4d-3ff2-4814-841d-872fd43c3f9c,001,020190000010020,453050,a811d910-32e3-482b-a5a1-44134b985b8c,02,ул,2020-08-13,0020,0219,0219,2020-08-16,000,0000,000,0,,0000,,0
0,de523240-3076-436f-bab6-963dd56ed841,0efce98a-0306-4d06-a53c-ce07a439a3a5,7,006,0,0,000,02006000060000301,1.0,2020-08-13,Тукман,0267,0267,d6050c4f-aace-4071-803f-afe61f7add56,,80206810005,80606410,1,17c580b1-40c1-4e60-a30c-be08c6283ce6,060,020060000600003,453666,,02,ул,1900-01-01,0003,0254,0254,2020-08-16,000,0000,000,0,,0000,,0
0,de523240-3076-436f-bab6-963dd56ed841,d6050c4f-aace-4071-803f-afe61f7add56,7,006,0,0,000,02006000060000399,99.0,2020-08-13,Тукман,0267,0267,54cf9105-c119-47ae-a529-1d9c977188da,,80206810005,80606410111,21,17c580b1-40c1-4e60-a30c-be08c6283ce6,060,020060000600003,453666,0efce98a-0306-4d06-a53c-ce07a439a3a5,02,ул,2014-01-05,0003,0254,0254,2020-08-16,000,0000,000,0,,0000,,0
1,de523240-3076-436f-bab6-963dd56ed841,54cf9105-c119-47ae-a529-1d9c977188da,7,006,0,0,000,02006000060000399,99.0,2079-06-06,Тукман,0267,0267,,,80206810005,80606410111,30,17c580b1-40c1-4e60-a30c-be08c6283ce6,060,020060000600003,453666,d6050c4f-aace-4071-803f-afe61f7add56,02,ул,2020-08-13,0003,0254,0254,2020-08-16,000,0000,000,0,,0000,,0
1,f921373c-575c-4e05-899e-4a29d6ba7998,f921373c-575c-4e05-899e-4a29d6ba7998,65,017,0,0,000,02017000000001100,0.0,2079-06-06,Барьязинское нефтяное,0264,0264,,,80218816000,80618416,10,520ff119-2bd5-4dec-97bc-f1eb10a8e1e0,000,020170000000011,,,02,мр.,2020-08-13,0000,0217,0217,2020-08-16,000,0000,000,1,,0011,,0
1,657a9773-654d-4298-acdc-ffead58d4bf7,657a9773-654d-4298-acdc-ffead58d4bf7,65,003,0,0,000,02003000001002100,0.0,2079-06-06,Автодорога Уфа-Инзер-Белорецк,0272,0272,,,80203810001,80603410101,10,0dd63b89-8194-4482-b388-db4fc5950cf1,001,020030000010021,,,02,тер.,2020-08-13,0000,0203,0203,2020-08-16,000,0000,000,1,,0021,,0
1,14cc0164-92dd-41c4-a100-fb56479c72f7,14cc0164-92dd-41c4-a100-fb56479c72f7,7,025,0,0,000,02025000072002500,0.0,2079-06-06,Береговая,0278,0278,,,80230864001,80630464101,10,8c5a7385-ac75-4cf2-b1ed-43b5f5c09c7f,072,020250000720025,452285,,02,ул,2020-08-17,0025,0225,0225,2020-08-17,000,0000,000,1,,0000,,0
0,c868bdd7-711a-472f-af82-10d1fcd5258b,a4aed0d6-8a07-4cef-9660-c92ed303eaff,7,032,0,0,000,02032000067000101,1.0,2020-08-17,Мира,0262,0262,05c0b611-bad6-4ee5-bbfe-cbb178a1c3d1,,80238840008,80638440,1,0d19f8ad-aebd-4eb9-99c2-97bf08214c08,067,020320000670001,453345,,02,ул,1900-01-01,0001,0232,0232,2020-08-17,000,0000,000,0,,0000,,0
0,c868bdd7-711a-472f-af82-10d1fcd5258b,05c0b611-bad6-4ee5-bbfe-cbb178a1c3d1,7,032,0,0,000,02032000067000102,2.0,2014-01-05,Мира,0261,0261,b12efe54-6c11-485f-b1e2-42aa451bc09e,,80238840008,80638440,21,0d19f8ad-aebd-4eb9-99c2-97bf08214c08,067,020320000670001,453345,a4aed0d6-8a07-4cef-9660-c92ed303eaff,02,ул,2013-01-01,0001,0232,0232,2020-08-17,000,0000,000,0,,0000,,0
0,c868bdd7-711a-472f-af82-10d1fcd5258b,b12efe54-6c11-485f-b1e2-42aa451bc09e,7,032,0,0,000,02032000067000199,99.0,2020-08-17,Мира,0261,0261,26392a53-babc-41ba-8eaf-fef91c5e23ea,,80238840008,80638440131,21,0d19f8ad-aebd-4eb9-99c2-97bf08214c08,067,020320000670001,453345,05c0b611-bad6-4ee5-bbfe-cbb178a1c3d1,02,ул,2014-01-05,0001,0232,0232,2020-08-17,000,0000,000,0,,0000,,0
1,c868bdd7-711a-472f-af82-10d1fcd5258b,26392a53-babc-41ba-8eaf-fef91c5e23ea,7,032,0,0,000,02032000067000199,99.0,2079-06-06,Мира,0261,0261,,,80238840008,80638440131,30,0d19f8ad-aebd-4eb9-99c2-97bf08214c08,067,020320000670001,453345,b12efe54-6c11-485f-b1e2-42aa451bc09e,02,ул,2020-08-17,0001,0232,0232,2020-08-17,000,0000,000,0,,0000,,0
0,f7640e0b-9967-4562-8901-e6a308a3a9f0,348ab49b-d114-49b3-9db1-692f6a9c569f,7,032,0,0,000,02032000067000201,1.0,2020-08-17,Дружбы,0262,0262,729066f0-7dd3-41de-8d64-4aaf903c6214,,80238840008,80638440,1,0d19f8ad-aebd-4eb9-99c2-97bf08214c08,067,020320000670002,453344,,02,ул,1900-01-01,0002,0232,0232,2020-08-17,000,0000,000,0,,0000,,0
0,f7640e0b-9967-4562-8901-e6a308a3a9f0,729066f0-7dd3-41de-8d64-4aaf903c6214,7,032,0,0,000,02032000067000202,2.0,2014-01-05,Дружбы,0261,0261,d2280392-12f2-4fe4-8071-82ac41d062a6,,80238840008,80638440,21,0d19f8ad-aebd-4eb9-99c2-97bf08214c08,067,020320000670002,453344,348ab49b-d114-49b3-9db1-692f6a9c569f,02,ул,2013-01-01,0002,0232,0232,2020-08-17,000,0000,000,0,,0000,,0
0,f7640e0b-9967-4562-8901-e6a308a3a9f0,d2280392-12f2-4fe4-8071-82ac41d062a6,7,032,0,0,000,02032000067000299,99.0,2020-08-17,Дружбы,0261,0261,73d93e44-10c5-43a7-8307-0b5085c738d7,,80238840008,80638440131,21,0d19f8ad-aebd-4eb9-99c2-97bf08214c08,067,020320000670002,453344,729066f0-7dd3-41de-8d64-4aaf903c6214,02,ул,2014-01-05,0002,0232,0232,2020-08-17,000,0000,000,0,,0000,,0
1,f7640e0b-9967-4562-8901-e6a308a3a9f0,73d93e44-10c5-43a7-8307-0b5085c738d7,7,032,0,0,000,02032000067000299,99.0,2079-06-06,Дружбы,0261,0261,,,80238840008,80638440131,30,0d19f8ad-aebd-4eb9-99c2-97bf08214c08,067,020320000670002,453344,d2280392-12f2-4fe4-8071-82ac41d062a6,02,ул,2020-08-17,0002,0232,0232,2020-08-17,000,0000,000,0,,0000,,0
1,93964afb-ca16-4d63-bb73-a9c523fc9ad4,93964afb-ca16-4d63-bb73-a9c523fc9ad4,7,011,0,0,000,02011000066000400,0.0,2079-06-06,Заречная,0256,0256,,,80211834001,80611434101,10,ee23571f-21de-4cd9-bc52-5adf4fb3a33c,066,020110000660004,,,02,ул,2020-08-17,0004,,,2020-08-17,000,0000,000,1,,0000,,0
0,6eb05623-bac6-4dbe-8b4e-5b829c60ca7b,0fcd2230-a59c-4c4b-a343-b4a1a98d7e3e,7,026,0,0,000,02026000055001701,1.0,2079-06-06,Лесная,0261,0261,9589266c-e8cc-45a1-8923-e2c8884cb0a0,,80231860001,80631460,1,d64194e8-97d4-4103-a5da-fd892aa221b3,055,020260000550017,453222,,02,ул,1900-01-01,0017,,,2020-08-20,000,0000,000,0,,0000,,0
0,6eb05623-bac6-4dbe-8b4e-5b829c60ca7b,9589266c-e8cc-45a1-8923-e2c8884cb0a0,7,026,0,0,000,02026000055001702,2.0,2020-08-19,Лесная,0261,0261,7169411d-05ec-42fc-880c-70dec9128064,,80231860007,80631460,21,d64194e8-97d4-4103-a5da-fd892aa221b3,055,020260000550017,453222,0fcd2230-a59c-4c4b-a343-b4a1a98d7e3e,02,ул,2011-11-29,0017,,,2020-08-20,000,0000,000,0,,0000,,0
0,6eb05623-bac6-4dbe-8b4e-5b829c60ca7b,7169411d-05ec-42fc-880c-70dec9128064,7,026,0,0,000,02026000055001703,3.0,2018-04-13,Лесная,0261,0261,182e2eff-d334-49f5-ac2e-3f65d36d4e5b,,80231860007,80631460106,21,d64194e8-97d4-4103-a5da-fd892aa221b3,055,020260000550017,453222,9589266c-e8cc-45a1-8923-e2c8884cb0a0,02,ул,2014-01-05,0017,,,2020-08-20,000,0000,000,0,,0000,,0
0,6eb05623-bac6-4dbe-8b4e-5b829c60ca7b,182e2eff-d334-49f5-ac2e-3f65d36d4e5b,7,026,0,0,000,02026000055001700,0.0,2079-06-06,Лесная,0261,0261,977aac0b-12fa-4975-a3ff-9f75d6d53908,,80231860007,80631460101,21,d64194e8-97d4-4103-a5da-fd892aa221b3,055,020260000550017,453222,7169411d-05ec-42fc-880c-70dec9128064,02,ул,2018-04-13,0017,,,2020-08-20,000,0000,000,0,d5090567-6614-45eb-8ea4-8afb3ba066fb,0000,,0
1,6eb05623-bac6-4dbe-8b4e-5b829c60ca7b,977aac0b-12fa-4975-a3ff-9f75d6d53908,7,026,0,0,000,02026000055001700,0.0,2079-06-06,Лесная,0261,0261,,,80231860001,80631460101,21,d64194e8-97d4-4103-a5da-fd892aa221b3,055,020260000550017,453222,182e2eff-d334-49f5-ac2e-3f65d36d4e5b,02,ул,2020-08-19,0017,,,2020-08-20,000,0000,000,1,,0000,,0
1,d3e1a87d-7df7-4ae1-83a1-545c99f65e4e,d3e1a87d-7df7-4ae1-83a1-545c99f65e4e,7,049,0,0,000,02049000001007400,0.0,2079-06-06,Второй,0278,0278,,,80256870001,80656470101,10,65a53bec-3df6-4e14-aea8-9b0e572a3b33,001,020490000010074,,,02,пер,2020-08-18,0074,0249,0249,2020-08-20,000,0000,000,1,,0071,,0
0,d64194e8-97d4-4103-a5da-fd892aa221b3,39702e8a-8a2f-4a82-830d-7a8908abb9f2,6,026,0,0,000,0202600005501,1.0,2079-06-06,Новоаптиково,0261,0261,979c62af-f3b7-4b75-b968-25a54e2983fd,,80231860001,80631460,1,be9ac91f-b826-4ca1-8c21-4ce1c9935180,055,02026000055,453222,,02,с,1900-01-01,0000,,,2020-08-20,000,0000,000,0,,0000,,0
0,d64194e8-97d4-4103-a5da-fd892aa221b3,979c62af-f3b7-4b75-b968-25a54e2983fd,6,026,0,0,000,0202600005502,2.0,2020-08-19,Новоаптиково,0261,0261,6053d21c-2558-4456-9454-7e04a85100bb,,80231860007,80631460,21,be9ac91f-b826-4ca1-8c21-4ce1c9935180,055,02026000055,453222,39702e8a-8a2f-4a82-830d-7a8908abb9f2,02,с,2011-11-29,0000,,,2020-08-20,000,0000,000,0,,0000,,0
0,d64194e8-97d4-4103-a5da-fd892aa221b3,6053d21c-2558-4456-9454-7e04a85100bb,6,026,0,0,000,0202600005503,3.0,2015-01-20,Новоаптиково,0261,0261,3821fa9e-8979-44a0-a7ee-60a293ac0464,,80231860007,80631460106,21,be9ac91f-b826-4ca1-8c21-4ce1c9935180,055,02026000055,453222,979c62af-f3b7-4b75-b968-25a54e2983fd,02,с,2014-01-05,0000,,,2020-08-20,000,0000,000,0,,0000,,0
0,d64194e8-97d4-4103-a5da-fd892aa221b3,3821fa9e-8979-44a0-a7ee-60a293ac0464,6,026,0,0,000,0202600005504,4.0,2018-04-13,Новоаптиково,0261,0261,2e3faea8-0ae0-4b07-bc26-0958297f5803,,80231860007,80631460,20,be9ac91f-b826-4ca1-8c21-4ce1c9935180,055,02026000055,453222,6053d21c-2558-4456-9454-7e04a85100bb,02,с,2015-01-20,0000,,,2020-08-20,000,0000,000,0,,0000,,0
0,d64194e8-97d4-4103-a5da-fd892aa221b3,2e3faea8-0ae0-4b07-bc26-0958297f5803,6,026,0,0,000,0202600005500,0.0,2079-06-06,Новоаптиково,0261,0261,899a4c9a-7358-4f0d-a666-9491717fa8b5,,80231860007,80631460101,21,be9ac91f-b826-4ca1-8c21-4ce1c9935180,055,02026000055,453222,3821fa9e-8979-44a0-a7ee-60a293ac0464,02,с,2018-04-13,0000,,,2020-08-20,000,0000,000,0,d5090567-6614-45eb-8ea4-8afb3ba066fb,0000,,0
1,d64194e8-97d4-4103-a5da-fd892aa221b3,899a4c9a-7358-4f0d-a666-9491717fa8b5,6,026,0,0,000,0202600005500,0.0,2079-06-06,Новоаптиково,0261,0261,,,80231860001,80631460101,21,be9ac91f-b826-4ca1-8c21-4ce1c9935180,055,02026000055,453222,2e3faea8-0ae0-4b07-bc26-0958297f5803,02,с,2020-08-19,0000,,,2020-08-20,000,0000,000,1,,0000,,0
0,01e5b02b-ec11-4586-b927-b5a3e866fd0f,f83c584c-fa6d-41ae-b852-e076463c0d4c,7,026,0,0,000,02026000055001001,1.0,1900-01-01,С.Юлаева,0261,0261,76787f51-ce2a-4581-ac6d-7685cd4b046c,,80231860001,80631460,1,d64194e8-97d4-4103-a5da-fd892aa221b3,055,020260000550010,453222,,02,ул,1900-01-01,0010,,,2020-08-20,000,0000,000,0,,0000,,0
0,01e5b02b-ec11-4586-b927-b5a3e866fd0f,76787f51-ce2a-4581-ac6d-7685cd4b046c,7,026,0,0,000,02026000055001002,2.0,2011-11-29,Юлаева,0261,0261,2306c9d8-dc03-4bdb-86fe-c0d3324c9ba1,,80231860001,80631460,1,d64194e8-97d4-4103-a5da-fd892aa221b3,055,020260000550010,453222,f83c584c-fa6d-41ae-b852-e076463c0d4c,02,ул,1900-01-01,0010,,,2020-08-20,000,0000,000,0,,0000,,0
0,01e5b02b-ec11-4586-b927-b5a3e866fd0f,2306c9d8-dc03-4bdb-86fe-c0d3324c9ba1,7,026,0,0,000,02026000055001003,3.0,2011-11-29,Юлаева,0261,0261,7de32ebd-03fe-428e-8dde-9b30349f6c3b,,80231860007,80631460,21,d64194e8-97d4-4103-a5da-fd892aa221b3,055,020260000550010,453222,76787f51-ce2a-4581-ac6d-7685cd4b046c,02,ул,2011-11-29,0010,,,2020-08-20,000,0000,000,0,,0000,,0
0,01e5b02b-ec11-4586-b927-b5a3e866fd0f,7de32ebd-03fe-428e-8dde-9b30349f6c3b,7,026,0,0,000,02026000055001004,4.0,2079-06-06,С.Юлаева,0261,0261,8154cea8-562a-49f5-ae90-e1e69f2a36f3,,80231860001,80631460,20,d64194e8-97d4-4103-a5da-fd892aa221b3,055,020260000550010,453222,2306c9d8-dc03-4bdb-86fe-c0d3324c9ba1,02,ул,2011-11-29,0010,,,2020-08-20,000,0000,000,0,,0000,,0
0,01e5b02b-ec11-4586-b927-b5a3e866fd0f,8154cea8-562a-49f5-ae90-e1e69f2a36f3,7,026,0,0,000,02026000055001005,5.0,2020-08-19,С.Юлаева,0261,0261,7f569a06-3fce-4d41-9daa-c601a681349e,,80231860007,80631460,21,d64194e8-97d4-4103-a5da-fd892aa221b3,055,020260000550010,453222,7de32ebd-03fe-428e-8dde-9b30349f6c3b,02,ул,2013-01-16,0010,,,2020-08-20,000,0000,000,0,,0000,,0
0,01e5b02b-ec11-4586-b927-b5a3e866fd0f,7f569a06-3fce-4d41-9daa-c601a681349e,7,026,0,0,000,02026000055001006,6.0,2018-04-13,С.Юлаева,0261,0261,7d5f2e70-059a-4499-a644-5582b664a94c,,80231860007,80631460106,21,d64194e8-97d4-4103-a5da-fd892aa221b3,055,020260000550010,453222,8154cea8-562a-49f5-ae90-e1e69f2a36f3,02,ул,2014-01-05,0010,,,2020-08-20,000,0000,000,0,,0000,,0
0,01e5b02b-ec11-4586-b927-b5a3e866fd0f,7d5f2e70-059a-4499-a644-5582b664a94c,7,026,0,0,000,02026000055001000,0.0,2079-06-06,С.Юлаева,0261,0261,800d8b85-664e-48bf-a19c-de2bd684cd9d,,80231860007,80631460101,21,d64194e8-97d4-4103-a5da-fd892aa221b3,055,020260000550010,453222,7f569a06-3fce-4d41-9daa-c601a681349e,02,ул,2018-04-13,0010,,,2020-08-20,000,0000,000,0,d5090567-6614-45eb-8ea4-8afb3ba066fb,0000,,0
1,01e5b02b-ec11-4586-b927-b5a3e866fd0f,800d8b85-664e-48bf-a19c-de2bd684cd9d,7,026,0,0,000,02026000055001000,0.0,2079-06-06,С.Юлаева,0261,0261,,,80231860001,80631460101,21,d64194e8-97d4-4103-a5da-fd892aa221b3,055,020260000550010,453222,7d5f2e70-059a-4499-a644-5582b664a94c,02,ул,2020-08-19,0010,,,2020-08-20,000,0000,000,1,,0000,,0
0,832b852e-96b9-4432-91d5-03dbb4921e2c,abbdac91-db7b-4fe1-8547-5325cdb8451a,7,026,0,0,000,02026000055001601,1.0,2079-06-06,Подгорная,0261,0261,c49d8e0d-f561-47af-9fe2-5f9a87e9457b,,80231860001,80631460,1,d64194e8-97d4-4103-a5da-fd892aa221b3,055,020260000550016,453222,,02,ул,1900-01-01,0016,,,2020-08-20,000,0000,000,0,,0000,,0
0,832b852e-96b9-4432-91d5-03dbb4921e2c,c49d8e0d-f561-47af-9fe2-5f9a87e9457b,7,026,0,0,000,02026000055001602,2.0,2013-01-16,Подгорная,0261,0261,c6200704-2de1-42b3-b7a1-1c916c39696a,,80231860001,80631460,21,d64194e8-97d4-4103-a5da-fd892aa221b3,055,020260000550016,453222,abbdac91-db7b-4fe1-8547-5325cdb8451a,02,ул,2011-11-29,0016,,,2020-08-20,000,0000,000,0,,0000,,0
0,832b852e-96b9-4432-91d5-03dbb4921e2c,c6200704-2de1-42b3-b7a1-1c916c39696a,7,026,0,0,000,02026000055001603,3.0,2020-08-19,Подгорная,0261,0261,32fd537e-7a2c-47e6-9089-4722b675f7b4,,80231860007,80631460,21,d64194e8-97d4-4103-a5da-fd892aa221b3,055,020260000550016,453222,c49d8e0d-f561-47af-9fe2-5f9a87e9457b,02,ул,2013-01-16,0016,,,2020-08-20,000,0000,000,0,,0000,,0
0,832b852e-96b9-4432-91d5-03dbb4921e2c,32fd537e-7a2c-47e6-9089-4722b675f7b4,7,026,0,0,000,02026000055001604,4.0,2018-04-13,Подгорная,0261,0261,874feff1-1082-4aac-9d77-660d3cb022ed,,80231860007,80631460106,21,d64194e8-97d4-4103-a5da-fd892aa221b3,055,020260000550016,453222,c6200704-2de1-42b3-b7a1-1c916c39696a,02,ул,2014-01-05,0016,,,2020-08-20,000,0000,000,0,,0000,,0
0,832b852e-96b9-4432-91d5-03dbb4921e2c,874feff1-1082-4aac-9d77-660d3cb022ed,7,026,0,0,000,02026000055001600,0.0,2079-06-06,Подгорная,0261,0261,fc52678e-90d1-427f-a60f-2db470af56b6,,80231860007,80631460101,21,d64194e8-97d4-4103-a5da-fd892aa221b3,055,020260000550016,453222,32fd537e-7a2c-47e6-9089-4722b675f7b4,02,ул,2018-04-13,0016,,,2020-08-20,000,0000,000,0,d5090567-6614-45eb-8ea4-8afb3ba066fb,0000,,0
1,832b852e-96b9-4432-91d5-03dbb4921e2c,fc52678e-90d1-427f-a60f-2db470af56b6,7,026,0,0,000,02026000055001600,0.0,2079-06-06,Подгорная,0261,0261,,,80231860001,80631460101,21,d64194e8-97d4-4103-a5da-fd892aa221b3,055,020260000550016,453222,874feff1-1082-4aac-9d77-660d3cb022ed,02,ул,2020-08-19,0016,,,2020-08-20,000,0000,000,1,,0000,,0
0,64ba020f-9e0c-4b93-8977-8a6969bae2b9,e265a0c9-0633-409a-af73-e9bd1055cf32,7,026,0,0,000,02026000055001301,1.0,2079-06-06,Садовая,0261,0261,0d08cc65-4a97-4da4-81b2-67df4fd80b85,,80231860001,80631460,1,d64194e8-97d4-4103-a5da-fd892aa221b3,055,020260000550013,453222,,02,ул,1900-01-01,0013,,,2020-08-20,000,0000,000,0,,0000,,0
0,64ba020f-9e0c-4b93-8977-8a6969bae2b9,0d08cc65-4a97-4da4-81b2-67df4fd80b85,7,026,0,0,000,02026000055001302,2.0,2013-01-16,Садовая,0261,0261,5c40e319-ce99-4bff-8fca-b9bbb36464be,,80231860001,80631460,21,d64194e8-97d4-4103-a5da-fd892aa221b3,055,020260000550013,453222,e265a0c9-0633-409a-af73-e9bd1055cf32,02,ул,2011-11-29,0013,,,2020-08-20,000,0000,000,0,,0000,,0
0,64ba020f-9e0c-4b93-8977-8a6969bae2b9,5c40e319-ce99-4bff-8fca-b9bbb36464be,7,026,0,0,000,02026000055001303,3.0,2020-08-19,Садовая,0261,0261,a15acd75-7a66-4ddd-ae39-bdcd156ce26d,,80231860007,80631460,21,d64194e8-97d4-4103-a5da-fd892aa221b3,055,020260000550013,453222,0d08cc65-4a97-4da4-81b2-67df4fd80b85,02,ул,2013-01-16,0013,,,2020-08-20,000,0000,000,0,,0000,,0
0,64ba020f-9e0c-4b93-8977-8a6969bae2b9,a15acd75-7a66-4ddd-ae39-bdcd156ce26d,7,026,0,0,000,02026000055001304,4.0,2018-04-13,Садовая,0261,0261,ca41832b-c8b3-4a6a-b631-8ce3430b8041,,80231860007,80631460106,21,d64194e8-97d4-4103-a5da-fd892aa221b3,055,020260000550013,453222,5c40e319-ce99-4bff-8fca-b9bbb36464be,02,ул,2014-01-05,0013,,,2020-08-20,000,0000,000,0,,0000,,0
0,64ba020f-9e0c-4b93-8977-8a6969bae2b9,ca41832b-c8b3-4a6a-b631-8ce3430b8041,7,026,0,0,000,02026000055001300,0.0,2079-06-06,Садовая,0261,0261,c9540cf1-4100-4e0f-b2fe-d2d2f90b9be7,,80231860007,80631460101,21,d64194e8-97d4-4103-a5da-fd892aa221b3,055,020260000550013,453222,a15acd75-7a66-4ddd-ae39-bdcd156ce26d,02,ул,2018-04-13,0013,,,2020-08-20,000,0000,000,0,d5090567-6614-45eb-8ea4-8afb3ba066fb,0000,,0
1,64ba020f-9e0c-4b93-8977-8a6969bae2b9,c9540cf1-4100-4e0f-b2fe-d2d2f90b9be7,7,026,0,0,000,02026000055001300,0.0,2079-06-06,Садовая,0261,0261,,,80231860001,80631460101,21,d64194e8-97d4-4103-a5da-fd892aa221b3,055,020260000550013,453222,ca41832b-c8b3-4a6a-b631-8ce3430b8041,02,ул,2020-08-19,0013,,,2020-08-20,000,0000,000,1,,0000,,0
0,8e800eaf-0ccf-431c-b6ca-8039f88282d8,ae47257b-632d-4a78-ac8d-cca3bf405cb0,7,026,0,0,000,02026000055000701,1.0,2079-06-06,Строительная,0261,0261,013db8a9-2f58-4d22-b549-43d56cfdc047,,80231860001,80631460,1,d64194e8-97d4-4103-a5da-fd892aa221b3,055,020260000550007,453222,,02,ул,1900-01-01,0007,,,2020-08-20,000,0000,000,0,,0000,,0
0,8e800eaf-0ccf-431c-b6ca-8039f88282d8,013db8a9-2f58-4d22-b549-43d56cfdc047,7,026,0,0,000,02026000055000702,2.0,2020-08-19,Строительная,0261,0261,14fe4406-6f4e-49e6-8464-514b10b68c46,,80231860007,80631460,21,d64194e8-97d4-4103-a5da-fd892aa221b3,055,020260000550007,453222,ae47257b-632d-4a78-ac8d-cca3bf405cb0,02,ул,2011-11-29,0007,,,2020-08-20,000,0000,000,0,,0000,,0
0,8e800eaf-0ccf-431c-b6ca-8039f88282d8,14fe4406-6f4e-49e6-8464-514b10b68c46,7,026,0,0,000,02026000055000703,3.0,2018-04-13,Строительная,0261,0261,bf7170a1-f2e0-4af8-8a30-5b94224892a2,,80231860007,80631460106,21,d64194e8-97d4-4103-a5da-fd892aa221b3,055,020260000550007,453222,013db8a9-2f58-4d22-b549-43d56cfdc047,02,ул,2014-01-05,0007,,,2020-08-20,000,0000,000,0,,0000,,0
0,8e800eaf-0ccf-431c-b6ca-8039f88282d8,bf7170a1-f2e0-4af8-8a30-5b94224892a2,7,026,0,0,000,02026000055000700,0.0,2079-06-06,Строительная,0261,0261,d733cda3-400f-4eed-80d5-8b359dbe279c,,80231860007,80631460101,21,d64194e8-97d4-4103-a5da-fd892aa221b3,055,020260000550007,453222,14fe4406-6f4e-49e6-8464-514b10b68c46,02,ул,2018-04-13,0007,,,2020-08-20,000,0000,000,0,d5090567-6614-45eb-8ea4-8afb3ba066fb,0000,,0
1,8e800eaf-0ccf-431c-b6ca-8039f88282d8,d733cda3-400f-4eed-80d5-8b359dbe279c,7,026,0,0,000,02026000055000700,0.0,2079-06-06,Строительная,0261,0261,,,80231860001,80631460101,21,d64194e8-97d4-4103-a5da-fd892aa221b3,055,020260000550007,453222,bf7170a1-f2e0-4af8-8a30-5b94224892a2,02,ул,2020-08-19,0007,,,2020-08-20,000,0000,000,1,,0000,,0
1,9ef6473a-494f-4e14-a894-1c823c4fb518,9ef6473a-494f-4e14-a894-1c823c4fb518,7,049,0,0,000,02049000001007800,0.0,2079-06-06,Девятый,0278,0278,,,80256870001,80656470101,10,65a53bec-3df6-4e14-aea8-9b0e572a3b33,001,020490000010078,,,02,пер,2020-08-18,0078,0249,0249,2020-08-20,000,0000,000,1,,0071,,0
0,771de435-9087-4691-ac11-50eed6f0b187,ad917f98-5432-4bff-8cdd-fb4f8ec32cc5,7,026,0,0,000,02026000055001501,1.0,2079-06-06,Речная,0261,0261,51b4cc22-831c-4d35-b70a-ba63a06a9cf3,,80231860001,80631460,1,d64194e8-97d4-4103-a5da-fd892aa221b3,055,020260000550015,453222,,02,ул,1900-01-01,0015,,,2020-08-20,000,0000,000,0,,0000,,0
0,771de435-9087-4691-ac11-50eed6f0b187,51b4cc22-831c-4d35-b70a-ba63a06a9cf3,7,026,0,0,000,02026000055001502,2.0,2013-01-16,Речная,0261,0261,e145012a-393c-4688-aaeb-a91feeb878fe,,80231860001,80631460,21,d64194e8-97d4-4103-a5da-fd892aa221b3,055,020260000550015,453222,ad917f98-5432-4bff-8cdd-fb4f8ec32cc5,02,ул,2011-11-29,0015,,,2020-08-20,000,0000,000,0,,0000,,0
0,771de435-9087-4691-ac11-50eed6f0b187,e145012a-393c-4688-aaeb-a91feeb878fe,7,026,0,0,000,02026000055001503,3.0,2020-08-19,Речная,0261,0261,59c5c2e4-9e58-4577-8ee8-eb706e470fd9,,80231860007,80631460,21,d64194e8-97d4-4103-a5da-fd892aa221b3,055,020260000550015,453222,51b4cc22-831c-4d35-b70a-ba63a06a9cf3,02,ул,2013-01-16,0015,,,2020-08-20,000,0000,000,0,,0000,,0
0,771de435-9087-4691-ac11-50eed6f0b187,59c5c2e4-9e58-4577-8ee8-eb706e470fd9,7,026,0,0,000,02026000055001504,4.0,2018-04-13,Речная,0261,0261,330018bb-1c86-43cd-b157-f78483ea1350,,80231860007,80631460106,21,d64194e8-97d4-4103-a5da-fd892aa221b3,055,020260000550015,453222,e145012a-393c-4688-aaeb-a91feeb878fe,02,ул,2014-01-05,0015,,,2020-08-20,000,0000,000,0,,0000,,0
0,771de435-9087-4691-ac11-50eed6f0b187,330018bb-1c86-43cd-b157-f78483ea1350,7,026,0,0,000,02026000055001500,0.0,2079-06-06,Речная,0261,0261,cc0d3388-5b0b-4356-9af8-cd10947760d9,,80231860007,80631460101,21,d64194e8-97d4-4103-a5da-fd892aa221b3,055,020260000550015,453222,59c5c2e4-9e58-4577-8ee8-eb706e470fd9,02,ул,2018-04-13,0015,,,2020-08-20,000,0000,000,0,d5090567-6614-45eb-8ea4-8afb3ba066fb,0000,,0
1,771de435-9087-4691-ac11-50eed6f0b187,cc0d3388-5b0b-4356-9af8-cd10947760d9,7,026,0,0,000,02026000055001500,0.0,2079-06-06,Речная,0261,0261,,,80231860001,80631460101,21,d64194e8-97d4-4103-a5da-fd892aa221b3,055,020260000550015,453222,330018bb-1c86-43cd-b157-f78483ea1350,02,ул,2020-08-19,0015,,,2020-08-20,000,0000,000,1,,0000,,0
0,04609f38-c9f4-46bf-b511-ed37bf28aec2,f099dd4b-524c-432f-a4f0-e02c5dbbb1eb,7,026,0,0,000,02026000055000101,1.0,2079-06-06,Мира,0261,0261,c6caa714-b261-4aee-b13b-d8e481f32425,,80231860001,80631460,1,d64194e8-97d4-4103-a5da-fd892aa221b3,055,020260000550001,453222,,02,ул,1900-01-01,0001,,,2020-08-20,000,0000,000,0,,0000,,0
0,04609f38-c9f4-46bf-b511-ed37bf28aec2,c6caa714-b261-4aee-b13b-d8e481f32425,7,026,0,0,000,02026000055000102,2.0,2020-08-19,Мира,0261,0261,2b9d433c-80ba-4fab-8ab6-7005ac04b280,,80231860007,80631460,21,d64194e8-97d4-4103-a5da-fd892aa221b3,055,020260000550001,453222,f099dd4b-524c-432f-a4f0-e02c5dbbb1eb,02,ул,2011-11-29,0001,,,2020-08-20,000,0000,000,0,,0000,,0
0,04609f38-c9f4-46bf-b511-ed37bf28aec2,2b9d433c-80ba-4fab-8ab6-7005ac04b280,7,026,0,0,000,02026000055000103,3.0,2018-04-13,Мира,0261,0261,54b33f4c-17a2-4e8c-a011-b1bb4c77abc6,,80231860007,80631460106,21,d64194e8-97d4-4103-a5da-fd892aa221b3,055,020260000550001,453222,c6caa714-b261-4aee-b13b-d8e481f32425,02,ул,2014-01-05,0001,,,2020-08-20,000,0000,000,0,,0000,,0
0,04609f38-c9f4-46bf-b511-ed37bf28aec2,54b33f4c-17a2-4e8c-a011-b1bb4c77abc6,7,026,0,0,000,02026000055000100,0.0,2079-06-06,Мира,0261,0261,9d21a4d8-c8ea-4366-948e-19a8ad09bb03,,80231860007,80631460101,21,d64194e8-97d4-4103-a5da-fd892aa221b3,055,020260000550001,453222,2b9d433c-80ba-4fab-8ab6-7005ac04b280,02,ул,2018-04-13,0001,,,2020-08-20,000,0000,000,0,d5090567-6614-45eb-8ea4-8afb3ba066fb,0000,,0
1,04609f38-c9f4-46bf-b511-ed37bf28aec2,9d21a4d8-c8ea-4366-948e-19a8ad09bb03,7,026,0,0,000,02026000055000100,0.0,2079-06-06,Мира,0261,0261,,,80231860001,80631460101,21,d64194e8-97d4-4103-a5da-fd892aa221b3,055,020260000550001,453222,54b33f4c-17a2-4e8c-a011-b1bb4c77abc6,02,ул,2020-08-19,0001,,,2020-08-20,000,0000,000,1,,0000,,0
0,bda61b28-20b8-4d9e-b2e7-ab8eb01e4567,58785959-64ca-4136-8b97-83e481733f9a,6,051,0,0,000,0205100001801,1.0,2079-06-06,Владимировка,0269,0269,7c638c85-d7bf-4cbb-8b4d-ef4180d33cff,,80258855010,80658455,1,6d49dc29-d059-4bb8-ba2b-d8ffddda4eac,018,02051000018,452637,,02,д,1900-01-01,0000,0251,0251,2020-08-20,000,0000,000,0,,0000,,0
0,bda61b28-20b8-4d9e-b2e7-ab8eb01e4567,7c638c85-d7bf-4cbb-8b4d-ef4180d33cff,6,051,0,0,000,0205100001800,0.0,2079-06-06,Владимировка,0269,0269,4445a35a-8d4b-451b-8416-36ba829ac3a1,,80258855010,80658455,21,6d49dc29-d059-4bb8-ba2b-d8ffddda4eac,018,02051000018,,58785959-64ca-4136-8b97-83e481733f9a,02,д,2014-01-05,0000,0251,0251,2020-08-20,000,0000,000,0,,0000,,0
1,bda61b28-20b8-4d9e-b2e7-ab8eb01e4567,4445a35a-8d4b-451b-8416-36ba829ac3a1,6,051,0,0,000,0205100001800,0.0,2079-06-06,Владимировка,0269,0269,,,80258855010,80658455141,21,6d49dc29-d059-4bb8-ba2b-d8ffddda4eac,018,02051000018,,7c638c85-d7bf-4cbb-8b4d-ef4180d33cff,02,д,2020-08-18,0000,0251,0251,2020-08-20,000,0000,000,1,,0000,,0
0,2d3eee03-fd39-4b11-9371-83446d6de42b,ab7a8e78-307f-4145-8314-b310a3bac8d1,7,026,0,0,000,02026000055000801,1.0,2079-06-06,Уральская,0261,0261,c4ace9b1-b7b8-4d22-bdbc-35a80194e25e,,80231860001,80631460,1,d64194e8-97d4-4103-a5da-fd892aa221b3,055,020260000550008,453222,,02,ул,1900-01-01,0008,,,2020-08-20,000,0000,000,0,,0000,,0
0,2d3eee03-fd39-4b11-9371-83446d6de42b,c4ace9b1-b7b8-4d22-bdbc-35a80194e25e,7,026,0,0,000,02026000055000802,2.0,2020-08-19,Уральская,0261,0261,04290073-29f8-47c7-8c80-2fe2a77696ee,,80231860007,80631460,21,d64194e8-97d4-4103-a5da-fd892aa221b3,055,020260000550008,453222,ab7a8e78-307f-4145-8314-b310a3bac8d1,02,ул,2011-11-29,0008,,,2020-08-20,000,0000,000,0,,0000,,0
0,2d3eee03-fd39-4b11-9371-83446d6de42b,04290073-29f8-47c7-8c80-2fe2a77696ee,7,026,0,0,000,02026000055000803,3.0,2018-04-13,Уральская,0261,0261,e23f0ba5-3b6e-4316-9818-7adbf42fd6f8,,80231860007,80631460106,21,d64194e8-97d4-4103-a5da-fd892aa221b3,055,020260000550008,453222,c4ace9b1-b7b8-4d22-bdbc-35a80194e25e,02,ул,2014-01-05,0008,,,2020-08-20,000,0000,000,0,,0000,,0
0,2d3eee03-fd39-4b11-9371-83446d6de42b,e23f0ba5-3b6e-4316-9818-7adbf42fd6f8,7,026,0,0,000,02026000055000800,0.0,2079-06-06,Уральская,0261,0261,56302220-740b-4f44-af73-38ae6e90e2f4,,80231860007,80631460101,21,d64194e8-97d4-4103-a5da-fd892aa221b3,055,020260000550008,453222,04290073-29f8-47c7-8c80-2fe2a77696ee,02,ул,2018-04-13,0008,,,2020-08-20,000,0000,000,0,d5090567-6614-45eb-8ea4-8afb3ba066fb,0000,,0
1,2d3eee03-fd39-4b11-9371-83446d6de42b,56302220-740b-4f44-af73-38ae6e90e2f4,7,026,0,0,000,02026000055000800,0.0,2079-06-06,Уральская,0261,0261,,,80231860001,80631460101,21,d64194e8-97d4-4103-a5da-fd892aa221b3,055,020260000550008,453222,e23f0ba5-3b6e-4316-9818-7adbf42fd6f8,02,ул,2020-08-19,0008,,,2020-08-20,000,0000,000,1,,0000,,0
0,54f1ed10-e886-4514-a606-94360963968b,43b3909a-3824-4eaa-9077-151ec6068a7c,7,026,0,0,000,02026000055001401,1.0,2079-06-06,Береговая,0261,0261,7ad547b4-07b9-4446-bfeb-307887136db1,,80231860001,80631460,1,d64194e8-97d4-4103-a5da-fd892aa221b3,055,020260000550014,453222,,02,ул,1900-01-01,0014,,,2020-08-20,000,0000,000,0,,0000,,0
0,54f1ed10-e886-4514-a606-94360963968b,7ad547b4-07b9-4446-bfeb-307887136db1,7,026,0,0,000,02026000055001402,2.0,2013-01-16,Береговая,0261,0261,63a39347-8031-4faf-b043-e4cd0b933fab,,80231860001,80631460,21,d64194e8-97d4-4103-a5da-fd892aa221b3,055,020260000550014,453222,43b3909a-3824-4eaa-9077-151ec6068a7c,02,ул,2011-11-29,0014,,,2020-08-20,000,0000,000,0,,0000,,0
0,54f1ed10-e886-4514-a606-94360963968b,63a39347-8031-4faf-b043-e4cd0b933fab,7,026,0,0,000,02026000055001403,3.0,2020-08-19,Береговая,0261,0261,34d85131-3d74-4a43-b9df-5f510079f5f0,,80231860007,80631460,21,d64194e8-97d4-4103-a5da-fd892aa221b3,055,020260000550014,453222,7ad547b4-07b9-4446-bfeb-307887136db1,02,ул,2013-01-16,0014,,,2020-08-20,000,0000,000,0,,0000,,0
0,54f1ed10-e886-4514-a606-94360963968b,34d85131-3d74-4a43-b9df-5f510079f5f0,7,026,0,0,000,02026000055001404,4.0,2018-04-13,Береговая,0261,0261,9eb20879-6d66-4acf-a757-eca01b2642aa,,80231860007,80631460106,21,d64194e8-97d4-4103-a5da-fd892aa221b3,055,020260000550014,453222,63a39347-8031-4faf-b043-e4cd0b933fab,02,ул,2014-01-05,0014,,,2020-08-20,000,0000,000,0,,0000,,0
0,54f1ed10-e886-4514-a606-94360963968b,9eb20879-6d66-4acf-a757-eca01b2642aa,7,026,0,0,000,02026000055001400,0.0,2079-06-06,Береговая,0261,0261,61c9eb0c-e274-4656-a2c6-7b75f59fb2cf,,80231860007,80631460101,21,d64194e8-97d4-4103-a5da-fd892aa221b3,055,020260000550014,453222,34d85131-3d74-4a43-b9df-5f510079f5f0,02,ул,2018-04-13,0014,,,2020-08-20,000,0000,000,0,d5090567-6614-45eb-8ea4-8afb3ba066fb,0000,,0
1,54f1ed10-e886-4514-a606-94360963968b,61c9eb0c-e274-4656-a2c6-7b75f59fb2cf,7,026,0,0,000,02026000055001400,0.0,2079-06-06,Береговая,0261,0261,,,80231860001,80631460101,21,d64194e8-97d4-4103-a5da-fd892aa221b3,055,020260000550014,453222,9eb20879-6d66-4acf-a757-eca01b2642aa,02,ул,2020-08-19,0014,,,2020-08-20,000,0000,000,1,,0000,,0
0,93a8a147-dd5b-4359-96ba-4434ab284079,93a8a147-dd5b-4359-96ba-4434ab284079,90,000,0,0,003,02000003000034501,1.0,2016-09-28,СПК им Мичурина,0264,0264,a47e6abb-709c-477d-85e3-e3cf3e7bec0c,,80427000000,80727000,10,2c9997d2-ce94-431a-96c9-722d2238d5c8,000,020000030000345,452680,,02,снт,1900-01-01,0000,,,2020-08-20,000,0000,000,0,,0000,,0
0,93a8a147-dd5b-4359-96ba-4434ab284079,a47e6abb-709c-477d-85e3-e3cf3e7bec0c,90,000,0,0,003,02000003000034551,51.0,2020-03-05,СПК им Мичурина,0264,0264,129ad54c-d5d9-41fe-b211-1f9476b2c7c5,,80427000000,80727000001,21,2c9997d2-ce94-431a-96c9-722d2238d5c8,000,020000030000345,452680,93a8a147-dd5b-4359-96ba-4434ab284079,02,снт,2016-08-31,0000,,,2020-08-20,000,0000,000,0,,0345,,0
0,93a8a147-dd5b-4359-96ba-4434ab284079,129ad54c-d5d9-41fe-b211-1f9476b2c7c5,65,000,0,0,003,02000003000034502,2.0,2018-09-20,СПК им Мичурина,0264,0264,5ea9a06c-b587-4a1a-b452-27ad70f525e6,,80427000000,80727000001,50,2c9997d2-ce94-431a-96c9-722d2238d5c8,000,020000030000345,452680,a47e6abb-709c-477d-85e3-e3cf3e7bec0c,02,снт,2016-09-28,0000,,,2020-08-20,000,0000,000,0,,0345,,0
0,93a8a147-dd5b-4359-96ba-4434ab284079,5ea9a06c-b587-4a1a-b452-27ad70f525e6,65,000,0,0,003,02000003000034500,0.0,2020-04-09,им.Мичурина,0264,0264,2cb6e86a-8ab7-47b7-87a4-e85e4933dfb8,,80427000000,80727000001,20,2c9997d2-ce94-431a-96c9-722d2238d5c8,000,020000030000345,452680,129ad54c-d5d9-41fe-b211-1f9476b2c7c5,02,тер. СПК,2018-09-20,0000,,,2020-08-20,000,0000,000,0,e2dd0f90-473c-43ef-b854-49224a7b26d4,0345,,0
0,93a8a147-dd5b-4359-96ba-4434ab284079,2cb6e86a-8ab7-47b7-87a4-e85e4933dfb8,65,000,0,0,003,02000003000034500,0.0,2079-06-06,им.Мичурина,0264,0264,f0665749-8ad3-41c1-ac2a-b0462a4faf35,,80427000000,80727000001,21,2c9997d2-ce94-431a-96c9-722d2238d5c8,000,020000030000345,452680,5ea9a06c-b587-4a1a-b452-27ad70f525e6,02,тер. СПК,2020-03-05,0000,,,2020-08-20,000,0000,000,0,,0345,,0
0,93a8a147-dd5b-4359-96ba-4434ab284079,f0665749-8ad3-41c1-ac2a-b0462a4faf35,65,000,0,0,003,02000003000034503,3.0,2020-08-18,им.Мичурина,0264,0264,5ff249e8-69ed-48ce-9d3b-9d84f7cc3bcc,,80427000000,80727000001,20,2c9997d2-ce94-431a-96c9-722d2238d5c8,000,020000030000345,452680,2cb6e86a-8ab7-47b7-87a4-e85e4933dfb8,02,тер. СНТ,2020-04-09,0000,,,2020-08-20,000,0000,000,0,,0345,,0
1,93a8a147-dd5b-4359-96ba-4434ab284079,5ff249e8-69ed-48ce-9d3b-9d84f7cc3bcc,65,000,0,0,003,02000003000034500,0.0,2079-06-06,Собственников недвижимости им.Мичурина,0264,0264,,,80427000000,80727000001,20,2c9997d2-ce94-431a-96c9-722d2238d5c8,000,020000030000345,452680,f0665749-8ad3-41c1-ac2a-b0462a4faf35,02,тер. СНТ,2020-08-18,0000,,,2020-08-20,000,0000,000,1,,0345,,0
1,ea077110-66c9-456c-8ece-3096a8ba1ebe,ea077110-66c9-456c-8ece-3096a8ba1ebe,7,049,0,0,000,02049000001008000,0.0,2079-06-06,Одиннадцатый,0278,0278,,,80256870001,80656470101,10,65a53bec-3df6-4e14-aea8-9b0e572a3b33,001,020490000010080,,,02,пер,2020-08-18,0080,0249,0249,2020-08-20,000,0000,000,1,,0071,,0
1,72efda0e-b6f7-4152-b249-68be0d929f97,72efda0e-b6f7-4152-b249-68be0d929f97,7,001,0,0,000,02001000039002100,0.0,2079-06-06,Торфяная,0272,0272,,,80252830001,80652430101,10,6cd5fab1-3db1-4102-b8fd-93a4d6ceccef,039,020010000390021,450516,,02,ул,2020-08-18,0021,0245,0245,2020-08-20,000,0000,000,1,,0000,,0
1,831a4f40-e234-4bd2-8d94-5ac9d59c136f,831a4f40-e234-4bd2-8d94-5ac9d59c136f,65,050,0,0,000,02050000036000500,0.0,2079-06-06,ДНТ Новое Салихово,0272,0272,,,80257805006,80657405111,10,c016cb0e-00f7-477d-a0a6-58051009ad46,036,020500000360005,452144,,02,тер.,2020-08-19,0000,0250,0250,2020-08-20,000,0000,000,1,,0005,,0
1,736818ff-80fa-4f90-89ba-fb8aa410f6e8,736818ff-80fa-4f90-89ba-fb8aa410f6e8,7,049,0,0,000,02049000001007600,0.0,2079-06-06,Пятый,0278,0278,,,80256870001,80656470101,10,65a53bec-3df6-4e14-aea8-9b0e572a3b33,001,020490000010076,,,02,пер,2020-08-18,0076,0249,0249,2020-08-20,000,0000,000,1,,0071,,0
0,44416b3e-2d49-4cff-922c-9b8c34598573,32b29f2b-3b49-4f5f-bda7-899ea92a6925,7,026,0,0,000,02026000055002101,1.0,2079-06-06,Заречная,0261,0261,1b47fb49-89f8-41f8-bd99-09ca06da7b38,,80231860001,80631460,1,d64194e8-97d4-4103-a5da-fd892aa221b3,055,020260000550021,453222,,02,ул,1900-01-01,0021,,,2020-08-20,000,0000,000,0,,0000,,0
0,44416b3e-2d49-4cff-922c-9b8c34598573,1b47fb49-89f8-41f8-bd99-09ca06da7b38,7,026,0,0,000,02026000055002102,2.0,2020-08-19,Заречная,0261,0261,1846896b-820f-43b4-8462-89779a965056,,80231860007,80631460,21,d64194e8-97d4-4103-a5da-fd892aa221b3,055,020260000550021,453222,32b29f2b-3b49-4f5f-bda7-899ea92a6925,02,ул,2011-11-29,0021,,,2020-08-20,000,0000,000,0,,0000,,0
0,44416b3e-2d49-4cff-922c-9b8c34598573,1846896b-820f-43b4-8462-89779a965056,7,026,0,0,000,02026000055002103,3.0,2018-04-13,Заречная,0261,0261,eb9cb023-248a-4a80-b349-3b31d61a2e7d,,80231860007,80631460106,21,d64194e8-97d4-4103-a5da-fd892aa221b3,055,020260000550021,453222,1b47fb49-89f8-41f8-bd99-09ca06da7b38,02,ул,2014-01-05,0021,,,2020-08-20,000,0000,000,0,,0000,,0
0,44416b3e-2d49-4cff-922c-9b8c34598573,eb9cb023-248a-4a80-b349-3b31d61a2e7d,7,026,0,0,000,02026000055002100,0.0,2079-06-06,Заречная,0261,0261,718be4ae-e4f1-4e19-a62d-94a15b65a80c,,80231860007,80631460101,21,d64194e8-97d4-4103-a5da-fd892aa221b3,055,020260000550021,453222,1846896b-820f-43b4-8462-89779a965056,02,ул,2018-04-13,0021,,,2020-08-20,000,0000,000,0,d5090567-6614-45eb-8ea4-8afb3ba066fb,0000,,0
1,44416b3e-2d49-4cff-922c-9b8c34598573,718be4ae-e4f1-4e19-a62d-94a15b65a80c,7,026,0,0,000,02026000055002100,0.0,2079-06-06,Заречная,0261,0261,,,80231860001,80631460101,21,d64194e8-97d4-4103-a5da-fd892aa221b3,055,020260000550021,453222,eb9cb023-248a-4a80-b349-3b31d61a2e7d,02,ул,2020-08-19,0021,,,2020-08-20,000,0000,000,1,,0000,,0
1,9f070481-18a5-4bd1-9a52-697799f3a07a,9f070481-18a5-4bd1-9a52-697799f3a07a,7,049,0,0,000,02049000001007500,0.0,2079-06-06,Третий,0278,0278,,,80256870001,80656470101,10,65a53bec-3df6-4e14-aea8-9b0e572a3b33,001,020490000010075,,,02,пер,2020-08-18,0075,0249,0249,2020-08-20,000,0000,000,1,,0071,,0
0,b894fe6c-3896-4134-b5cc-9ab57f1dd765,aaf1b5fd-3a6e-4069-b2a4-e5e8d6bdc91e,7,026,0,0,000,02026000055000401,1.0,2079-06-06,Школьная,0261,0261,1375ee2b-e4b7-4d10-8c09-4784401fb36f,,80231860001,80631460,1,d64194e8-97d4-4103-a5da-fd892aa221b3,055,020260000550004,453222,,02,ул,1900-01-01,0004,,,2020-08-20,000,0000,000,0,,0000,,0
0,b894fe6c-3896-4134-b5cc-9ab57f1dd765,1375ee2b-e4b7-4d10-8c09-4784401fb36f,7,026,0,0,000,02026000055000402,2.0,2020-08-19,Школьная,0261,0261,8a9790f4-0341-4ee6-bf63-1f911c2f9de9,,80231860007,80631460,21,d64194e8-97d4-4103-a5da-fd892aa221b3,055,020260000550004,453222,aaf1b5fd-3a6e-4069-b2a4-e5e8d6bdc91e,02,ул,2011-11-29,0004,,,2020-08-20,000,0000,000,0,,0000,,0
0,b894fe6c-3896-4134-b5cc-9ab57f1dd765,8a9790f4-0341-4ee6-bf63-1f911c2f9de9,7,026,0,0,000,02026000055000403,3.0,2018-04-13,Школьная,0261,0261,747e0766-6d20-45d9-8566-5cf9273cdd3b,,80231860007,80631460,21,d64194e8-97d4-4103-a5da-fd892aa221b3,055,020260000550004,453222,1375ee2b-e4b7-4d10-8c09-4784401fb36f,02,ул,2014-01-05,0004,,,2020-08-20,000,0000,000,0,,0000,,0
0,b894fe6c-3896-4134-b5cc-9ab57f1dd765,747e0766-6d20-45d9-8566-5cf9273cdd3b,7,026,0,0,000,02026000055000400,0.0,2079-06-06,Школьная,0261,0261,2e9b3876-6a0c-4b4e-b3bf-9fc06db8db4a,,80231860007,80631460101,21,d64194e8-97d4-4103-a5da-fd892aa221b3,055,020260000550004,453222,8a9790f4-0341-4ee6-bf63-1f911c2f9de9,02,ул,2018-04-13,0004,,,2020-08-20,000,0000,000,0,d5090567-6614-45eb-8ea4-8afb3ba066fb,0000,,0
1,b894fe6c-3896-4134-b5cc-9ab57f1dd765,2e9b3876-6a0c-4b4e-b3bf-9fc06db8db4a,7,026,0,0,000,02026000055000400,0.0,2079-06-06,Школьная,0261,0261,,,80231860001,80631460101,21,d64194e8-97d4-4103-a5da-fd892aa221b3,055,020260000550004,453222,747e0766-6d20-45d9-8566-5cf9273cdd3b,02,ул,2020-08-19,0004,,,2020-08-20,000,0000,000,1,,0000,,0
0,73826b2d-fe61-4e47-b094-84b948a750f6,7d4b3f1f-7907-48ce-853f-337b8dff911d,7,026,0,0,000,02026000055001801,1.0,2079-06-06,Центральная,0261,0261,403783e6-4496-417d-bdb8-fc3c99fe23f1,,80231860001,80631460,1,d64194e8-97d4-4103-a5da-fd892aa221b3,055,020260000550018,453222,,02,ул,1900-01-01,0018,,,2020-08-20,000,0000,000,0,,0000,,0
0,73826b2d-fe61-4e47-b094-84b948a750f6,403783e6-4496-417d-bdb8-fc3c99fe23f1,7,026,0,0,000,02026000055001802,2.0,2013-01-16,Центральная,0261,0261,6eadefe8-1e34-464b-ae4a-2d11ab6da02c,,80231860001,80631460,21,d64194e8-97d4-4103-a5da-fd892aa221b3,055,020260000550018,453222,7d4b3f1f-7907-48ce-853f-337b8dff911d,02,ул,2011-11-29,0018,,,2020-08-20,000,0000,000,0,,0000,,0
0,73826b2d-fe61-4e47-b094-84b948a750f6,6eadefe8-1e34-464b-ae4a-2d11ab6da02c,7,026,0,0,000,02026000055001803,3.0,2020-08-19,Центральная,0261,0261,22d15236-12a4-4ec6-8b6e-c959a8acbd3c,,80231860007,80631460,21,d64194e8-97d4-4103-a5da-fd892aa221b3,055,020260000550018,453222,403783e6-4496-417d-bdb8-fc3c99fe23f1,02,ул,2013-01-16,0018,,,2020-08-20,000,0000,000,0,,0000,,0
0,73826b2d-fe61-4e47-b094-84b948a750f6,22d15236-12a4-4ec6-8b6e-c959a8acbd3c,7,026,0,0,000,02026000055001804,4.0,2018-04-13,Центральная,0261,0261,e93e8545-ea75-486d-948d-5a2a8298f5a8,,80231860007,80631460106,21,d64194e8-97d4-4103-a5da-fd892aa221b3,055,020260000550018,453222,6eadefe8-1e34-464b-ae4a-2d11ab6da02c,02,ул,2014-01-05,0018,,,2020-08-20,000,0000,000,0,,0000,,0
0,73826b2d-fe61-4e47-b094-84b948a750f6,e93e8545-ea75-486d-948d-5a2a8298f5a8,7,026,0,0,000,02026000055001800,0.0,2079-06-06,Центральная,0261,0261,95fd6038-49ab-4c49-b03e-b9b912b9a419,,80231860007,80631460101,21,d64194e8-97d4-4103-a5da-fd892aa221b3,055,020260000550018,453222,22d15236-12a4-4ec6-8b6e-c959a8acbd3c,02,ул,2018-04-13,0018,,,2020-08-20,000,0000,000,0,d5090567-6614-45eb-8ea4-8afb3ba066fb,0000,,0
1,73826b2d-fe61-4e47-b094-84b948a750f6,95fd6038-49ab-4c49-b03e-b9b912b9a419,7,026,0,0,000,02026000055001800,0.0,2079-06-06,Центральная,0261,0261,,,80231860001,80631460101,21,d64194e8-97d4-4103-a5da-fd892aa221b3,055,020260000550018,453222,e93e8545-ea75-486d-948d-5a2a8298f5a8,02,ул,2020-08-19,0018,,,2020-08-20,000,0000,000,1,,0000,,0
0,0ff98afc-ee2e-4409-bc18-41b3845b0dc1,66622992-9037-4727-81f0-fac4f4fccf8e,7,026,0,0,000,02026000055000901,1.0,2079-06-06,Молодёжная,0261,0261,71649478-c310-4e9f-8ac8-c0810562e0a2,,80231860001,80631460,1,d64194e8-97d4-4103-a5da-fd892aa221b3,055,020260000550009,453222,,02,ул,1900-01-01,0009,,,2020-08-20,000,0000,000,0,,0000,,0
0,0ff98afc-ee2e-4409-bc18-41b3845b0dc1,71649478-c310-4e9f-8ac8-c0810562e0a2,7,026,0,0,000,02026000055000902,2.0,2020-08-19,Молодёжная,0261,0261,ec945eb2-4594-4379-8a23-301b9ac16d1c,,80231860007,80631460,21,d64194e8-97d4-4103-a5da-fd892aa221b3,055,020260000550009,453222,66622992-9037-4727-81f0-fac4f4fccf8e,02,ул,2011-11-29,0009,,,2020-08-20,000,0000,000,0,,0000,,0
0,0ff98afc-ee2e-4409-bc18-41b3845b0dc1,ec945eb2-4594-4379-8a23-301b9ac16d1c,7,026,0,0,000,02026000055000903,3.0,2018-04-13,Молодёжная,0261,0261,09a642a0-c8cd-46ec-9a60-bef5cce899b8,,80231860007,80631460106,21,d64194e8-97d4-4103-a5da-fd892aa221b3,055,020260000550009,453222,71649478-c310-4e9f-8ac8-c0810562e0a2,02,ул,2014-01-05,0009,,,2020-08-20,000,0000,000,0,,0000,,0
0,0ff98afc-ee2e-4409-bc18-41b3845b0dc1,09a642a0-c8cd-46ec-9a60-bef5cce899b8,7,026,0,0,000,02026000055000900,0.0,2079-06-06,Молодёжная,0261,0261,af943c4f-cbd6-4bf2-920b-b75d5a68c224,,80231860007,80631460101,21,d64194e8-97d4-4103-a5da-fd892aa221b3,055,020260000550009,453222,ec945eb2-4594-4379-8a23-301b9ac16d1c,02,ул,2018-04-13,0009,,,2020-08-20,000,0000,000,0,d5090567-6614-45eb-8ea4-8afb3ba066fb,0000,,0
1,0ff98afc-ee2e-4409-bc18-41b3845b0dc1,af943c4f-cbd6-4bf2-920b-b75d5a68c224,7,026,0,0,000,02026000055000900,0.0,2079-06-06,Молодёжная,0261,0261,,,80231860001,80631460101,21,d64194e8-97d4-4103-a5da-fd892aa221b3,055,020260000550009,453222,09a642a0-c8cd-46ec-9a60-bef5cce899b8,02,ул,2020-08-19,0009,,,2020-08-20,000,0000,000,1,,0000,,0
0,448a558d-30b5-4870-a80f-9f20270be03b,ab2e74b2-aef5-4a2f-be5f-ed3fceb964c5,7,026,0,0,000,02026000055001201,1.0,2079-06-06,Луговая,0261,0261,113dc0dd-cba8-4b93-a316-50efe5873549,,80231860001,80631460,1,d64194e8-97d4-4103-a5da-fd892aa221b3,055,020260000550012,453222,,02,ул,1900-01-01,0012,,,2020-08-20,000,0000,000,0,,0000,,0
0,448a558d-30b5-4870-a80f-9f20270be03b,113dc0dd-cba8-4b93-a316-50efe5873549,7,026,0,0,000,02026000055001202,2.0,2013-01-16,Луговая,0261,0261,e4328638-2b15-4296-92e4-9495cf3905c5,,80231860001,80631460,21,d64194e8-97d4-4103-a5da-fd892aa221b3,055,020260000550012,453222,ab2e74b2-aef5-4a2f-be5f-ed3fceb964c5,02,ул,2011-11-29,0012,,,2020-08-20,000,0000,000,0,,0000,,0
0,448a558d-30b5-4870-a80f-9f20270be03b,e4328638-2b15-4296-92e4-9495cf3905c5,7,026,0,0,000,02026000055001203,3.0,2020-08-19,Луговая,0261,0261,2cec19c4-aa08-49a6-9f6c-608012f62d7a,,80231860007,80631460,21,d64194e8-97d4-4103-a5da-fd892aa221b3,055,020260000550012,453222,113dc0dd-cba8-4b93-a316-50efe5873549,02,ул,2013-01-16,0012,,,2020-08-20,000,0000,000,0,,0000,,0
0,448a558d-30b5-4870-a80f-9f20270be03b,2cec19c4-aa08-49a6-9f6c-608012f62d7a,7,026,0,0,000,02026000055001204,4.0,2018-04-13,Луговая,0261,0261,08a36b6c-925d-4296-a71d-df4768d34a29,,80231860007,80631460106,21,d64194e8-97d4-4103-a5da-fd892aa221b3,055,020260000550012,453222,e4328638-2b15-4296-92e4-9495cf3905c5,02,ул,2014-01-05,0012,,,2020-08-20,000,0000,000,0,,0000,,0
0,448a558d-30b5-4870-a80f-9f20270be03b,08a36b6c-925d-4296-a71d-df4768d34a29,7,026,0,0,000,02026000055001200,0.0,2079-06-06,Луговая,0261,0261,cbfb270b-11af-4352-a1cf-b9cf1d7d5c29,,80231860007,80631460101,21,d64194e8-97d4-4103-a5da-fd892aa221b3,055,020260000550012,453222,2cec19c4-aa08-49a6-9f6c-608012f62d7a,02,ул,2018-04-13,0012,,,2020-08-20,000,0000,000,0,d5090567-6614-45eb-8ea4-8afb3ba066fb,0000,,0
1,448a558d-30b5-4870-a80f-9f20270be03b,cbfb270b-11af-4352-a1cf-b9cf1d7d5c29,7,026,0,0,000,02026000055001200,0.0,2079-06-06,Луговая,0261,0261,,,80231860001,80631460101,21,d64194e8-97d4-4103-a5da-fd892aa221b3,055,020260000550012,453222,08a36b6c-925d-4296-a71d-df4768d34a29,02,ул,2020-08-19,0012,,,2020-08-20,000,0000,000,1,,0000,,0
0,4f6dff0b-6ec5-495c-bb87-0dc5583df71e,1a043489-fd24-44ba-8963-2594786bcd90,7,026,0,0,000,02026000055001901,1.0,2079-06-06,Майская,0261,0261,cab1a5b5-a3c5-42b7-ba95-fa19d102827c,,80231860001,80631460,1,d64194e8-97d4-4103-a5da-fd892aa221b3,055,020260000550019,453222,,02,ул,1900-01-01,0019,,,2020-08-20,000,0000,000,0,,0000,,0
0,4f6dff0b-6ec5-495c-bb87-0dc5583df71e,cab1a5b5-a3c5-42b7-ba95-fa19d102827c,7,026,0,0,000,02026000055001902,2.0,2020-08-19,Майская,0261,0261,6960ffc5-9167-4c39-83a2-c06c601ddfc3,,80231860007,80631460,21,d64194e8-97d4-4103-a5da-fd892aa221b3,055,020260000550019,453222,1a043489-fd24-44ba-8963-2594786bcd90,02,ул,2011-11-29,0019,,,2020-08-20,000,0000,000,0,,0000,,0
0,4f6dff0b-6ec5-495c-bb87-0dc5583df71e,6960ffc5-9167-4c39-83a2-c06c601ddfc3,7,026,0,0,000,02026000055001903,3.0,2018-04-13,Майская,0261,0261,6fd734a5-1dab-4c00-8b06-c59ff006ad15,,80231860007,80631460106,21,d64194e8-97d4-4103-a5da-fd892aa221b3,055,020260000550019,453222,cab1a5b5-a3c5-42b7-ba95-fa19d102827c,02,ул,2014-01-05,0019,,,2020-08-20,000,0000,000,0,,0000,,0
0,4f6dff0b-6ec5-495c-bb87-0dc5583df71e,6fd734a5-1dab-4c00-8b06-c59ff006ad15,7,026,0,0,000,02026000055001900,0.0,2079-06-06,Майская,0261,0261,00310ba6-e0d7-4558-99fe-a8dea5c1fabf,,80231860007,80631460101,21,d64194e8-97d4-4103-a5da-fd892aa221b3,055,020260000550019,453222,6960ffc5-9167-4c39-83a2-c06c601ddfc3,02,ул,2018-04-13,0019,,,2020-08-20,000,0000,000,0,d5090567-6614-45eb-8ea4-8afb3ba066fb,0000,,0
1,4f6dff0b-6ec5-495c-bb87-0dc5583df71e,00310ba6-e0d7-4558-99fe-a8dea5c1fabf,7,026,0,0,000,02026000055001900,0.0,2079-06-06,Майская,0261,0261,,,80231860001,80631460101,21,d64194e8-97d4-4103-a5da-fd892aa221b3,055,020260000550019,453222,6fd734a5-1dab-4c00-8b06-c59ff006ad15,02,ул,2020-08-19,0019,,,2020-08-20,000,0000,000,1,,0000,,0
1,c22d4957-75c1-4fb1-80cd-d883a6bd084e,c22d4957-75c1-4fb1-80cd-d883a6bd084e,7,049,0,0,000,02049000001008100,0.0,2079-06-06,Двадцать первый,0278,0278,,,80256870001,80656470101,10,65a53bec-3df6-4e14-aea8-9b0e572a3b33,001,020490000010081,,,02,пер,2020-08-18,0081,0249,0249,2020-08-20,000,0000,000,1,,0071,,0
0,874416e2-b302-41b7-9372-71c8a3f25c32,874416e2-b302-41b7-9372-71c8a3f25c32,7,026,0,0,000,02026000055002601,1.0,2079-06-06,Н.Мусина,0261,0261,615231d5-fd67-4365-86d5-3e3ea4521224,,80231860001,80631460,10,d64194e8-97d4-4103-a5da-fd892aa221b3,055,020260000550026,453222,,02,ул,1900-01-01,0026,,,2020-08-20,000,0000,000,0,,0000,,0
0,874416e2-b302-41b7-9372-71c8a3f25c32,615231d5-fd67-4365-86d5-3e3ea4521224,7,026,0,0,000,02026000055002602,2.0,2020-08-19,Н.Мусина,0261,0261,e989a887-fc47-4e4e-b9fa-b4f4b43b0d69,,80231860007,80631460,21,d64194e8-97d4-4103-a5da-fd892aa221b3,055,020260000550026,453222,874416e2-b302-41b7-9372-71c8a3f25c32,02,ул,2012-02-01,0026,,,2020-08-20,000,0000,000,0,181e992f-7580-4ca0-b9d6-f28998e839e0,0000,,0
0,874416e2-b302-41b7-9372-71c8a3f25c32,e989a887-fc47-4e4e-b9fa-b4f4b43b0d69,7,026,0,0,000,02026000055002603,3.0,2018-04-13,Н.Мусина,0261,0261,847a91d9-caa6-4697-be27-756e44e79ce5,,80231860007,80631460106,21,d64194e8-97d4-4103-a5da-fd892aa221b3,055,020260000550026,453222,615231d5-fd67-4365-86d5-3e3ea4521224,02,ул,2014-01-05,0026,,,2020-08-20,000,0000,000,0,181e992f-7580-4ca0-b9d6-f28998e839e0,0000,,0
0,874416e2-b302-41b7-9372-71c8a3f25c32,847a91d9-caa6-4697-be27-756e44e79ce5,7,026,0,0,000,02026000055002600,0.0,2079-06-06,Н.Мусина,0261,0261,c19962e7-26ba-4f46-8cb0-1ca398d48572,,80231860007,80631460101,21,d64194e8-97d4-4103-a5da-fd892aa221b3,055,020260000550026,453222,e989a887-fc47-4e4e-b9fa-b4f4b43b0d69,02,ул,2018-04-13,0026,,,2020-08-20,000,0000,000,0,d5090567-6614-45eb-8ea4-8afb3ba066fb,0000,,0
1,874416e2-b302-41b7-9372-71c8a3f25c32,c19962e7-26ba-4f46-8cb0-1ca398d48572,7,026,0,0,000,02026000055002600,0.0,2079-06-06,Н.Мусина,0261,0261,,,80231860001,80631460101,21,d64194e8-97d4-4103-a5da-fd892aa221b3,055,020260000550026,453222,847a91d9-caa6-4697-be27-756e44e79ce5,02,ул,2020-08-19,0026,,,2020-08-20,000,0000,000,1,,0000,,0
0,a1477a73-f18b-4fb1-bdb1-1d5c7bcb0cbb,37fd436b-74ee-4ab6-bdb5-2167831b3cb1,7,026,0,0,000,02026000055000501,1.0,2079-06-06,Зелёная,0261,0261,7232a666-8009-43dc-9ea9-1bec60b788a9,,80231860001,80631460,1,d64194e8-97d4-4103-a5da-fd892aa221b3,055,020260000550005,453222,,02,ул,1900-01-01,0005,,,2020-08-20,000,0000,000,0,,0000,,0
0,a1477a73-f18b-4fb1-bdb1-1d5c7bcb0cbb,7232a666-8009-43dc-9ea9-1bec60b788a9,7,026,0,0,000,02026000055000502,2.0,2020-08-19,Зелёная,0261,0261,dbaf6982-d5d3-4296-a7a9-89deefd27c04,,80231860007,80631460,21,d64194e8-97d4-4103-a5da-fd892aa221b3,055,020260000550005,453222,37fd436b-74ee-4ab6-bdb5-2167831b3cb1,02,ул,2011-11-29,0005,,,2020-08-20,000,0000,000,0,,0000,,0
0,a1477a73-f18b-4fb1-bdb1-1d5c7bcb0cbb,dbaf6982-d5d3-4296-a7a9-89deefd27c04,7,026,0,0,000,02026000055000503,3.0,2018-04-13,Зелёная,0261,0261,d523330e-1dac-445c-86ef-569cba7d4e66,,80231860007,80631460106,21,d64194e8-97d4-4103-a5da-fd892aa221b3,055,020260000550005,453222,7232a666-8009-43dc-9ea9-1bec60b788a9,02,ул,2014-01-05,0005,,,2020-08-20,000,0000,000,0,,0000,,0
0,a1477a73-f18b-4fb1-bdb1-1d5c7bcb0cbb,d523330e-1dac-445c-86ef-569cba7d4e66,7,026,0,0,000,02026000055000500,0.0,2079-06-06,Зелёная,0261,0261,133bf1e9-e689-4df0-b8c6-0b80a832487c,,80231860007,80631460101,21,d64194e8-97d4-4103-a5da-fd892aa221b3,055,020260000550005,453222,dbaf6982-d5d3-4296-a7a9-89deefd27c04,02,ул,2018-04-13,0005,,,2020-08-20,000,0000,000,0,d5090567-6614-45eb-8ea4-8afb3ba066fb,0000,,0
1,a1477a73-f18b-4fb1-bdb1-1d5c7bcb0cbb,133bf1e9-e689-4df0-b8c6-0b80a832487c,7,026,0,0,000,02026000055000500,0.0,2079-06-06,Зелёная,0261,0261,,,80231860001,80631460101,21,d64194e8-97d4-4103-a5da-fd892aa221b3,055,020260000550005,453222,d523330e-1dac-445c-86ef-569cba7d4e66,02,ул,2020-08-19,0005,,,2020-08-20,000,0000,000,1,,0000,,0
0,db68930d-7b1f-4a0a-8a60-e73e7a7e6dd3,77efe671-0b22-4d66-b8cb-e0cdcbac73de,7,026,0,0,000,02026000055000301,1.0,2079-06-06,Восточная,0261,0261,26b00bcc-f5ec-46a7-8020-3daab373576c,,80231860001,80631460,1,d64194e8-97d4-4103-a5da-fd892aa221b3,055,020260000550003,453222,,02,ул,1900-01-01,0003,,,2020-08-20,000,0000,000,0,,0000,,0
0,db68930d-7b1f-4a0a-8a60-e73e7a7e6dd3,26b00bcc-f5ec-46a7-8020-3daab373576c,7,026,0,0,000,02026000055000302,2.0,2020-08-19,Восточная,0261,0261,2136edca-4d50-4e91-9485-3869492d5342,,80231860007,80631460,21,d64194e8-97d4-4103-a5da-fd892aa221b3,055,020260000550003,453222,77efe671-0b22-4d66-b8cb-e0cdcbac73de,02,ул,2011-11-29,0003,,,2020-08-20,000,0000,000,0,,0000,,0
0,db68930d-7b1f-4a0a-8a60-e73e7a7e6dd3,2136edca-4d50-4e91-9485-3869492d5342,7,026,0,0,000,02026000055000303,3.0,2018-04-13,Восточная,0261,0261,a6b75508-8faa-4cb6-b8cc-7e908b31f366,,80231860007,80631460106,21,d64194e8-97d4-4103-a5da-fd892aa221b3,055,020260000550003,453222,26b00bcc-f5ec-46a7-8020-3daab373576c,02,ул,2014-01-05,0003,,,2020-08-20,000,0000,000,0,,0000,,0
0,db68930d-7b1f-4a0a-8a60-e73e7a7e6dd3,a6b75508-8faa-4cb6-b8cc-7e908b31f366,7,026,0,0,000,02026000055000300,0.0,2079-06-06,Восточная,0261,0261,e6855a54-f6da-4a4a-a266-58ae7535d302,,80231860007,80631460101,21,d64194e8-97d4-4103-a5da-fd892aa221b3,055,020260000550003,453222,2136edca-4d50-4e91-9485-3869492d5342,02,ул,2018-04-13,0003,,,2020-08-20,000,0000,000,0,d5090567-6614-45eb-8ea4-8afb3ba066fb,0000,,0
1,db68930d-7b1f-4a0a-8a60-e73e7a7e6dd3,e6855a54-f6da-4a4a-a266-58ae7535d302,7,026,0,0,000,02026000055000300,0.0,2079-06-06,Восточная,0261,0261,,,80231860001,80631460101,21,d64194e8-97d4-4103-a5da-fd892aa221b3,055,020260000550003,453222,a6b75508-8faa-4cb6-b8cc-7e908b31f366,02,ул,2020-08-19,0003,,,2020-08-20,000,0000,000,1,,0000,,0
0,676d9150-302a-4c8f-b559-c83a641605e3,8f68ef0c-bee3-4f77-93fc-474cea4ba02a,7,026,0,0,000,02026000055002301,1.0,2079-06-06,Победы,0261,0261,28154542-b798-46cd-bbb8-73c658398ae2,,80231860001,80631460,1,d64194e8-97d4-4103-a5da-fd892aa221b3,055,020260000550023,453222,,02,ул,1900-01-01,0023,,,2020-08-20,000,0000,000,0,,0000,,0
0,676d9150-302a-4c8f-b559-c83a641605e3,28154542-b798-46cd-bbb8-73c658398ae2,7,026,0,0,000,02026000055002302,2.0,2020-08-19,Победы,0261,0261,af110839-11ae-48d2-a5b1-9a782bff0179,,80231860007,80631460,21,d64194e8-97d4-4103-a5da-fd892aa221b3,055,020260000550023,453222,8f68ef0c-bee3-4f77-93fc-474cea4ba02a,02,ул,2011-11-29,0023,,,2020-08-20,000,0000,000,0,,0000,,0
0,676d9150-302a-4c8f-b559-c83a641605e3,af110839-11ae-48d2-a5b1-9a782bff0179,7,026,0,0,000,02026000055002303,3.0,2018-04-13,Победы,0261,0261,87158030-4cda-4bdd-a978-97516758b430,,80231860007,80631460106,21,d64194e8-97d4-4103-a5da-fd892aa221b3,055,020260000550023,453222,28154542-b798-46cd-bbb8-73c658398ae2,02,ул,2014-01-05,0023,,,2020-08-20,000,0000,000,0,,0000,,0
0,676d9150-302a-4c8f-b559-c83a641605e3,87158030-4cda-4bdd-a978-97516758b430,7,026,0,0,000,02026000055002300,0.0,2079-06-06,Победы,0261,0261,1d9e55c0-592e-404b-8331-11eec62b384f,,80231860007,80631460101,21,d64194e8-97d4-4103-a5da-fd892aa221b3,055,020260000550023,453222,af110839-11ae-48d2-a5b1-9a782bff0179,02,ул,2018-04-13,0023,,,2020-08-20,000,0000,000,0,d5090567-6614-45eb-8ea4-8afb3ba066fb,0000,,0
1,676d9150-302a-4c8f-b559-c83a641605e3,1d9e55c0-592e-404b-8331-11eec62b384f,7,026,0,0,000,02026000055002300,0.0,2079-06-06,Победы,0261,0261,,,80231860001,80631460101,21,d64194e8-97d4-4103-a5da-fd892aa221b3,055,020260000550023,453222,87158030-4cda-4bdd-a978-97516758b430,02,ул,2020-08-19,0023,,,2020-08-20,000,0000,000,1,,0000,,0
0,72573203-96db-4ae7-b995-698f86264182,4509c26d-5eb3-4906-bde8-44ec32cca053,7,026,0,0,000,02026000055001101,1.0,2079-06-06,Северная,0261,0261,97bf9d6e-bad9-45b3-9012-c08c152e54f5,,80231860001,80631460,1,d64194e8-97d4-4103-a5da-fd892aa221b3,055,020260000550011,453222,,02,ул,1900-01-01,0011,,,2020-08-20,000,0000,000,0,,0000,,0
0,72573203-96db-4ae7-b995-698f86264182,97bf9d6e-bad9-45b3-9012-c08c152e54f5,7,026,0,0,000,02026000055001102,2.0,2013-01-16,Северная,0261,0261,d98d6cfb-879d-487b-9ba3-9c15e90f7ef0,,80231860001,80631460,21,d64194e8-97d4-4103-a5da-fd892aa221b3,055,020260000550011,453222,4509c26d-5eb3-4906-bde8-44ec32cca053,02,ул,2011-11-29,0011,,,2020-08-20,000,0000,000,0,,0000,,0
0,72573203-96db-4ae7-b995-698f86264182,d98d6cfb-879d-487b-9ba3-9c15e90f7ef0,7,026,0,0,000,02026000055001103,3.0,2020-08-19,Северная,0261,0261,31cd62ed-a0ae-45ab-a7ad-79c32e3ef5d4,,80231860007,80631460,21,d64194e8-97d4-4103-a5da-fd892aa221b3,055,020260000550011,453222,97bf9d6e-bad9-45b3-9012-c08c152e54f5,02,ул,2013-01-16,0011,,,2020-08-20,000,0000,000,0,,0000,,0
0,72573203-96db-4ae7-b995-698f86264182,31cd62ed-a0ae-45ab-a7ad-79c32e3ef5d4,7,026,0,0,000,02026000055001104,4.0,2018-04-13,Северная,0261,0261,f789c07b-d229-43cb-bb2d-6ec092d91553,,80231860007,80631460106,21,d64194e8-97d4-4103-a5da-fd892aa221b3,055,020260000550011,453222,d98d6cfb-879d-487b-9ba3-9c15e90f7ef0,02,ул,2014-01-05,0011,,,2020-08-20,000,0000,000,0,,0000,,0
0,72573203-96db-4ae7-b995-698f86264182,f789c07b-d229-43cb-bb2d-6ec092d91553,7,026,0,0,000,02026000055001100,0.0,2079-06-06,Северная,0261,0261,f1e50752-98a2-4a10-8f7f-c5f1c61701aa,,80231860007,80631460101,21,d64194e8-97d4-4103-a5da-fd892aa221b3,055,020260000550011,453222,31cd62ed-a0ae-45ab-a7ad-79c32e3ef5d4,02,ул,2018-04-13,0011,,,2020-08-20,000,0000,000,0,d5090567-6614-45eb-8ea4-8afb3ba066fb,0000,,0
1,72573203-96db-4ae7-b995-698f86264182,f1e50752-98a2-4a10-8f7f-c5f1c61701aa,7,026,0,0,000,02026000055001100,0.0,2079-06-06,Северная,0261,0261,,,80231860001,80631460101,21,d64194e8-97d4-4103-a5da-fd892aa221b3,055,020260000550011,453222,f789c07b-d229-43cb-bb2d-6ec092d91553,02,ул,2020-08-19,0011,,,2020-08-20,000,0000,000,1,,0000,,0
1,455ae91d-f5c1-4927-9fda-8f82d4ad647c,455ae91d-f5c1-4927-9fda-8f82d4ad647c,7,049,0,0,000,02049000001007900,0.0,2079-06-06,Десятый,0278,0278,,,80256870001,80656470101,10,65a53bec-3df6-4e14-aea8-9b0e572a3b33,001,020490000010079,,,02,пер,2020-08-18,0079,0249,0249,2020-08-20,000,0000,000,1,,0071,,0
1,ad0da1d7-514c-43b1-b8b6-1e5cf6e5320b,ad0da1d7-514c-43b1-b8b6-1e5cf6e5320b,7,001,0,0,000,02001000039002300,0.0,2079-06-06,Южная,0272,0272,,,80252830001,80652430101,10,6cd5fab1-3db1-4102-b8fd-93a4d6ceccef,039,020010000390023,450516,,02,ул,2020-08-18,0023,0245,0245,2020-08-20,000,0000,000,1,,0000,,0
0,aaa4909b-17c1-4bee-9f1b-18433d0d4127,9b84f819-ad41-4fec-a8c3-9f703116ce59,7,026,0,0,000,02026000055002001,1.0,2079-06-06,И.Гиззатуллина,0261,0261,25adca0a-cbe3-439d-9101-800d54cda6a1,,80231860001,80631460,1,d64194e8-97d4-4103-a5da-fd892aa221b3,055,020260000550020,453222,,02,ул,1900-01-01,0020,,,2020-08-20,000,0000,000,0,,0000,,0
0,aaa4909b-17c1-4bee-9f1b-18433d0d4127,25adca0a-cbe3-439d-9101-800d54cda6a1,7,026,0,0,000,02026000055002002,2.0,2013-01-16,И.Гиззатуллина,0261,0261,3ebcee0d-00f4-4401-9c17-5d5f62fb491f,,80231860001,80631460,21,d64194e8-97d4-4103-a5da-fd892aa221b3,055,020260000550020,453222,9b84f819-ad41-4fec-a8c3-9f703116ce59,02,ул,2011-11-29,0020,,,2020-08-20,000,0000,000,0,,0000,,0
0,aaa4909b-17c1-4bee-9f1b-18433d0d4127,3ebcee0d-00f4-4401-9c17-5d5f62fb491f,7,026,0,0,000,02026000055002003,3.0,2020-08-19,И.Гиззатуллина,0261,0261,4428ed32-abcc-4c8b-bad5-174540ccc139,,80231860007,80631460,21,d64194e8-97d4-4103-a5da-fd892aa221b3,055,020260000550020,453222,25adca0a-cbe3-439d-9101-800d54cda6a1,02,ул,2013-01-16,0020,,,2020-08-20,000,0000,000,0,,0000,,0
0,aaa4909b-17c1-4bee-9f1b-18433d0d4127,4428ed32-abcc-4c8b-bad5-174540ccc139,7,026,0,0,000,02026000055002004,4.0,2018-04-13,И.Гиззатуллина,0261,0261,090d95ac-39ab-4fc3-843a-96c902742faa,,80231860007,80631460106,21,d64194e8-97d4-4103-a5da-fd892aa221b3,055,020260000550020,453222,3ebcee0d-00f4-4401-9c17-5d5f62fb491f,02,ул,2014-01-05,0020,,,2020-08-20,000,0000,000,0,,0000,,0
0,aaa4909b-17c1-4bee-9f1b-18433d0d4127,090d95ac-39ab-4fc3-843a-96c902742faa,7,026,0,0,000,02026000055002000,0.0,2079-06-06,И.Гиззатуллина,0261,0261,4023d319-1a94-426a-be1f-d271398661cc,,80231860007,80631460101,21,d64194e8-97d4-4103-a5da-fd892aa221b3,055,020260000550020,453222,4428ed32-abcc-4c8b-bad5-174540ccc139,02,ул,2018-04-13,0020,,,2020-08-20,000,0000,000,0,d5090567-6614-45eb-8ea4-8afb3ba066fb,0000,,0
1,aaa4909b-17c1-4bee-9f1b-18433d0d4127,4023d319-1a94-426a-be1f-d271398661cc,7,026,0,0,000,02026000055002000,0.0,2079-06-06,И.Гиззатуллина,0261,0261,,,80231860001,80631460101,21,d64194e8-97d4-4103-a5da-fd892aa221b3,055,020260000550020,453222,090d95ac-39ab-4fc3-843a-96c902742faa,02,ул,2020-08-19,0020,,,2020-08-20,000,0000,000,1,,0000,,0
0,4b6a9699-ebba-4f7f-9cd3-2a1089c29c46,ea88435c-bf19-4f0c-99d7-36ac4d8727fe,7,026,0,0,000,02026000055002201,1.0,2079-06-06,З.Валиди,0261,0261,f91aceb1-46b1-4abc-874e-2ce2f603b736,,80231860001,80631460,1,d64194e8-97d4-4103-a5da-fd892aa221b3,055,020260000550022,453222,,02,ул,1900-01-01,0022,,,2020-08-20,000,0000,000,0,,0000,,0
0,4b6a9699-ebba-4f7f-9cd3-2a1089c29c46,f91aceb1-46b1-4abc-874e-2ce2f603b736,7,026,0,0,000,02026000055002202,2.0,2020-08-19,З.Валиди,0261,0261,34d52123-3851-4dfd-acd5-af9bdf68c4ed,,80231860007,80631460,21,d64194e8-97d4-4103-a5da-fd892aa221b3,055,020260000550022,453222,ea88435c-bf19-4f0c-99d7-36ac4d8727fe,02,ул,2011-11-29,0022,,,2020-08-20,000,0000,000,0,,0000,,0
0,4b6a9699-ebba-4f7f-9cd3-2a1089c29c46,34d52123-3851-4dfd-acd5-af9bdf68c4ed,7,026,0,0,000,02026000055002203,3.0,2018-04-13,З.Валиди,0261,0261,27017797-7fed-40b9-8752-8cfd39cdc572,,80231860007,80631460106,21,d64194e8-97d4-4103-a5da-fd892aa221b3,055,020260000550022,453222,f91aceb1-46b1-4abc-874e-2ce2f603b736,02,ул,2014-01-05,0022,,,2020-08-20,000,0000,000,0,,0000,,0
0,4b6a9699-ebba-4f7f-9cd3-2a1089c29c46,27017797-7fed-40b9-8752-8cfd39cdc572,7,026,0,0,000,02026000055002200,0.0,2079-06-06,З.Валиди,0261,0261,846486a8-ae2a-4c2a-a85f-20a9f4d2d4f5,,80231860007,80631460101,21,d64194e8-97d4-4103-a5da-fd892aa221b3,055,020260000550022,453222,34d52123-3851-4dfd-acd5-af9bdf68c4ed,02,ул,2018-04-13,0022,,,2020-08-20,000,0000,000,0,d5090567-6614-45eb-8ea4-8afb3ba066fb,0000,,0
1,4b6a9699-ebba-4f7f-9cd3-2a1089c29c46,846486a8-ae2a-4c2a-a85f-20a9f4d2d4f5,7,026,0,0,000,02026000055002200,0.0,2079-06-06,З.Валиди,0261,0261,,,80231860001,80631460101,21,d64194e8-97d4-4103-a5da-fd892aa221b3,055,020260000550022,453222,27017797-7fed-40b9-8752-8cfd39cdc572,02,ул,2020-08-19,0022,,,2020-08-20,000,0000,000,1,,0000,,0
0,c16c220d-bb5c-40fc-a27a-f0307b133a62,58f4aade-4e21-4508-b4be-02e72f59201d,7,026,0,0,000,02026000055000601,1.0,2079-06-06,Учительская,0261,0261,aaf99dbc-2316-475f-8eaf-0ec28e0d29ae,,80231860001,80631460,1,d64194e8-97d4-4103-a5da-fd892aa221b3,055,020260000550006,453222,,02,ул,1900-01-01,0006,,,2020-08-20,000,0000,000,0,,0000,,0
0,c16c220d-bb5c-40fc-a27a-f0307b133a62,aaf99dbc-2316-475f-8eaf-0ec28e0d29ae,7,026,0,0,000,02026000055000602,2.0,2020-08-19,Учительская,0261,0261,8cc46d25-8c61-480c-9cbb-9720f8fd348e,,80231860007,80631460,21,d64194e8-97d4-4103-a5da-fd892aa221b3,055,020260000550006,453222,58f4aade-4e21-4508-b4be-02e72f59201d,02,ул,2011-11-29,0006,,,2020-08-20,000,0000,000,0,,0000,,0
0,c16c220d-bb5c-40fc-a27a-f0307b133a62,8cc46d25-8c61-480c-9cbb-9720f8fd348e,7,026,0,0,000,02026000055000603,3.0,2018-04-13,Учительская,0261,0261,f4e8a21e-78b8-4535-b965-99759b583eed,,80231860007,80631460106,21,d64194e8-97d4-4103-a5da-fd892aa221b3,055,020260000550006,453222,aaf99dbc-2316-475f-8eaf-0ec28e0d29ae,02,ул,2014-01-05,0006,,,2020-08-20,000,0000,000,0,,0000,,0
0,c16c220d-bb5c-40fc-a27a-f0307b133a62,f4e8a21e-78b8-4535-b965-99759b583eed,7,026,0,0,000,02026000055000600,0.0,2079-06-06,Учительская,0261,0261,7d9764eb-6536-4b31-a58a-d3f6ac515cb1,,80231860007,80631460101,21,d64194e8-97d4-4103-a5da-fd892aa221b3,055,020260000550006,453222,8cc46d25-8c61-480c-9cbb-9720f8fd348e,02,ул,2018-04-13,0006,,,2020-08-20,000,0000,000,0,d5090567-6614-45eb-8ea4-8afb3ba066fb,0000,,0
1,c16c220d-bb5c-40fc-a27a-f0307b133a62,7d9764eb-6536-4b31-a58a-d3f6ac515cb1,7,026,0,0,000,02026000055000600,0.0,2079-06-06,Учительская,0261,0261,,,80231860001,80631460101,21,d64194e8-97d4-4103-a5da-fd892aa221b3,055,020260000550006,453222,f4e8a21e-78b8-4535-b965-99759b583eed,02,ул,2020-08-19,0006,,,2020-08-20,000,0000,000,1,,0000,,0
1,7f5a1571-7ab9-447a-944c-a69ea77b558e,7f5a1571-7ab9-447a-944c-a69ea77b558e,7,001,0,0,000,02001000039002200,0.0,2079-06-06,Габдрахмана Расулева,0272,0272,,,80252830001,80652430101,10,6cd5fab1-3db1-4102-b8fd-93a4d6ceccef,039,020010000390022,450516,,02,ул,2020-08-18,0022,0245,0245,2020-08-20,000,0000,000,1,,0000,,0
0,6bfdf10c-e23e-4078-9aae-e49ade40e056,453d5cf1-4c73-4f40-b6b7-50ad6b1d2afd,7,026,0,0,000,02026000055000201,1.0,2079-06-06,Пролетарская,0261,0261,cccff5b8-026a-450c-99bf-a1eaa0306805,,80231860001,80631460,1,d64194e8-97d4-4103-a5da-fd892aa221b3,055,020260000550002,453222,,02,ул,1900-01-01,0002,,,2020-08-20,000,0000,000,0,,0000,,0
0,6bfdf10c-e23e-4078-9aae-e49ade40e056,cccff5b8-026a-450c-99bf-a1eaa0306805,7,026,0,0,000,02026000055000202,2.0,2013-01-16,Пролетарская,0261,0261,502062b5-49a9-4be4-8d1a-2ed6357b6936,,80231860001,80631460,21,d64194e8-97d4-4103-a5da-fd892aa221b3,055,020260000550002,453222,453d5cf1-4c73-4f40-b6b7-50ad6b1d2afd,02,ул,2011-11-29,0002,,,2020-08-20,000,0000,000,0,,0000,,0
0,6bfdf10c-e23e-4078-9aae-e49ade40e056,502062b5-49a9-4be4-8d1a-2ed6357b6936,7,026,0,0,000,02026000055000203,3.0,2020-08-19,Пролетарская,0261,0261,8450f2b6-a7cb-433a-b70e-111df65c6ea0,,80231860007,80631460,21,d64194e8-97d4-4103-a5da-fd892aa221b3,055,020260000550002,453222,cccff5b8-026a-450c-99bf-a1eaa0306805,02,ул,2013-01-16,0002,,,2020-08-20,000,0000,000,0,,0000,,0
0,6bfdf10c-e23e-4078-9aae-e49ade40e056,8450f2b6-a7cb-433a-b70e-111df65c6ea0,7,026,0,0,000,02026000055000204,4.0,2018-04-13,Пролетарская,0261,0261,766bd8d9-dd36-42e4-afa7-7a1dd5360d7e,,80231860007,80631460106,21,d64194e8-97d4-4103-a5da-fd892aa221b3,055,020260000550002,453222,502062b5-49a9-4be4-8d1a-2ed6357b6936,02,ул,2014-01-05,0002,,,2020-08-20,000,0000,000,0,,0000,,0
0,6bfdf10c-e23e-4078-9aae-e49ade40e056,766bd8d9-dd36-42e4-afa7-7a1dd5360d7e,7,026,0,0,000,02026000055000200,0.0,2079-06-06,Пролетарская,0261,0261,a205ef9f-17a7-4fd7-b785-6c34299f07f0,,80231860007,80631460101,21,d64194e8-97d4-4103-a5da-fd892aa221b3,055,020260000550002,453222,8450f2b6-a7cb-433a-b70e-111df65c6ea0,02,ул,2018-04-13,0002,,,2020-08-20,000,0000,000,0,d5090567-6614-45eb-8ea4-8afb3ba066fb,0000,,0
1,6bfdf10c-e23e-4078-9aae-e49ade40e056,a205ef9f-17a7-4fd7-b785-6c34299f07f0,7,026,0,0,000,02026000055000200,0.0,2079-06-06,Пролетарская,0261,0261,,,80231860001,80631460101,21,d64194e8-97d4-4103-a5da-fd892aa221b3,055,020260000550002,453222,766bd8d9-dd36-42e4-afa7-7a1dd5360d7e,02,ул,2020-08-19,0002,,,2020-08-20,000,0000,000,1,,0000,,0
0,f3713b70-71b0-4ce4-9c33-abd2b6aa048b,9226c3de-4b6e-462d-b2f9-432cc76c0e66,7,026,0,0,000,02026000055002401,1.0,2079-06-06,Октябрьская,0261,0261,313da7a0-f19f-48d8-b892-b72786669f71,,80231860001,80631460,1,d64194e8-97d4-4103-a5da-fd892aa221b3,055,020260000550024,453222,,02,ул,1900-01-01,0024,,,2020-08-20,000,0000,000,0,,0000,,0
0,f3713b70-71b0-4ce4-9c33-abd2b6aa048b,313da7a0-f19f-48d8-b892-b72786669f71,7,026,0,0,000,02026000055002402,2.0,2013-01-16,Октябрьская,0261,0261,8e379541-66b2-45ed-a5b6-2022f4c6da24,,80231860001,80631460,21,d64194e8-97d4-4103-a5da-fd892aa221b3,055,020260000550024,453222,9226c3de-4b6e-462d-b2f9-432cc76c0e66,02,ул,2011-11-29,0024,,,2020-08-20,000,0000,000,0,,0000,,0
0,f3713b70-71b0-4ce4-9c33-abd2b6aa048b,8e379541-66b2-45ed-a5b6-2022f4c6da24,7,026,0,0,000,02026000055002403,3.0,2020-08-19,Октябрьская,0261,0261,08c36eb1-908a-4537-a223-0b9f237a0fb3,,80231860007,80631460,21,d64194e8-97d4-4103-a5da-fd892aa221b3,055,020260000550024,453222,313da7a0-f19f-48d8-b892-b72786669f71,02,ул,2013-01-16,0024,,,2020-08-20,000,0000,000,0,,0000,,0
0,f3713b70-71b0-4ce4-9c33-abd2b6aa048b,08c36eb1-908a-4537-a223-0b9f237a0fb3,7,026,0,0,000,02026000055002404,4.0,2018-04-13,Октябрьская,0261,0261,80473c34-dfde-49b6-b97f-7b3c7f51270e,,80231860007,80631460106,21,d64194e8-97d4-4103-a5da-fd892aa221b3,055,020260000550024,453222,8e379541-66b2-45ed-a5b6-2022f4c6da24,02,ул,2014-01-05,0024,,,2020-08-20,000,0000,000,0,,0000,,0
0,f3713b70-71b0-4ce4-9c33-abd2b6aa048b,80473c34-dfde-49b6-b97f-7b3c7f51270e,7,026,0,0,000,02026000055002400,0.0,2079-06-06,Октябрьская,0261,0261,ecd247fc-c6e8-4e52-bd00-e8019623e687,,80231860007,80631460101,21,d64194e8-97d4-4103-a5da-fd892aa221b3,055,020260000550024,453222,08c36eb1-908a-4537-a223-0b9f237a0fb3,02,ул,2018-04-13,0024,,,2020-08-20,000,0000,000,0,d5090567-6614-45eb-8ea4-8afb3ba066fb,0000,,0
1,f3713b70-71b0-4ce4-9c33-abd2b6aa048b,ecd247fc-c6e8-4e52-bd00-e8019623e687,7,026,0,0,000,02026000055002400,0.0,2079-06-06,Октябрьская,0261,0261,,,80231860001,80631460101,21,d64194e8-97d4-4103-a5da-fd892aa221b3,055,020260000550024,453222,80473c34-dfde-49b6-b97f-7b3c7f51270e,02,ул,2020-08-19,0024,,,2020-08-20,000,0000,000,1,,0000,,0
0,dc6dec7f-5d80-4187-b59f-f9cf188f61a4,ee789370-e040-4e08-a8e7-c5088e98e110,7,051,0,0,000,02051000018000100,0.0,2079-06-06,Центральная,0269,0269,5429d80b-cddb-40e1-9898-321cea8c7b8c,,80217810011,80617410136,1,bda61b28-20b8-4d9e-b2e7-ab8eb01e4567,018,020510000180001,452644,,02,ул,1900-01-01,0001,0251,0251,2020-08-20,000,0000,000,0,,0000,,0
1,dc6dec7f-5d80-4187-b59f-f9cf188f61a4,5429d80b-cddb-40e1-9898-321cea8c7b8c,7,051,0,0,000,02051000018000100,0.0,2079-06-06,Центральная,0269,0269,,,80258855010,80658455141,21,bda61b28-20b8-4d9e-b2e7-ab8eb01e4567,018,020510000180001,452644,ee789370-e040-4e08-a8e7-c5088e98e110,02,ул,2020-08-18,0001,0251,0251,2020-08-20,000,0000,000,1,,0000,,0
1,48f32a0d-6d43-4f1f-9784-c96bddbbeb32,48f32a0d-6d43-4f1f-9784-c96bddbbeb32,7,049,0,0,000,02049000001007700,0.0,2079-06-06,Восьмой,0278,0278,,,80256870001,80656470101,10,65a53bec-3df6-4e14-aea8-9b0e572a3b33,001,020490000010077,,,02,пер,2020-08-18,0077,0249,0249,2020-08-20,000,0000,000,1,,0071,,0
0,b117077a-d53a-46da-a88a-d8ea796d69e9,b117077a-d53a-46da-a88a-d8ea796d69e9,7,028,0,0,014,02028014000000199,99.0,2020-08-21,Цветочная,0277,0277,c24abc89-5f55-45f1-aa04-ab2cbde0f26d,,80234852001,80634452,10,3bfe5601-34c8-4a79-ac01-2ace7415c25e,000,020280140000001,452394,,02,ул,2014-11-20,0001,0228,0228,2020-08-22,000,0000,000,0,192147d0-4957-467b-83c1-b9c51b648c8a,0000,,0
1,b117077a-d53a-46da-a88a-d8ea796d69e9,c24abc89-5f55-45f1-aa04-ab2cbde0f26d,7,028,0,0,014,02028014000000199,99.0,2079-06-06,Цветочная,0277,0277,,,80234852001,80634452,30,3bfe5601-34c8-4a79-ac01-2ace7415c25e,000,020280140000001,452394,b117077a-d53a-46da-a88a-d8ea796d69e9,02,ул,2020-08-21,0001,0228,0228,2020-08-22,000,0000,000,0,,0000,,0
1,65fe9d66-b19e-4ee0-8d01-b5bb10e4de80,65fe9d66-b19e-4ee0-8d01-b5bb10e4de80,65,035,0,0,000,02035000090000200,0.0,2079-06-06,Петровское христианское кладбище,0261,0261,,,80241805003,80641405116,10,668fdc38-21ad-4f54-981b-e9cf03f8633b,090,020350000900002,453877,,02,тер.,2020-08-21,0000,0263,0263,2020-08-22,000,0000,000,1,,0002,,0
1,f93ef029-6cfd-4868-bf37-e0029a66fb83,f93ef029-6cfd-4868-bf37-e0029a66fb83,65,035,0,0,011,02035011000000100,0.0,2079-06-06,Дмитриевское мусульманское кладбище,0261,0261,,,80241855000,80641455,10,9059b882-5d46-4512-8ec3-128dbc4b32f5,000,020350110000001,,,02,тер.,2020-08-21,0000,0263,0263,2020-08-22,000,0000,000,1,,0001,,0
1,574791bd-9ad8-4f51-ba04-f1cb2f1bbec5,574791bd-9ad8-4f51-ba04-f1cb2f1bbec5,65,035,0,0,000,02035000084000800,0.0,2079-06-06,Александровское христианское кладбище,0261,0261,,,80241805001,80641405101,10,759a443b-f69d-4f5c-8130-38320376b2a8,084,020350000840008,453877,,02,тер.,2020-08-21,0000,0263,0263,2020-08-22,000,0000,000,1,,0008,,0
1,be51dffc-91ad-4b6f-bba4-896337c343e6,be51dffc-91ad-4b6f-bba4-896337c343e6,7,009,0,0,001,02009001000003500,0.0,2079-06-06,Растворная,0269,0269,,,80405000000,80609101001,10,162c7894-b237-4963-9be8-d55324d88ad0,000,020090010000035,452000,,02,ул,2020-08-21,0035,0255,0255,2020-08-22,000,0000,000,1,,0906,,0
1,afeb8337-a8f5-41ab-897a-f66be3fba926,afeb8337-a8f5-41ab-897a-f66be3fba926,65,022,0,0,000,02022000000007700,0.0,2079-06-06,РТП,0261,0261,,,80226837000,80626437,10,024c5ff7-f022-4304-a872-2582b880cdc2,000,020220000000077,,,02,тер.,2020-08-21,0000,0222,0222,2020-08-22,000,0000,000,1,,0077,,0
1,543748cc-6594-4aba-aba0-bfa07b6c438c,543748cc-6594-4aba-aba0-bfa07b6c438c,65,035,0,0,000,02035000000003200,0.0,2079-06-06,Нордовское мусульманское кладбище,0261,0261,,,80241855000,80641455,10,a04fc116-04ac-477f-8f4b-08b7159280fc,000,020350000000032,,,02,тер.,2020-08-21,0000,0263,0263,2020-08-22,000,0000,000,1,,0032,,0
1,0d586ada-654a-4df7-a0a6-c30090d1f81a,0d586ada-654a-4df7-a0a6-c30090d1f81a,65,035,0,0,000,02035000087000300,0.0,2079-06-06,Хлебодаровское христианское кладбище,0261,0261,,,80241805004,80641405106,10,5696a0f3-c48f-4697-b735-42338745fcc5,087,020350000870003,453877,,02,тер.,2020-08-21,0000,0263,0263,2020-08-22,000,0000,000,1,,0003,,0
1,383a6b52-4270-46e4-816a-4601bfcc98ed,383a6b52-4270-46e4-816a-4601bfcc98ed,65,035,0,0,000,02035000000003100,0.0,2079-06-06,Нордовское христианское кладбище,0261,0261,,,80241855000,80641455,10,a04fc116-04ac-477f-8f4b-08b7159280fc,000,020350000000031,,,02,тер.,2020-08-21,0000,0263,0263,2020-08-22,000,0000,000,1,,0031,,0
1,722147c5-d4e0-4dd2-9bd5-2b839dae364b,722147c5-d4e0-4dd2-9bd5-2b839dae364b,7,024,0,0,000,02024000000048000,0.0,2079-06-06,Вишневая,0273,0273,,,80228803000,80628403,10,e829d515-e513-49f7-b83d-a5e800556720,000,020240000000480,452418,,02,ул,2020-08-21,0480,0224,0224,2020-08-22,000,0000,000,1,,0239,,0
1,7dec554d-0024-41ea-a55a-b781e732f806,7dec554d-0024-41ea-a55a-b781e732f806,65,041,0,0,000,02041000055000700,0.0,2079-06-06,Ибракаевская машино-тракторная мастерская,0268,0268,,,80248845003,80648445126,10,87e969b6-7b73-461a-97f2-0d77db9eb40a,055,020410000550007,453196,,02,тер.,2020-08-20,0000,0241,0241,2020-08-22,000,0000,000,1,,0007,,0
1,ae2df653-b658-4153-99f0-d7443ebea84a,ae2df653-b658-4153-99f0-d7443ebea84a,65,035,0,0,000,02035000088000400,0.0,2079-06-06,Андреевское христианское кладбище,0261,0261,,,80241805002,80641405111,10,c03f848d-98b9-4285-8921-915e11548b8d,088,020350000880004,453877,,02,тер.,2020-08-21,0000,0263,0263,2020-08-22,000,0000,000,1,,0004,,0
1,43fb6c04-963b-410f-8bfb-0d6034b4f109,43fb6c04-963b-410f-8bfb-0d6034b4f109,65,041,0,0,000,02041000055000600,0.0,2079-06-06,Ибракаевский молочно-товарный комплекс,0268,0268,,,80248845003,80648445126,10,87e969b6-7b73-461a-97f2-0d77db9eb40a,055,020410000550006,453196,,02,тер.,2020-08-20,0000,0241,0241,2020-08-22,000,0000,000,1,,0006,,0
1,3616674b-359b-43f3-8406-f12617b6efba,3616674b-359b-43f3-8406-f12617b6efba,65,035,0,0,000,02035000000003500,0.0,2079-06-06,Варваринское христианское кладбище,0261,0261,,,80241855000,80641455,10,a04fc116-04ac-477f-8f4b-08b7159280fc,000,020350000000035,,,02,тер.,2020-08-25,0000,0263,0263,2020-08-27,000,0000,000,1,,0035,,0
1,dd55d490-9bc3-4d02-b581-7b18f64a93ff,dd55d490-9bc3-4d02-b581-7b18f64a93ff,65,035,0,0,000,02035000000003400,0.0,2079-06-06,Дмитриевское христианское новое кладбище,0261,0261,,,80241855000,80641455,10,a04fc116-04ac-477f-8f4b-08b7159280fc,000,020350000000034,,,02,тер.,2020-08-25,0000,0263,0263,2020-08-27,000,0000,000,1,,0034,,0
1,58a679e6-8669-4596-8faa-9c4cde3e23b1,58a679e6-8669-4596-8faa-9c4cde3e23b1,65,035,0,0,000,02035000084000900,0.0,2079-06-06,Вишнёвское христианское кладбище,0261,0261,,,80241805001,80641405101,10,759a443b-f69d-4f5c-8130-38320376b2a8,084,020350000840009,453877,,02,тер.,2020-08-25,0000,0263,0263,2020-08-27,000,0000,000,1,,0009,,0
1,cab7c8f4-e720-40a2-af6c-b75f1a6e1cbd,cab7c8f4-e720-40a2-af6c-b75f1a6e1cbd,65,035,0,0,000,02035000000003300,0.0,2079-06-06,Дмитриевское христианское старое кладбище,0261,0261,,,80241855000,80641455,10,a04fc116-04ac-477f-8f4b-08b7159280fc,000,020350000000033,,,02,тер.,2020-08-25,0000,0263,0263,2020-08-27,000,0000,000,1,,0033,,0
1,6475cc2f-1204-497a-909e-bab6f5304888,6475cc2f-1204-497a-909e-bab6f5304888,65,035,0,0,000,02035000000003700,0.0,2079-06-06,Сухое озеро,0261,0261,,,80241855000,80641455,10,a04fc116-04ac-477f-8f4b-08b7159280fc,000,020350000000037,,,02,тер.,2020-08-26,0000,0263,0263,2020-08-27,000,0000,000,1,,0037,,0
1,8a6c6363-c113-493a-98fa-6a1a58b32c1b,8a6c6363-c113-493a-98fa-6a1a58b32c1b,7,042,0,0,000,02042000000013500,0.0,2079-06-06,№13,0268,0268,,,80249804000,80649404,10,d73f2cd6-7762-40bf-bc8f-0c1c6ac3ddbe,000,020420000000135,453141,,02,ул,2020-08-25,0135,0242,0242,2020-08-27,000,0000,000,1,,0115,,0
1,89a4dace-da30-4b9e-8f6d-0e8974a54781,89a4dace-da30-4b9e-8f6d-0e8974a54781,65,035,0,0,000,02035000000003600,0.0,2079-06-06,Новотроевское христианское кладбище,0261,0261,,,80241855000,80641455,10,a04fc116-04ac-477f-8f4b-08b7159280fc,000,020350000000036,,,02,тер.,2020-08-25,0000,0263,0263,2020-08-27,000,0000,000,1,,0036,,0
