ACTSTATUS,AOGUID,AOID,AOLEVEL,AREACODE,AUTOCODE,CENTSTATUS,CITYCODE,CODE,CURRSTATUS,ENDDATE,FORMALNAME,IFNSFL,IFNSUL,NEXTID,OFFNAME,OKATO,OKTMO,OPERSTATUS,PARENTGUID,PLACECODE,PLAINCODE,POSTALCODE,PREVID,REGIONCODE,SHORTNAME,STARTDATE,STREETCODE,TERRIFNSFL,TERRIFNSUL,UPDATEDATE,CTARCODE,EXTRCODE,SEXTCODE,LIVESTATUS,NORMDOC,PLANCODE,CADNUM,DIVTYPE
1,32087922-145d-49bf-a954-66e1525e5939,32087922-145d-49bf-a954-66e1525e5939,7,037,0,0,000,05037000011004900,0.0,2079-06-06,Озерная,0544,0544,,,82254000006,82654418101,10,ee36f595-56de-4161-a80b-3a96129e8d0c,011,050370000110049,368030,,05,ул,2020-08-27,0049,0534,0534,2020-08-30,000,0000,000,1,,0000,,0
0,fac12d21-4f6a-4af6-a7f5-5e194ca71534,e3119457-62c4-454e-983b-e3cef83842ac,6,032,0,0,000,0503200003201,1.0,2020-08-27,Сийидкент,0529,0529,2e9fc42e-4111-4fbb-8797-51a17d19caec,,82247845002,82647445,1,c5fc372c-3f49-4342-ba50-bdcfb83f17b1,032,05032000032,368761,,05,с,1900-01-01,0000,,,2020-08-30,000,0000,000,0,,0000,,0
0,fac12d21-4f6a-4af6-a7f5-5e194ca71534,2e9fc42e-4111-4fbb-8797-51a17d19caec,6,032,0,0,000,0503200003202,2.0,2019-12-03,Сийидкент,0529,0529,c761518c-aafd-4093-a281-8ef3bbb7555d,,82247845002,82647445111,21,c5fc372c-3f49-4342-ba50-bdcfb83f17b1,032,05032000032,,e3119457-62c4-454e-983b-e3cef83842ac,05,с,2014-01-05,0000,,,2020-08-30,000,0000,000,0,,0000,,0
0,fac12d21-4f6a-4af6-a7f5-5e194ca71534,c761518c-aafd-4093-a281-8ef3bbb7555d,6,032,0,0,000,0503200003203,3.0,2019-04-15,Сийидкент,0529,0529,8f72ea5b-608d-4e16-a995-f9e5fd30aa06,,82247845002,82647445111,21,c5fc372c-3f49-4342-ba50-bdcfb83f17b1,032,05032000032,,2e9fc42e-4111-4fbb-8797-51a17d19caec,05,с,2018-07-12,0000,,,2020-08-30,000,0000,000,0,03b7a95d-c979-4657-96bb-f2856679ba77,0000,,0
0,fac12d21-4f6a-4af6-a7f5-5e194ca71534,8f72ea5b-608d-4e16-a995-f9e5fd30aa06,6,032,0,0,000,0503200003204,4.0,2019-06-28,Сийидкент,0529,0529,bbd6df49-af0c-4d2e-bf28-6a7ff2244984,,82247845002,82647445111,21,c5fc372c-3f49-4342-ba50-bdcfb83f17b1,032,05032000032,,c761518c-aafd-4093-a281-8ef3bbb7555d,05,с,2019-04-15,0000,,,2020-08-30,000,0000,000,0,03b7a95d-c979-4657-96bb-f2856679ba77,0000,,0
0,fac12d21-4f6a-4af6-a7f5-5e194ca71534,bbd6df49-af0c-4d2e-bf28-6a7ff2244984,6,032,0,0,000,0503200003205,5.0,2019-12-03,Сийидкент,0529,0529,b71246f0-7fa2-419a-91bc-d550b47e17e3,,82247845002,82647445111,21,c5fc372c-3f49-4342-ba50-bdcfb83f17b1,032,05032000032,,8f72ea5b-608d-4e16-a995-f9e5fd30aa06,05,с,2019-06-28,0000,,,2020-08-30,000,0000,000,0,03b7a95d-c979-4657-96bb-f2856679ba77,0000,,0
0,fac12d21-4f6a-4af6-a7f5-5e194ca71534,b71246f0-7fa2-419a-91bc-d550b47e17e3,6,032,0,0,000,0503200003206,6.0,2020-08-27,Сийидкент,0529,0529,a4448d0d-f4dc-4206-ad30-faa3e33d08bf,,82247845002,82647445111,21,c5fc372c-3f49-4342-ba50-bdcfb83f17b1,032,05032000032,,bbd6df49-af0c-4d2e-bf28-6a7ff2244984,05,с,2019-12-03,0000,,,2020-08-30,000,0000,000,0,462a3829-5500-4fe5-939d-c45f76ecb346,0000,,0
0,fac12d21-4f6a-4af6-a7f5-5e194ca71534,a4448d0d-f4dc-4206-ad30-faa3e33d08bf,6,032,0,0,000,0503200003206,6.0,2079-06-06,Сийидкент,0529,0529,3219bc4b-5486-452b-b6c2-d9e07d0ff0a9,,82247845002,82647445111,21,c5fc372c-3f49-4342-ba50-bdcfb83f17b1,032,05032000032,368760,b71246f0-7fa2-419a-91bc-d550b47e17e3,05,с,2020-05-08,0000,,,2020-08-30,000,0000,000,0,462a3829-5500-4fe5-939d-c45f76ecb346,0000,,0
1,fac12d21-4f6a-4af6-a7f5-5e194ca71534,3219bc4b-5486-452b-b6c2-d9e07d0ff0a9,6,032,0,0,000,0503200003200,0.0,2079-06-06,Саидкент,0529,0529,,,82247845002,82647445111,20,c5fc372c-3f49-4342-ba50-bdcfb83f17b1,032,05032000032,368760,a4448d0d-f4dc-4206-ad30-faa3e33d08bf,05,с,2020-08-27,0000,,,2020-08-30,000,0000,000,1,ca87d87a-e31c-4253-9169-e1d69472aa1e,0000,,0
0,b7082396-a5e8-4cd3-8cbf-6d142941901c,b7082396-a5e8-4cd3-8cbf-6d142941901c,7,000,0,0,009,05000009000075401,1.0,2020-08-31,Абдулкагирова Абдулкагира Сираждиновича,0544,0544,7f567d15-3ec5-47df-940d-01c7989bc4d6,,82435000000,82735000001,10,b10ca6a7-e9c0-4382-b939-4787aaf43a58,000,050000090000754,368000,,05,ул,2002-08-22,0754,,,2020-09-03,000,0000,000,0,999dbf40-a073-4f3f-bd61-6eb9d8d34c94,0000,,0
1,b7082396-a5e8-4cd3-8cbf-6d142941901c,7f567d15-3ec5-47df-940d-01c7989bc4d6,7,000,0,0,009,05000009000075400,0.0,2079-06-06,Абдулкагира Абдулкагирова,0544,0544,,,82435000000,82735000001,20,b10ca6a7-e9c0-4382-b939-4787aaf43a58,000,050000090000754,368000,b7082396-a5e8-4cd3-8cbf-6d142941901c,05,ул,2020-08-31,0754,,,2020-09-03,000,0000,000,1,,0000,,0
0,7379fe5e-fdd9-4733-9ce6-a745a468231b,7379fe5e-fdd9-4733-9ce6-a745a468231b,7,000,0,0,009,05000009000076101,1.0,2020-08-31,Каймурзаева Али Вазирхановича,0544,0544,96732508-5379-49cf-b71b-62a8e724ef33,,82435000000,82735000001,10,b10ca6a7-e9c0-4382-b939-4787aaf43a58,000,050000090000761,368000,,05,ул,2015-04-27,0761,,,2020-09-03,000,0000,000,0,c2b11c9e-bd25-45dd-b92c-503f0c6bc7d0,0000,,0
1,7379fe5e-fdd9-4733-9ce6-a745a468231b,96732508-5379-49cf-b71b-62a8e724ef33,7,000,0,0,009,05000009000076100,0.0,2079-06-06,Али Коймурзаева,0544,0544,,,82435000000,82735000001,20,b10ca6a7-e9c0-4382-b939-4787aaf43a58,000,050000090000761,368000,7379fe5e-fdd9-4733-9ce6-a745a468231b,05,ул,2020-08-31,0761,,,2020-09-03,000,0000,000,1,,0000,,0
0,996a3843-3045-4a42-9c01-750a9b01e82b,996a3843-3045-4a42-9c01-750a9b01e82b,7,000,0,0,009,05000009000056101,1.0,2020-08-31,Санитарная улица 3-й,0544,0544,75929c8c-30cd-4819-b0a2-f6a71fbae885,,82435000000,82735000001,10,b10ca6a7-e9c0-4382-b939-4787aaf43a58,000,050000090000561,368009,,05,проезд,2002-08-22,0561,0534,0534,2020-09-03,000,0000,000,0,,0000,,0
1,996a3843-3045-4a42-9c01-750a9b01e82b,75929c8c-30cd-4819-b0a2-f6a71fbae885,7,000,0,0,009,05000009000056100,0.0,2079-06-06,Муслима Атаева,0544,0544,,,82435000000,82735000001,20,b10ca6a7-e9c0-4382-b939-4787aaf43a58,000,050000090000561,368009,996a3843-3045-4a42-9c01-750a9b01e82b,05,проезд,2020-08-31,0561,0534,0534,2020-09-03,000,0000,000,1,,0000,,0
0,c1cda64b-b5d8-4bf8-89f7-db61a064795b,c1cda64b-b5d8-4bf8-89f7-db61a064795b,7,000,0,0,009,05000009000075701,1.0,2020-08-31,Гаджиева Умарасхаба Алисултановича,0544,0544,be95ec52-d828-4c4e-9ad2-964c33a4bd23,,82435000000,82735000001,10,b10ca6a7-e9c0-4382-b939-4787aaf43a58,000,050000090000757,368000,,05,ул,2015-04-27,0757,,,2020-09-03,000,0000,000,0,d2f57afd-221a-4b0f-b1d6-1c591944470d,0000,,0
1,c1cda64b-b5d8-4bf8-89f7-db61a064795b,be95ec52-d828-4c4e-9ad2-964c33a4bd23,7,000,0,0,009,05000009000075700,0.0,2079-06-06,Умарасхаба Гаджаева,0544,0544,,,82435000000,82735000001,20,b10ca6a7-e9c0-4382-b939-4787aaf43a58,000,050000090000757,368000,c1cda64b-b5d8-4bf8-89f7-db61a064795b,05,ул,2020-08-31,0757,,,2020-09-03,000,0000,000,1,,0000,,0
0,3b819868-1354-48ac-a9c1-c5e2440012e9,3b819868-1354-48ac-a9c1-c5e2440012e9,7,000,0,0,009,05000009000075001,1.0,2020-08-31,Гамидова Далгата Рамазановича,0544,0544,7a0a5a13-8c88-40cb-84a2-fd14d822044e,,82435000000,82735000001,10,b10ca6a7-e9c0-4382-b939-4787aaf43a58,000,050000090000750,368000,,05,ул,2002-08-22,0750,,,2020-09-03,000,0000,000,0,826c9e2b-e54f-45b0-9e4e-c53181f67439,0000,,0
1,3b819868-1354-48ac-a9c1-c5e2440012e9,7a0a5a13-8c88-40cb-84a2-fd14d822044e,7,000,0,0,009,05000009000075000,0.0,2079-06-06,Далгата Гамидова,0544,0544,,,82435000000,82735000001,20,b10ca6a7-e9c0-4382-b939-4787aaf43a58,000,050000090000750,368000,3b819868-1354-48ac-a9c1-c5e2440012e9,05,ул,2020-08-31,0750,,,2020-09-03,000,0000,000,1,,0000,,0
0,93efcbf3-f1a9-4e3b-b84a-78c72ea318d6,93efcbf3-f1a9-4e3b-b84a-78c72ea318d6,7,000,0,0,009,05000009000075901,1.0,2020-08-31,Магомедова Будайхана Ибрайхановича,0544,0544,b2dfbf34-1b47-4269-a60b-e20d609cc64a,,82435000000,82735000001,10,b10ca6a7-e9c0-4382-b939-4787aaf43a58,000,050000090000759,368000,,05,ул,2015-04-27,0759,,,2020-09-03,000,0000,000,0,60c185d1-4570-4453-a968-97381bde679d,0000,,0
1,93efcbf3-f1a9-4e3b-b84a-78c72ea318d6,b2dfbf34-1b47-4269-a60b-e20d609cc64a,7,000,0,0,009,05000009000075900,0.0,2079-06-06,Будайхана Магомедова,0544,0544,,,82435000000,82735000001,20,b10ca6a7-e9c0-4382-b939-4787aaf43a58,000,050000090000759,368000,93efcbf3-f1a9-4e3b-b84a-78c72ea318d6,05,ул,2020-08-31,0759,,,2020-09-03,000,0000,000,1,,0000,,0
0,46c50b80-1d22-461b-8c88-10095033518b,46c50b80-1d22-461b-8c88-10095033518b,7,000,0,0,009,05000009000075801,1.0,2020-08-31,Лабазанова Гусейна Ахмедовича,0544,0544,e56a8bef-d8d5-4f4e-80fd-2009e80d5433,,82435000000,82735000001,10,b10ca6a7-e9c0-4382-b939-4787aaf43a58,000,050000090000758,368000,,05,ул,2015-04-27,0758,,,2020-09-03,000,0000,000,0,ff475c5b-1a5a-4fe9-9fa1-99ccaea6f176,0000,,0
1,46c50b80-1d22-461b-8c88-10095033518b,e56a8bef-d8d5-4f4e-80fd-2009e80d5433,7,000,0,0,009,05000009000075800,0.0,2079-06-06,Гусейна Лабазанова,0544,0544,,,82435000000,82735000001,20,b10ca6a7-e9c0-4382-b939-4787aaf43a58,000,050000090000758,368000,46c50b80-1d22-461b-8c88-10095033518b,05,ул,2020-08-31,0758,,,2020-09-03,000,0000,000,1,,0000,,0
0,dd879ea5-14d9-4dc2-80fb-dfd8e73e3302,707a21ae-49c1-4b1c-b3b1-97116c12edf1,7,000,0,0,009,05000009000024601,1.0,2020-08-31,Октябрьская,0544,0544,7d989d5d-0a8d-4111-b9b5-68fdf2b624ac,,82435000000,82735000,1,b10ca6a7-e9c0-4382-b939-4787aaf43a58,000,050000090000246,368009,,05,ул,1900-01-01,0246,,,2020-09-03,000,0000,000,0,,0000,,0
1,dd879ea5-14d9-4dc2-80fb-dfd8e73e3302,7d989d5d-0a8d-4111-b9b5-68fdf2b624ac,7,000,0,0,009,05000009000024600,0.0,2079-06-06,Увайса Мусаева,0544,0544,,,82435000000,82735000001,20,b10ca6a7-e9c0-4382-b939-4787aaf43a58,000,050000090000246,368009,707a21ae-49c1-4b1c-b3b1-97116c12edf1,05,ул,2020-08-31,0246,,,2020-09-03,000,0000,000,1,,0000,,0
0,bd40018c-7a0f-4ef1-bdf8-8209c9da6a67,bd40018c-7a0f-4ef1-bdf8-8209c9da6a67,7,000,0,0,009,05000009000075501,1.0,2020-08-31,Магуева Январа Саидмагомедовича,0544,0544,13f0080a-2170-47fc-819e-4389414f2f6f,,82435000000,82735000001,10,b10ca6a7-e9c0-4382-b939-4787aaf43a58,000,050000090000755,368000,,05,ул,2015-04-27,0755,,,2020-09-03,000,0000,000,0,e84cf2cb-7010-47ad-ae07-cac7a96c5b11,0000,,0
1,bd40018c-7a0f-4ef1-bdf8-8209c9da6a67,13f0080a-2170-47fc-819e-4389414f2f6f,7,000,0,0,009,05000009000075500,0.0,2079-06-06,Январа Мугуева,0544,0544,,,82435000000,82735000001,20,b10ca6a7-e9c0-4382-b939-4787aaf43a58,000,050000090000755,368000,bd40018c-7a0f-4ef1-bdf8-8209c9da6a67,05,ул,2020-08-31,0755,,,2020-09-03,000,0000,000,1,,0000,,0
0,942c4b06-7fc1-473f-8038-6102d28dab61,942c4b06-7fc1-473f-8038-6102d28dab61,7,000,0,0,009,05000009000075601,1.0,2020-08-31,Ташуева ВисраилаМавсаровича,0544,0544,5b826c25-3ae9-417e-bad6-ac8a1ed6fcc4,,82435000000,82735000001,10,b10ca6a7-e9c0-4382-b939-4787aaf43a58,000,050000090000756,368000,,05,ул,2015-04-27,0756,,,2020-09-03,000,0000,000,0,9b4d0c8c-0641-4e8f-b91c-4c6b119c2495,0000,,0
1,942c4b06-7fc1-473f-8038-6102d28dab61,5b826c25-3ae9-417e-bad6-ac8a1ed6fcc4,7,000,0,0,009,05000009000075600,0.0,2079-06-06,Висраила Ташуева,0544,0544,,,82435000000,82735000001,20,b10ca6a7-e9c0-4382-b939-4787aaf43a58,000,050000090000756,368000,942c4b06-7fc1-473f-8038-6102d28dab61,05,ул,2020-08-31,0756,,,2020-09-03,000,0000,000,1,,0000,,0
0,f01a0ff2-2454-4392-b6a3-90ba4dfd0536,f01a0ff2-2454-4392-b6a3-90ba4dfd0536,7,037,0,0,000,05037000050011101,1.0,2019-04-29,Садовая,0544,0544,fcc4a49d-d470-4e5b-aa60-7a1976ef177a,,82254000030,82654409101,10,d84919ff-1c9d-4df1-be02-8d8455d06afc,050,050370000500111,,,05,ул,2016-12-08,0111,0534,0534,2020-09-03,000,0000,000,0,e241603f-125b-4e27-bb77-36ea76bb19ec,0000,,0
0,f01a0ff2-2454-4392-b6a3-90ba4dfd0536,fcc4a49d-d470-4e5b-aa60-7a1976ef177a,7,037,0,0,000,05037000050011102,2.0,2020-05-20,Садовая,0544,0544,903bfa01-72b8-458e-a77c-2c93b47dea16,,82254000030,82654409101,21,d84919ff-1c9d-4df1-be02-8d8455d06afc,050,050370000500111,368040,f01a0ff2-2454-4392-b6a3-90ba4dfd0536,05,ул,2018-08-01,0111,0534,0534,2020-09-03,000,0000,000,0,03b7a95d-c979-4657-96bb-f2856679ba77,0000,,0
0,f01a0ff2-2454-4392-b6a3-90ba4dfd0536,903bfa01-72b8-458e-a77c-2c93b47dea16,7,037,0,0,000,05037000050011103,3.0,2020-08-31,Индирчиева Шахболата Бийболатовича,0544,0544,1d96dfa0-238e-4230-8444-4a5039eb8e27,,82254000030,82654409101,20,d84919ff-1c9d-4df1-be02-8d8455d06afc,050,050370000500111,368040,fcc4a49d-d470-4e5b-aa60-7a1976ef177a,05,ул,2019-04-29,0111,0534,0534,2020-09-03,000,0000,000,0,5dbb7c5a-963d-47ee-9cc6-d0e59c7c9456,0000,,0
0,f01a0ff2-2454-4392-b6a3-90ba4dfd0536,1d96dfa0-238e-4230-8444-4a5039eb8e27,7,037,0,0,000,05037000050011103,3.0,2079-06-06,Индирчиева Шахболата Бийболатовича,0544,0544,d9ef592e-c9ce-499c-932e-63bfc9d55a1e,,82254000030,82654409101,21,d84919ff-1c9d-4df1-be02-8d8455d06afc,050,050370000500111,368040,903bfa01-72b8-458e-a77c-2c93b47dea16,05,ул,2020-05-20,0111,0534,0534,2020-09-03,000,0000,000,0,462a3829-5500-4fe5-939d-c45f76ecb346,0000,,0
1,f01a0ff2-2454-4392-b6a3-90ba4dfd0536,d9ef592e-c9ce-499c-932e-63bfc9d55a1e,7,037,0,0,000,05037000050011100,0.0,2079-06-06,Индырчиева Шахболата Бийболатовича,0544,0544,,,82254000030,82654409101,20,d84919ff-1c9d-4df1-be02-8d8455d06afc,050,050370000500111,368040,1d96dfa0-238e-4230-8444-4a5039eb8e27,05,ул,2020-08-31,0111,0534,0534,2020-09-03,000,0000,000,1,,0000,,0
0,bdc8c870-9caf-456e-ac14-b1e624350aa7,bdc8c870-9caf-456e-ac14-b1e624350aa7,7,000,0,0,009,05000009000075201,1.0,2020-08-31,Джапарова Бега Салмановича,0544,0544,09a947a8-8a95-45e1-8ef1-8339c9657269,,82435000000,82735000001,10,b10ca6a7-e9c0-4382-b939-4787aaf43a58,000,050000090000752,368000,,05,ул,2002-08-22,0752,,,2020-09-03,000,0000,000,0,94fe5911-87c4-4008-8e12-71ec4e3d98be,0000,,0
1,bdc8c870-9caf-456e-ac14-b1e624350aa7,09a947a8-8a95-45e1-8ef1-8339c9657269,7,000,0,0,009,05000009000075200,0.0,2079-06-06,Бега Джапарова,0544,0544,,,82435000000,82735000001,20,b10ca6a7-e9c0-4382-b939-4787aaf43a58,000,050000090000752,368000,bdc8c870-9caf-456e-ac14-b1e624350aa7,05,ул,2020-08-31,0752,,,2020-09-03,000,0000,000,1,,0000,,0
0,b3e61d15-ce52-489a-9f6b-2f521a847f32,b3e61d15-ce52-489a-9f6b-2f521a847f32,7,000,0,0,009,05000009000075301,1.0,2020-08-31,Шамилова Салима Сайпудиновича,0544,0544,7c2f5403-8f78-4022-8565-0659b9de9783,,82435000000,82735000001,10,b10ca6a7-e9c0-4382-b939-4787aaf43a58,000,050000090000753,368000,,05,ул,2002-08-22,0753,,,2020-09-03,000,0000,000,0,ae3b7591-7d1c-4be6-ada0-948556ddb621,0000,,0
1,b3e61d15-ce52-489a-9f6b-2f521a847f32,7c2f5403-8f78-4022-8565-0659b9de9783,7,000,0,0,009,05000009000075300,0.0,2079-06-06,Салима Шамилова,0544,0544,,,82435000000,82735000001,20,b10ca6a7-e9c0-4382-b939-4787aaf43a58,000,050000090000753,368000,b3e61d15-ce52-489a-9f6b-2f521a847f32,05,ул,2020-08-31,0753,,,2020-09-03,000,0000,000,1,,0000,,0
0,6a65cba4-65a2-491e-8c8e-3a91204329e4,6a65cba4-65a2-491e-8c8e-3a91204329e4,7,000,0,0,009,05000009000076001,1.0,2020-08-31,Казиева Загирхана Магомедовича,0544,0544,d40008d8-06bd-40a5-8756-0a2be585d405,,82435000000,82735000001,10,b10ca6a7-e9c0-4382-b939-4787aaf43a58,000,050000090000760,368001,,05,ул,2015-04-27,0760,,,2020-09-03,000,0000,000,0,200f74d8-d0b6-4720-9b9a-409e7b270b0a,0000,,0
1,6a65cba4-65a2-491e-8c8e-3a91204329e4,d40008d8-06bd-40a5-8756-0a2be585d405,7,000,0,0,009,05000009000076000,0.0,2079-06-06,Загирхана Казиева,0544,0544,,,82435000000,82735000001,20,b10ca6a7-e9c0-4382-b939-4787aaf43a58,000,050000090000760,368001,6a65cba4-65a2-491e-8c8e-3a91204329e4,05,ул,2020-08-31,0760,,,2020-09-03,000,0000,000,1,,0000,,0
0,633decdc-f6d4-4acd-be0c-d1587d5a1256,633decdc-f6d4-4acd-be0c-d1587d5a1256,7,000,0,0,009,05000009000075101,1.0,2020-08-31,Атаева Марата Бамматовича,0544,0544,56974e04-20fc-490d-8f6e-8bf3aae71db6,,82435000000,82735000001,10,b10ca6a7-e9c0-4382-b939-4787aaf43a58,000,050000090000751,368000,,05,ул,2002-08-22,0751,,,2020-09-03,000,0000,000,0,763ae379-7243-4232-934c-ce4537ddb67a,0000,,0
1,633decdc-f6d4-4acd-be0c-d1587d5a1256,56974e04-20fc-490d-8f6e-8bf3aae71db6,7,000,0,0,009,05000009000075100,0.0,2079-06-06,Марата Атаева,0544,0544,,,82435000000,82735000001,20,b10ca6a7-e9c0-4382-b939-4787aaf43a58,000,050000090000751,368000,633decdc-f6d4-4acd-be0c-d1587d5a1256,05,ул,2020-08-31,0751,,,2020-09-03,000,0000,000,1,,0000,,0
0,e7a2d8e1-0cca-4545-8956-ee97eedc62e4,e7a2d8e1-0cca-4545-8956-ee97eedc62e4,7,000,0,0,009,05000009000076201,1.0,2020-08-31,Вазирханова Даитбека Ахмедхановича,0544,0544,185c233d-31c9-4731-a35d-0b94f25dc5c3,,82435000000,82735000001,10,b10ca6a7-e9c0-4382-b939-4787aaf43a58,000,050000090000762,368000,,05,ул,2015-04-27,0762,,,2020-09-03,000,0000,000,0,053c57f9-e548-4d44-a07a-569146bebdcd,0000,,0
1,e7a2d8e1-0cca-4545-8956-ee97eedc62e4,185c233d-31c9-4731-a35d-0b94f25dc5c3,7,000,0,0,009,05000009000076200,0.0,2079-06-06,Даитбека Вазирханова,0544,0544,,,82435000000,82735000001,20,b10ca6a7-e9c0-4382-b939-4787aaf43a58,000,050000090000762,368000,e7a2d8e1-0cca-4545-8956-ee97eedc62e4,05,ул,2020-08-31,0762,,,2020-09-03,000,0000,000,1,,0000,,0
0,7ea6895f-8573-4550-9906-0002a69f53da,7ea6895f-8573-4550-9906-0002a69f53da,7,037,0,0,000,05037000013000201,1.0,2020-08-13,Олимпийская,0544,0544,ad7dfdb8-85c2-49ce-8fcb-62654c8c025d,,82254000027,82654429101,10,6a30c8e5-c6e2-4588-be2a-1e5e4ee9eeef,013,050370000130002,368036,,05,ул,2012-11-10,0002,0534,0534,2020-08-16,000,0000,000,0,7350ad31-6543-4d6f-9563-14c4d3a09ae8,0000,,0
1,7ea6895f-8573-4550-9906-0002a69f53da,ad7dfdb8-85c2-49ce-8fcb-62654c8c025d,7,037,0,0,000,05037000013000200,0.0,2079-06-06,Джамалудина Гамзатова,0544,0544,,,82254000027,82654429101,20,6a30c8e5-c6e2-4588-be2a-1e5e4ee9eeef,013,050370000130002,368036,7ea6895f-8573-4550-9906-0002a69f53da,05,ул,2020-08-13,0002,0534,0534,2020-08-16,000,0000,000,1,,0000,,0
0,b75e5974-3f3d-44c3-aefa-85630d3cca73,b75e5974-3f3d-44c3-aefa-85630d3cca73,7,037,0,0,000,05037000013001101,1.0,2020-08-13,Мира,0544,0544,46de4564-1fa6-4ce3-8eff-f1f4e5a9cfb4,,82254000027,82654429101,10,6a30c8e5-c6e2-4588-be2a-1e5e4ee9eeef,013,050370000130011,368036,,05,ул,2012-11-10,0011,0534,0534,2020-08-16,000,0000,000,0,7350ad31-6543-4d6f-9563-14c4d3a09ae8,0000,,0
1,b75e5974-3f3d-44c3-aefa-85630d3cca73,46de4564-1fa6-4ce3-8eff-f1f4e5a9cfb4,7,037,0,0,000,05037000013001100,0.0,2079-06-06,Имама Шамиля,0544,0544,,,82254000027,82654429101,20,6a30c8e5-c6e2-4588-be2a-1e5e4ee9eeef,013,050370000130011,368036,b75e5974-3f3d-44c3-aefa-85630d3cca73,05,ул,2020-08-13,0011,0534,0534,2020-08-16,000,0000,000,1,,0000,,0
0,3505c6f5-047e-4296-8243-a1695724d6d2,3505c6f5-047e-4296-8243-a1695724d6d2,7,037,0,0,000,05037000013000301,1.0,2020-08-13,Школьная,0544,0544,bc0ad856-bc18-40cb-929a-c6bb30f54045,,82254000027,82654429101,10,6a30c8e5-c6e2-4588-be2a-1e5e4ee9eeef,013,050370000130003,368036,,05,ул,2012-11-10,0003,0534,0534,2020-08-16,000,0000,000,0,7350ad31-6543-4d6f-9563-14c4d3a09ae8,0000,,0
1,3505c6f5-047e-4296-8243-a1695724d6d2,bc0ad856-bc18-40cb-929a-c6bb30f54045,7,037,0,0,000,05037000013000300,0.0,2079-06-06,Жалалудина Зубаирова,0544,0544,,,82254000027,82654429101,20,6a30c8e5-c6e2-4588-be2a-1e5e4ee9eeef,013,050370000130003,368036,3505c6f5-047e-4296-8243-a1695724d6d2,05,ул,2020-08-13,0003,0534,0534,2020-08-16,000,0000,000,1,,0000,,0
0,c37e4dbf-694f-49e2-b4b8-935de6230494,c37e4dbf-694f-49e2-b4b8-935de6230494,7,037,0,0,000,05037000013001001,1.0,2020-08-13,Гвардейская,0544,0544,a6542857-521a-4b3c-a368-e867860fe423,,82254000027,82654429101,10,6a30c8e5-c6e2-4588-be2a-1e5e4ee9eeef,013,050370000130010,368036,,05,ул,2012-11-10,0010,0534,0534,2020-08-16,000,0000,000,0,7350ad31-6543-4d6f-9563-14c4d3a09ae8,0000,,0
1,c37e4dbf-694f-49e2-b4b8-935de6230494,a6542857-521a-4b3c-a368-e867860fe423,7,037,0,0,000,05037000013001000,0.0,2079-06-06,Бугахаджи Окмазова,0544,0544,,,82254000027,82654429101,20,6a30c8e5-c6e2-4588-be2a-1e5e4ee9eeef,013,050370000130010,368036,c37e4dbf-694f-49e2-b4b8-935de6230494,05,ул,2020-08-13,0010,0534,0534,2020-08-16,000,0000,000,1,,0000,,0
1,f19605cb-eb3f-4e93-915e-daef81dbdd6f,f19605cb-eb3f-4e93-915e-daef81dbdd6f,7,017,0,0,000,05017000004005000,0.0,2079-06-06,Загира Загирова,0554,0554,,,82235000003,82635410,10,47675742-5c2c-4010-bb80-be671ebe9acc,004,050170000040050,,,05,ул,2020-08-14,0050,0522,0522,2020-08-16,000,0000,000,1,,0000,,0
1,40a5ab4e-64ac-473e-8214-5b129e6b4ee9,40a5ab4e-64ac-473e-8214-5b129e6b4ee9,7,017,0,0,000,05017000004005100,0.0,2079-06-06,Чамсутдина Джанарсланова,0554,0554,,,82235000003,82635410,10,47675742-5c2c-4010-bb80-be671ebe9acc,004,050170000040051,368536,,05,ул,2020-08-17,0051,0522,0522,2020-08-17,000,0000,000,1,,0000,,0
1,5d0f7558-0f34-467e-a354-78f614707c57,5d0f7558-0f34-467e-a354-78f614707c57,7,017,0,0,000,05017000004005400,0.0,2079-06-06,Абулава Шихаева,0554,0554,,,82235000003,82635410,10,47675742-5c2c-4010-bb80-be671ebe9acc,004,050170000040054,368536,,05,ул,2020-08-17,0054,0522,0522,2020-08-17,000,0000,000,1,,0000,,0
1,06c81a8c-4fd0-4bd7-b8f3-04c31e02fd9c,06c81a8c-4fd0-4bd7-b8f3-04c31e02fd9c,7,017,0,0,000,05017000004005200,0.0,2079-06-06,Абдулбари Ганидова,0554,0554,,,82235000003,82635410,10,47675742-5c2c-4010-bb80-be671ebe9acc,004,050170000040052,368536,,05,ул,2020-08-17,0052,0522,0522,2020-08-17,000,0000,000,1,,0000,,0
1,6bcefd6f-2a53-49f4-bda9-f924adf5983a,6bcefd6f-2a53-49f4-bda9-f924adf5983a,7,017,0,0,000,05017000004005300,0.0,2079-06-06,Батырбия Агаимова,0554,0554,,,82235000003,82635410,10,47675742-5c2c-4010-bb80-be671ebe9acc,004,050170000040053,368536,,05,ул,2020-08-17,0053,0522,0522,2020-08-17,000,0000,000,1,,0000,,0
1,6c1bf11c-7ba3-4c60-8261-acc281ff3d57,6c1bf11c-7ba3-4c60-8261-acc281ff3d57,7,000,0,0,007,05000007000021100,0.0,2079-06-06,Береговая,0546,0546,,,82425000000,82725000001,10,efc8a6e2-ffab-4d69-a35b-019bfe89745e,000,050000070000211,,,05,ул,2020-08-20,0211,,,2020-08-22,000,0000,000,1,,0000,,0
0,6e3850ba-f3b5-40cc-8441-6715837ab75f,6e3850ba-f3b5-40cc-8441-6715837ab75f,7,006,0,0,000,05006000013000601,1.0,2020-08-24,Расулу Гамзатова,0547,0547,e114df51-257b-4b3e-8f43-47e7e07d48fb,,82207855002,82607455106,10,e012947b-6445-4127-8983-121c389ee723,013,050060000130006,368062,,05,ул,2013-03-26,0006,0505,0505,2020-08-27,000,0000,000,0,caca6702-f29a-4902-a4e3-94caff7d3084,0000,,0
1,6e3850ba-f3b5-40cc-8441-6715837ab75f,e114df51-257b-4b3e-8f43-47e7e07d48fb,7,006,0,0,000,05006000013000600,0.0,2079-06-06,Расула Гамзатова,0547,0547,,,82207855002,82607455106,20,e012947b-6445-4127-8983-121c389ee723,013,050060000130006,368062,6e3850ba-f3b5-40cc-8441-6715837ab75f,05,ул,2020-08-24,0006,0505,0505,2020-08-27,000,0000,000,1,,0000,,0
1,e24c0522-36c8-47bd-858a-aa9351a418a1,e24c0522-36c8-47bd-858a-aa9351a418a1,7,012,0,0,000,05012000061000700,0.0,2079-06-06,Подгорная,0550,0550,,,82218852004,82618452116,10,4492b2ee-b9be-47cd-afe3-453ce298e181,061,050120000610007,368570,,05,ул,2020-08-26,0007,0511,0511,2020-08-27,000,0000,000,1,,0000,,0
0,da4ffead-633d-42ff-b5bd-453ca3b68c56,da4ffead-633d-42ff-b5bd-453ca3b68c56,7,016,0,0,000,05016000024000201,1.0,2020-08-25,Родниковая,0550,0550,43b75ad7-f2cb-4578-a67d-2e396fe21439,,82223870004,82623470116,10,95532f44-778c-46d8-9a4a-715968db8a62,024,050160000240002,368593,,05,ул,2015-03-20,0002,0514,0514,2020-08-27,000,0000,000,0,9efbf775-b3b6-4310-b5e4-5d0b863aaf40,0000,,0
1,da4ffead-633d-42ff-b5bd-453ca3b68c56,43b75ad7-f2cb-4578-a67d-2e396fe21439,7,016,0,0,000,05016000024000200,0.0,2079-06-06,Раджаба Сулейманова,0550,0550,,,82223870004,82623470116,20,95532f44-778c-46d8-9a4a-715968db8a62,024,050160000240002,368593,da4ffead-633d-42ff-b5bd-453ca3b68c56,05,ул,2020-08-25,0002,0514,0514,2020-08-27,000,0000,000,1,,0000,,0
1,0054a86b-2778-44f3-b9a7-82f17f86e0bf,0054a86b-2778-44f3-b9a7-82f17f86e0bf,7,012,0,0,000,05012000061000600,0.0,2079-06-06,Центральная,0550,0550,,,82218852004,82618452116,10,4492b2ee-b9be-47cd-afe3-453ce298e181,061,050120000610006,368570,,05,ул,2020-08-26,0006,0511,0511,2020-08-27,000,0000,000,1,,0000,,0
