ACTSTATUS,AOGUID,AOID,AOLEVEL,AREACODE,AUTOCODE,CENTSTATUS,CITYCODE,CODE,CURRSTATUS,ENDDATE,FORMALNAME,IFNSFL,IFNSUL,NEXTID,OFFNAME,OKATO,OKTMO,OPERSTATUS,PARENTGUID,PLACECODE,PLAINCODE,POSTALCODE,PREVID,REGIONCODE,SHORTNAME,STARTDATE,STREETCODE,TERRIFNSFL,TERRIFNSUL,UPDATEDATE,CTARCODE,EXTRCODE,SEXTCODE,LIVESTATUS,NORMDOC,PLANCODE,CADNUM,DIVTYPE
0,bacb482f-9793-4e64-9aec-9da1f46e46cc,9554b50a-467d-4bd2-ab3d-f4f967721597,7,008,0,0,000,27008000017000701,1.0,2079-06-06,Гаражный,2713,2713,fced2642-0ea7-4ef7-a5bd-c0cb8a487de6,,08224000007,08624410,1,fb81cc68-1e2f-4fa7-b637-e8abb76d3b17,017,270080000170007,682938,,27,пер,1900-01-01,0007,,,2020-08-30,000,0000,000,0,,0000,,0
0,bacb482f-9793-4e64-9aec-9da1f46e46cc,fced2642-0ea7-4ef7-a5bd-c0cb8a487de6,7,008,0,0,000,27008000017000702,2.0,2014-01-05,Гаражный,2720,2720,34170a86-b8df-49b9-aabf-0fc32c56439c,,08224000007,08624410,21,fb81cc68-1e2f-4fa7-b637-e8abb76d3b17,017,270080000170007,682938,9554b50a-467d-4bd2-ab3d-f4f967721597,27,пер,2012-01-01,0007,2713,2713,2020-08-30,000,0000,000,0,749ca169-da00-4ea1-8270-4affb79fcc93,0000,,0
0,bacb482f-9793-4e64-9aec-9da1f46e46cc,34170a86-b8df-49b9-aabf-0fc32c56439c,7,008,0,0,000,27008000017000703,3.0,2017-02-20,Гаражный,2720,2720,0e904184-9067-4776-89e1-f0ecd3b68d55,,08224000007,08624410111,21,fb81cc68-1e2f-4fa7-b637-e8abb76d3b17,017,270080000170007,682938,fced2642-0ea7-4ef7-a5bd-c0cb8a487de6,27,пер,2014-01-05,0007,2713,2713,2020-08-30,000,0000,000,0,749ca169-da00-4ea1-8270-4affb79fcc93,0000,,0
0,bacb482f-9793-4e64-9aec-9da1f46e46cc,0e904184-9067-4776-89e1-f0ecd3b68d55,7,008,0,0,000,27008000017000704,4.0,2020-08-28,Гаражный,2720,2720,d5395e96-59a6-4b6a-8014-198ba7634cb0,,08224000003,08624410,21,fb81cc68-1e2f-4fa7-b637-e8abb76d3b17,017,270080000170007,682938,34170a86-b8df-49b9-aabf-0fc32c56439c,27,пер,2017-02-20,0007,2713,2713,2020-08-30,000,0000,000,0,749ca169-da00-4ea1-8270-4affb79fcc93,0000,,0
0,bacb482f-9793-4e64-9aec-9da1f46e46cc,d5395e96-59a6-4b6a-8014-198ba7634cb0,7,008,0,0,000,27008000017000700,0.0,2020-08-28,Гаражный,2720,2720,512f1715-e2e8-4993-a314-a14faf3d40db,,08224000007,08624410,20,fb81cc68-1e2f-4fa7-b637-e8abb76d3b17,017,270080000170007,682935,0e904184-9067-4776-89e1-f0ecd3b68d55,27,пер,2017-06-16,0007,2713,2713,2020-08-30,000,0000,000,0,b7d07e13-0ee2-43f5-b2ad-94abf3115d2a,0000,,0
1,bacb482f-9793-4e64-9aec-9da1f46e46cc,512f1715-e2e8-4993-a314-a14faf3d40db,7,008,0,0,000,27008000017000700,0.0,2079-06-06,Гаражный,2720,2720,,,08224000007,08624410111,20,fb81cc68-1e2f-4fa7-b637-e8abb76d3b17,017,270080000170007,682935,d5395e96-59a6-4b6a-8014-198ba7634cb0,27,пер,2020-08-28,0007,2713,2713,2020-08-30,000,0000,000,1,,0000,,0
0,eee31445-bda8-4639-b407-12ff4e48eeb1,f48fd118-078b-4b61-8f94-e4c9906df5c2,7,008,0,0,000,27008000017000401,1.0,2079-06-06,Почтовая,2713,2713,d33258cb-3103-4f91-862d-699c8faf7392,,08224000007,08624410,1,fb81cc68-1e2f-4fa7-b637-e8abb76d3b17,017,270080000170004,682938,,27,ул,1900-01-01,0004,,,2020-09-03,000,0000,000,0,,0000,,0
0,eee31445-bda8-4639-b407-12ff4e48eeb1,d33258cb-3103-4f91-862d-699c8faf7392,7,008,0,0,000,27008000017000402,2.0,2014-01-05,Почтовая,2720,2720,87c709bf-d9be-473a-8939-548071ad1b78,,08224000007,08624410,21,fb81cc68-1e2f-4fa7-b637-e8abb76d3b17,017,270080000170004,682938,f48fd118-078b-4b61-8f94-e4c9906df5c2,27,ул,2012-01-01,0004,2713,2713,2020-09-03,000,0000,000,0,749ca169-da00-4ea1-8270-4affb79fcc93,0000,,0
0,eee31445-bda8-4639-b407-12ff4e48eeb1,87c709bf-d9be-473a-8939-548071ad1b78,7,008,0,0,000,27008000017000403,3.0,2017-02-20,Почтовая,2720,2720,53e965ce-038e-4613-9ecf-4b88dd19ace9,,08224000007,08624410111,21,fb81cc68-1e2f-4fa7-b637-e8abb76d3b17,017,270080000170004,682938,d33258cb-3103-4f91-862d-699c8faf7392,27,ул,2014-01-05,0004,2713,2713,2020-09-03,000,0000,000,0,749ca169-da00-4ea1-8270-4affb79fcc93,0000,,0
0,eee31445-bda8-4639-b407-12ff4e48eeb1,53e965ce-038e-4613-9ecf-4b88dd19ace9,7,008,0,0,000,27008000017000400,0.0,2020-08-31,Почтовая,2720,2720,73d3e056-4a87-4409-8829-faadf47f287c,,08224000007,08624410,21,fb81cc68-1e2f-4fa7-b637-e8abb76d3b17,017,270080000170004,682935,87c709bf-d9be-473a-8939-548071ad1b78,27,ул,2017-02-20,0004,2713,2713,2020-09-03,000,0000,000,0,749ca169-da00-4ea1-8270-4affb79fcc93,0000,,0
1,eee31445-bda8-4639-b407-12ff4e48eeb1,73d3e056-4a87-4409-8829-faadf47f287c,7,008,0,0,000,27008000017000400,0.0,2079-06-06,Почтовая,2720,2720,,,08224000007,08624410111,20,fb81cc68-1e2f-4fa7-b637-e8abb76d3b17,017,270080000170004,682935,53e965ce-038e-4613-9ecf-4b88dd19ace9,27,ул,2020-08-31,0004,2713,2713,2020-09-03,000,0000,000,1,,0000,,0
0,1ed05e52-eeda-4b23-9d6c-43194bb4daa1,5524b389-ce52-4624-b896-bc5a26523d3b,7,008,0,0,000,27008000037000701,1.0,2079-06-06,Строительный,2713,2713,3ac80d57-d2c6-4c9b-a73c-be12895e309b,,08224000014,08624410,1,cef34051-1715-4506-8c70-0fd88979abcd,037,270080000370007,682910,,27,пер,1900-01-01,0007,,,2020-09-03,000,0000,000,0,,0000,,0
0,1ed05e52-eeda-4b23-9d6c-43194bb4daa1,3ac80d57-d2c6-4c9b-a73c-be12895e309b,7,008,0,0,000,27008000037000702,2.0,2014-01-05,Строительный,2720,2720,f0592d3b-cc4d-439e-84a0-b910eea8db1a,,08224000014,08624410,21,cef34051-1715-4506-8c70-0fd88979abcd,037,270080000370007,682910,5524b389-ce52-4624-b896-bc5a26523d3b,27,пер,2012-01-01,0007,2713,2713,2020-09-03,000,0000,000,0,749ca169-da00-4ea1-8270-4affb79fcc93,0000,,0
0,1ed05e52-eeda-4b23-9d6c-43194bb4daa1,f0592d3b-cc4d-439e-84a0-b910eea8db1a,7,008,0,0,000,27008000037000703,3.0,2017-02-20,Строительный,2720,2720,f81a569c-1193-4d1d-99c4-78c26a03513e,,08224000014,08624410116,21,cef34051-1715-4506-8c70-0fd88979abcd,037,270080000370007,682910,3ac80d57-d2c6-4c9b-a73c-be12895e309b,27,пер,2014-01-05,0007,2713,2713,2020-09-03,000,0000,000,0,749ca169-da00-4ea1-8270-4affb79fcc93,0000,,0
0,1ed05e52-eeda-4b23-9d6c-43194bb4daa1,f81a569c-1193-4d1d-99c4-78c26a03513e,7,008,0,0,000,27008000037000700,0.0,2020-08-31,Строительный,2720,2720,ed19119e-5c96-4e44-bcd6-84aefe523cbd,,08224000014,08624410,21,cef34051-1715-4506-8c70-0fd88979abcd,037,270080000370007,,f0592d3b-cc4d-439e-84a0-b910eea8db1a,27,пер,2017-02-20,0007,2713,2713,2020-09-03,000,0000,000,0,749ca169-da00-4ea1-8270-4affb79fcc93,0000,,0
1,1ed05e52-eeda-4b23-9d6c-43194bb4daa1,ed19119e-5c96-4e44-bcd6-84aefe523cbd,7,008,0,0,000,27008000037000700,0.0,2079-06-06,Строительный,2720,2720,,,08224000014,08624410116,20,cef34051-1715-4506-8c70-0fd88979abcd,037,270080000370007,,f81a569c-1193-4d1d-99c4-78c26a03513e,27,пер,2020-08-31,0007,2713,2713,2020-09-03,000,0000,000,1,,0000,,0
0,e7156134-0063-4d3c-af3c-daedc2ecfacc,4ebaf07b-d6f3-4684-b920-36cf8e484a0d,7,008,0,0,000,27008000017000201,1.0,2079-06-06,Набережная,2713,2713,b020b02d-3d5e-48aa-8956-2aeba1963594,,08224000007,08624410,1,fb81cc68-1e2f-4fa7-b637-e8abb76d3b17,017,270080000170002,682938,,27,ул,1900-01-01,0002,,,2020-09-03,000,0000,000,0,,0000,,0
0,e7156134-0063-4d3c-af3c-daedc2ecfacc,b020b02d-3d5e-48aa-8956-2aeba1963594,7,008,0,0,000,27008000017000202,2.0,2014-01-05,Набережная,2720,2720,cae5e68a-d6a4-4972-8944-223cc90ede36,,08224000007,08624410,21,fb81cc68-1e2f-4fa7-b637-e8abb76d3b17,017,270080000170002,682938,4ebaf07b-d6f3-4684-b920-36cf8e484a0d,27,ул,2012-01-01,0002,2713,2713,2020-09-03,000,0000,000,0,749ca169-da00-4ea1-8270-4affb79fcc93,0000,,0
0,e7156134-0063-4d3c-af3c-daedc2ecfacc,cae5e68a-d6a4-4972-8944-223cc90ede36,7,008,0,0,000,27008000017000203,3.0,2017-02-20,Набережная,2720,2720,51d3a39f-3247-4720-8838-6563ae82ce9b,,08224000007,08624410111,21,fb81cc68-1e2f-4fa7-b637-e8abb76d3b17,017,270080000170002,682938,b020b02d-3d5e-48aa-8956-2aeba1963594,27,ул,2014-01-05,0002,2713,2713,2020-09-03,000,0000,000,0,749ca169-da00-4ea1-8270-4affb79fcc93,0000,,0
0,e7156134-0063-4d3c-af3c-daedc2ecfacc,51d3a39f-3247-4720-8838-6563ae82ce9b,7,008,0,0,000,27008000017000200,0.0,2020-08-31,Набережная,2720,2720,067e86ce-67c9-496f-847d-042f88703f0c,,08224000007,08624410,21,fb81cc68-1e2f-4fa7-b637-e8abb76d3b17,017,270080000170002,682935,cae5e68a-d6a4-4972-8944-223cc90ede36,27,ул,2017-02-20,0002,2713,2713,2020-09-03,000,0000,000,0,749ca169-da00-4ea1-8270-4affb79fcc93,0000,,0
1,e7156134-0063-4d3c-af3c-daedc2ecfacc,067e86ce-67c9-496f-847d-042f88703f0c,7,008,0,0,000,27008000017000200,0.0,2079-06-06,Набережная,2720,2720,,,08224000007,08624410111,20,fb81cc68-1e2f-4fa7-b637-e8abb76d3b17,017,270080000170002,682935,51d3a39f-3247-4720-8838-6563ae82ce9b,27,ул,2020-08-31,0002,2713,2713,2020-09-03,000,0000,000,1,,0000,,0
0,9cfcdbe1-eaff-45e5-8965-220960544f55,dba09a16-e2a3-47b3-a839-4b19e3e318b0,7,008,0,0,000,27008000017000301,1.0,2079-06-06,Октябрьская,2713,2713,b06049f7-4c26-445e-98b1-05b1967e9050,,08224000007,08624410,1,fb81cc68-1e2f-4fa7-b637-e8abb76d3b17,017,270080000170003,682938,,27,ул,1900-01-01,0003,,,2020-09-03,000,0000,000,0,,0000,,0
0,9cfcdbe1-eaff-45e5-8965-220960544f55,b06049f7-4c26-445e-98b1-05b1967e9050,7,008,0,0,000,27008000017000302,2.0,2014-01-05,Октябрьская,2720,2720,04d95fb8-1dbd-4235-8c85-b5e0371a3846,,08224000007,08624410,21,fb81cc68-1e2f-4fa7-b637-e8abb76d3b17,017,270080000170003,682938,dba09a16-e2a3-47b3-a839-4b19e3e318b0,27,ул,2012-01-01,0003,2713,2713,2020-09-03,000,0000,000,0,749ca169-da00-4ea1-8270-4affb79fcc93,0000,,0
0,9cfcdbe1-eaff-45e5-8965-220960544f55,04d95fb8-1dbd-4235-8c85-b5e0371a3846,7,008,0,0,000,27008000017000303,3.0,2017-02-20,Октябрьская,2720,2720,dca723b0-b68f-4180-8ca2-b51d1190dc15,,08224000007,08624410111,21,fb81cc68-1e2f-4fa7-b637-e8abb76d3b17,017,270080000170003,682938,b06049f7-4c26-445e-98b1-05b1967e9050,27,ул,2014-01-05,0003,2713,2713,2020-09-03,000,0000,000,0,749ca169-da00-4ea1-8270-4affb79fcc93,0000,,0
0,9cfcdbe1-eaff-45e5-8965-220960544f55,dca723b0-b68f-4180-8ca2-b51d1190dc15,7,008,0,0,000,27008000017000300,0.0,2020-08-31,Октябрьская,2720,2720,30c10fcd-8d8c-4389-8e6f-ded833fec1b3,,08224000007,08624410,21,fb81cc68-1e2f-4fa7-b637-e8abb76d3b17,017,270080000170003,682935,04d95fb8-1dbd-4235-8c85-b5e0371a3846,27,ул,2017-02-20,0003,2713,2713,2020-09-03,000,0000,000,0,749ca169-da00-4ea1-8270-4affb79fcc93,0000,,0
1,9cfcdbe1-eaff-45e5-8965-220960544f55,30c10fcd-8d8c-4389-8e6f-ded833fec1b3,7,008,0,0,000,27008000017000300,0.0,2079-06-06,Октябрьская,2720,2720,,,08224000007,08624410111,20,fb81cc68-1e2f-4fa7-b637-e8abb76d3b17,017,270080000170003,682935,dca723b0-b68f-4180-8ca2-b51d1190dc15,27,ул,2020-08-31,0003,2713,2713,2020-09-03,000,0000,000,1,,0000,,0
0,712fd56e-cc2c-4987-a34d-d3a14199f298,712fd56e-cc2c-4987-a34d-d3a14199f298,7,008,0,0,000,27008000017001401,1.0,2079-06-06,Таежный,2713,2713,91cc3141-c964-48d3-ab9b-bd654e3053e7,,08224000007,08624410,10,fb81cc68-1e2f-4fa7-b637-e8abb76d3b17,017,270080000170014,682935,,27,пер,1900-01-01,0014,,,2020-09-03,000,0000,000,0,db828413-ded8-4e13-a30f-bd0122f2d042,0000,,0
0,712fd56e-cc2c-4987-a34d-d3a14199f298,91cc3141-c964-48d3-ab9b-bd654e3053e7,7,008,0,0,000,27008000017001402,2.0,2014-01-05,Таежный,2720,2720,d157beb1-50b9-45bf-a701-e1a152ca4fa0,,08224000007,08624410,21,fb81cc68-1e2f-4fa7-b637-e8abb76d3b17,017,270080000170014,682935,712fd56e-cc2c-4987-a34d-d3a14199f298,27,пер,2012-01-01,0014,2713,2713,2020-09-03,000,0000,000,0,749ca169-da00-4ea1-8270-4affb79fcc93,0000,,0
0,712fd56e-cc2c-4987-a34d-d3a14199f298,d157beb1-50b9-45bf-a701-e1a152ca4fa0,7,008,0,0,000,27008000017001403,3.0,2017-02-20,Таежный,2720,2720,4100a487-8662-4790-a915-91611ca7a809,,08224000007,08624410111,21,fb81cc68-1e2f-4fa7-b637-e8abb76d3b17,017,270080000170014,682935,91cc3141-c964-48d3-ab9b-bd654e3053e7,27,пер,2014-01-05,0014,2713,2713,2020-09-03,000,0000,000,0,749ca169-da00-4ea1-8270-4affb79fcc93,0000,,0
0,712fd56e-cc2c-4987-a34d-d3a14199f298,4100a487-8662-4790-a915-91611ca7a809,7,008,0,0,000,27008000017001400,0.0,2020-08-31,Таежный,2720,2720,dd7fada7-4d22-4bcb-a1eb-fc94822f7293,,08224000007,08624410,21,fb81cc68-1e2f-4fa7-b637-e8abb76d3b17,017,270080000170014,682935,d157beb1-50b9-45bf-a701-e1a152ca4fa0,27,пер,2017-02-20,0014,2713,2713,2020-09-03,000,0000,000,0,749ca169-da00-4ea1-8270-4affb79fcc93,0000,,0
1,712fd56e-cc2c-4987-a34d-d3a14199f298,dd7fada7-4d22-4bcb-a1eb-fc94822f7293,7,008,0,0,000,27008000017001400,0.0,2079-06-06,Таежный,2720,2720,,,08224000007,08624410111,20,fb81cc68-1e2f-4fa7-b637-e8abb76d3b17,017,270080000170014,682935,4100a487-8662-4790-a915-91611ca7a809,27,пер,2020-08-31,0014,2713,2713,2020-09-03,000,0000,000,1,,0000,,0
0,c76d5188-300b-4e28-81b5-7857abe1f54e,d74755d0-70cc-4310-82f7-9b103afea878,7,008,0,0,000,27008000037000601,1.0,2079-06-06,Почтовая,2713,2713,8953e445-5da2-40dd-b246-0f4fd3943d6b,,08224000014,08624410,1,cef34051-1715-4506-8c70-0fd88979abcd,037,270080000370006,682910,,27,ул,1900-01-01,0006,,,2020-09-03,000,0000,000,0,,0000,,0
0,c76d5188-300b-4e28-81b5-7857abe1f54e,8953e445-5da2-40dd-b246-0f4fd3943d6b,7,008,0,0,000,27008000037000602,2.0,2014-01-05,Почтовая,2720,2720,d3fdae86-a96b-4449-9b98-ee2250f949ac,,08224000014,08624410,21,cef34051-1715-4506-8c70-0fd88979abcd,037,270080000370006,682910,d74755d0-70cc-4310-82f7-9b103afea878,27,ул,2012-01-01,0006,2713,2713,2020-09-03,000,0000,000,0,749ca169-da00-4ea1-8270-4affb79fcc93,0000,,0
0,c76d5188-300b-4e28-81b5-7857abe1f54e,d3fdae86-a96b-4449-9b98-ee2250f949ac,7,008,0,0,000,27008000037000603,3.0,2017-02-20,Почтовая,2720,2720,79d97b30-6852-43c4-aa43-9dc7cdf35583,,08224000014,08624410116,21,cef34051-1715-4506-8c70-0fd88979abcd,037,270080000370006,682910,8953e445-5da2-40dd-b246-0f4fd3943d6b,27,ул,2014-01-05,0006,2713,2713,2020-09-03,000,0000,000,0,749ca169-da00-4ea1-8270-4affb79fcc93,0000,,0
0,c76d5188-300b-4e28-81b5-7857abe1f54e,79d97b30-6852-43c4-aa43-9dc7cdf35583,7,008,0,0,000,27008000037000604,4.0,2020-08-31,Почтовая,2720,2720,68f2a815-396d-40e3-a8f3-c9bbec7bfca3,,08224000003,08624410,21,cef34051-1715-4506-8c70-0fd88979abcd,037,270080000370006,682910,d3fdae86-a96b-4449-9b98-ee2250f949ac,27,ул,2017-02-20,0006,2713,2713,2020-09-03,000,0000,000,0,749ca169-da00-4ea1-8270-4affb79fcc93,0000,,0
0,c76d5188-300b-4e28-81b5-7857abe1f54e,68f2a815-396d-40e3-a8f3-c9bbec7bfca3,7,008,0,0,000,27008000037000600,0.0,2020-08-31,Почтовая,2720,2720,9a40a9fb-2b91-43c1-a90c-1912d57b5544,,08224000014,08624410,20,cef34051-1715-4506-8c70-0fd88979abcd,037,270080000370006,682936,79d97b30-6852-43c4-aa43-9dc7cdf35583,27,ул,2017-06-16,0006,2713,2713,2020-09-03,000,0000,000,0,8682fd4c-5e02-473f-8cb7-04c45cbb22e8,0000,,0
1,c76d5188-300b-4e28-81b5-7857abe1f54e,9a40a9fb-2b91-43c1-a90c-1912d57b5544,7,008,0,0,000,27008000037000600,0.0,2079-06-06,Почтовая,2720,2720,,,08224000014,08624410116,20,cef34051-1715-4506-8c70-0fd88979abcd,037,270080000370006,682936,68f2a815-396d-40e3-a8f3-c9bbec7bfca3,27,ул,2020-08-31,0006,2713,2713,2020-09-03,000,0000,000,1,,0000,,0
0,16b4ddd3-a5a4-49b5-8149-be0cea266750,de12e49a-dfb1-47b1-8494-ac083a92493d,7,008,0,0,000,27008000043000601,1.0,2079-06-06,Клубная,2713,2713,10951ed2-ef9a-4b66-9ef5-d15649200419,,08224000018,08624410,1,df9b494f-d148-4be5-a3a3-1929ecad0176,043,270080000430006,682936,,27,ул,1900-01-01,0006,,,2020-09-03,000,0000,000,0,,0000,,0
0,16b4ddd3-a5a4-49b5-8149-be0cea266750,10951ed2-ef9a-4b66-9ef5-d15649200419,7,008,0,0,000,27008000043000602,2.0,2014-01-05,Клубная,2720,2720,f065a108-c55d-461e-9f3e-ddf47950f066,,08224000018,08624410,21,df9b494f-d148-4be5-a3a3-1929ecad0176,043,270080000430006,682936,de12e49a-dfb1-47b1-8494-ac083a92493d,27,ул,2012-01-01,0006,2713,2713,2020-09-03,000,0000,000,0,749ca169-da00-4ea1-8270-4affb79fcc93,0000,,0
0,16b4ddd3-a5a4-49b5-8149-be0cea266750,f065a108-c55d-461e-9f3e-ddf47950f066,7,008,0,0,000,27008000043000603,3.0,2017-02-20,Клубная,2720,2720,8c124c72-bc1e-41e5-9591-62919bb6463c,,08224000018,08624410106,21,df9b494f-d148-4be5-a3a3-1929ecad0176,043,270080000430006,682936,10951ed2-ef9a-4b66-9ef5-d15649200419,27,ул,2014-01-05,0006,2713,2713,2020-09-03,000,0000,000,0,749ca169-da00-4ea1-8270-4affb79fcc93,0000,,0
0,16b4ddd3-a5a4-49b5-8149-be0cea266750,8c124c72-bc1e-41e5-9591-62919bb6463c,7,008,0,0,000,27008000043000600,0.0,2020-08-31,Клубная,2720,2720,ab651abe-0abc-4ab9-9d90-5d351c396bb2,,08224000003,08624410,21,df9b494f-d148-4be5-a3a3-1929ecad0176,043,270080000430006,682936,f065a108-c55d-461e-9f3e-ddf47950f066,27,ул,2017-02-20,0006,2713,2713,2020-09-03,000,0000,000,0,749ca169-da00-4ea1-8270-4affb79fcc93,0000,,0
0,16b4ddd3-a5a4-49b5-8149-be0cea266750,ab651abe-0abc-4ab9-9d90-5d351c396bb2,7,008,0,0,000,27008000043000600,0.0,2079-06-06,Клубная,2720,2720,80291172-1b0f-458a-a73f-0d642f2fa9eb,,08224000018,08624410,21,df9b494f-d148-4be5-a3a3-1929ecad0176,043,270080000430006,682936,8c124c72-bc1e-41e5-9591-62919bb6463c,27,ул,2020-07-07,0006,2713,2713,2020-09-03,000,0000,000,0,,0000,,0
1,16b4ddd3-a5a4-49b5-8149-be0cea266750,80291172-1b0f-458a-a73f-0d642f2fa9eb,7,008,0,0,000,27008000043000600,0.0,2079-06-06,Клубная,2720,2720,,,08224000018,08624410106,20,df9b494f-d148-4be5-a3a3-1929ecad0176,043,270080000430006,682936,ab651abe-0abc-4ab9-9d90-5d351c396bb2,27,ул,2020-08-31,0006,2713,2713,2020-09-03,000,0000,000,1,,0000,,0
0,584b99e2-f28b-40fe-b33a-8755a2471a41,584b99e2-f28b-40fe-b33a-8755a2471a41,7,008,0,0,000,27008000037001701,1.0,2079-06-06,Строительная,2713,2713,9596f353-677e-4e1d-a6b3-895d0ec8b7cf,,08224000014,08624410,10,cef34051-1715-4506-8c70-0fd88979abcd,037,270080000370017,682936,,27,ул,1900-01-01,0017,,,2020-09-03,000,0000,000,0,db828413-ded8-4e13-a30f-bd0122f2d042,0000,,0
0,584b99e2-f28b-40fe-b33a-8755a2471a41,9596f353-677e-4e1d-a6b3-895d0ec8b7cf,7,008,0,0,000,27008000037001702,2.0,2014-01-05,Строительная,2720,2720,2ee777f3-90b5-4738-8f77-9d12a6664b76,,08224000014,08624410,21,cef34051-1715-4506-8c70-0fd88979abcd,037,270080000370017,682936,584b99e2-f28b-40fe-b33a-8755a2471a41,27,ул,2012-01-01,0017,2713,2713,2020-09-03,000,0000,000,0,749ca169-da00-4ea1-8270-4affb79fcc93,0000,,0
0,584b99e2-f28b-40fe-b33a-8755a2471a41,2ee777f3-90b5-4738-8f77-9d12a6664b76,7,008,0,0,000,27008000037001703,3.0,2017-02-20,Строительная,2720,2720,63c7e5d7-2c62-4c99-871a-2dd5efc66880,,08224000014,08624410116,21,cef34051-1715-4506-8c70-0fd88979abcd,037,270080000370017,682936,9596f353-677e-4e1d-a6b3-895d0ec8b7cf,27,ул,2014-01-05,0017,2713,2713,2020-09-03,000,0000,000,0,749ca169-da00-4ea1-8270-4affb79fcc93,0000,,0
0,584b99e2-f28b-40fe-b33a-8755a2471a41,63c7e5d7-2c62-4c99-871a-2dd5efc66880,7,008,0,0,000,27008000037001700,0.0,2020-08-31,Строительная,2720,2720,5c8863b0-a84e-4421-9674-0d94ad6c4072,,08224000014,08624410,21,cef34051-1715-4506-8c70-0fd88979abcd,037,270080000370017,682936,2ee777f3-90b5-4738-8f77-9d12a6664b76,27,ул,2017-02-20,0017,2713,2713,2020-09-03,000,0000,000,0,749ca169-da00-4ea1-8270-4affb79fcc93,0000,,0
1,584b99e2-f28b-40fe-b33a-8755a2471a41,5c8863b0-a84e-4421-9674-0d94ad6c4072,7,008,0,0,000,27008000037001700,0.0,2079-06-06,Строительная,2720,2720,,,08224000014,08624410116,20,cef34051-1715-4506-8c70-0fd88979abcd,037,270080000370017,682936,63c7e5d7-2c62-4c99-871a-2dd5efc66880,27,ул,2020-08-31,0017,2713,2713,2020-09-03,000,0000,000,1,,0000,,0
0,1b65ecd6-13dc-4a43-be2e-0d6f51ecb606,99ee392e-17d3-4698-845d-64f070a88c45,7,008,0,0,000,27008000043000201,1.0,2079-06-06,Новая,2713,2713,b5a043a0-1d18-42d6-b60e-9fa21fd5121b,,08224000018,08624410,1,df9b494f-d148-4be5-a3a3-1929ecad0176,043,270080000430002,682935,,27,ул,1900-01-01,0002,,,2020-09-03,000,0000,000,0,,0000,,0
0,1b65ecd6-13dc-4a43-be2e-0d6f51ecb606,b5a043a0-1d18-42d6-b60e-9fa21fd5121b,7,008,0,0,000,27008000043000202,2.0,2014-01-05,Новая,2720,2720,44cbda6c-ba0d-47c6-a3cf-cada5bd77380,,08224000018,08624410,21,df9b494f-d148-4be5-a3a3-1929ecad0176,043,270080000430002,682935,99ee392e-17d3-4698-845d-64f070a88c45,27,ул,2012-01-01,0002,2713,2713,2020-09-03,000,0000,000,0,749ca169-da00-4ea1-8270-4affb79fcc93,0000,,0
0,1b65ecd6-13dc-4a43-be2e-0d6f51ecb606,44cbda6c-ba0d-47c6-a3cf-cada5bd77380,7,008,0,0,000,27008000043000203,3.0,2017-02-20,Новая,2720,2720,f11dcea3-ac46-4f44-b5e8-b8025d4990a5,,08224000018,08624410106,21,df9b494f-d148-4be5-a3a3-1929ecad0176,043,270080000430002,682935,b5a043a0-1d18-42d6-b60e-9fa21fd5121b,27,ул,2014-01-05,0002,2713,2713,2020-09-03,000,0000,000,0,749ca169-da00-4ea1-8270-4affb79fcc93,0000,,0
0,1b65ecd6-13dc-4a43-be2e-0d6f51ecb606,f11dcea3-ac46-4f44-b5e8-b8025d4990a5,7,008,0,0,000,27008000043000200,0.0,2020-08-31,Новая,2720,2720,4ef9737a-b323-4992-9f25-c5f439f157f2,,08224000003,08624410,21,df9b494f-d148-4be5-a3a3-1929ecad0176,043,270080000430002,682935,44cbda6c-ba0d-47c6-a3cf-cada5bd77380,27,ул,2017-02-20,0002,2713,2713,2020-09-03,000,0000,000,0,749ca169-da00-4ea1-8270-4affb79fcc93,0000,,0
0,1b65ecd6-13dc-4a43-be2e-0d6f51ecb606,4ef9737a-b323-4992-9f25-c5f439f157f2,7,008,0,0,000,27008000043000200,0.0,2079-06-06,Новая,2720,2720,27b041e6-7364-4b12-b6c9-5136ae6194b4,,08224000018,08624410,21,df9b494f-d148-4be5-a3a3-1929ecad0176,043,270080000430002,682935,f11dcea3-ac46-4f44-b5e8-b8025d4990a5,27,ул,2020-07-07,0002,2713,2713,2020-09-03,000,0000,000,0,,0000,,0
1,1b65ecd6-13dc-4a43-be2e-0d6f51ecb606,27b041e6-7364-4b12-b6c9-5136ae6194b4,7,008,0,0,000,27008000043000200,0.0,2079-06-06,Новая,2720,2720,,,08224000018,08624410106,20,df9b494f-d148-4be5-a3a3-1929ecad0176,043,270080000430002,682935,4ef9737a-b323-4992-9f25-c5f439f157f2,27,ул,2020-08-31,0002,2713,2713,2020-09-03,000,0000,000,1,,0000,,0
0,7c9faddf-69a3-4156-bb1a-32edf0e39da4,31698bad-5bcb-4813-9b32-a892a7cd0bf6,7,008,0,0,000,27008000043000701,1.0,2079-06-06,Лесная,2713,2713,6ef29fd2-01c1-44e4-bebc-63b1215d371e,,08224000018,08624410,1,df9b494f-d148-4be5-a3a3-1929ecad0176,043,270080000430007,682936,,27,ул,1900-01-01,0007,,,2020-09-03,000,0000,000,0,,0000,,0
0,7c9faddf-69a3-4156-bb1a-32edf0e39da4,6ef29fd2-01c1-44e4-bebc-63b1215d371e,7,008,0,0,000,27008000043000702,2.0,2014-01-05,Лесная,2720,2720,31f443f6-1f03-42f4-b073-51d941ef457d,,08224000018,08624410,21,df9b494f-d148-4be5-a3a3-1929ecad0176,043,270080000430007,682936,31698bad-5bcb-4813-9b32-a892a7cd0bf6,27,ул,2012-01-01,0007,2713,2713,2020-09-03,000,0000,000,0,749ca169-da00-4ea1-8270-4affb79fcc93,0000,,0
0,7c9faddf-69a3-4156-bb1a-32edf0e39da4,31f443f6-1f03-42f4-b073-51d941ef457d,7,008,0,0,000,27008000043000703,3.0,2017-02-20,Лесная,2720,2720,c278a022-d3cc-49f1-9a68-6a6fa5780a40,,08224000018,08624410106,21,df9b494f-d148-4be5-a3a3-1929ecad0176,043,270080000430007,682936,6ef29fd2-01c1-44e4-bebc-63b1215d371e,27,ул,2014-01-05,0007,2713,2713,2020-09-03,000,0000,000,0,749ca169-da00-4ea1-8270-4affb79fcc93,0000,,0
0,7c9faddf-69a3-4156-bb1a-32edf0e39da4,c278a022-d3cc-49f1-9a68-6a6fa5780a40,7,008,0,0,000,27008000043000700,0.0,2020-08-31,Лесная,2720,2720,b78281d6-c7a1-477d-81bf-92dd405d1bd7,,08224000018,08624410,21,df9b494f-d148-4be5-a3a3-1929ecad0176,043,270080000430007,682935,31f443f6-1f03-42f4-b073-51d941ef457d,27,ул,2017-02-20,0007,2713,2713,2020-09-03,000,0000,000,0,749ca169-da00-4ea1-8270-4affb79fcc93,0000,,0
1,7c9faddf-69a3-4156-bb1a-32edf0e39da4,b78281d6-c7a1-477d-81bf-92dd405d1bd7,7,008,0,0,000,27008000043000700,0.0,2079-06-06,Лесная,2720,2720,,,08224000018,08624410106,20,df9b494f-d148-4be5-a3a3-1929ecad0176,043,270080000430007,682935,c278a022-d3cc-49f1-9a68-6a6fa5780a40,27,ул,2020-08-31,0007,2713,2713,2020-09-03,000,0000,000,1,,0000,,0
0,70a3e46a-6745-4da7-aaf7-84af422ac1eb,0628848a-d998-4861-bfc6-ebe5709c2564,7,008,0,0,000,27008000037000901,1.0,2079-06-06,Торговый,2713,2713,544bb0ad-b3aa-4c63-9585-4ac887cbd6c5,,08224000014,08624410,1,cef34051-1715-4506-8c70-0fd88979abcd,037,270080000370009,682936,,27,пер,1900-01-01,0009,,,2020-09-03,000,0000,000,0,,0000,,0
0,70a3e46a-6745-4da7-aaf7-84af422ac1eb,544bb0ad-b3aa-4c63-9585-4ac887cbd6c5,7,008,0,0,000,27008000037000902,2.0,2014-01-05,Торговый,2720,2720,4ca1ff92-916b-4f85-b983-c4edbe7e7a6b,,08224000014,08624410,21,cef34051-1715-4506-8c70-0fd88979abcd,037,270080000370009,682936,0628848a-d998-4861-bfc6-ebe5709c2564,27,пер,2012-01-01,0009,2713,2713,2020-09-03,000,0000,000,0,749ca169-da00-4ea1-8270-4affb79fcc93,0000,,0
0,70a3e46a-6745-4da7-aaf7-84af422ac1eb,4ca1ff92-916b-4f85-b983-c4edbe7e7a6b,7,008,0,0,000,27008000037000903,3.0,2017-02-20,Торговый,2720,2720,34564326-0756-4be6-93c2-91094685a646,,08224000014,08624410116,21,cef34051-1715-4506-8c70-0fd88979abcd,037,270080000370009,682936,544bb0ad-b3aa-4c63-9585-4ac887cbd6c5,27,пер,2014-01-05,0009,2713,2713,2020-09-03,000,0000,000,0,749ca169-da00-4ea1-8270-4affb79fcc93,0000,,0
0,70a3e46a-6745-4da7-aaf7-84af422ac1eb,34564326-0756-4be6-93c2-91094685a646,7,008,0,0,000,27008000037000900,0.0,2020-08-31,Торговый,2720,2720,4286aea1-1504-4c8e-a25a-bdf3b8e237c9,,08224000003,08624410,21,cef34051-1715-4506-8c70-0fd88979abcd,037,270080000370009,682936,4ca1ff92-916b-4f85-b983-c4edbe7e7a6b,27,пер,2017-02-20,0009,2713,2713,2020-09-03,000,0000,000,0,749ca169-da00-4ea1-8270-4affb79fcc93,0000,,0
0,70a3e46a-6745-4da7-aaf7-84af422ac1eb,4286aea1-1504-4c8e-a25a-bdf3b8e237c9,7,008,0,0,000,27008000037000900,0.0,2079-06-06,Торговый,2720,2720,66902bf0-f629-42f5-96e3-234a23b898c7,,08224000014,08624410,21,cef34051-1715-4506-8c70-0fd88979abcd,037,270080000370009,682936,34564326-0756-4be6-93c2-91094685a646,27,пер,2020-07-07,0009,2713,2713,2020-09-03,000,0000,000,0,,0000,,0
1,70a3e46a-6745-4da7-aaf7-84af422ac1eb,66902bf0-f629-42f5-96e3-234a23b898c7,7,008,0,0,000,27008000037000900,0.0,2079-06-06,Торговый,2720,2720,,,08224000014,08624410116,20,cef34051-1715-4506-8c70-0fd88979abcd,037,270080000370009,682936,4286aea1-1504-4c8e-a25a-bdf3b8e237c9,27,пер,2020-08-31,0009,2713,2713,2020-09-03,000,0000,000,1,,0000,,0
0,6cfdf870-2b47-4ecb-87f0-b16b13022b7c,5fd90ffd-ef28-4130-b58a-4f10787f567f,7,008,0,0,000,27008000017000501,1.0,2079-06-06,Таежная,2713,2713,a716285f-3c2c-40a1-8adc-81b42dc685b3,,08224000007,08624410,1,fb81cc68-1e2f-4fa7-b637-e8abb76d3b17,017,270080000170005,682938,,27,ул,1900-01-01,0005,,,2020-09-03,000,0000,000,0,,0000,,0
0,6cfdf870-2b47-4ecb-87f0-b16b13022b7c,a716285f-3c2c-40a1-8adc-81b42dc685b3,7,008,0,0,000,27008000017000502,2.0,2014-01-05,Таежная,2720,2720,d2f79b8c-f216-4924-82fb-3cf1ecc82832,,08224000007,08624410,21,fb81cc68-1e2f-4fa7-b637-e8abb76d3b17,017,270080000170005,682938,5fd90ffd-ef28-4130-b58a-4f10787f567f,27,ул,2012-01-01,0005,2713,2713,2020-09-03,000,0000,000,0,749ca169-da00-4ea1-8270-4affb79fcc93,0000,,0
0,6cfdf870-2b47-4ecb-87f0-b16b13022b7c,d2f79b8c-f216-4924-82fb-3cf1ecc82832,7,008,0,0,000,27008000017000503,3.0,2017-02-20,Таежная,2720,2720,e1abff47-6da9-4acf-9e98-d5588ca5bac1,,08224000007,08624410111,21,fb81cc68-1e2f-4fa7-b637-e8abb76d3b17,017,270080000170005,682938,a716285f-3c2c-40a1-8adc-81b42dc685b3,27,ул,2014-01-05,0005,2713,2713,2020-09-03,000,0000,000,0,749ca169-da00-4ea1-8270-4affb79fcc93,0000,,0
0,6cfdf870-2b47-4ecb-87f0-b16b13022b7c,e1abff47-6da9-4acf-9e98-d5588ca5bac1,7,008,0,0,000,27008000017000500,0.0,2020-08-31,Таежная,2720,2720,00bad5f9-3794-4b1f-8855-c04c03fb2b73,,08224000007,08624410,21,fb81cc68-1e2f-4fa7-b637-e8abb76d3b17,017,270080000170005,682935,d2f79b8c-f216-4924-82fb-3cf1ecc82832,27,ул,2017-02-20,0005,2713,2713,2020-09-03,000,0000,000,0,749ca169-da00-4ea1-8270-4affb79fcc93,0000,,0
1,6cfdf870-2b47-4ecb-87f0-b16b13022b7c,00bad5f9-3794-4b1f-8855-c04c03fb2b73,7,008,0,0,000,27008000017000500,0.0,2079-06-06,Таежная,2720,2720,,,08224000007,08624410111,20,fb81cc68-1e2f-4fa7-b637-e8abb76d3b17,017,270080000170005,682935,e1abff47-6da9-4acf-9e98-d5588ca5bac1,27,ул,2020-08-31,0005,2713,2713,2020-09-03,000,0000,000,1,,0000,,0
1,c646fc12-c19d-4fd7-bed3-14675d4d49f9,c646fc12-c19d-4fd7-bed3-14675d4d49f9,7,018,0,0,000,27018000013000300,0.0,2079-06-06,Инская,2720,2720,,,08255000016,08655476101,10,35061363-0bac-44e8-9c2a-d8c13e53d497,013,270180000130003,,,27,ул,2020-09-02,0003,,,2020-09-03,000,0000,000,1,,0000,,0
0,5b2c4f1f-c559-448a-96ad-d5c90ea4d5d5,b3846da3-720c-45ff-a6cf-cc3bb16aac3a,7,008,0,0,000,27008000037001001,1.0,2079-06-06,Центральная,2713,2713,6b1c218c-9cb2-4ea4-86bc-4691f6e692d5,,08224000014,08624410,1,cef34051-1715-4506-8c70-0fd88979abcd,037,270080000370010,682910,,27,ул,1900-01-01,0010,,,2020-09-03,000,0000,000,0,,0000,,0
0,5b2c4f1f-c559-448a-96ad-d5c90ea4d5d5,6b1c218c-9cb2-4ea4-86bc-4691f6e692d5,7,008,0,0,000,27008000037001002,2.0,2014-01-05,Центральная,2720,2720,d43d0070-f463-448e-8de7-95504d6df5ba,,08224000014,08624410,21,cef34051-1715-4506-8c70-0fd88979abcd,037,270080000370010,682910,b3846da3-720c-45ff-a6cf-cc3bb16aac3a,27,ул,2012-01-01,0010,2713,2713,2020-09-03,000,0000,000,0,749ca169-da00-4ea1-8270-4affb79fcc93,0000,,0
0,5b2c4f1f-c559-448a-96ad-d5c90ea4d5d5,d43d0070-f463-448e-8de7-95504d6df5ba,7,008,0,0,000,27008000037001003,3.0,2017-02-20,Центральная,2720,2720,48dc248d-d84e-4501-bfde-e7edef3acc67,,08224000014,08624410116,21,cef34051-1715-4506-8c70-0fd88979abcd,037,270080000370010,682910,6b1c218c-9cb2-4ea4-86bc-4691f6e692d5,27,ул,2014-01-05,0010,2713,2713,2020-09-03,000,0000,000,0,749ca169-da00-4ea1-8270-4affb79fcc93,0000,,0
0,5b2c4f1f-c559-448a-96ad-d5c90ea4d5d5,48dc248d-d84e-4501-bfde-e7edef3acc67,7,008,0,0,000,27008000037001004,4.0,2020-08-31,Центральная,2720,2720,900e3f39-2b40-4121-bd80-85adb0b3024a,,08224000014,08624410,21,cef34051-1715-4506-8c70-0fd88979abcd,037,270080000370010,,d43d0070-f463-448e-8de7-95504d6df5ba,27,ул,2017-02-20,0010,2713,2713,2020-09-03,000,0000,000,0,749ca169-da00-4ea1-8270-4affb79fcc93,0000,,0
0,5b2c4f1f-c559-448a-96ad-d5c90ea4d5d5,900e3f39-2b40-4121-bd80-85adb0b3024a,7,008,0,0,000,27008000037001000,0.0,2020-08-31,Центральная,2720,2720,d897f417-94af-4b2f-9a8a-bed1d8f0a47b,,08224000014,08624410,20,cef34051-1715-4506-8c70-0fd88979abcd,037,270080000370010,,48dc248d-d84e-4501-bfde-e7edef3acc67,27,ул,2017-06-16,0010,2713,2713,2020-09-03,000,0000,000,0,784f4b0f-bcfa-4929-b814-e9e2fc984fd2,0000,,0
0,5b2c4f1f-c559-448a-96ad-d5c90ea4d5d5,d897f417-94af-4b2f-9a8a-bed1d8f0a47b,7,008,0,0,000,27008000037001000,0.0,2079-06-06,Центральная,2720,2720,87ae4459-7d6c-42a8-9277-2238a544acce,,08224000014,08624410,21,cef34051-1715-4506-8c70-0fd88979abcd,037,270080000370010,,900e3f39-2b40-4121-bd80-85adb0b3024a,27,ул,2020-07-07,0010,2713,2713,2020-09-03,000,0000,000,0,,0000,,0
1,5b2c4f1f-c559-448a-96ad-d5c90ea4d5d5,87ae4459-7d6c-42a8-9277-2238a544acce,7,008,0,0,000,27008000037001000,0.0,2079-06-06,Центральная,2720,2720,,,08224000014,08624410116,20,cef34051-1715-4506-8c70-0fd88979abcd,037,270080000370010,,d897f417-94af-4b2f-9a8a-bed1d8f0a47b,27,ул,2020-08-31,0010,2713,2713,2020-09-03,000,0000,000,1,,0000,,0
0,b5158885-3acc-4be6-bbe2-2697ed4ee54e,3c7edebf-16b4-4263-a565-2219a45238c7,7,008,0,0,000,27008000017000801,1.0,2079-06-06,Микрорайон,2713,2713,7f09e363-df09-4c6d-a1b7-b982f41a139f,,08224000007,08624410,1,fb81cc68-1e2f-4fa7-b637-e8abb76d3b17,017,270080000170008,682938,,27,ул,1900-01-01,0008,,,2020-09-03,000,0000,000,0,,0000,,0
0,b5158885-3acc-4be6-bbe2-2697ed4ee54e,7f09e363-df09-4c6d-a1b7-b982f41a139f,7,008,0,0,000,27008000017000802,2.0,2014-01-05,Микрорайон,2720,2720,5b96b74f-0e99-4c9c-bee2-f8d83fa5d2ae,,08224000007,08624410,21,fb81cc68-1e2f-4fa7-b637-e8abb76d3b17,017,270080000170008,682938,3c7edebf-16b4-4263-a565-2219a45238c7,27,ул,2012-01-01,0008,2713,2713,2020-09-03,000,0000,000,0,749ca169-da00-4ea1-8270-4affb79fcc93,0000,,0
0,b5158885-3acc-4be6-bbe2-2697ed4ee54e,5b96b74f-0e99-4c9c-bee2-f8d83fa5d2ae,7,008,0,0,000,27008000017000803,3.0,2017-02-20,Микрорайон,2720,2720,81d4c2dc-4f7e-4ac7-845d-f593d11dbcb4,,08224000007,08624410111,21,fb81cc68-1e2f-4fa7-b637-e8abb76d3b17,017,270080000170008,682938,7f09e363-df09-4c6d-a1b7-b982f41a139f,27,ул,2014-01-05,0008,2713,2713,2020-09-03,000,0000,000,0,749ca169-da00-4ea1-8270-4affb79fcc93,0000,,0
0,b5158885-3acc-4be6-bbe2-2697ed4ee54e,81d4c2dc-4f7e-4ac7-845d-f593d11dbcb4,7,008,0,0,000,27008000017000804,4.0,2020-08-31,Микрорайон,2720,2720,dfa74679-dbde-4136-b41a-354f275c386e,,08224000003,08624410,21,fb81cc68-1e2f-4fa7-b637-e8abb76d3b17,017,270080000170008,682938,5b96b74f-0e99-4c9c-bee2-f8d83fa5d2ae,27,ул,2017-02-20,0008,2713,2713,2020-09-03,000,0000,000,0,749ca169-da00-4ea1-8270-4affb79fcc93,0000,,0
0,b5158885-3acc-4be6-bbe2-2697ed4ee54e,dfa74679-dbde-4136-b41a-354f275c386e,7,008,0,0,000,27008000017000800,0.0,2020-08-31,Микрорайон,2720,2720,5f427ea3-4fc6-4469-8030-5fefc386f967,,08224000007,08624410,20,fb81cc68-1e2f-4fa7-b637-e8abb76d3b17,017,270080000170008,682935,81d4c2dc-4f7e-4ac7-845d-f593d11dbcb4,27,ул,2017-06-16,0008,2713,2713,2020-09-03,000,0000,000,0,4907eb62-accc-474c-9d9f-7c5224d2993a,0000,,0
1,b5158885-3acc-4be6-bbe2-2697ed4ee54e,5f427ea3-4fc6-4469-8030-5fefc386f967,7,008,0,0,000,27008000017000800,0.0,2079-06-06,Микрорайон,2720,2720,,,08224000007,08624410111,20,fb81cc68-1e2f-4fa7-b637-e8abb76d3b17,017,270080000170008,682935,dfa74679-dbde-4136-b41a-354f275c386e,27,ул,2020-08-31,0008,2713,2713,2020-09-03,000,0000,000,1,,0000,,0
0,c3d459b7-b060-44c1-8815-807cfed3452b,31e1d56f-3cb8-457f-80bc-b8c3418e3b00,7,008,0,0,000,27008000017000101,1.0,2079-06-06,Центральная,2713,2713,3be0f61e-b828-4f9c-b382-7a851f13931c,,08224000007,08624410,1,fb81cc68-1e2f-4fa7-b637-e8abb76d3b17,017,270080000170001,682935,,27,ул,1900-01-01,0001,,,2020-09-03,000,0000,000,0,,0000,,0
0,c3d459b7-b060-44c1-8815-807cfed3452b,3be0f61e-b828-4f9c-b382-7a851f13931c,7,008,0,0,000,27008000017000102,2.0,2014-01-05,Центральная,2720,2720,f4396272-6add-4569-855e-85d00a9bf6f3,,08224000007,08624410,21,fb81cc68-1e2f-4fa7-b637-e8abb76d3b17,017,270080000170001,682935,31e1d56f-3cb8-457f-80bc-b8c3418e3b00,27,ул,2012-01-01,0001,2713,2713,2020-09-03,000,0000,000,0,749ca169-da00-4ea1-8270-4affb79fcc93,0000,,0
0,c3d459b7-b060-44c1-8815-807cfed3452b,f4396272-6add-4569-855e-85d00a9bf6f3,7,008,0,0,000,27008000017000103,3.0,2017-02-20,Центральная,2720,2720,f9dea572-9ddc-4424-b432-08114bab5816,,08224000007,08624410111,21,fb81cc68-1e2f-4fa7-b637-e8abb76d3b17,017,270080000170001,682935,3be0f61e-b828-4f9c-b382-7a851f13931c,27,ул,2014-01-05,0001,2713,2713,2020-09-03,000,0000,000,0,749ca169-da00-4ea1-8270-4affb79fcc93,0000,,0
0,c3d459b7-b060-44c1-8815-807cfed3452b,f9dea572-9ddc-4424-b432-08114bab5816,7,008,0,0,000,27008000017000100,0.0,2020-08-31,Центральная,2720,2720,89a0c1bd-072d-46b3-931c-8113e69504a1,,08224000003,08624410,21,fb81cc68-1e2f-4fa7-b637-e8abb76d3b17,017,270080000170001,682935,f4396272-6add-4569-855e-85d00a9bf6f3,27,ул,2017-02-20,0001,2713,2713,2020-09-03,000,0000,000,0,749ca169-da00-4ea1-8270-4affb79fcc93,0000,,0
1,c3d459b7-b060-44c1-8815-807cfed3452b,89a0c1bd-072d-46b3-931c-8113e69504a1,7,008,0,0,000,27008000017000100,0.0,2079-06-06,Центральная,2720,2720,,,08224000003,08624410111,20,fb81cc68-1e2f-4fa7-b637-e8abb76d3b17,017,270080000170001,682935,f9dea572-9ddc-4424-b432-08114bab5816,27,ул,2020-08-31,0001,2713,2713,2020-09-03,000,0000,000,1,,0000,,0
0,82f5c566-9d8b-4413-a90e-5f156a0c5226,82f5c566-9d8b-4413-a90e-5f156a0c5226,7,008,0,0,000,27008000037001801,1.0,2079-06-06,Почтовый,2713,2713,829c8d5b-b8b9-441a-b127-5184e7c400ea,,08224000014,08624410,10,cef34051-1715-4506-8c70-0fd88979abcd,037,270080000370018,682936,,27,пер,1900-01-01,0018,,,2020-09-03,000,0000,000,0,db828413-ded8-4e13-a30f-bd0122f2d042,0000,,0
0,82f5c566-9d8b-4413-a90e-5f156a0c5226,829c8d5b-b8b9-441a-b127-5184e7c400ea,7,008,0,0,000,27008000037001802,2.0,2014-01-05,Почтовый,2720,2720,16393ce8-1118-4b5b-9e66-411492f01175,,08224000014,08624410,21,cef34051-1715-4506-8c70-0fd88979abcd,037,270080000370018,682936,82f5c566-9d8b-4413-a90e-5f156a0c5226,27,пер,2012-01-01,0018,2713,2713,2020-09-03,000,0000,000,0,749ca169-da00-4ea1-8270-4affb79fcc93,0000,,0
0,82f5c566-9d8b-4413-a90e-5f156a0c5226,16393ce8-1118-4b5b-9e66-411492f01175,7,008,0,0,000,27008000037001803,3.0,2017-02-20,Почтовый,2720,2720,c02b734b-52a5-4d8a-ad3a-694907c0ba06,,08224000014,08624410116,21,cef34051-1715-4506-8c70-0fd88979abcd,037,270080000370018,682936,829c8d5b-b8b9-441a-b127-5184e7c400ea,27,пер,2014-01-05,0018,2713,2713,2020-09-03,000,0000,000,0,749ca169-da00-4ea1-8270-4affb79fcc93,0000,,0
0,82f5c566-9d8b-4413-a90e-5f156a0c5226,c02b734b-52a5-4d8a-ad3a-694907c0ba06,7,008,0,0,000,27008000037001800,0.0,2020-08-31,Почтовый,2720,2720,4e2ac7a5-80ae-4cbe-99e3-d4d1c6dd57c7,,08224000014,08624410,21,cef34051-1715-4506-8c70-0fd88979abcd,037,270080000370018,682910,16393ce8-1118-4b5b-9e66-411492f01175,27,пер,2017-02-20,0018,2713,2713,2020-09-03,000,0000,000,0,749ca169-da00-4ea1-8270-4affb79fcc93,0000,,0
1,82f5c566-9d8b-4413-a90e-5f156a0c5226,4e2ac7a5-80ae-4cbe-99e3-d4d1c6dd57c7,7,008,0,0,000,27008000037001800,0.0,2079-06-06,Почтовый,2720,2720,,,08224000014,08624410116,20,cef34051-1715-4506-8c70-0fd88979abcd,037,270080000370018,682910,c02b734b-52a5-4d8a-ad3a-694907c0ba06,27,пер,2020-08-31,0018,2713,2713,2020-09-03,000,0000,000,1,,0000,,0
0,f559dc0a-1a95-4a1d-a197-a3a0cd555b7f,e9c475e1-e667-4d4d-b857-efe1d994b248,7,008,0,0,000,27008000037000101,1.0,2079-06-06,Гаражный,2713,2713,df085055-8495-4829-aaa5-e5bc3675b450,,08224000014,08624410,1,cef34051-1715-4506-8c70-0fd88979abcd,037,270080000370001,682936,,27,пер,1900-01-01,0001,,,2020-09-03,000,0000,000,0,,0000,,0
0,f559dc0a-1a95-4a1d-a197-a3a0cd555b7f,df085055-8495-4829-aaa5-e5bc3675b450,7,008,0,0,000,27008000037000102,2.0,2014-01-05,Гаражный,2720,2720,15bcc582-ecfe-4216-b431-fda27c63ea01,,08224000014,08624410,21,cef34051-1715-4506-8c70-0fd88979abcd,037,270080000370001,682936,e9c475e1-e667-4d4d-b857-efe1d994b248,27,пер,2012-01-01,0001,2713,2713,2020-09-03,000,0000,000,0,749ca169-da00-4ea1-8270-4affb79fcc93,0000,,0
0,f559dc0a-1a95-4a1d-a197-a3a0cd555b7f,15bcc582-ecfe-4216-b431-fda27c63ea01,7,008,0,0,000,27008000037000103,3.0,2017-02-20,Гаражный,2720,2720,30d6cf3d-619b-4163-b338-1bf635efa55f,,08224000014,08624410116,21,cef34051-1715-4506-8c70-0fd88979abcd,037,270080000370001,682936,df085055-8495-4829-aaa5-e5bc3675b450,27,пер,2014-01-05,0001,2713,2713,2020-09-03,000,0000,000,0,749ca169-da00-4ea1-8270-4affb79fcc93,0000,,0
0,f559dc0a-1a95-4a1d-a197-a3a0cd555b7f,30d6cf3d-619b-4163-b338-1bf635efa55f,7,008,0,0,000,27008000037000104,4.0,2020-08-31,Гаражный,2720,2720,08eb5aff-4d44-4540-8ef8-9663be131576,,08224000003,08624410,21,cef34051-1715-4506-8c70-0fd88979abcd,037,270080000370001,682936,15bcc582-ecfe-4216-b431-fda27c63ea01,27,пер,2017-02-20,0001,2713,2713,2020-09-03,000,0000,000,0,749ca169-da00-4ea1-8270-4affb79fcc93,0000,,0
0,f559dc0a-1a95-4a1d-a197-a3a0cd555b7f,08eb5aff-4d44-4540-8ef8-9663be131576,7,008,0,0,000,27008000037000100,0.0,2020-08-31,Гаражный,2720,2720,e044db1c-a175-4777-8f78-2ce75215de48,,08224000014,08624410,20,cef34051-1715-4506-8c70-0fd88979abcd,037,270080000370001,682936,30d6cf3d-619b-4163-b338-1bf635efa55f,27,пер,2017-06-16,0001,2713,2713,2020-09-03,000,0000,000,0,b3e94d44-b463-419b-90b7-8ccb29ec474a,0000,,0
1,f559dc0a-1a95-4a1d-a197-a3a0cd555b7f,e044db1c-a175-4777-8f78-2ce75215de48,7,008,0,0,000,27008000037000100,0.0,2079-06-06,Гаражный,2720,2720,,,08224000014,08624410116,20,cef34051-1715-4506-8c70-0fd88979abcd,037,270080000370001,682936,08eb5aff-4d44-4540-8ef8-9663be131576,27,пер,2020-08-31,0001,2713,2713,2020-09-03,000,0000,000,1,,0000,,0
0,d9a5b4a3-b089-4898-90b5-b3f3b6e39481,85bc2746-97bf-4c3c-905d-30fe07fa072a,7,008,0,0,000,27008000037000201,1.0,2079-06-06,Кафэнская,2713,2713,2f3437bc-b550-4a54-9690-188634f0973d,,08224000014,08624410,1,cef34051-1715-4506-8c70-0fd88979abcd,037,270080000370002,682910,,27,ул,1900-01-01,0002,,,2020-09-03,000,0000,000,0,,0000,,0
0,d9a5b4a3-b089-4898-90b5-b3f3b6e39481,2f3437bc-b550-4a54-9690-188634f0973d,7,008,0,0,000,27008000037000202,2.0,2014-01-05,Кафэнская,2720,2720,d84169e1-89f3-40bd-bf6e-a66b3ac92886,,08224000014,08624410,21,cef34051-1715-4506-8c70-0fd88979abcd,037,270080000370002,682910,85bc2746-97bf-4c3c-905d-30fe07fa072a,27,ул,2012-01-01,0002,2713,2713,2020-09-03,000,0000,000,0,749ca169-da00-4ea1-8270-4affb79fcc93,0000,,0
0,d9a5b4a3-b089-4898-90b5-b3f3b6e39481,d84169e1-89f3-40bd-bf6e-a66b3ac92886,7,008,0,0,000,27008000037000203,3.0,2017-02-20,Кафэнская,2720,2720,c3d7cacd-9ca7-4fca-a7d0-e23f18c5072a,,08224000014,08624410116,21,cef34051-1715-4506-8c70-0fd88979abcd,037,270080000370002,682910,2f3437bc-b550-4a54-9690-188634f0973d,27,ул,2014-01-05,0002,2713,2713,2020-09-03,000,0000,000,0,749ca169-da00-4ea1-8270-4affb79fcc93,0000,,0
0,d9a5b4a3-b089-4898-90b5-b3f3b6e39481,c3d7cacd-9ca7-4fca-a7d0-e23f18c5072a,7,008,0,0,000,27008000037000204,4.0,2020-08-31,Кафэнская,2720,2720,05b54004-c38b-46dc-aeea-8fdf0da1eb2f,,08224000003,08624410,21,cef34051-1715-4506-8c70-0fd88979abcd,037,270080000370002,682910,d84169e1-89f3-40bd-bf6e-a66b3ac92886,27,ул,2017-02-20,0002,2713,2713,2020-09-03,000,0000,000,0,749ca169-da00-4ea1-8270-4affb79fcc93,0000,,0
0,d9a5b4a3-b089-4898-90b5-b3f3b6e39481,05b54004-c38b-46dc-aeea-8fdf0da1eb2f,7,008,0,0,000,27008000037000200,0.0,2020-08-31,Кафэнская,2720,2720,89c204a2-dc60-4ed0-9856-f64cfe4e1155,,08224000014,08624410,20,cef34051-1715-4506-8c70-0fd88979abcd,037,270080000370002,682936,c3d7cacd-9ca7-4fca-a7d0-e23f18c5072a,27,ул,2017-06-16,0002,2713,2713,2020-09-03,000,0000,000,0,8bec4c34-545c-45e1-8cb7-8e94909c3bd3,0000,,0
1,d9a5b4a3-b089-4898-90b5-b3f3b6e39481,89c204a2-dc60-4ed0-9856-f64cfe4e1155,7,008,0,0,000,27008000037000200,0.0,2079-06-06,Кафэнская,2720,2720,,,08224000014,08624410116,20,cef34051-1715-4506-8c70-0fd88979abcd,037,270080000370002,682936,05b54004-c38b-46dc-aeea-8fdf0da1eb2f,27,ул,2020-08-31,0002,2713,2713,2020-09-03,000,0000,000,1,,0000,,0
0,7dfc5e41-18c9-4fa4-9963-f36e2181a736,fba273b4-8333-4846-af72-09f8b87676c8,7,008,0,0,000,27008000037000401,1.0,2079-06-06,Набережный,2713,2713,b88c03cb-7729-480d-8606-d08407d70f89,,08224000014,08624410,1,cef34051-1715-4506-8c70-0fd88979abcd,037,270080000370004,682936,,27,пер,1900-01-01,0004,,,2020-09-03,000,0000,000,0,,0000,,0
0,7dfc5e41-18c9-4fa4-9963-f36e2181a736,b88c03cb-7729-480d-8606-d08407d70f89,7,008,0,0,000,27008000037000402,2.0,2014-01-05,Набережный,2720,2720,dc9b10b9-7f1e-4c5d-95b2-0064f0fbde46,,08224000014,08624410,21,cef34051-1715-4506-8c70-0fd88979abcd,037,270080000370004,682936,fba273b4-8333-4846-af72-09f8b87676c8,27,пер,2012-01-01,0004,2713,2713,2020-09-03,000,0000,000,0,749ca169-da00-4ea1-8270-4affb79fcc93,0000,,0
0,7dfc5e41-18c9-4fa4-9963-f36e2181a736,dc9b10b9-7f1e-4c5d-95b2-0064f0fbde46,7,008,0,0,000,27008000037000403,3.0,2017-02-20,Набережный,2720,2720,73150307-318a-4756-bd4c-4570d58f5964,,08224000014,08624410116,21,cef34051-1715-4506-8c70-0fd88979abcd,037,270080000370004,682936,b88c03cb-7729-480d-8606-d08407d70f89,27,пер,2014-01-05,0004,2713,2713,2020-09-03,000,0000,000,0,749ca169-da00-4ea1-8270-4affb79fcc93,0000,,0
0,7dfc5e41-18c9-4fa4-9963-f36e2181a736,73150307-318a-4756-bd4c-4570d58f5964,7,008,0,0,000,27008000037000404,4.0,2020-08-31,Набережный,2720,2720,afca6758-e6c8-4f58-b82e-398f74571a67,,08224000003,08624410,21,cef34051-1715-4506-8c70-0fd88979abcd,037,270080000370004,682936,dc9b10b9-7f1e-4c5d-95b2-0064f0fbde46,27,пер,2017-02-20,0004,2713,2713,2020-09-03,000,0000,000,0,749ca169-da00-4ea1-8270-4affb79fcc93,0000,,0
0,7dfc5e41-18c9-4fa4-9963-f36e2181a736,afca6758-e6c8-4f58-b82e-398f74571a67,7,008,0,0,000,27008000037000400,0.0,2020-08-31,Набережный,2720,2720,751ff91f-b66b-43b6-a0ec-e399ac131427,,08224000014,08624410,20,cef34051-1715-4506-8c70-0fd88979abcd,037,270080000370004,682936,73150307-318a-4756-bd4c-4570d58f5964,27,пер,2017-06-16,0004,2713,2713,2020-09-03,000,0000,000,0,07700663-2785-4ed1-8b77-fea98480c171,0000,,0
1,7dfc5e41-18c9-4fa4-9963-f36e2181a736,751ff91f-b66b-43b6-a0ec-e399ac131427,7,008,0,0,000,27008000037000400,0.0,2079-06-06,Набережный,2720,2720,,,08224000014,08624410116,20,cef34051-1715-4506-8c70-0fd88979abcd,037,270080000370004,682936,afca6758-e6c8-4f58-b82e-398f74571a67,27,пер,2020-08-31,0004,2713,2713,2020-09-03,000,0000,000,1,,0000,,0
0,9e5a13f8-9d63-4ccf-910e-604576bd8e4c,499cb932-2d1b-4320-8aba-295ceef192d8,7,008,0,0,000,27008000037000301,1.0,2079-06-06,Набережная,2713,2713,6cf2f8dc-787d-41f1-9d95-832bc3a2f4d4,,08224000014,08624410,1,cef34051-1715-4506-8c70-0fd88979abcd,037,270080000370003,682910,,27,ул,1900-01-01,0003,,,2020-09-03,000,0000,000,0,,0000,,0
0,9e5a13f8-9d63-4ccf-910e-604576bd8e4c,6cf2f8dc-787d-41f1-9d95-832bc3a2f4d4,7,008,0,0,000,27008000037000302,2.0,2014-01-05,Набережная,2720,2720,d0e370d4-d172-41e3-ae49-12293d1e63de,,08224000014,08624410,21,cef34051-1715-4506-8c70-0fd88979abcd,037,270080000370003,682910,499cb932-2d1b-4320-8aba-295ceef192d8,27,ул,2012-01-01,0003,2713,2713,2020-09-03,000,0000,000,0,749ca169-da00-4ea1-8270-4affb79fcc93,0000,,0
0,9e5a13f8-9d63-4ccf-910e-604576bd8e4c,d0e370d4-d172-41e3-ae49-12293d1e63de,7,008,0,0,000,27008000037000303,3.0,2017-02-20,Набережная,2720,2720,24547fe9-3dee-4204-9b2b-13fd79b06582,,08224000014,08624410116,21,cef34051-1715-4506-8c70-0fd88979abcd,037,270080000370003,682910,6cf2f8dc-787d-41f1-9d95-832bc3a2f4d4,27,ул,2014-01-05,0003,2713,2713,2020-09-03,000,0000,000,0,749ca169-da00-4ea1-8270-4affb79fcc93,0000,,0
0,9e5a13f8-9d63-4ccf-910e-604576bd8e4c,24547fe9-3dee-4204-9b2b-13fd79b06582,7,008,0,0,000,27008000037000300,0.0,2020-08-31,Набережная,2720,2720,926a946c-33bc-4bf9-bdf5-31826449133d,,08224000014,08624410,21,cef34051-1715-4506-8c70-0fd88979abcd,037,270080000370003,682936,d0e370d4-d172-41e3-ae49-12293d1e63de,27,ул,2017-02-20,0003,2713,2713,2020-09-03,000,0000,000,0,749ca169-da00-4ea1-8270-4affb79fcc93,0000,,0
1,9e5a13f8-9d63-4ccf-910e-604576bd8e4c,926a946c-33bc-4bf9-bdf5-31826449133d,7,008,0,0,000,27008000037000300,0.0,2079-06-06,Набережная,2720,2720,,,08224000014,08624410116,20,cef34051-1715-4506-8c70-0fd88979abcd,037,270080000370003,682936,24547fe9-3dee-4204-9b2b-13fd79b06582,27,ул,2020-08-31,0003,2713,2713,2020-09-03,000,0000,000,1,,0000,,0
0,5361b75b-7b04-4264-9360-779f71c086d5,718e480d-15de-4c62-93a4-1976c41b019b,7,008,0,0,000,27008000043000101,1.0,2079-06-06,Гаражная,2713,2713,2d14de7b-04dd-485a-a686-cb180b41b26b,,08224000018,08624410,1,df9b494f-d148-4be5-a3a3-1929ecad0176,043,270080000430001,682935,,27,ул,1900-01-01,0001,,,2020-09-03,000,0000,000,0,,0000,,0
0,5361b75b-7b04-4264-9360-779f71c086d5,2d14de7b-04dd-485a-a686-cb180b41b26b,7,008,0,0,000,27008000043000102,2.0,2014-01-05,Гаражная,2720,2720,a942fd10-939f-4e96-807f-f3a33de4a90a,,08224000018,08624410,21,df9b494f-d148-4be5-a3a3-1929ecad0176,043,270080000430001,682935,718e480d-15de-4c62-93a4-1976c41b019b,27,ул,2012-01-01,0001,2713,2713,2020-09-03,000,0000,000,0,749ca169-da00-4ea1-8270-4affb79fcc93,0000,,0
0,5361b75b-7b04-4264-9360-779f71c086d5,a942fd10-939f-4e96-807f-f3a33de4a90a,7,008,0,0,000,27008000043000103,3.0,2017-02-20,Гаражная,2720,2720,b10047f3-ac86-4d09-a638-9932a34a6cd0,,08224000018,08624410106,21,df9b494f-d148-4be5-a3a3-1929ecad0176,043,270080000430001,682935,2d14de7b-04dd-485a-a686-cb180b41b26b,27,ул,2014-01-05,0001,2713,2713,2020-09-03,000,0000,000,0,749ca169-da00-4ea1-8270-4affb79fcc93,0000,,0
0,5361b75b-7b04-4264-9360-779f71c086d5,b10047f3-ac86-4d09-a638-9932a34a6cd0,7,008,0,0,000,27008000043000100,0.0,2020-08-31,Гаражная,2720,2720,d6dcae88-b2e1-49d2-abc6-f05c3d512b66,,08224000003,08624410,21,df9b494f-d148-4be5-a3a3-1929ecad0176,043,270080000430001,682935,a942fd10-939f-4e96-807f-f3a33de4a90a,27,ул,2017-02-20,0001,2713,2713,2020-09-03,000,0000,000,0,749ca169-da00-4ea1-8270-4affb79fcc93,0000,,0
0,5361b75b-7b04-4264-9360-779f71c086d5,d6dcae88-b2e1-49d2-abc6-f05c3d512b66,7,008,0,0,000,27008000043000100,0.0,2079-06-06,Гаражная,2720,2720,9f757649-cf36-4a9e-9a43-0910cd0537f2,,08224000018,08624410,21,df9b494f-d148-4be5-a3a3-1929ecad0176,043,270080000430001,682935,b10047f3-ac86-4d09-a638-9932a34a6cd0,27,ул,2020-07-07,0001,2713,2713,2020-09-03,000,0000,000,0,,0000,,0
1,5361b75b-7b04-4264-9360-779f71c086d5,9f757649-cf36-4a9e-9a43-0910cd0537f2,7,008,0,0,000,27008000043000100,0.0,2079-06-06,Гаражная,2720,2720,,,08224000018,08624410106,20,df9b494f-d148-4be5-a3a3-1929ecad0176,043,270080000430001,682935,d6dcae88-b2e1-49d2-abc6-f05c3d512b66,27,ул,2020-08-31,0001,2713,2713,2020-09-03,000,0000,000,1,,0000,,0
0,9b3bebc0-855d-44bd-95c2-40dd89c81441,77b2dc88-e1d2-4e1d-bd31-1cdaf208866b,7,008,0,0,000,27008000043000801,1.0,2079-06-06,Школьный,2713,2713,fd41fd92-05f0-4f35-a230-46fc21c78bd0,,08224000018,08624410,1,df9b494f-d148-4be5-a3a3-1929ecad0176,043,270080000430008,682936,,27,пер,1900-01-01,0008,,,2020-09-03,000,0000,000,0,,0000,,0
0,9b3bebc0-855d-44bd-95c2-40dd89c81441,fd41fd92-05f0-4f35-a230-46fc21c78bd0,7,008,0,0,000,27008000043000802,2.0,2014-01-05,Школьный,2720,2720,501bae50-b794-4e01-bee6-272e5846c0cd,,08224000018,08624410,21,df9b494f-d148-4be5-a3a3-1929ecad0176,043,270080000430008,682936,77b2dc88-e1d2-4e1d-bd31-1cdaf208866b,27,пер,2012-01-01,0008,2713,2713,2020-09-03,000,0000,000,0,749ca169-da00-4ea1-8270-4affb79fcc93,0000,,0
0,9b3bebc0-855d-44bd-95c2-40dd89c81441,501bae50-b794-4e01-bee6-272e5846c0cd,7,008,0,0,000,27008000043000803,3.0,2017-02-20,Школьный,2720,2720,eb7f1e68-2fdd-49af-9cb2-7957cd4799d0,,08224000018,08624410106,21,df9b494f-d148-4be5-a3a3-1929ecad0176,043,270080000430008,682936,fd41fd92-05f0-4f35-a230-46fc21c78bd0,27,пер,2014-01-05,0008,2713,2713,2020-09-03,000,0000,000,0,749ca169-da00-4ea1-8270-4affb79fcc93,0000,,0
0,9b3bebc0-855d-44bd-95c2-40dd89c81441,eb7f1e68-2fdd-49af-9cb2-7957cd4799d0,7,008,0,0,000,27008000043000800,0.0,2020-08-31,Школьный,2720,2720,13a07ab5-8b46-41e0-a1f9-49be0cb5669e,,08224000018,08624410,21,df9b494f-d148-4be5-a3a3-1929ecad0176,043,270080000430008,682935,501bae50-b794-4e01-bee6-272e5846c0cd,27,пер,2017-02-20,0008,2713,2713,2020-09-03,000,0000,000,0,749ca169-da00-4ea1-8270-4affb79fcc93,0000,,0
1,9b3bebc0-855d-44bd-95c2-40dd89c81441,13a07ab5-8b46-41e0-a1f9-49be0cb5669e,7,008,0,0,000,27008000043000800,0.0,2079-06-06,Школьный,2720,2720,,,08224000018,08624410106,20,df9b494f-d148-4be5-a3a3-1929ecad0176,043,270080000430008,682935,eb7f1e68-2fdd-49af-9cb2-7957cd4799d0,27,пер,2020-08-31,0008,2713,2713,2020-09-03,000,0000,000,1,,0000,,0
0,03cff135-a28d-48b1-ba73-453f6febc6ae,6995ea55-d8d9-4453-a291-5d774dcd9853,7,008,0,0,000,27008000037000501,1.0,2079-06-06,Новая,2713,2713,430fa482-9a47-430a-92c8-9916284df73e,,08224000014,08624410,1,cef34051-1715-4506-8c70-0fd88979abcd,037,270080000370005,682910,,27,ул,1900-01-01,0005,,,2020-09-03,000,0000,000,0,,0000,,0
0,03cff135-a28d-48b1-ba73-453f6febc6ae,430fa482-9a47-430a-92c8-9916284df73e,7,008,0,0,000,27008000037000502,2.0,2014-01-05,Новая,2720,2720,37f31d70-e4f5-4190-9061-7cc0b4d491b1,,08224000014,08624410,21,cef34051-1715-4506-8c70-0fd88979abcd,037,270080000370005,682910,6995ea55-d8d9-4453-a291-5d774dcd9853,27,ул,2012-01-01,0005,2713,2713,2020-09-03,000,0000,000,0,749ca169-da00-4ea1-8270-4affb79fcc93,0000,,0
0,03cff135-a28d-48b1-ba73-453f6febc6ae,37f31d70-e4f5-4190-9061-7cc0b4d491b1,7,008,0,0,000,27008000037000503,3.0,2017-02-20,Новая,2720,2720,f187359f-e2cc-4e1a-aeb2-900e611140dd,,08224000014,08624410116,21,cef34051-1715-4506-8c70-0fd88979abcd,037,270080000370005,682910,430fa482-9a47-430a-92c8-9916284df73e,27,ул,2014-01-05,0005,2713,2713,2020-09-03,000,0000,000,0,749ca169-da00-4ea1-8270-4affb79fcc93,0000,,0
0,03cff135-a28d-48b1-ba73-453f6febc6ae,f187359f-e2cc-4e1a-aeb2-900e611140dd,7,008,0,0,000,27008000037000500,0.0,2020-08-31,Новая,2720,2720,74c4bb61-41c0-48db-8284-f78e542aee13,,08224000014,08624410,21,cef34051-1715-4506-8c70-0fd88979abcd,037,270080000370005,682936,37f31d70-e4f5-4190-9061-7cc0b4d491b1,27,ул,2017-02-20,0005,2713,2713,2020-09-03,000,0000,000,0,749ca169-da00-4ea1-8270-4affb79fcc93,0000,,0
1,03cff135-a28d-48b1-ba73-453f6febc6ae,74c4bb61-41c0-48db-8284-f78e542aee13,7,008,0,0,000,27008000037000500,0.0,2079-06-06,Новая,2720,2720,,,08224000014,08624410116,20,cef34051-1715-4506-8c70-0fd88979abcd,037,270080000370005,682936,f187359f-e2cc-4e1a-aeb2-900e611140dd,27,ул,2020-08-31,0005,2713,2713,2020-09-03,000,0000,000,1,,0000,,0
0,3c7332a5-1dfa-4068-9550-5beadbc3ad7b,64b710ff-564f-42d0-9699-002919e47060,7,008,0,0,000,27008000043000501,1.0,2079-06-06,Клубный,2713,2713,e03afc80-6dbd-4e38-9d16-1cd0566b4723,,08224000018,08624410,1,df9b494f-d148-4be5-a3a3-1929ecad0176,043,270080000430005,682935,,27,пер,1900-01-01,0005,,,2020-09-03,000,0000,000,0,,0000,,0
0,3c7332a5-1dfa-4068-9550-5beadbc3ad7b,e03afc80-6dbd-4e38-9d16-1cd0566b4723,7,008,0,0,000,27008000043000502,2.0,2014-01-05,Клубный,2720,2720,3600ccc4-f3e3-4adc-a5dd-bd8ff1661981,,08224000018,08624410,21,df9b494f-d148-4be5-a3a3-1929ecad0176,043,270080000430005,682935,64b710ff-564f-42d0-9699-002919e47060,27,пер,2012-01-01,0005,2713,2713,2020-09-03,000,0000,000,0,749ca169-da00-4ea1-8270-4affb79fcc93,0000,,0
0,3c7332a5-1dfa-4068-9550-5beadbc3ad7b,3600ccc4-f3e3-4adc-a5dd-bd8ff1661981,7,008,0,0,000,27008000043000503,3.0,2017-02-20,Клубный,2720,2720,85fc1531-a02d-4709-82fd-b19fe12614c0,,08224000018,08624410106,21,df9b494f-d148-4be5-a3a3-1929ecad0176,043,270080000430005,682935,e03afc80-6dbd-4e38-9d16-1cd0566b4723,27,пер,2014-01-05,0005,2713,2713,2020-09-03,000,0000,000,0,749ca169-da00-4ea1-8270-4affb79fcc93,0000,,0
0,3c7332a5-1dfa-4068-9550-5beadbc3ad7b,85fc1531-a02d-4709-82fd-b19fe12614c0,7,008,0,0,000,27008000043000500,0.0,2020-08-31,Клубный,2720,2720,aac55603-3b67-4655-b8c0-e6dcb718048b,,08224000003,08624410,21,df9b494f-d148-4be5-a3a3-1929ecad0176,043,270080000430005,682935,3600ccc4-f3e3-4adc-a5dd-bd8ff1661981,27,пер,2017-02-20,0005,2713,2713,2020-09-03,000,0000,000,0,749ca169-da00-4ea1-8270-4affb79fcc93,0000,,0
0,3c7332a5-1dfa-4068-9550-5beadbc3ad7b,aac55603-3b67-4655-b8c0-e6dcb718048b,7,008,0,0,000,27008000043000500,0.0,2079-06-06,Клубный,2720,2720,8c6ef639-4b5c-4e9a-8c63-b5e342b0a9f8,,08224000018,08624410,21,df9b494f-d148-4be5-a3a3-1929ecad0176,043,270080000430005,682935,85fc1531-a02d-4709-82fd-b19fe12614c0,27,пер,2020-07-07,0005,2713,2713,2020-09-03,000,0000,000,0,,0000,,0
1,3c7332a5-1dfa-4068-9550-5beadbc3ad7b,8c6ef639-4b5c-4e9a-8c63-b5e342b0a9f8,7,008,0,0,000,27008000043000500,0.0,2079-06-06,Клубный,2720,2720,,,08224000018,08624410106,20,df9b494f-d148-4be5-a3a3-1929ecad0176,043,270080000430005,682935,aac55603-3b67-4655-b8c0-e6dcb718048b,27,пер,2020-08-31,0005,2713,2713,2020-09-03,000,0000,000,1,,0000,,0
0,d111545f-720b-4cc7-b268-f315f5c2c4da,d111545f-720b-4cc7-b268-f315f5c2c4da,7,008,0,0,000,27008000017001201,1.0,2079-06-06,Речной,2713,2713,eb169ad7-d77a-4459-acb2-91a07cf53d5f,,08224000007,08624410,10,fb81cc68-1e2f-4fa7-b637-e8abb76d3b17,017,270080000170012,682935,,27,пер,1900-01-01,0012,,,2020-09-03,000,0000,000,0,db828413-ded8-4e13-a30f-bd0122f2d042,0000,,0
0,d111545f-720b-4cc7-b268-f315f5c2c4da,eb169ad7-d77a-4459-acb2-91a07cf53d5f,7,008,0,0,000,27008000017001202,2.0,2014-01-05,Речной,2720,2720,d7ab6ae5-989e-4b48-aab0-b0db0437e054,,08224000007,08624410,21,fb81cc68-1e2f-4fa7-b637-e8abb76d3b17,017,270080000170012,682935,d111545f-720b-4cc7-b268-f315f5c2c4da,27,пер,2012-01-01,0012,2713,2713,2020-09-03,000,0000,000,0,749ca169-da00-4ea1-8270-4affb79fcc93,0000,,0
0,d111545f-720b-4cc7-b268-f315f5c2c4da,d7ab6ae5-989e-4b48-aab0-b0db0437e054,7,008,0,0,000,27008000017001203,3.0,2017-02-20,Речной,2720,2720,2f8d56da-1be6-4fad-a17a-62e8b1d2cf32,,08224000007,08624410111,21,fb81cc68-1e2f-4fa7-b637-e8abb76d3b17,017,270080000170012,682935,eb169ad7-d77a-4459-acb2-91a07cf53d5f,27,пер,2014-01-05,0012,2713,2713,2020-09-03,000,0000,000,0,749ca169-da00-4ea1-8270-4affb79fcc93,0000,,0
0,d111545f-720b-4cc7-b268-f315f5c2c4da,2f8d56da-1be6-4fad-a17a-62e8b1d2cf32,7,008,0,0,000,27008000017001200,0.0,2020-08-31,Речной,2720,2720,908a91b8-375e-4fb8-85f9-a014ea9445d5,,08224000007,08624410,21,fb81cc68-1e2f-4fa7-b637-e8abb76d3b17,017,270080000170012,682935,d7ab6ae5-989e-4b48-aab0-b0db0437e054,27,пер,2017-02-20,0012,2713,2713,2020-09-03,000,0000,000,0,749ca169-da00-4ea1-8270-4affb79fcc93,0000,,0
1,d111545f-720b-4cc7-b268-f315f5c2c4da,908a91b8-375e-4fb8-85f9-a014ea9445d5,7,008,0,0,000,27008000017001200,0.0,2079-06-06,Речной,2720,2720,,,08224000007,08624410111,20,fb81cc68-1e2f-4fa7-b637-e8abb76d3b17,017,270080000170012,682935,2f8d56da-1be6-4fad-a17a-62e8b1d2cf32,27,пер,2020-08-31,0012,2713,2713,2020-09-03,000,0000,000,1,,0000,,0
0,dd1fa69e-2ec0-4211-80d9-5d1f449d6f53,fb4aa596-77a5-4753-b9d2-5a29fcdba9b4,7,008,0,0,000,27008000037001201,1.0,2079-06-06,Школьный,2713,2713,e7b568e2-83b2-499b-bf8f-666d465865f1,,08224000014,08624410,1,cef34051-1715-4506-8c70-0fd88979abcd,037,270080000370012,682936,,27,пер,1900-01-01,0012,,,2020-09-03,000,0000,000,0,,0000,,0
0,dd1fa69e-2ec0-4211-80d9-5d1f449d6f53,e7b568e2-83b2-499b-bf8f-666d465865f1,7,008,0,0,000,27008000037001202,2.0,2014-01-05,Школьный,2720,2720,466d0268-8042-4736-bc78-3078eeda6714,,08224000014,08624410,21,cef34051-1715-4506-8c70-0fd88979abcd,037,270080000370012,682936,fb4aa596-77a5-4753-b9d2-5a29fcdba9b4,27,пер,2012-01-01,0012,2713,2713,2020-09-03,000,0000,000,0,749ca169-da00-4ea1-8270-4affb79fcc93,0000,,0
0,dd1fa69e-2ec0-4211-80d9-5d1f449d6f53,466d0268-8042-4736-bc78-3078eeda6714,7,008,0,0,000,27008000037001203,3.0,2017-02-20,Школьный,2720,2720,09597309-0d70-449e-8fd7-11e701ffb499,,08224000014,08624410116,21,cef34051-1715-4506-8c70-0fd88979abcd,037,270080000370012,682936,e7b568e2-83b2-499b-bf8f-666d465865f1,27,пер,2014-01-05,0012,2713,2713,2020-09-03,000,0000,000,0,749ca169-da00-4ea1-8270-4affb79fcc93,0000,,0
0,dd1fa69e-2ec0-4211-80d9-5d1f449d6f53,09597309-0d70-449e-8fd7-11e701ffb499,7,008,0,0,000,27008000037001204,4.0,2020-08-31,Школьный,2720,2720,c7e2cef3-b5a1-4cf9-ad2a-c66b83054abe,,08224000003,08624410,21,cef34051-1715-4506-8c70-0fd88979abcd,037,270080000370012,682936,466d0268-8042-4736-bc78-3078eeda6714,27,пер,2017-02-20,0012,2713,2713,2020-09-03,000,0000,000,0,749ca169-da00-4ea1-8270-4affb79fcc93,0000,,0
0,dd1fa69e-2ec0-4211-80d9-5d1f449d6f53,c7e2cef3-b5a1-4cf9-ad2a-c66b83054abe,7,008,0,0,000,27008000037001200,0.0,2020-08-31,Школьный,2720,2720,5286ccd5-efa6-4492-a53d-cccc1e46df5a,,08224000014,08624410,20,cef34051-1715-4506-8c70-0fd88979abcd,037,270080000370012,682936,09597309-0d70-449e-8fd7-11e701ffb499,27,пер,2017-06-16,0012,2713,2713,2020-09-03,000,0000,000,0,9ff9df67-d23d-483f-89cb-e3a67e88a815,0000,,0
1,dd1fa69e-2ec0-4211-80d9-5d1f449d6f53,5286ccd5-efa6-4492-a53d-cccc1e46df5a,7,008,0,0,000,27008000037001200,0.0,2079-06-06,Школьный,2720,2720,,,08224000014,08624410116,20,cef34051-1715-4506-8c70-0fd88979abcd,037,270080000370012,682936,c7e2cef3-b5a1-4cf9-ad2a-c66b83054abe,27,пер,2020-08-31,0012,2713,2713,2020-09-03,000,0000,000,1,,0000,,0
0,f4605285-ed3a-49c5-b604-c10d0f6deb7d,f4605285-ed3a-49c5-b604-c10d0f6deb7d,7,008,0,0,000,27008000037001601,1.0,2079-06-06,Гаражная,2713,2713,2bc74cc3-7edb-4418-805f-335fecb3b35a,,08224000014,08624410,10,cef34051-1715-4506-8c70-0fd88979abcd,037,270080000370016,682936,,27,ул,1900-01-01,0016,,,2020-09-03,000,0000,000,0,db828413-ded8-4e13-a30f-bd0122f2d042,0000,,0
0,f4605285-ed3a-49c5-b604-c10d0f6deb7d,2bc74cc3-7edb-4418-805f-335fecb3b35a,7,008,0,0,000,27008000037001602,2.0,2014-01-05,Гаражная,2720,2720,5ebffa1b-ed21-434b-a9eb-a1510a1fdd34,,08224000014,08624410,21,cef34051-1715-4506-8c70-0fd88979abcd,037,270080000370016,682936,f4605285-ed3a-49c5-b604-c10d0f6deb7d,27,ул,2012-01-01,0016,2713,2713,2020-09-03,000,0000,000,0,749ca169-da00-4ea1-8270-4affb79fcc93,0000,,0
0,f4605285-ed3a-49c5-b604-c10d0f6deb7d,5ebffa1b-ed21-434b-a9eb-a1510a1fdd34,7,008,0,0,000,27008000037001603,3.0,2017-02-20,Гаражная,2720,2720,fdf11675-6186-4ced-b564-bea09f075cb5,,08224000014,08624410116,21,cef34051-1715-4506-8c70-0fd88979abcd,037,270080000370016,682936,2bc74cc3-7edb-4418-805f-335fecb3b35a,27,ул,2014-01-05,0016,2713,2713,2020-09-03,000,0000,000,0,749ca169-da00-4ea1-8270-4affb79fcc93,0000,,0
0,f4605285-ed3a-49c5-b604-c10d0f6deb7d,fdf11675-6186-4ced-b564-bea09f075cb5,7,008,0,0,000,27008000037001604,4.0,2020-08-31,Гаражная,2720,2720,9e8d4a1d-8d08-4867-8e9d-ef03dc83e2c0,,08224000003,08624410,21,cef34051-1715-4506-8c70-0fd88979abcd,037,270080000370016,682936,5ebffa1b-ed21-434b-a9eb-a1510a1fdd34,27,ул,2017-02-20,0016,2713,2713,2020-09-03,000,0000,000,0,749ca169-da00-4ea1-8270-4affb79fcc93,0000,,0
0,f4605285-ed3a-49c5-b604-c10d0f6deb7d,9e8d4a1d-8d08-4867-8e9d-ef03dc83e2c0,7,008,0,0,000,27008000037001600,0.0,2020-08-31,Гаражная,2720,2720,9874bf0c-3519-425c-b326-ac0267f15b19,,08224000014,08624410,20,cef34051-1715-4506-8c70-0fd88979abcd,037,270080000370016,682936,fdf11675-6186-4ced-b564-bea09f075cb5,27,ул,2017-06-16,0016,2713,2713,2020-09-03,000,0000,000,0,ac691fb4-a9f4-4f19-8529-68fbadb90cf7,0000,,0
1,f4605285-ed3a-49c5-b604-c10d0f6deb7d,9874bf0c-3519-425c-b326-ac0267f15b19,7,008,0,0,000,27008000037001600,0.0,2079-06-06,Гаражная,2720,2720,,,08224000014,08624410116,20,cef34051-1715-4506-8c70-0fd88979abcd,037,270080000370016,682936,9e8d4a1d-8d08-4867-8e9d-ef03dc83e2c0,27,ул,2020-08-31,0016,2713,2713,2020-09-03,000,0000,000,1,,0000,,0
0,31052c5d-156b-4abb-9582-c213b09d39c9,0972f8da-d319-4da0-a628-9b3acd93ae93,7,008,0,0,000,27008000037001101,1.0,2079-06-06,Школьная,2713,2713,a0c34d26-f031-4d72-b2fd-04eba9cc56a7,,08224000014,08624410,1,cef34051-1715-4506-8c70-0fd88979abcd,037,270080000370011,682910,,27,ул,1900-01-01,0011,,,2020-09-03,000,0000,000,0,,0000,,0
0,31052c5d-156b-4abb-9582-c213b09d39c9,a0c34d26-f031-4d72-b2fd-04eba9cc56a7,7,008,0,0,000,27008000037001102,2.0,2014-01-05,Школьная,2720,2720,2112a1d0-31ae-49aa-b82d-1714ecde0436,,08224000014,08624410,21,cef34051-1715-4506-8c70-0fd88979abcd,037,270080000370011,682910,0972f8da-d319-4da0-a628-9b3acd93ae93,27,ул,2012-01-01,0011,2713,2713,2020-09-03,000,0000,000,0,749ca169-da00-4ea1-8270-4affb79fcc93,0000,,0
0,31052c5d-156b-4abb-9582-c213b09d39c9,2112a1d0-31ae-49aa-b82d-1714ecde0436,7,008,0,0,000,27008000037001103,3.0,2017-02-20,Школьная,2720,2720,f233a1db-9628-4865-84af-0ba891a2b7d1,,08224000014,08624410116,21,cef34051-1715-4506-8c70-0fd88979abcd,037,270080000370011,682910,a0c34d26-f031-4d72-b2fd-04eba9cc56a7,27,ул,2014-01-05,0011,2713,2713,2020-09-03,000,0000,000,0,749ca169-da00-4ea1-8270-4affb79fcc93,0000,,0
0,31052c5d-156b-4abb-9582-c213b09d39c9,f233a1db-9628-4865-84af-0ba891a2b7d1,7,008,0,0,000,27008000037001104,4.0,2020-08-31,Школьная,2720,2720,367fdd7d-36ea-4e75-bccb-b0a4cc74b98f,,08224000003,08624410,21,cef34051-1715-4506-8c70-0fd88979abcd,037,270080000370011,,2112a1d0-31ae-49aa-b82d-1714ecde0436,27,ул,2017-02-20,0011,2713,2713,2020-09-03,000,0000,000,0,749ca169-da00-4ea1-8270-4affb79fcc93,0000,,0
0,31052c5d-156b-4abb-9582-c213b09d39c9,367fdd7d-36ea-4e75-bccb-b0a4cc74b98f,7,008,0,0,000,27008000037001100,0.0,2020-08-31,Школьная,2720,2720,5eefb686-8eb1-4786-9c9b-f50583e4e31c,,08224000003,08624410,20,cef34051-1715-4506-8c70-0fd88979abcd,037,270080000370011,,f233a1db-9628-4865-84af-0ba891a2b7d1,27,ул,2017-06-16,0011,2713,2713,2020-09-03,000,0000,000,0,4ca72c98-a302-4951-9d09-dcae4aff548f,0000,,0
0,31052c5d-156b-4abb-9582-c213b09d39c9,5eefb686-8eb1-4786-9c9b-f50583e4e31c,7,008,0,0,000,27008000037001100,0.0,2079-06-06,Школьная,2720,2720,0067efdd-37e7-4755-92b2-5ec2e8605733,,08224000014,08624410,21,cef34051-1715-4506-8c70-0fd88979abcd,037,270080000370011,,367fdd7d-36ea-4e75-bccb-b0a4cc74b98f,27,ул,2020-07-07,0011,2713,2713,2020-09-03,000,0000,000,0,,0000,,0
1,31052c5d-156b-4abb-9582-c213b09d39c9,0067efdd-37e7-4755-92b2-5ec2e8605733,7,008,0,0,000,27008000037001100,0.0,2079-06-06,Школьная,2720,2720,,,08224000014,08624410116,20,cef34051-1715-4506-8c70-0fd88979abcd,037,270080000370011,,5eefb686-8eb1-4786-9c9b-f50583e4e31c,27,ул,2020-08-31,0011,2713,2713,2020-09-03,000,0000,000,1,,0000,,0
0,9ba16544-9f47-4b8e-a42e-cd9c1f0014bd,bd513796-7997-4e54-acfc-00e2d40f1590,7,008,0,0,000,27008000017000601,1.0,2079-06-06,Почтовый,2713,2713,96e74ba1-7c6e-48b4-9a61-a09555236183,,08224000007,08624410,1,fb81cc68-1e2f-4fa7-b637-e8abb76d3b17,017,270080000170006,682938,,27,пер,1900-01-01,0006,,,2020-09-03,000,0000,000,0,,0000,,0
0,9ba16544-9f47-4b8e-a42e-cd9c1f0014bd,96e74ba1-7c6e-48b4-9a61-a09555236183,7,008,0,0,000,27008000017000602,2.0,2014-01-05,Почтовый,2720,2720,617dde79-2513-48be-9a2e-d55ae3a98258,,08224000007,08624410,21,fb81cc68-1e2f-4fa7-b637-e8abb76d3b17,017,270080000170006,682938,bd513796-7997-4e54-acfc-00e2d40f1590,27,пер,2012-01-01,0006,2713,2713,2020-09-03,000,0000,000,0,749ca169-da00-4ea1-8270-4affb79fcc93,0000,,0
0,9ba16544-9f47-4b8e-a42e-cd9c1f0014bd,617dde79-2513-48be-9a2e-d55ae3a98258,7,008,0,0,000,27008000017000603,3.0,2017-02-20,Почтовый,2720,2720,b17b5910-75dd-4e43-b79f-4becd3225cea,,08224000007,08624410111,21,fb81cc68-1e2f-4fa7-b637-e8abb76d3b17,017,270080000170006,682938,96e74ba1-7c6e-48b4-9a61-a09555236183,27,пер,2014-01-05,0006,2713,2713,2020-09-03,000,0000,000,0,749ca169-da00-4ea1-8270-4affb79fcc93,0000,,0
0,9ba16544-9f47-4b8e-a42e-cd9c1f0014bd,b17b5910-75dd-4e43-b79f-4becd3225cea,7,008,0,0,000,27008000017000600,0.0,2020-08-31,Почтовый,2720,2720,15fa10f8-3bc3-4f5b-bc1d-d904fd041baf,,08224000007,08624410,21,fb81cc68-1e2f-4fa7-b637-e8abb76d3b17,017,270080000170006,682935,617dde79-2513-48be-9a2e-d55ae3a98258,27,пер,2017-02-20,0006,2713,2713,2020-09-03,000,0000,000,0,749ca169-da00-4ea1-8270-4affb79fcc93,0000,,0
1,9ba16544-9f47-4b8e-a42e-cd9c1f0014bd,15fa10f8-3bc3-4f5b-bc1d-d904fd041baf,7,008,0,0,000,27008000017000600,0.0,2079-06-06,Почтовый,2720,2720,,,08224000007,08624410111,20,fb81cc68-1e2f-4fa7-b637-e8abb76d3b17,017,270080000170006,682935,b17b5910-75dd-4e43-b79f-4becd3225cea,27,пер,2020-08-31,0006,2713,2713,2020-09-03,000,0000,000,1,,0000,,0
0,0a2ee7a6-5d9f-47cd-aa38-78022394ba22,084617b2-2b0b-40ef-92b0-68873b6da7d3,7,008,0,0,000,27008000043000401,1.0,2079-06-06,Школьная,2713,2713,7cb48f0b-fe20-482f-ab31-2feb79e9bca1,,08224000018,08624410,1,df9b494f-d148-4be5-a3a3-1929ecad0176,043,270080000430004,682936,,27,ул,1900-01-01,0004,,,2020-09-03,000,0000,000,0,,0000,,0
0,0a2ee7a6-5d9f-47cd-aa38-78022394ba22,7cb48f0b-fe20-482f-ab31-2feb79e9bca1,7,008,0,0,000,27008000043000402,2.0,2014-01-05,Школьная,2720,2720,a40e837a-f595-40c4-a178-d91ab7d8f4d9,,08224000018,08624410,21,df9b494f-d148-4be5-a3a3-1929ecad0176,043,270080000430004,682936,084617b2-2b0b-40ef-92b0-68873b6da7d3,27,ул,2012-01-01,0004,2713,2713,2020-09-03,000,0000,000,0,749ca169-da00-4ea1-8270-4affb79fcc93,0000,,0
0,0a2ee7a6-5d9f-47cd-aa38-78022394ba22,a40e837a-f595-40c4-a178-d91ab7d8f4d9,7,008,0,0,000,27008000043000403,3.0,2017-02-20,Школьная,2720,2720,a6b4c3ed-e1d4-44a7-b58d-73d5928a30e1,,08224000018,08624410106,21,df9b494f-d148-4be5-a3a3-1929ecad0176,043,270080000430004,682936,7cb48f0b-fe20-482f-ab31-2feb79e9bca1,27,ул,2014-01-05,0004,2713,2713,2020-09-03,000,0000,000,0,749ca169-da00-4ea1-8270-4affb79fcc93,0000,,0
0,0a2ee7a6-5d9f-47cd-aa38-78022394ba22,a6b4c3ed-e1d4-44a7-b58d-73d5928a30e1,7,008,0,0,000,27008000043000400,0.0,2020-08-31,Школьная,2720,2720,3f7d25d2-49c9-4e59-bd26-cff7357aaf66,,08224000018,08624410,21,df9b494f-d148-4be5-a3a3-1929ecad0176,043,270080000430004,682935,a40e837a-f595-40c4-a178-d91ab7d8f4d9,27,ул,2017-02-20,0004,2713,2713,2020-09-03,000,0000,000,0,749ca169-da00-4ea1-8270-4affb79fcc93,0000,,0
1,0a2ee7a6-5d9f-47cd-aa38-78022394ba22,3f7d25d2-49c9-4e59-bd26-cff7357aaf66,7,008,0,0,000,27008000043000400,0.0,2079-06-06,Школьная,2720,2720,,,08224000018,08624410106,20,df9b494f-d148-4be5-a3a3-1929ecad0176,043,270080000430004,682935,a6b4c3ed-e1d4-44a7-b58d-73d5928a30e1,27,ул,2020-08-31,0004,2713,2713,2020-09-03,000,0000,000,1,,0000,,0
0,be0a020a-72fd-47c2-9825-b05dafb2f23c,4831c9e2-a3b3-493a-aec5-5242b5dc4613,7,008,0,0,000,27008000043000301,1.0,2079-06-06,Центральная,2713,2713,e15f6273-471a-4d45-bb40-25e75b23b72a,,08224000018,08624410,1,df9b494f-d148-4be5-a3a3-1929ecad0176,043,270080000430003,682936,,27,ул,1900-01-01,0003,,,2020-09-03,000,0000,000,0,,0000,,0
0,be0a020a-72fd-47c2-9825-b05dafb2f23c,e15f6273-471a-4d45-bb40-25e75b23b72a,7,008,0,0,000,27008000043000302,2.0,2014-01-05,Центральная,2720,2720,5c015ade-862d-4651-b5a1-70745c150472,,08224000018,08624410,21,df9b494f-d148-4be5-a3a3-1929ecad0176,043,270080000430003,682936,4831c9e2-a3b3-493a-aec5-5242b5dc4613,27,ул,2012-01-01,0003,2713,2713,2020-09-03,000,0000,000,0,749ca169-da00-4ea1-8270-4affb79fcc93,0000,,0
0,be0a020a-72fd-47c2-9825-b05dafb2f23c,5c015ade-862d-4651-b5a1-70745c150472,7,008,0,0,000,27008000043000303,3.0,2017-02-20,Центральная,2720,2720,3791c88f-d951-469b-a032-be3b92107d78,,08224000018,08624410106,21,df9b494f-d148-4be5-a3a3-1929ecad0176,043,270080000430003,,e15f6273-471a-4d45-bb40-25e75b23b72a,27,ул,2014-01-05,0003,2713,2713,2020-09-03,000,0000,000,0,749ca169-da00-4ea1-8270-4affb79fcc93,0000,,0
0,be0a020a-72fd-47c2-9825-b05dafb2f23c,3791c88f-d951-469b-a032-be3b92107d78,7,008,0,0,000,27008000043000300,0.0,2020-08-31,Центральная,2720,2720,b7670b84-ea10-4b12-a88a-519fe8eb56f8,,08224000018,08624410,21,df9b494f-d148-4be5-a3a3-1929ecad0176,043,270080000430003,682935,5c015ade-862d-4651-b5a1-70745c150472,27,ул,2017-02-20,0003,2713,2713,2020-09-03,000,0000,000,0,749ca169-da00-4ea1-8270-4affb79fcc93,0000,,0
0,be0a020a-72fd-47c2-9825-b05dafb2f23c,b7670b84-ea10-4b12-a88a-519fe8eb56f8,7,008,0,0,000,27008000043000300,0.0,2079-06-06,Центральная,2720,2720,47a2baaa-311d-4c0e-8ca4-396cec3b1b05,,08224000018,08624410,21,df9b494f-d148-4be5-a3a3-1929ecad0176,043,270080000430003,682935,3791c88f-d951-469b-a032-be3b92107d78,27,ул,2020-07-07,0003,2713,2713,2020-09-03,000,0000,000,0,,0000,,0
1,be0a020a-72fd-47c2-9825-b05dafb2f23c,47a2baaa-311d-4c0e-8ca4-396cec3b1b05,7,008,0,0,000,27008000043000300,0.0,2079-06-06,Центральная,2720,2720,,,08224000018,08624410106,20,df9b494f-d148-4be5-a3a3-1929ecad0176,043,270080000430003,682935,b7670b84-ea10-4b12-a88a-519fe8eb56f8,27,ул,2020-08-31,0003,2713,2713,2020-09-03,000,0000,000,1,,0000,,0
0,671cde13-01c1-4123-b2ff-fc8cd5f3b6fc,44bc9972-01f9-4d6e-aef8-2a8b09a5fcab,7,008,0,0,000,27008000037000801,1.0,2079-06-06,Торговая,2713,2713,b4c1fcc1-592f-4d92-812f-b207f5618bb7,,08224000014,08624410,1,cef34051-1715-4506-8c70-0fd88979abcd,037,270080000370008,682910,,27,ул,1900-01-01,0008,,,2020-09-03,000,0000,000,0,,0000,,0
0,671cde13-01c1-4123-b2ff-fc8cd5f3b6fc,b4c1fcc1-592f-4d92-812f-b207f5618bb7,7,008,0,0,000,27008000037000802,2.0,2014-01-05,Торговая,2720,2720,2db25bb7-56ea-4433-bec6-b3995500141b,,08224000014,08624410,21,cef34051-1715-4506-8c70-0fd88979abcd,037,270080000370008,682910,44bc9972-01f9-4d6e-aef8-2a8b09a5fcab,27,ул,2012-01-01,0008,2713,2713,2020-09-03,000,0000,000,0,749ca169-da00-4ea1-8270-4affb79fcc93,0000,,0
0,671cde13-01c1-4123-b2ff-fc8cd5f3b6fc,2db25bb7-56ea-4433-bec6-b3995500141b,7,008,0,0,000,27008000037000803,3.0,2017-02-20,Торговая,2720,2720,ccde448c-374a-44ea-932a-ff1cf7152df0,,08224000014,08624410116,21,cef34051-1715-4506-8c70-0fd88979abcd,037,270080000370008,682910,b4c1fcc1-592f-4d92-812f-b207f5618bb7,27,ул,2014-01-05,0008,2713,2713,2020-09-03,000,0000,000,0,749ca169-da00-4ea1-8270-4affb79fcc93,0000,,0
0,671cde13-01c1-4123-b2ff-fc8cd5f3b6fc,ccde448c-374a-44ea-932a-ff1cf7152df0,7,008,0,0,000,27008000037000800,0.0,2020-08-31,Торговая,2720,2720,3aa357cf-e9e8-4ace-9521-90ff1f87479f,,08224000014,08624410,21,cef34051-1715-4506-8c70-0fd88979abcd,037,270080000370008,682936,2db25bb7-56ea-4433-bec6-b3995500141b,27,ул,2017-02-20,0008,2713,2713,2020-09-03,000,0000,000,0,749ca169-da00-4ea1-8270-4affb79fcc93,0000,,0
1,671cde13-01c1-4123-b2ff-fc8cd5f3b6fc,3aa357cf-e9e8-4ace-9521-90ff1f87479f,7,008,0,0,000,27008000037000800,0.0,2079-06-06,Торговая,2720,2720,,,08224000014,08624410116,20,cef34051-1715-4506-8c70-0fd88979abcd,037,270080000370008,682936,ccde448c-374a-44ea-932a-ff1cf7152df0,27,ул,2020-08-31,0008,2713,2713,2020-09-03,000,0000,000,1,,0000,,0
0,8184aa70-2b07-4e96-be05-34bec4acce7a,8184aa70-2b07-4e96-be05-34bec4acce7a,7,008,0,0,000,27008000017001301,1.0,2079-06-06,Садовый,2713,2713,8016cfa7-1bae-431a-9af9-604429f9d0e1,,08224000007,08624410,10,fb81cc68-1e2f-4fa7-b637-e8abb76d3b17,017,270080000170013,682935,,27,пер,1900-01-01,0013,,,2020-09-03,000,0000,000,0,cab4eeb2-95b3-412a-945e-6b22137dd98b,0000,,0
0,8184aa70-2b07-4e96-be05-34bec4acce7a,8016cfa7-1bae-431a-9af9-604429f9d0e1,7,008,0,0,000,27008000017001302,2.0,2014-01-05,Садовый,2720,2720,74d0c5bb-aac3-49e2-bc23-4487336c4aee,,08224000007,08624410,21,fb81cc68-1e2f-4fa7-b637-e8abb76d3b17,017,270080000170013,682935,8184aa70-2b07-4e96-be05-34bec4acce7a,27,пер,2012-01-01,0013,2713,2713,2020-09-03,000,0000,000,0,749ca169-da00-4ea1-8270-4affb79fcc93,0000,,0
0,8184aa70-2b07-4e96-be05-34bec4acce7a,74d0c5bb-aac3-49e2-bc23-4487336c4aee,7,008,0,0,000,27008000017001303,3.0,2017-02-20,Садовый,2720,2720,1597cdb4-e621-4ceb-8080-1ea97d3e9a03,,08224000007,08624410111,21,fb81cc68-1e2f-4fa7-b637-e8abb76d3b17,017,270080000170013,682935,8016cfa7-1bae-431a-9af9-604429f9d0e1,27,пер,2014-01-05,0013,2713,2713,2020-09-03,000,0000,000,0,749ca169-da00-4ea1-8270-4affb79fcc93,0000,,0
0,8184aa70-2b07-4e96-be05-34bec4acce7a,1597cdb4-e621-4ceb-8080-1ea97d3e9a03,7,008,0,0,000,27008000017001300,0.0,2020-08-31,Садовый,2720,2720,848db2cd-4ef3-4aee-9f5b-92795a818122,,08224000003,08624410,21,fb81cc68-1e2f-4fa7-b637-e8abb76d3b17,017,270080000170013,682935,74d0c5bb-aac3-49e2-bc23-4487336c4aee,27,пер,2017-02-20,0013,2713,2713,2020-09-03,000,0000,000,0,749ca169-da00-4ea1-8270-4affb79fcc93,0000,,0
1,8184aa70-2b07-4e96-be05-34bec4acce7a,848db2cd-4ef3-4aee-9f5b-92795a818122,7,008,0,0,000,27008000017001300,0.0,2079-06-06,Садовый,2720,2720,,,08224000003,08624410111,20,fb81cc68-1e2f-4fa7-b637-e8abb76d3b17,017,270080000170013,682935,1597cdb4-e621-4ceb-8080-1ea97d3e9a03,27,пер,2020-08-31,0013,2713,2713,2020-09-03,000,0000,000,1,,0000,,0
0,9036cd98-b7cb-4b44-b40d-b903efda0d88,9036cd98-b7cb-4b44-b40d-b903efda0d88,65,018,0,0,000,27018000038009151,51.0,2079-06-06,Весна-2,2720,2720,90cf13e8-2f12-4d0d-82f1-bfece62205fe,,08255000039,08655465111,10,11d90802-ea26-4780-ae59-8c4726d6319f,000,270180000380091,680511,,27,тер. СНТ,2017-11-20,0000,,,2020-08-16,000,0000,000,0,7fe32b92-1f16-4d5f-b1e2-cdb6b69250f6,0152,,0
1,9036cd98-b7cb-4b44-b40d-b903efda0d88,90cf13e8-2f12-4d0d-82f1-bfece62205fe,65,018,0,0,000,27018000000015200,0.0,2079-06-06,Весна-2,2720,2720,,,08255000039,08655465,50,11d90802-ea26-4780-ae59-8c4726d6319f,000,270180000000152,680511,9036cd98-b7cb-4b44-b40d-b903efda0d88,27,тер. СНТ,2020-08-14,0000,,,2020-08-16,000,0000,000,1,,0152,,0
0,23b7487f-c2e8-411d-9807-7e797775c70e,23b7487f-c2e8-411d-9807-7e797775c70e,65,018,0,0,000,27018000038009851,51.0,2079-06-06,Сириус,2720,2720,27e76ada-e64b-4bc0-aed7-516f73e86fc3,,08255000039,08655465111,10,11d90802-ea26-4780-ae59-8c4726d6319f,000,270180000380098,,,27,тер. СНТ,2019-11-14,0000,,,2020-08-16,000,0000,000,0,29b40ac0-1394-4604-9c1c-431b88ef621e,0149,,0
1,23b7487f-c2e8-411d-9807-7e797775c70e,27e76ada-e64b-4bc0-aed7-516f73e86fc3,65,018,0,0,000,27018000000014900,0.0,2079-06-06,Сириус,2720,2720,,,08255000039,08655465,50,11d90802-ea26-4780-ae59-8c4726d6319f,000,270180000000149,,23b7487f-c2e8-411d-9807-7e797775c70e,27,тер. СНТ,2020-08-14,0000,,,2020-08-16,000,0000,000,1,,0149,,0
0,041a38ac-4e9c-48fb-a218-963e01c1827e,041a38ac-4e9c-48fb-a218-963e01c1827e,65,018,0,0,000,27018000038009051,51.0,2079-06-06,Дубок,2720,2720,8547af37-9c01-435c-9653-3a3f240d72d4,,08255000039,08655465111,10,11d90802-ea26-4780-ae59-8c4726d6319f,000,270180000380090,680511,,27,тер. СНТ,2017-11-20,0000,,,2020-08-16,000,0000,000,0,7fe32b92-1f16-4d5f-b1e2-cdb6b69250f6,0153,,0
1,041a38ac-4e9c-48fb-a218-963e01c1827e,8547af37-9c01-435c-9653-3a3f240d72d4,65,018,0,0,000,27018000000015300,0.0,2079-06-06,Дубок,2720,2720,,,08255000039,08655465,50,11d90802-ea26-4780-ae59-8c4726d6319f,000,270180000000153,680511,041a38ac-4e9c-48fb-a218-963e01c1827e,27,тер. СНТ,2020-08-14,0000,,,2020-08-16,000,0000,000,1,,0153,,0
0,a9a8b73d-2192-402d-beb6-c29d3122ae9a,a9a8b73d-2192-402d-beb6-c29d3122ae9a,65,018,0,0,000,27018000038009351,51.0,2079-06-06,Агат,2720,2720,19819f5f-70b2-4c04-9bbe-a3b41f168d99,,08255000039,08655465111,10,11d90802-ea26-4780-ae59-8c4726d6319f,000,270180000380093,680511,,27,тер. СНТ,2017-11-20,0000,,,2020-08-16,000,0000,000,0,7fe32b92-1f16-4d5f-b1e2-cdb6b69250f6,0151,,0
1,a9a8b73d-2192-402d-beb6-c29d3122ae9a,19819f5f-70b2-4c04-9bbe-a3b41f168d99,65,018,0,0,000,27018000000015100,0.0,2079-06-06,Агат,2720,2720,,,08255000039,08655465,50,11d90802-ea26-4780-ae59-8c4726d6319f,000,270180000000151,680511,a9a8b73d-2192-402d-beb6-c29d3122ae9a,27,тер. СНТ,2020-08-14,0000,,,2020-08-16,000,0000,000,1,,0151,,0
0,f710a2e3-6ec4-484c-a305-646a354a7974,f710a2e3-6ec4-484c-a305-646a354a7974,65,018,0,0,000,27018000038008351,51.0,2079-06-06,Мозайка,2720,2720,b23121d0-1968-474d-a0dd-e3ee759d44bf,,08255000039,08655465111,10,11d90802-ea26-4780-ae59-8c4726d6319f,000,270180000380083,680511,,27,тер. СНТ,2016-10-07,0000,,,2020-08-16,000,0000,000,0,7fe32b92-1f16-4d5f-b1e2-cdb6b69250f6,0148,,0
1,f710a2e3-6ec4-484c-a305-646a354a7974,b23121d0-1968-474d-a0dd-e3ee759d44bf,65,018,0,0,000,27018000000014800,0.0,2079-06-06,Мозайка,2720,2720,,,08255000039,08655465,50,11d90802-ea26-4780-ae59-8c4726d6319f,000,270180000000148,680511,f710a2e3-6ec4-484c-a305-646a354a7974,27,тер. СНТ,2020-08-14,0000,,,2020-08-16,000,0000,000,1,,0148,,0
0,867303e2-e404-4261-bc00-505e48aea6ed,867303e2-e404-4261-bc00-505e48aea6ed,65,018,0,0,000,27018000038008451,51.0,2079-06-06,Автомобилист,2720,2720,376b8786-c112-439d-9fcd-125f005ba513,,08255000039,08655465111,10,11d90802-ea26-4780-ae59-8c4726d6319f,000,270180000380084,680511,,27,тер. СНТ,2016-10-07,0000,,,2020-08-16,000,0000,000,0,7fe32b92-1f16-4d5f-b1e2-cdb6b69250f6,0150,,0
1,867303e2-e404-4261-bc00-505e48aea6ed,376b8786-c112-439d-9fcd-125f005ba513,65,018,0,0,000,27018000000015000,0.0,2079-06-06,Автомобилист,2720,2720,,,08255000039,08655465,50,11d90802-ea26-4780-ae59-8c4726d6319f,000,270180000000150,680511,867303e2-e404-4261-bc00-505e48aea6ed,27,тер. СНТ,2020-08-14,0000,,,2020-08-16,000,0000,000,1,,0150,,0
0,c9df0746-d01e-4628-b8b1-796bd3fd3b51,c9df0746-d01e-4628-b8b1-796bd3fd3b51,65,018,0,0,000,27018000038008851,51.0,2079-06-06,Коммунальник-88,2720,2720,797f81df-932c-421e-a7b2-e9b47dc32822,,08255000039,08655465111,10,11d90802-ea26-4780-ae59-8c4726d6319f,000,270180000380088,680511,,27,тер. СНТ,2017-11-20,0000,,,2020-08-17,000,0000,000,0,7fe32b92-1f16-4d5f-b1e2-cdb6b69250f6,0154,,0
1,c9df0746-d01e-4628-b8b1-796bd3fd3b51,797f81df-932c-421e-a7b2-e9b47dc32822,65,018,0,0,000,27018000000015400,0.0,2079-06-06,Коммунальник-88,2720,2720,,,08255000039,08655465,50,11d90802-ea26-4780-ae59-8c4726d6319f,000,270180000000154,680511,c9df0746-d01e-4628-b8b1-796bd3fd3b51,27,тер. СНТ,2020-08-17,0000,,,2020-08-17,000,0000,000,1,,0154,,0
0,40dd469b-72cd-4f03-994d-2ef6259bcdc2,40dd469b-72cd-4f03-994d-2ef6259bcdc2,65,018,0,0,000,27018000038008751,51.0,2020-08-17,Надежда,2720,2720,706e9c23-a517-4326-9582-48e1d5f5f6c6,,08255000039,08655465111,10,11d90802-ea26-4780-ae59-8c4726d6319f,000,270180000380087,680511,,27,тер. СНТ,2017-11-20,0000,,,2020-08-17,000,0000,000,0,7fe32b92-1f16-4d5f-b1e2-cdb6b69250f6,0156,,0
1,40dd469b-72cd-4f03-994d-2ef6259bcdc2,706e9c23-a517-4326-9582-48e1d5f5f6c6,65,018,0,0,000,27018000000015600,0.0,2079-06-06,Надежда - 3,2720,2720,,,08255000039,08655465,50,11d90802-ea26-4780-ae59-8c4726d6319f,000,270180000000156,680511,40dd469b-72cd-4f03-994d-2ef6259bcdc2,27,тер. СНТ,2020-08-17,0000,,,2020-08-17,000,0000,000,1,,0156,,0
0,e61d6104-ebb3-4da6-b1d1-1262b1c35740,e61d6104-ebb3-4da6-b1d1-1262b1c35740,65,018,0,0,000,27018000038008651,51.0,2079-06-06,Турист,2720,2720,619792e3-8e3c-4b27-9b27-2600a006c473,,08255000039,08655465111,10,11d90802-ea26-4780-ae59-8c4726d6319f,000,270180000380086,680511,,27,тер. СНТ,2017-11-20,0000,,,2020-08-17,000,0000,000,0,7fe32b92-1f16-4d5f-b1e2-cdb6b69250f6,0158,,0
1,e61d6104-ebb3-4da6-b1d1-1262b1c35740,619792e3-8e3c-4b27-9b27-2600a006c473,65,018,0,0,000,27018000000015800,0.0,2079-06-06,Турист,2720,2720,,,08255000039,08655465,50,11d90802-ea26-4780-ae59-8c4726d6319f,000,270180000000158,680511,e61d6104-ebb3-4da6-b1d1-1262b1c35740,27,тер. СНТ,2020-08-17,0000,,,2020-08-17,000,0000,000,1,,0158,,0
0,dcee15bf-a547-4967-aa30-5b5cca0b90e4,dcee15bf-a547-4967-aa30-5b5cca0b90e4,65,018,0,0,000,27018000038008151,51.0,2079-06-06,Раздольное,2720,2720,78fda1fa-16d2-4515-ad71-1ba91578cd49,,08255000039,08655465111,10,11d90802-ea26-4780-ae59-8c4726d6319f,000,270180000380081,680511,,27,тер. СНТ,2016-10-07,0000,,,2020-08-17,000,0000,000,0,7fe32b92-1f16-4d5f-b1e2-cdb6b69250f6,0155,,0
1,dcee15bf-a547-4967-aa30-5b5cca0b90e4,78fda1fa-16d2-4515-ad71-1ba91578cd49,65,018,0,0,000,27018000000015500,0.0,2079-06-06,Раздольное,2720,2720,,,08255000039,08655465,50,11d90802-ea26-4780-ae59-8c4726d6319f,000,270180000000155,680511,dcee15bf-a547-4967-aa30-5b5cca0b90e4,27,тер. СНТ,2020-08-17,0000,,,2020-08-17,000,0000,000,1,,0155,,0
0,3ac4e9c2-5797-4ec0-b81b-f4913ff2c500,3ac4e9c2-5797-4ec0-b81b-f4913ff2c500,65,018,0,0,000,27018000038007601,1.0,2079-06-06,Станкостроитель,2720,2720,367bee28-324a-4a99-98bb-60b5a01729fc,,08255000039,08655465111,10,11d90802-ea26-4780-ae59-8c4726d6319f,000,270180000380076,680511,,27,тер. СНТ,2016-10-07,0000,,,2020-08-17,000,0000,000,0,7ed49188-a51a-4414-ab3b-796d4324eed4,0157,,0
0,3ac4e9c2-5797-4ec0-b81b-f4913ff2c500,367bee28-324a-4a99-98bb-60b5a01729fc,65,018,0,0,000,27018000038007651,51.0,2020-08-17,Станкостроитель,2720,2720,afc4219e-58b9-4ad2-a4cf-a9ef7105dc00,,08255000039,08655465,21,11d90802-ea26-4780-ae59-8c4726d6319f,000,270180000380076,680511,3ac4e9c2-5797-4ec0-b81b-f4913ff2c500,27,тер. СНТ,2017-02-14,0000,,,2020-08-17,000,0000,000,0,7ed49188-a51a-4414-ab3b-796d4324eed4,0157,,0
1,3ac4e9c2-5797-4ec0-b81b-f4913ff2c500,afc4219e-58b9-4ad2-a4cf-a9ef7105dc00,65,018,0,0,000,27018000000015700,0.0,2079-06-06,Станкостроитель,2720,2720,,,08255000039,08655465,50,11d90802-ea26-4780-ae59-8c4726d6319f,000,270180000000157,680511,367bee28-324a-4a99-98bb-60b5a01729fc,27,тер. СНТ,2020-08-17,0000,,,2020-08-17,000,0000,000,1,,0157,,0
0,9b80f97c-e99c-4624-9d31-17c6d2187fef,9b80f97c-e99c-4624-9d31-17c6d2187fef,65,018,0,0,000,27018000038009251,51.0,2079-06-06,Весна,2720,2720,c1c86076-c59c-4154-94f0-740c9cbbe3ce,,08255000039,08655465111,10,11d90802-ea26-4780-ae59-8c4726d6319f,000,270180000380092,680511,,27,тер. СНТ,2017-11-20,0000,,,2020-08-20,000,0000,000,0,7fe32b92-1f16-4d5f-b1e2-cdb6b69250f6,0159,,0
1,9b80f97c-e99c-4624-9d31-17c6d2187fef,c1c86076-c59c-4154-94f0-740c9cbbe3ce,65,018,0,0,000,27018000000015900,0.0,2079-06-06,Весна,2720,2720,,,08255000039,08655465,50,11d90802-ea26-4780-ae59-8c4726d6319f,000,270180000000159,680511,9b80f97c-e99c-4624-9d31-17c6d2187fef,27,тер. СНТ,2020-08-18,0000,,,2020-08-20,000,0000,000,1,,0159,,0
0,9dae1a48-3a28-4a67-8083-2f57ce6d9949,9dae1a48-3a28-4a67-8083-2f57ce6d9949,65,018,0,0,000,27018000022001851,51.0,2079-06-06,Полянка-2,2720,2720,d1dc6c47-930b-411a-bc7f-f7317ada1a0b,,08255000024,08655465106,10,11d90802-ea26-4780-ae59-8c4726d6319f,000,270180000220018,680518,,27,тер. СНТ,2017-11-20,0000,,,2020-08-20,000,0000,000,0,7fe32b92-1f16-4d5f-b1e2-cdb6b69250f6,0163,,0
1,9dae1a48-3a28-4a67-8083-2f57ce6d9949,d1dc6c47-930b-411a-bc7f-f7317ada1a0b,65,018,0,0,000,27018000000016300,0.0,2079-06-06,Полянка-2,2720,2720,,,08255000024,08655465,50,11d90802-ea26-4780-ae59-8c4726d6319f,000,270180000000163,680518,9dae1a48-3a28-4a67-8083-2f57ce6d9949,27,тер. СНТ,2020-08-19,0000,,,2020-08-20,000,0000,000,1,,0163,,0
0,0e973dd0-fe31-4d1d-ae0a-fe0dc6d231fb,0e973dd0-fe31-4d1d-ae0a-fe0dc6d231fb,65,018,0,0,000,27018000022001351,51.0,2079-06-06,Ручеек,2720,2720,e2ccf7bf-4e8c-4746-8cde-6966b7aaee93,,08255000024,08655465106,10,11d90802-ea26-4780-ae59-8c4726d6319f,000,270180000220013,680518,,27,тер. СНТ,2017-11-20,0000,,,2020-08-20,000,0000,000,0,7fe32b92-1f16-4d5f-b1e2-cdb6b69250f6,0167,,0
1,0e973dd0-fe31-4d1d-ae0a-fe0dc6d231fb,e2ccf7bf-4e8c-4746-8cde-6966b7aaee93,65,018,0,0,000,27018000000016700,0.0,2079-06-06,Ручеек,2720,2720,,,08255000024,08655465,50,11d90802-ea26-4780-ae59-8c4726d6319f,000,270180000000167,680518,0e973dd0-fe31-4d1d-ae0a-fe0dc6d231fb,27,тер. СНТ,2020-08-19,0000,,,2020-08-20,000,0000,000,1,,0167,,0
0,29c0d28a-f1c6-4619-9e5c-924c3f2260be,29c0d28a-f1c6-4619-9e5c-924c3f2260be,65,018,0,0,000,27018000022001551,51.0,2079-06-06,Раздолье-1,2720,2720,2c52054e-311d-481f-9a90-ec0a43173f2b,,08255000024,08655465106,10,11d90802-ea26-4780-ae59-8c4726d6319f,000,270180000220015,680518,,27,тер. СНТ,2017-11-20,0000,,,2020-08-20,000,0000,000,0,7fe32b92-1f16-4d5f-b1e2-cdb6b69250f6,0165,,0
1,29c0d28a-f1c6-4619-9e5c-924c3f2260be,2c52054e-311d-481f-9a90-ec0a43173f2b,65,018,0,0,000,27018000000016500,0.0,2079-06-06,Раздолье-1,2720,2720,,,08255000024,08655465,50,11d90802-ea26-4780-ae59-8c4726d6319f,000,270180000000165,680518,29c0d28a-f1c6-4619-9e5c-924c3f2260be,27,тер. СНТ,2020-08-19,0000,,,2020-08-20,000,0000,000,1,,0165,,0
0,961fb074-b67b-4d36-bed7-cb3e4a820713,961fb074-b67b-4d36-bed7-cb3e4a820713,65,018,0,0,000,27018000022001199,99.0,2020-08-19,Строитель,2720,2720,a9a44c43-9015-49c3-9c30-ec2f239ae373,,08255000024,08655465106,10,95ae592e-6423-4454-808f-2a415c62cb22,022,270180000220011,680518,,27,тер. СНТ,2017-11-20,0000,,,2020-08-20,000,0000,000,0,7fe32b92-1f16-4d5f-b1e2-cdb6b69250f6,0011,,0
1,961fb074-b67b-4d36-bed7-cb3e4a820713,a9a44c43-9015-49c3-9c30-ec2f239ae373,65,018,0,0,000,27018000022001199,99.0,2079-06-06,Строитель,2720,2720,,,08255000024,08655465106,30,95ae592e-6423-4454-808f-2a415c62cb22,022,270180000220011,680518,961fb074-b67b-4d36-bed7-cb3e4a820713,27,тер. СНТ,2020-08-19,0000,,,2020-08-20,000,0000,000,0,,0011,,0
0,2204514a-c63f-44a6-b0cd-c1d8ee5a33f5,2204514a-c63f-44a6-b0cd-c1d8ee5a33f5,65,018,0,0,000,27018000022001299,99.0,2020-08-19,Сириус,2720,2720,6029a252-c367-4b21-87ad-4b40930b2139,,08255000024,08655465106,10,95ae592e-6423-4454-808f-2a415c62cb22,022,270180000220012,680518,,27,тер. СНТ,2017-11-20,0000,,,2020-08-20,000,0000,000,0,7fe32b92-1f16-4d5f-b1e2-cdb6b69250f6,0012,,0
1,2204514a-c63f-44a6-b0cd-c1d8ee5a33f5,6029a252-c367-4b21-87ad-4b40930b2139,65,018,0,0,000,27018000022001299,99.0,2079-06-06,Сириус,2720,2720,,,08255000024,08655465106,30,95ae592e-6423-4454-808f-2a415c62cb22,022,270180000220012,680518,2204514a-c63f-44a6-b0cd-c1d8ee5a33f5,27,тер. СНТ,2020-08-19,0000,,,2020-08-20,000,0000,000,0,,0012,,0
0,cc80b7e7-f0f9-45c6-8f59-055097916d09,cc80b7e7-f0f9-45c6-8f59-055097916d09,65,018,0,0,000,27018000038008951,51.0,2079-06-06,Карьер,2720,2720,29bd6367-b1b0-4a35-af9c-dc8448ddf753,,08255000039,08655465111,10,11d90802-ea26-4780-ae59-8c4726d6319f,000,270180000380089,680511,,27,тер. СНТ,2017-11-20,0000,,,2020-08-20,000,0000,000,0,7fe32b92-1f16-4d5f-b1e2-cdb6b69250f6,0168,,0
1,cc80b7e7-f0f9-45c6-8f59-055097916d09,29bd6367-b1b0-4a35-af9c-dc8448ddf753,65,018,0,0,000,27018000000016800,0.0,2079-06-06,Карьер,2720,2720,,,08255000039,08655465,50,11d90802-ea26-4780-ae59-8c4726d6319f,000,270180000000168,680511,cc80b7e7-f0f9-45c6-8f59-055097916d09,27,тер. СНТ,2020-08-19,0000,,,2020-08-20,000,0000,000,1,,0168,,0
0,90132609-4878-4d51-a402-0c6fe2f6825f,90132609-4878-4d51-a402-0c6fe2f6825f,65,018,0,0,000,27018000022000801,1.0,2079-06-06,Озерное,2720,2720,b2fe476f-0baa-45f9-99e4-fb99b7b561c4,,08255000024,08655465,10,11d90802-ea26-4780-ae59-8c4726d6319f,000,270180000220008,680518,,27,тер. СНТ,2017-02-15,0000,,,2020-08-20,000,0000,000,0,9abc5cef-3efa-4d28-80cc-dec6caff1f02,0160,,0
0,90132609-4878-4d51-a402-0c6fe2f6825f,b2fe476f-0baa-45f9-99e4-fb99b7b561c4,65,018,0,0,000,27018000022000851,51.0,2020-08-19,Озерное,2720,2720,53bbca0f-eb26-48b9-a363-4c3844b6e053,,08255000024,08655465106,20,11d90802-ea26-4780-ae59-8c4726d6319f,000,270180000220008,680518,90132609-4878-4d51-a402-0c6fe2f6825f,27,тер. СНТ,2017-10-02,0000,,,2020-08-20,000,0000,000,0,fcd34b98-f99f-4e83-bf97-fb179ba56bee,0160,,0
1,90132609-4878-4d51-a402-0c6fe2f6825f,53bbca0f-eb26-48b9-a363-4c3844b6e053,65,018,0,0,000,27018000000016000,0.0,2079-06-06,Озерное,2720,2720,,,08255000024,08655465,50,11d90802-ea26-4780-ae59-8c4726d6319f,000,270180000000160,680518,b2fe476f-0baa-45f9-99e4-fb99b7b561c4,27,тер. СНТ,2020-08-19,0000,,,2020-08-20,000,0000,000,1,,0160,,0
0,75bf149c-4fca-447d-a967-97df3bd9083a,75bf149c-4fca-447d-a967-97df3bd9083a,65,018,0,0,000,27018000022002999,99.0,2020-08-19,Звездочка,2720,2720,efe5e3af-9196-4d3a-a79a-44ca7fa6325f,,08255000024,08655465106,10,95ae592e-6423-4454-808f-2a415c62cb22,022,270180000220029,680518,,27,тер. СНТ,2017-11-20,0000,,,2020-08-20,000,0000,000,0,7fe32b92-1f16-4d5f-b1e2-cdb6b69250f6,0029,,0
1,75bf149c-4fca-447d-a967-97df3bd9083a,efe5e3af-9196-4d3a-a79a-44ca7fa6325f,65,018,0,0,000,27018000022002999,99.0,2079-06-06,Звездочка,2720,2720,,,08255000024,08655465106,30,95ae592e-6423-4454-808f-2a415c62cb22,022,270180000220029,680518,75bf149c-4fca-447d-a967-97df3bd9083a,27,тер. СНТ,2020-08-19,0000,,,2020-08-20,000,0000,000,0,,0029,,0
0,1eb3f4a2-3434-477a-98ef-cf3b8a598498,1eb3f4a2-3434-477a-98ef-cf3b8a598498,65,018,0,0,000,27018000022002051,51.0,2079-06-06,Поиск,2720,2720,57cc64ec-a74f-4cc5-b283-708aa00106b4,,08255000024,08655465106,10,11d90802-ea26-4780-ae59-8c4726d6319f,000,270180000220020,680518,,27,тер. СНТ,2017-11-20,0000,,,2020-08-20,000,0000,000,0,7fe32b92-1f16-4d5f-b1e2-cdb6b69250f6,0161,,0
1,1eb3f4a2-3434-477a-98ef-cf3b8a598498,57cc64ec-a74f-4cc5-b283-708aa00106b4,65,018,0,0,000,27018000000016100,0.0,2079-06-06,Поиск,2720,2720,,,08255000024,08655465,50,11d90802-ea26-4780-ae59-8c4726d6319f,000,270180000000161,680518,1eb3f4a2-3434-477a-98ef-cf3b8a598498,27,тер. СНТ,2020-08-19,0000,,,2020-08-20,000,0000,000,1,,0161,,0
0,7ea8eeb5-e7e6-49db-94aa-d24eb4d0297f,7ea8eeb5-e7e6-49db-94aa-d24eb4d0297f,65,018,0,0,000,27018000022001651,51.0,2079-06-06,Раздолье,2720,2720,ed4b0e22-3737-432f-adfc-655c8a289b2e,,08255000024,08655465106,10,11d90802-ea26-4780-ae59-8c4726d6319f,000,270180000220016,680518,,27,тер. СНТ,2017-11-20,0000,,,2020-08-20,000,0000,000,0,7fe32b92-1f16-4d5f-b1e2-cdb6b69250f6,0164,,0
1,7ea8eeb5-e7e6-49db-94aa-d24eb4d0297f,ed4b0e22-3737-432f-adfc-655c8a289b2e,65,018,0,0,000,27018000000016400,0.0,2079-06-06,Раздолье,2720,2720,,,08255000024,08655465,50,11d90802-ea26-4780-ae59-8c4726d6319f,000,270180000000164,680518,7ea8eeb5-e7e6-49db-94aa-d24eb4d0297f,27,тер. СНТ,2020-08-19,0000,,,2020-08-20,000,0000,000,1,,0164,,0
0,cfe10112-0d37-42c0-837d-41fd7b74d716,cfe10112-0d37-42c0-837d-41fd7b74d716,65,018,0,0,000,27018000022001451,51.0,2079-06-06,Рощица-2,2720,2720,b7a5bd71-074d-4f88-9840-4420d3e8629d,,08255000024,08655465106,10,11d90802-ea26-4780-ae59-8c4726d6319f,000,270180000220014,680518,,27,тер. СНТ,2017-11-20,0000,,,2020-08-20,000,0000,000,0,7fe32b92-1f16-4d5f-b1e2-cdb6b69250f6,0166,,0
1,cfe10112-0d37-42c0-837d-41fd7b74d716,b7a5bd71-074d-4f88-9840-4420d3e8629d,65,018,0,0,000,27018000000016600,0.0,2079-06-06,Рощица-2,2720,2720,,,08255000024,08655465,50,11d90802-ea26-4780-ae59-8c4726d6319f,000,270180000000166,680518,cfe10112-0d37-42c0-837d-41fd7b74d716,27,тер. СНТ,2020-08-19,0000,,,2020-08-20,000,0000,000,1,,0166,,0
0,e88362bf-5f25-4d37-979f-3595ea66bc06,e88362bf-5f25-4d37-979f-3595ea66bc06,65,018,0,0,000,27018000022000701,1.0,2020-08-19,Старатель,2720,2720,3bd4d3b3-3ada-4466-886c-d2ec4a9c05cc,,08255000024,08655465106,10,95ae592e-6423-4454-808f-2a415c62cb22,022,270180000220007,680518,,27,тер. СНТ,2016-11-07,0000,,,2020-08-20,000,0000,000,0,848d7fa5-9471-49b0-99dc-74594409b638,0007,,0
0,e88362bf-5f25-4d37-979f-3595ea66bc06,3bd4d3b3-3ada-4466-886c-d2ec4a9c05cc,65,018,0,0,000,27018000022000702,2.0,2017-10-02,Старатель,2720,2720,6f3d3b18-98c6-4538-a21d-b7d18b5fc5ef,,08255000024,08655465,20,95ae592e-6423-4454-808f-2a415c62cb22,022,270180000220007,680518,e88362bf-5f25-4d37-979f-3595ea66bc06,27,тер. СНТ,2017-03-16,0000,,,2020-08-20,000,0000,000,0,25acc35a-9796-4acf-bce8-4c0843c46886,0007,,0
0,e88362bf-5f25-4d37-979f-3595ea66bc06,6f3d3b18-98c6-4538-a21d-b7d18b5fc5ef,65,018,0,0,000,27018000022000799,99.0,2020-08-19,Старатель,2720,2720,17032348-59b5-4bb0-9c51-c0a4da9f7091,,08255000024,08655465106,20,95ae592e-6423-4454-808f-2a415c62cb22,022,270180000220007,680518,3bd4d3b3-3ada-4466-886c-d2ec4a9c05cc,27,тер. СНТ,2017-10-02,0000,,,2020-08-20,000,0000,000,0,fcd34b98-f99f-4e83-bf97-fb179ba56bee,0007,,0
1,e88362bf-5f25-4d37-979f-3595ea66bc06,17032348-59b5-4bb0-9c51-c0a4da9f7091,65,018,0,0,000,27018000022000799,99.0,2079-06-06,Старатель,2720,2720,,,08255000024,08655465106,30,95ae592e-6423-4454-808f-2a415c62cb22,022,270180000220007,680518,6f3d3b18-98c6-4538-a21d-b7d18b5fc5ef,27,тер. СНТ,2020-08-19,0000,,,2020-08-20,000,0000,000,0,,0007,,0
1,796f6cad-4abf-4888-bbad-8e28e7063e9e,796f6cad-4abf-4888-bbad-8e28e7063e9e,7,018,0,0,000,27018000059003500,0.0,2079-06-06,Ягодная,2720,2720,,,08255000058,08655412,10,65689f8e-c027-4d90-9608-61649a650de8,059,270180000590035,680512,,27,ул,2020-08-19,0035,,,2020-08-20,000,0000,000,1,,0009,,0
0,b529cf38-be49-41b3-82c9-012178dc76c1,b529cf38-be49-41b3-82c9-012178dc76c1,65,018,0,0,000,27018000022001951,51.0,2079-06-06,Полянка,2720,2720,8946b5f7-1485-4a4c-8dbe-39511f4fe2f4,,08255000024,08655465106,10,11d90802-ea26-4780-ae59-8c4726d6319f,000,270180000220019,680518,,27,тер. СНТ,2017-11-20,0000,,,2020-08-20,000,0000,000,0,7fe32b92-1f16-4d5f-b1e2-cdb6b69250f6,0162,,0
1,b529cf38-be49-41b3-82c9-012178dc76c1,8946b5f7-1485-4a4c-8dbe-39511f4fe2f4,65,018,0,0,000,27018000000016200,0.0,2079-06-06,Полянка,2720,2720,,,08255000024,08655465,50,11d90802-ea26-4780-ae59-8c4726d6319f,000,270180000000162,680518,b529cf38-be49-41b3-82c9-012178dc76c1,27,тер. СНТ,2020-08-19,0000,,,2020-08-20,000,0000,000,1,,0162,,0
1,cef8b320-9840-4d3f-884c-2903a6db0b2c,cef8b320-9840-4d3f-884c-2903a6db0b2c,7,018,0,0,000,27018000059003600,0.0,2079-06-06,Пихтовая,2720,2720,,,08255000058,08655412,10,65689f8e-c027-4d90-9608-61649a650de8,059,270180000590036,680512,,27,ул,2020-08-20,0036,,,2020-08-22,000,0000,000,1,,0009,,0
1,46941acf-5e30-4626-a19d-995be213d1a9,46941acf-5e30-4626-a19d-995be213d1a9,7,018,0,0,000,27018000059003700,0.0,2079-06-06,Берёзовая,2720,2720,,,08255000058,08655412,10,65689f8e-c027-4d90-9608-61649a650de8,059,270180000590037,680512,,27,ул,2020-08-20,0037,,,2020-08-22,000,0000,000,1,,0009,,0
0,cc271e46-a302-4cf1-a90b-ed49d6e06951,cc271e46-a302-4cf1-a90b-ed49d6e06951,7,015,0,0,000,27015000014000601,1.0,2079-06-06,Молодежная,2728,2728,127beaec-ba48-48c2-8a87-7b763dff3357,,08244000017,08644404106,10,676fdc54-754a-4ec7-8078-902047efa8ac,014,270150000140006,682738,,27,ул,2016-04-14,0006,2717,2717,2020-08-27,000,0000,000,0,da26902f-9e81-4a26-a48e-e994bd3ed078,0000,,0
0,cc271e46-a302-4cf1-a90b-ed49d6e06951,127beaec-ba48-48c2-8a87-7b763dff3357,7,015,0,0,000,27015000014000600,0.0,2020-08-26,Молодежная,2728,2728,da7a14aa-3b0e-47a8-9ca1-3fa0ef16445c,,08244000004,08644404,21,676fdc54-754a-4ec7-8078-902047efa8ac,014,270150000140006,682738,cc271e46-a302-4cf1-a90b-ed49d6e06951,27,ул,2017-02-15,0006,2717,2717,2020-08-27,000,0000,000,0,da26902f-9e81-4a26-a48e-e994bd3ed078,0000,,0
0,cc271e46-a302-4cf1-a90b-ed49d6e06951,da7a14aa-3b0e-47a8-9ca1-3fa0ef16445c,7,015,0,0,000,27015000014000600,0.0,2079-06-06,Молодежная,2728,2728,954e91d7-fe3f-4b75-9acc-7c4dfd4d776f,,08244000017,08644404,21,676fdc54-754a-4ec7-8078-902047efa8ac,014,270150000140006,682738,127beaec-ba48-48c2-8a87-7b763dff3357,27,ул,2020-07-07,0006,2717,2717,2020-08-27,000,0000,000,0,,0000,,0
1,cc271e46-a302-4cf1-a90b-ed49d6e06951,954e91d7-fe3f-4b75-9acc-7c4dfd4d776f,7,015,0,0,000,27015000014000600,0.0,2079-06-06,Молодежная,2728,2728,,,08244000017,08644404106,20,676fdc54-754a-4ec7-8078-902047efa8ac,014,270150000140006,682738,da7a14aa-3b0e-47a8-9ca1-3fa0ef16445c,27,ул,2020-08-26,0006,,,2020-08-27,000,0000,000,1,,0000,,0
0,6a0d839c-7174-494e-a759-a50d7f365537,ee1a629b-248c-4ea1-94f6-914f0a50b14d,7,015,0,0,000,27015000014000201,1.0,2079-06-06,Амгуньская,2717,2717,529f59c8-c6a5-49dc-9aed-7b2f5da0867e,,08244000017,08644404,1,676fdc54-754a-4ec7-8078-902047efa8ac,014,270150000140002,682738,,27,ул,1900-01-01,0002,,,2020-08-27,000,0000,000,0,,0000,,0
0,6a0d839c-7174-494e-a759-a50d7f365537,529f59c8-c6a5-49dc-9aed-7b2f5da0867e,7,015,0,0,000,27015000014000202,2.0,2020-08-26,Амгуньская,2728,2728,b1f7bf39-6063-4424-b101-bcd2e528b57a,,08244000017,08644404,21,676fdc54-754a-4ec7-8078-902047efa8ac,014,270150000140002,682738,ee1a629b-248c-4ea1-94f6-914f0a50b14d,27,ул,2012-01-01,0002,2717,2717,2020-08-27,000,0000,000,0,c7c15be3-3f2e-4bca-a56e-ff09e84b2ee3,0000,,0
0,6a0d839c-7174-494e-a759-a50d7f365537,b1f7bf39-6063-4424-b101-bcd2e528b57a,7,015,0,0,000,27015000014000203,3.0,2017-02-15,Амгуньская,2728,2728,bd054814-85f5-4458-9823-6b6709650b58,,08244000017,08644404106,21,676fdc54-754a-4ec7-8078-902047efa8ac,014,270150000140002,682738,529f59c8-c6a5-49dc-9aed-7b2f5da0867e,27,ул,2014-01-05,0002,2717,2717,2020-08-27,000,0000,000,0,c7c15be3-3f2e-4bca-a56e-ff09e84b2ee3,0000,,0
0,6a0d839c-7174-494e-a759-a50d7f365537,bd054814-85f5-4458-9823-6b6709650b58,7,015,0,0,000,27015000014000200,0.0,2020-08-26,Амгуньская,2728,2728,43421929-fd45-402b-af2b-f3905d1df2ed,,08244000004,08644404,21,676fdc54-754a-4ec7-8078-902047efa8ac,014,270150000140002,682738,b1f7bf39-6063-4424-b101-bcd2e528b57a,27,ул,2017-02-15,0002,2717,2717,2020-08-27,000,0000,000,0,c7c15be3-3f2e-4bca-a56e-ff09e84b2ee3,0000,,0
0,6a0d839c-7174-494e-a759-a50d7f365537,43421929-fd45-402b-af2b-f3905d1df2ed,7,015,0,0,000,27015000014000200,0.0,2079-06-06,Амгуньская,2728,2728,684d5b4b-4e3c-4df1-9904-4d3bbc33a37b,,08244000017,08644404,21,676fdc54-754a-4ec7-8078-902047efa8ac,014,270150000140002,682738,bd054814-85f5-4458-9823-6b6709650b58,27,ул,2020-07-07,0002,2717,2717,2020-08-27,000,0000,000,0,,0000,,0
1,6a0d839c-7174-494e-a759-a50d7f365537,684d5b4b-4e3c-4df1-9904-4d3bbc33a37b,7,015,0,0,000,27015000014000200,0.0,2079-06-06,Амгуньская,2728,2728,,,08244000017,08644404106,20,676fdc54-754a-4ec7-8078-902047efa8ac,014,270150000140002,682738,43421929-fd45-402b-af2b-f3905d1df2ed,27,ул,2020-08-26,0002,,,2020-08-27,000,0000,000,1,,0000,,0
0,d6b0cdc5-779d-4b96-89b5-630264d155b5,d6b0cdc5-779d-4b96-89b5-630264d155b5,65,005,0,0,000,27005000000001500,0.0,2079-06-06,Железнодорожная,2709,2709,f16ac2db-b93a-443e-8aeb-68c5405e3bc4,,,08612700,10,2763e3ba-0c04-40e2-8983-7df96a96c86b,000,270050000000015,,,27,тер.,2018-02-08,0000,,,2020-08-27,000,0000,000,0,9740dc48-dc3f-4509-be87-7c9db193d1bd,0015,,0
1,d6b0cdc5-779d-4b96-89b5-630264d155b5,f16ac2db-b93a-443e-8aeb-68c5405e3bc4,65,005,0,0,000,27005000000001500,0.0,2079-06-06,Железнодорожная,2709,2709,,,08212000000,08612700,20,2763e3ba-0c04-40e2-8983-7df96a96c86b,000,270050000000015,,d6b0cdc5-779d-4b96-89b5-630264d155b5,27,тер.,2020-08-26,0000,,,2020-08-27,000,0000,000,1,,0015,,0
0,8da79003-cfdd-4da8-9fd5-eb6aacbb083b,8da79003-cfdd-4da8-9fd5-eb6aacbb083b,7,015,0,0,000,27015000014000501,1.0,2079-06-06,Лесная,2728,2728,91be6575-6ee2-4af5-94d5-a56b21025158,,08244000017,08644404106,10,676fdc54-754a-4ec7-8078-902047efa8ac,014,270150000140005,682738,,27,ул,2016-04-14,0005,2717,2717,2020-08-27,000,0000,000,0,6e0e431c-9353-49f0-81e5-61cf6655d844,0000,,0
0,8da79003-cfdd-4da8-9fd5-eb6aacbb083b,91be6575-6ee2-4af5-94d5-a56b21025158,7,015,0,0,000,27015000014000500,0.0,2020-08-26,Лесная,2728,2728,b220350b-cfce-4a4c-b374-0157a36cdd13,,08244000004,08644404,21,676fdc54-754a-4ec7-8078-902047efa8ac,014,270150000140005,682738,8da79003-cfdd-4da8-9fd5-eb6aacbb083b,27,ул,2017-02-15,0005,2717,2717,2020-08-27,000,0000,000,0,6e0e431c-9353-49f0-81e5-61cf6655d844,0000,,0
0,8da79003-cfdd-4da8-9fd5-eb6aacbb083b,b220350b-cfce-4a4c-b374-0157a36cdd13,7,015,0,0,000,27015000014000500,0.0,2079-06-06,Лесная,2728,2728,2c6754cb-3d59-4310-8f40-f11a17625733,,08244000017,08644404,21,676fdc54-754a-4ec7-8078-902047efa8ac,014,270150000140005,682738,91be6575-6ee2-4af5-94d5-a56b21025158,27,ул,2020-07-07,0005,2717,2717,2020-08-27,000,0000,000,0,,0000,,0
1,8da79003-cfdd-4da8-9fd5-eb6aacbb083b,2c6754cb-3d59-4310-8f40-f11a17625733,7,015,0,0,000,27015000014000500,0.0,2079-06-06,Лесная,2728,2728,,,08244000017,08644404106,20,676fdc54-754a-4ec7-8078-902047efa8ac,014,270150000140005,682738,b220350b-cfce-4a4c-b374-0157a36cdd13,27,ул,2020-08-26,0005,,,2020-08-27,000,0000,000,1,,0000,,0
0,23c84282-1c9a-4fc1-ada8-66db9297578b,8bf462c8-f08f-4e84-b11b-ae0198090134,7,015,0,0,000,27015000014000301,1.0,2079-06-06,Школьная,2717,2717,05c48368-1563-4e8f-8bd7-b4230424db03,,08244000017,08644404,1,676fdc54-754a-4ec7-8078-902047efa8ac,014,270150000140003,682738,,27,ул,1900-01-01,0003,,,2020-08-27,000,0000,000,0,,0000,,0
0,23c84282-1c9a-4fc1-ada8-66db9297578b,05c48368-1563-4e8f-8bd7-b4230424db03,7,015,0,0,000,27015000014000302,2.0,2020-08-26,Школьная,2728,2728,fcfc6f8d-5f74-4aa4-b34e-c475e83f1f6e,,08244000017,08644404,21,676fdc54-754a-4ec7-8078-902047efa8ac,014,270150000140003,682738,8bf462c8-f08f-4e84-b11b-ae0198090134,27,ул,2012-01-01,0003,2717,2717,2020-08-27,000,0000,000,0,c7c15be3-3f2e-4bca-a56e-ff09e84b2ee3,0000,,0
0,23c84282-1c9a-4fc1-ada8-66db9297578b,fcfc6f8d-5f74-4aa4-b34e-c475e83f1f6e,7,015,0,0,000,27015000014000303,3.0,2017-02-15,Школьная,2728,2728,138a4cea-06b8-4fc0-b5df-51cbc5e4d494,,08244000017,08644404106,21,676fdc54-754a-4ec7-8078-902047efa8ac,014,270150000140003,682738,05c48368-1563-4e8f-8bd7-b4230424db03,27,ул,2014-01-05,0003,2717,2717,2020-08-27,000,0000,000,0,c7c15be3-3f2e-4bca-a56e-ff09e84b2ee3,0000,,0
0,23c84282-1c9a-4fc1-ada8-66db9297578b,138a4cea-06b8-4fc0-b5df-51cbc5e4d494,7,015,0,0,000,27015000014000300,0.0,2020-08-26,Школьная,2728,2728,0e43b78c-e64d-4d7a-90f2-48f6bd1aec89,,08244000004,08644404,21,676fdc54-754a-4ec7-8078-902047efa8ac,014,270150000140003,682738,fcfc6f8d-5f74-4aa4-b34e-c475e83f1f6e,27,ул,2017-02-15,0003,2717,2717,2020-08-27,000,0000,000,0,c7c15be3-3f2e-4bca-a56e-ff09e84b2ee3,0000,,0
0,23c84282-1c9a-4fc1-ada8-66db9297578b,0e43b78c-e64d-4d7a-90f2-48f6bd1aec89,7,015,0,0,000,27015000014000300,0.0,2079-06-06,Школьная,2728,2728,0dd01ccf-d4f3-4d9b-8005-50e8ab96799e,,08244000017,08644404,21,676fdc54-754a-4ec7-8078-902047efa8ac,014,270150000140003,682738,138a4cea-06b8-4fc0-b5df-51cbc5e4d494,27,ул,2020-07-07,0003,2717,2717,2020-08-27,000,0000,000,0,,0000,,0
1,23c84282-1c9a-4fc1-ada8-66db9297578b,0dd01ccf-d4f3-4d9b-8005-50e8ab96799e,7,015,0,0,000,27015000014000300,0.0,2079-06-06,Школьная,2728,2728,,,08244000017,08644404106,20,676fdc54-754a-4ec7-8078-902047efa8ac,014,270150000140003,682738,0e43b78c-e64d-4d7a-90f2-48f6bd1aec89,27,ул,2020-08-26,0003,,,2020-08-27,000,0000,000,1,,0000,,0
0,1e73e74d-18b0-490c-9266-7bf5851b2a29,3bfe6c6e-8384-403e-8f41-76fabaa2a747,7,015,0,0,000,27015000014000401,1.0,2079-06-06,Веселый,2717,2717,881409d5-0b4f-4623-bc65-2b7c0d3509a8,,08244000017,08644404,1,676fdc54-754a-4ec7-8078-902047efa8ac,014,270150000140004,682738,,27,пер,1900-01-01,0004,,,2020-08-27,000,0000,000,0,,0000,,0
0,1e73e74d-18b0-490c-9266-7bf5851b2a29,881409d5-0b4f-4623-bc65-2b7c0d3509a8,7,015,0,0,000,27015000014000402,2.0,2020-08-26,Веселый,2728,2728,39a911ac-2554-4ed5-9938-083a029f42ca,,08244000017,08644404,21,676fdc54-754a-4ec7-8078-902047efa8ac,014,270150000140004,682738,3bfe6c6e-8384-403e-8f41-76fabaa2a747,27,пер,2012-01-01,0004,2717,2717,2020-08-27,000,0000,000,0,c7c15be3-3f2e-4bca-a56e-ff09e84b2ee3,0000,,0
0,1e73e74d-18b0-490c-9266-7bf5851b2a29,39a911ac-2554-4ed5-9938-083a029f42ca,7,015,0,0,000,27015000014000403,3.0,2017-02-15,Веселый,2728,2728,43fd50a5-270b-470c-afa4-b9df6d75f7b8,,08244000017,08644404106,21,676fdc54-754a-4ec7-8078-902047efa8ac,014,270150000140004,682738,881409d5-0b4f-4623-bc65-2b7c0d3509a8,27,пер,2014-01-05,0004,2717,2717,2020-08-27,000,0000,000,0,c7c15be3-3f2e-4bca-a56e-ff09e84b2ee3,0000,,0
0,1e73e74d-18b0-490c-9266-7bf5851b2a29,43fd50a5-270b-470c-afa4-b9df6d75f7b8,7,015,0,0,000,27015000014000400,0.0,2020-08-26,Веселый,2728,2728,d7da7ea6-82e7-4d8b-a332-cb403fa3226f,,08244000004,08644404,21,676fdc54-754a-4ec7-8078-902047efa8ac,014,270150000140004,682738,39a911ac-2554-4ed5-9938-083a029f42ca,27,пер,2017-02-15,0004,2717,2717,2020-08-27,000,0000,000,0,c7c15be3-3f2e-4bca-a56e-ff09e84b2ee3,0000,,0
0,1e73e74d-18b0-490c-9266-7bf5851b2a29,d7da7ea6-82e7-4d8b-a332-cb403fa3226f,7,015,0,0,000,27015000014000400,0.0,2079-06-06,Веселый,2728,2728,3c7d5879-2e4c-470f-ad3b-b2bf553deb37,,08244000017,08644404,21,676fdc54-754a-4ec7-8078-902047efa8ac,014,270150000140004,682738,43fd50a5-270b-470c-afa4-b9df6d75f7b8,27,пер,2020-07-07,0004,2717,2717,2020-08-27,000,0000,000,0,,0000,,0
1,1e73e74d-18b0-490c-9266-7bf5851b2a29,3c7d5879-2e4c-470f-ad3b-b2bf553deb37,7,015,0,0,000,27015000014000400,0.0,2079-06-06,Веселый,2728,2728,,,08244000017,08644404106,20,676fdc54-754a-4ec7-8078-902047efa8ac,014,270150000140004,682738,d7da7ea6-82e7-4d8b-a332-cb403fa3226f,27,пер,2020-08-26,0004,,,2020-08-27,000,0000,000,1,,0000,,0
0,605c7d64-7766-4075-a2a1-a4bd380a7f29,605c7d64-7766-4075-a2a1-a4bd380a7f29,65,018,0,0,000,27018000038009451,51.0,2020-08-24,Автотранспортник,2720,2720,22ebab77-5458-4cec-b5f5-9117406fb26e,,08255000039,08655465111,10,713113bf-707b-417b-b26a-2ad6e5daab0e,038,270180000380094,680511,,27,тер. СНТ,2017-11-20,0000,,,2020-08-27,000,0000,000,0,7fe32b92-1f16-4d5f-b1e2-cdb6b69250f6,0094,,0
0,605c7d64-7766-4075-a2a1-a4bd380a7f29,22ebab77-5458-4cec-b5f5-9117406fb26e,65,018,0,0,000,27018000000014799,99.0,2079-06-06,Автотранспортник,2720,2720,b75cb3a1-72b2-447f-a3b8-f6e550115a6c,,08255000039,08655465,50,11d90802-ea26-4780-ae59-8c4726d6319f,000,270180000000147,680511,605c7d64-7766-4075-a2a1-a4bd380a7f29,27,тер. СНТ,2020-08-13,0000,,,2020-08-27,000,0000,000,0,,0147,,0
1,605c7d64-7766-4075-a2a1-a4bd380a7f29,b75cb3a1-72b2-447f-a3b8-f6e550115a6c,65,018,0,0,000,27018000000014799,99.0,2079-06-06,Автотранспортник,2720,2720,,,08255000039,08655465,30,11d90802-ea26-4780-ae59-8c4726d6319f,000,270180000000147,680511,22ebab77-5458-4cec-b5f5-9117406fb26e,27,тер. СНТ,2020-08-24,0000,,,2020-08-27,000,0000,000,0,,0147,,0
