ACTSTATUS,AOGUID,AOID,AOLEVEL,AREACODE,AUTOCODE,CENTSTATUS,CITYCODE,CODE,CURRSTATUS,ENDDATE,FORMALNAME,IFNSFL,IFNSUL,NEXTID,OFFNAME,OKATO,OKTMO,OPERSTATUS,PARENTGUID,PLACECODE,PLAINCODE,POSTALCODE,PREVID,REGIONCODE,SHORTNAME,STARTDATE,STREETCODE,TERRIFNSFL,TERRIFNSUL,UPDATEDATE,CTARCODE,EXTRCODE,SEXTCODE,LIVESTATUS,NORMDOC,PLANCODE,CADNUM,DIVTYPE
0,b93ce476-49b6-4aec-a522-b69e7e509d61,b93ce476-49b6-4aec-a522-b69e7e509d61,7,006,0,0,000,35006000140000700,0.0,2079-06-06,Сосновая,3538,3538,f235d9db-68f4-49dc-b3e2-5ccb85304ad0,,19214828001,19614428126,10,8bbd62d5-4c3f-416e-add8-a6f2318c42e1,140,350060001400007,162393,,35,ул,2011-09-28,0007,3526,3526,2020-08-30,000,0000,000,0,3b0d3ef0-8e86-4852-9029-48ad65a5e2c0,0000,,0
1,b93ce476-49b6-4aec-a522-b69e7e509d61,f235d9db-68f4-49dc-b3e2-5ccb85304ad0,7,006,0,0,000,35006000140000700,0.0,2079-06-06,Сосновая,3538,3538,,,19214828006,19614428126,20,8bbd62d5-4c3f-416e-add8-a6f2318c42e1,140,350060001400007,162393,b93ce476-49b6-4aec-a522-b69e7e509d61,35,ул,2020-08-28,0007,3526,3526,2020-08-30,000,0000,000,1,,0000,,0
1,72fc4592-c1f4-4c97-a297-714b8bccb5e2,72fc4592-c1f4-4c97-a297-714b8bccb5e2,7,001,0,0,000,35001000022003900,0.0,2079-06-06,Вишневый,3529,3529,,,19220864001,19620464101,10,2a6de854-6094-4604-9a91-0fa8ca6c29cc,022,350010000220039,160523,,35,пер,2020-08-27,0039,3507,3507,2020-08-30,000,0000,000,1,,0000,,0
0,3da16026-e86d-4044-a891-8636481b1f2f,3da16026-e86d-4044-a891-8636481b1f2f,65,026,0,0,000,35026006000000151,51.0,2079-06-06,ФГКУ комбинат Балтика Росрезерва,3536,3536,9bcac846-7b45-422b-b3d6-963533ec11e9,,19258828000,19658428,10,6805739a-f5c7-40cd-9066-44e63f7b0b5a,000,350260060000001,162576,,35,тер,2016-10-13,0000,3524,3524,2020-09-03,000,0000,000,0,fd96bec0-016a-4b05-bcfc-3f9e805492db,0027,,0
0,3da16026-e86d-4044-a891-8636481b1f2f,9bcac846-7b45-422b-b3d6-963533ec11e9,65,026,0,0,000,35026006000000151,51.0,2020-05-07,ФГКУ комбинат Балтика Росрезерва,3536,3536,1ae7b4ab-1b95-4fb3-8c6f-5d3fce9027d3,,19258828000,19658428000,20,6805739a-f5c7-40cd-9066-44e63f7b0b5a,000,350260060000001,162576,3da16026-e86d-4044-a891-8636481b1f2f,35,тер,2020-04-29,0000,3524,3524,2020-09-03,000,0000,000,0,,0027,,0
0,3da16026-e86d-4044-a891-8636481b1f2f,1ae7b4ab-1b95-4fb3-8c6f-5d3fce9027d3,65,026,0,0,000,35026006000000151,51.0,2020-08-31,ФГКУ комбинат Балтика Росрезерва,3536,3536,303f1c18-887b-4c3d-a65f-cb1563ccbe01,,19258828000,19658428,50,6805739a-f5c7-40cd-9066-44e63f7b0b5a,000,350260060000001,162576,9bcac846-7b45-422b-b3d6-963533ec11e9,35,тер,2020-05-07,0000,3524,3524,2020-09-03,000,0000,000,0,,0027,,0
1,3da16026-e86d-4044-a891-8636481b1f2f,303f1c18-887b-4c3d-a65f-cb1563ccbe01,65,026,0,0,000,35026000000002700,0.0,2079-06-06,ФГКУ комбинат Балтика Росрезерва,3536,3536,,,19258828000,19658428,50,6805739a-f5c7-40cd-9066-44e63f7b0b5a,000,350260000000027,162576,1ae7b4ab-1b95-4fb3-8c6f-5d3fce9027d3,35,тер,2020-08-31,0000,3524,3524,2020-09-03,000,0000,000,1,,0027,,0
0,0337f83c-a9d0-4115-be7d-c595b41c4ff2,0337f83c-a9d0-4115-be7d-c595b41c4ff2,7,006,0,0,000,35006000140000101,1.0,2020-09-01,Посадский лог,3538,3538,a2a49a35-cdbc-4c87-90be-2e1dd3ca39c4,,19214828001,19614428,10,8bbd62d5-4c3f-416e-add8-a6f2318c42e1,140,350060001400001,162393,,35,ул,2000-01-01,0001,3526,3526,2020-09-03,000,0000,000,0,,0000,,0
0,0337f83c-a9d0-4115-be7d-c595b41c4ff2,a2a49a35-cdbc-4c87-90be-2e1dd3ca39c4,7,006,0,0,000,35006000140000102,2.0,2020-09-01,Посадский лог,3538,3538,1eb42bc5-08f0-485a-a1bd-ea3ca0da7261,,19214828001,19614428126,21,8bbd62d5-4c3f-416e-add8-a6f2318c42e1,140,350060001400001,162393,0337f83c-a9d0-4115-be7d-c595b41c4ff2,35,ул,2016-03-21,0001,3526,3526,2020-09-03,000,0000,000,0,,0000,,0
0,0337f83c-a9d0-4115-be7d-c595b41c4ff2,1eb42bc5-08f0-485a-a1bd-ea3ca0da7261,7,006,0,0,000,35006000140000102,2.0,2020-09-01,Посадский лог,3538,3538,4d4e278d-b848-4142-bbdf-1fb7b18a5bcb,,19214828006,19614428126,20,8bbd62d5-4c3f-416e-add8-a6f2318c42e1,140,350060001400001,162393,a2a49a35-cdbc-4c87-90be-2e1dd3ca39c4,35,ул,2020-08-27,0001,3526,3526,2020-09-03,000,0000,000,0,,0000,,0
1,0337f83c-a9d0-4115-be7d-c595b41c4ff2,4d4e278d-b848-4142-bbdf-1fb7b18a5bcb,7,006,0,0,000,35006000140000100,0.0,2079-06-06,Посадский Лог,3538,3538,,,19214828006,19614428126,20,8bbd62d5-4c3f-416e-add8-a6f2318c42e1,140,350060001400001,162393,1eb42bc5-08f0-485a-a1bd-ea3ca0da7261,35,ул,2020-09-01,0001,3526,3526,2020-09-03,000,0000,000,1,,0000,,0
0,8786b655-da64-4c4c-aaaa-b170369fecf7,8786b655-da64-4c4c-aaaa-b170369fecf7,7,006,0,0,000,35006000140001001,1.0,2079-06-06,Лебяжий,3538,3538,279efe01-ade0-492a-9936-51f435b4978a,,19214828001,19614428,10,8bbd62d5-4c3f-416e-add8-a6f2318c42e1,140,350060001400010,162393,,35,пер,2011-09-28,0010,3526,3526,2020-09-03,000,0000,000,0,ddf491d9-e34e-4d93-8510-af7ca505b13d,0000,,0
0,8786b655-da64-4c4c-aaaa-b170369fecf7,279efe01-ade0-492a-9936-51f435b4978a,7,006,0,0,000,35006000140001000,0.0,2020-08-31,Лебяжий,3538,3538,ec4c19af-1158-4462-963c-66d11e0a3de2,,19214828001,19614428126,21,8bbd62d5-4c3f-416e-add8-a6f2318c42e1,140,350060001400010,162393,8786b655-da64-4c4c-aaaa-b170369fecf7,35,пер,2016-03-21,0010,3526,3526,2020-09-03,000,0000,000,0,ddf491d9-e34e-4d93-8510-af7ca505b13d,0000,,0
1,8786b655-da64-4c4c-aaaa-b170369fecf7,ec4c19af-1158-4462-963c-66d11e0a3de2,7,006,0,0,000,35006000140001000,0.0,2079-06-06,Лебяжий,3538,3538,,,19214828006,19614428126,20,8bbd62d5-4c3f-416e-add8-a6f2318c42e1,140,350060001400010,162393,279efe01-ade0-492a-9936-51f435b4978a,35,пер,2020-08-31,0010,3526,3526,2020-09-03,000,0000,000,1,,0000,,0
0,7ebfd36a-56da-4116-a6c7-33d79f690541,7ebfd36a-56da-4116-a6c7-33d79f690541,7,006,0,0,000,35006000140001100,0.0,2079-06-06,Соловьиный,3538,3538,53a0468c-7f40-41eb-b845-2cfb272d13a1,,19214828001,19614428126,10,8bbd62d5-4c3f-416e-add8-a6f2318c42e1,140,350060001400011,162393,,35,пер,2011-09-28,0011,3526,3526,2020-09-03,000,0000,000,0,6157aaea-9379-4f9b-8d46-27251217692b,0000,,0
1,7ebfd36a-56da-4116-a6c7-33d79f690541,53a0468c-7f40-41eb-b845-2cfb272d13a1,7,006,0,0,000,35006000140001100,0.0,2079-06-06,Соловьиный,3538,3538,,,19214828006,19614428126,20,8bbd62d5-4c3f-416e-add8-a6f2318c42e1,140,350060001400011,162393,7ebfd36a-56da-4116-a6c7-33d79f690541,35,пер,2020-08-31,0011,3526,3526,2020-09-03,000,0000,000,1,,0000,,0
0,e63fb336-ede2-453f-bb5f-4b5e9281327f,2ab387b8-f82f-4292-a556-d295aff24078,6,022,0,0,000,3502200021001,1.0,2079-06-06,Брилино,3532,3532,1c2f4b0a-d203-46fe-ab5a-bf54d87f17f5,,19250848005,19650448,1,b1486739-843b-43fb-b47d-93ddc055e5f6,210,35022000210,162840,,35,д,1900-01-01,0000,3520,3520,2020-08-16,000,0000,000,0,,0000,,0
0,e63fb336-ede2-453f-bb5f-4b5e9281327f,1c2f4b0a-d203-46fe-ab5a-bf54d87f17f5,6,022,0,0,000,3502200021002,2.0,2015-11-13,Брилино,3532,3532,daa9d036-e796-48e8-875a-cd5493b3ff66,,19250848005,19650448136,21,b1486739-843b-43fb-b47d-93ddc055e5f6,210,35022000210,162840,2ab387b8-f82f-4292-a556-d295aff24078,35,д,2014-01-05,0000,3520,3520,2020-08-16,000,0000,000,0,,0000,,0
0,e63fb336-ede2-453f-bb5f-4b5e9281327f,daa9d036-e796-48e8-875a-cd5493b3ff66,6,022,0,0,000,3502200021000,0.0,2020-08-13,Брилино,3532,3532,5651cb99-6f0d-4278-ba62-0844d78730c9,,19250848000,19650448136,21,b1486739-843b-43fb-b47d-93ddc055e5f6,210,35022000210,,1c2f4b0a-d203-46fe-ab5a-bf54d87f17f5,35,д,2015-11-13,0000,3520,3520,2020-08-16,000,0000,000,0,,0000,,0
1,e63fb336-ede2-453f-bb5f-4b5e9281327f,5651cb99-6f0d-4278-ba62-0844d78730c9,6,022,0,0,000,3502200021000,0.0,2079-06-06,Брилино,3532,3532,,,19250848005,19650448136,21,b1486739-843b-43fb-b47d-93ddc055e5f6,210,35022000210,,daa9d036-e796-48e8-875a-cd5493b3ff66,35,д,2020-08-13,0000,3520,3520,2020-08-16,000,0000,000,1,,0000,,0
0,4bab4198-2e1f-43c2-ba44-cefe0fc8ed30,f492aa7c-4dca-4dd2-81bf-bdc464217a5b,6,020,0,0,000,3502000010301,1.0,2020-08-12,Семеновская (Вожбальское МО),3535,3535,7fbe560c-8386-48a2-9a57-aa6e8542f852,,19246812021,19646412,1,90841369-82e7-4bdb-8bb7-9a80c3a45545,103,35020000103,161313,,35,д,1900-01-01,0000,3518,3518,2020-08-16,000,0000,000,0,,0000,,0
0,4bab4198-2e1f-43c2-ba44-cefe0fc8ed30,7fbe560c-8386-48a2-9a57-aa6e8542f852,6,020,0,0,000,3502000010302,2.0,2016-03-05,Семеновская (Вожбальское МО),3535,3535,3d58af22-2c9e-4220-abdf-63aba3c65b03,,19246812021,19646412196,21,90841369-82e7-4bdb-8bb7-9a80c3a45545,103,35020000103,161313,f492aa7c-4dca-4dd2-81bf-bdc464217a5b,35,д,2014-01-05,0000,3518,3518,2020-08-16,000,0000,000,0,,0000,,0
0,4bab4198-2e1f-43c2-ba44-cefe0fc8ed30,3d58af22-2c9e-4220-abdf-63aba3c65b03,6,020,0,0,000,3502000010303,3.0,2020-08-12,Семеновская (Вожбальское МО),3535,3535,693458d1-126d-446e-a54f-1856b6b7b785,,19246812021,19646420233,21,90841369-82e7-4bdb-8bb7-9a80c3a45545,103,35020000103,161313,7fbe560c-8386-48a2-9a57-aa6e8542f852,35,д,2016-03-05,0000,3518,3518,2020-08-16,000,0000,000,0,,0000,,0
1,4bab4198-2e1f-43c2-ba44-cefe0fc8ed30,693458d1-126d-446e-a54f-1856b6b7b785,6,020,0,0,000,3502000010300,0.0,2079-06-06,Семеновская,3535,3535,,,19246812021,19646420233,20,90841369-82e7-4bdb-8bb7-9a80c3a45545,103,35020000103,161313,3d58af22-2c9e-4220-abdf-63aba3c65b03,35,д,2020-08-12,0000,3518,3518,2020-08-16,000,0000,000,1,,0000,,0
0,6131a156-8031-419c-ac8a-2ad83a2c9100,2e7921e8-7bea-46c2-aa8b-c3182c31b02c,6,022,0,0,000,3502200016401,1.0,2014-01-04,Кузьминское (Перский с/с),3532,3532,ceb3d810-4dde-44c5-8a82-dc3a7ea0afad,,19250836007,19650448,1,b1486739-843b-43fb-b47d-93ddc055e5f6,164,35022000164,162813,,35,д,1900-01-01,0000,3520,3520,2020-08-16,000,0000,000,0,,0000,,0
0,6131a156-8031-419c-ac8a-2ad83a2c9100,ceb3d810-4dde-44c5-8a82-dc3a7ea0afad,6,022,0,0,000,3502200016451,51.0,2015-11-13,Кузьминское (Перский с/с),3532,3532,2b120cc6-c6d8-49f6-976a-c572e34c208c,,19250836007,19650448221,21,b1486739-843b-43fb-b47d-93ddc055e5f6,271,35022000164,162813,2e7921e8-7bea-46c2-aa8b-c3182c31b02c,35,д,2014-01-04,0000,3520,3520,2020-08-16,000,0000,000,0,,0000,,0
0,6131a156-8031-419c-ac8a-2ad83a2c9100,2b120cc6-c6d8-49f6-976a-c572e34c208c,6,022,0,0,004,3502200400202,2.0,2020-08-13,Кузьминское,3532,3532,925aadda-7fb4-412e-89f8-b13853f8af85,,19250836007,19650448221,50,3075f9b4-3c62-4b09-84e2-9c2236f37b4d,002,35022004002,162813,ceb3d810-4dde-44c5-8a82-dc3a7ea0afad,35,д,2014-01-04,0000,3520,3520,2020-08-16,000,0000,000,0,,0000,,0
0,6131a156-8031-419c-ac8a-2ad83a2c9100,925aadda-7fb4-412e-89f8-b13853f8af85,6,022,0,0,000,3502200400203,3.0,2018-06-28,Кузьминское,3532,3532,9e440cfc-3665-4e03-acf7-68ecffc2c62b,,19250848000,19650448,21,b1486739-843b-43fb-b47d-93ddc055e5f6,271,35022004002,162810,2b120cc6-c6d8-49f6-976a-c572e34c208c,35,д,2015-11-13,0000,3520,3520,2020-08-16,000,0000,000,0,,0000,,0
0,6131a156-8031-419c-ac8a-2ad83a2c9100,9e440cfc-3665-4e03-acf7-68ecffc2c62b,6,022,0,0,000,3502200400251,51.0,2018-06-29,Кузьминское,3532,3532,ad8aa107-7ab3-4c30-8d11-a443cbae2012,,19250848020,19650448226,21,b1486739-843b-43fb-b47d-93ddc055e5f6,271,35022004002,162810,925aadda-7fb4-412e-89f8-b13853f8af85,35,д,2018-06-28,0000,3520,3520,2020-08-16,000,0000,000,0,9e9b4d8f-9053-4d1f-b01c-9cfe4e3fb468,0000,,0
0,6131a156-8031-419c-ac8a-2ad83a2c9100,ad8aa107-7ab3-4c30-8d11-a443cbae2012,6,022,0,0,000,3502200027101,1.0,2020-08-13,Кузьминское,3532,3532,a6366fb5-233f-4681-b752-2a4c4b230232,,19250848020,19650448226,50,b1486739-843b-43fb-b47d-93ddc055e5f6,271,35022000271,162810,9e440cfc-3665-4e03-acf7-68ecffc2c62b,35,д,2018-06-29,0000,3520,3520,2020-08-16,000,0000,000,0,c4a87c96-5785-444e-9343-5983132df5b7,0000,,0
1,6131a156-8031-419c-ac8a-2ad83a2c9100,a6366fb5-233f-4681-b752-2a4c4b230232,6,022,0,0,000,3502200027100,0.0,2079-06-06,Кузьминское Устюженского сельсовета,3532,3532,,,19250848020,19650448226,20,b1486739-843b-43fb-b47d-93ddc055e5f6,271,35022000271,162810,ad8aa107-7ab3-4c30-8d11-a443cbae2012,35,д,2020-08-13,0000,3520,3520,2020-08-16,000,0000,000,1,01386dd5-7432-4208-ba72-4bcadaaac42f,0000,,0
0,8aa5fdf6-beb3-4f44-958a-80cf909c63b4,090685b8-51b7-4b89-b5b3-4b54270675d6,6,022,0,0,000,3502200022501,1.0,2079-06-06,Люботово,3532,3532,2787fe14-524b-4843-809e-a703c1bd7ce4,,19250848022,19650448,1,b1486739-843b-43fb-b47d-93ddc055e5f6,225,35022000225,162840,,35,д,1900-01-01,0000,3520,3520,2020-08-16,000,0000,000,0,,0000,,0
0,8aa5fdf6-beb3-4f44-958a-80cf909c63b4,2787fe14-524b-4843-809e-a703c1bd7ce4,6,022,0,0,000,3502200022502,2.0,2015-11-13,Люботово,3532,3532,13c3b9c1-feae-4680-8479-9093cc02e5ae,,19250848022,19650448236,21,b1486739-843b-43fb-b47d-93ddc055e5f6,225,35022000225,162840,090685b8-51b7-4b89-b5b3-4b54270675d6,35,д,2014-01-05,0000,3520,3520,2020-08-16,000,0000,000,0,,0000,,0
0,8aa5fdf6-beb3-4f44-958a-80cf909c63b4,13c3b9c1-feae-4680-8479-9093cc02e5ae,6,022,0,0,000,3502200022500,0.0,2020-08-13,Люботово,3532,3532,30191b33-b02b-4438-8e44-c8b0bc4f1882,,19250848000,19650448,21,b1486739-843b-43fb-b47d-93ddc055e5f6,225,35022000225,162801,2787fe14-524b-4843-809e-a703c1bd7ce4,35,д,2015-11-13,0000,3520,3520,2020-08-16,000,0000,000,0,,0000,,0
0,8aa5fdf6-beb3-4f44-958a-80cf909c63b4,30191b33-b02b-4438-8e44-c8b0bc4f1882,6,022,0,0,000,3502200022500,0.0,2079-06-06,Люботово,3532,3532,8a4609cc-8e49-46c1-a1c2-267a27ee993e,,19250848000,19650448236,21,b1486739-843b-43fb-b47d-93ddc055e5f6,225,35022000225,162801,13c3b9c1-feae-4680-8479-9093cc02e5ae,35,д,2020-08-13,0000,3520,3520,2020-08-16,000,0000,000,0,,0000,,0
1,8aa5fdf6-beb3-4f44-958a-80cf909c63b4,8a4609cc-8e49-46c1-a1c2-267a27ee993e,6,022,0,0,000,3502200022500,0.0,2079-06-06,Люботово,3532,3532,,,19250848022,19650448236,21,b1486739-843b-43fb-b47d-93ddc055e5f6,225,35022000225,162801,30191b33-b02b-4438-8e44-c8b0bc4f1882,35,д,2020-08-13,0000,3520,3520,2020-08-16,000,0000,000,1,,0000,,0
0,3a40ec28-7eda-42e9-9b06-b37ddba33023,24267753-108c-4987-b7e7-7f188f028fea,7,022,0,0,000,35022000072000401,1.0,2079-06-06,Дачников,3532,3532,b5a7d0df-8e39-42e5-9120-6f2ba094e968,,19250000001,19650105,1,acfb4db5-aef0-4865-8899-44a7e186bda0,072,350220000720004,162825,,35,пер,1900-01-01,0004,3520,3520,2020-08-16,000,0000,000,0,,0000,,0
0,3a40ec28-7eda-42e9-9b06-b37ddba33023,b5a7d0df-8e39-42e5-9120-6f2ba094e968,7,022,0,0,000,35022000072000402,2.0,2015-11-12,Дачников,3532,3532,9cc3b911-3eca-40e7-97d4-95e7c93c10c0,,19250000001,19650105,20,acfb4db5-aef0-4865-8899-44a7e186bda0,072,350220000720004,162825,24267753-108c-4987-b7e7-7f188f028fea,35,пер,2015-08-17,0004,3520,3520,2020-08-16,000,0000,000,0,,0000,,0
0,3a40ec28-7eda-42e9-9b06-b37ddba33023,9cc3b911-3eca-40e7-97d4-95e7c93c10c0,7,022,0,0,000,35022000072000403,3.0,2016-04-27,Дачников,3532,3532,18bd5c65-8958-4181-b9dd-2cbbbe774d64,,19250000001,19650105,20,acfb4db5-aef0-4865-8899-44a7e186bda0,072,350220000720004,162825,b5a7d0df-8e39-42e5-9120-6f2ba094e968,35,пер,2015-11-12,0004,3520,3520,2020-08-16,000,0000,000,0,,0000,,0
0,3a40ec28-7eda-42e9-9b06-b37ddba33023,18bd5c65-8958-4181-b9dd-2cbbbe774d64,7,022,0,0,000,35022000072000400,0.0,2079-06-06,Дачников,3532,3532,1c00e07c-75c5-4224-8360-f5efccbff5d3,,19250000001,19650404211,21,acfb4db5-aef0-4865-8899-44a7e186bda0,072,350220000720004,162825,9cc3b911-3eca-40e7-97d4-95e7c93c10c0,35,пер,2016-04-27,0004,3520,3520,2020-08-16,000,0000,000,0,,0000,,0
1,3a40ec28-7eda-42e9-9b06-b37ddba33023,1c00e07c-75c5-4224-8360-f5efccbff5d3,7,022,0,0,000,35022000072000400,0.0,2079-06-06,Дачников,3532,3532,,,19250812010,19650404211,21,acfb4db5-aef0-4865-8899-44a7e186bda0,072,350220000720004,162825,18bd5c65-8958-4181-b9dd-2cbbbe774d64,35,пер,2020-08-13,0004,3520,3520,2020-08-16,000,0000,000,1,,0000,,0
0,2a9e669c-ded0-482b-8e6b-def661b4972c,b6eadd86-d37b-4752-8c56-549008c10f06,6,022,0,0,000,3502200010101,1.0,2079-06-06,Ванское,3532,3532,5dd3160e-165c-42d4-b2cd-304cf8a16723,,19250812001,19650412,1,b1486739-843b-43fb-b47d-93ddc055e5f6,101,35022000101,162820,,35,д,1900-01-01,0000,3520,3520,2020-08-16,000,0000,000,0,,0000,,0
0,2a9e669c-ded0-482b-8e6b-def661b4972c,5dd3160e-165c-42d4-b2cd-304cf8a16723,6,022,0,0,000,3502200010100,0.0,2079-06-06,Ванское,3532,3532,7cc4dbf6-fbd0-477c-9140-210a9d722b61,,19250812001,19650412111,21,b1486739-843b-43fb-b47d-93ddc055e5f6,101,35022000101,162822,b6eadd86-d37b-4752-8c56-549008c10f06,35,д,2002-12-24,0000,3520,3520,2020-08-16,000,0000,000,0,,0000,,0
1,2a9e669c-ded0-482b-8e6b-def661b4972c,7cc4dbf6-fbd0-477c-9140-210a9d722b61,6,022,0,0,000,3502200010100,0.0,2079-06-06,Ванское,3532,3532,,,19250824004,19650412111,21,b1486739-843b-43fb-b47d-93ddc055e5f6,101,35022000101,162822,5dd3160e-165c-42d4-b2cd-304cf8a16723,35,д,2020-08-13,0000,3520,3520,2020-08-16,000,0000,000,1,,0000,,0
0,c26d3e98-9930-443d-9ef0-bcdb91a6c348,093fa328-c1f7-430e-aa7e-79d2d4597a67,6,022,0,0,000,3502200020701,1.0,2079-06-06,Берняково,3532,3532,f3eab9be-4f0c-4a1d-930b-9967957b3ba8,,19250848003,19650448,1,b1486739-843b-43fb-b47d-93ddc055e5f6,207,35022000207,162840,,35,д,1900-01-01,0000,3520,3520,2020-08-16,000,0000,000,0,,0000,,0
0,c26d3e98-9930-443d-9ef0-bcdb91a6c348,f3eab9be-4f0c-4a1d-930b-9967957b3ba8,6,022,0,0,000,3502200020702,2.0,2015-11-13,Берняково,3532,3532,32bef3da-c3d4-4889-a905-3ce232b382cc,,19250848003,19650448126,21,b1486739-843b-43fb-b47d-93ddc055e5f6,207,35022000207,162840,093fa328-c1f7-430e-aa7e-79d2d4597a67,35,д,2014-01-05,0000,3520,3520,2020-08-16,000,0000,000,0,,0000,,0
0,c26d3e98-9930-443d-9ef0-bcdb91a6c348,32bef3da-c3d4-4889-a905-3ce232b382cc,6,022,0,0,000,3502200020700,0.0,2020-08-13,Берняково,3532,3532,c05079a8-a7ac-4644-a11f-33546bf3f7a7,,19250848000,19650448,21,b1486739-843b-43fb-b47d-93ddc055e5f6,207,35022000207,162840,f3eab9be-4f0c-4a1d-930b-9967957b3ba8,35,д,2015-11-13,0000,3520,3520,2020-08-16,000,0000,000,0,,0000,,0
0,c26d3e98-9930-443d-9ef0-bcdb91a6c348,c05079a8-a7ac-4644-a11f-33546bf3f7a7,6,022,0,0,000,3502200020700,0.0,2079-06-06,Берняково,3532,3532,531c065b-6c76-4960-a1d8-d7bcee263c2c,,19250848000,19650448126,21,b1486739-843b-43fb-b47d-93ddc055e5f6,207,35022000207,162840,32bef3da-c3d4-4889-a905-3ce232b382cc,35,д,2020-08-13,0000,3520,3520,2020-08-16,000,0000,000,0,,0000,,0
1,c26d3e98-9930-443d-9ef0-bcdb91a6c348,531c065b-6c76-4960-a1d8-d7bcee263c2c,6,022,0,0,000,3502200020700,0.0,2079-06-06,Берняково,3532,3532,,,19250848003,19650448126,21,b1486739-843b-43fb-b47d-93ddc055e5f6,207,35022000207,162840,c05079a8-a7ac-4644-a11f-33546bf3f7a7,35,д,2020-08-13,0000,3520,3520,2020-08-16,000,0000,000,1,,0000,,0
0,e652fd9d-a021-44c7-b21d-da0ec3adeca2,6acebae0-5b66-4799-926e-1038b6f54981,6,022,0,0,000,3502200017001,1.0,2079-06-06,Поддубье,3532,3532,ebe61d39-098d-4727-ae85-0c7a1d8492ce,,19250836013,19650448,1,b1486739-843b-43fb-b47d-93ddc055e5f6,170,35022000170,162834,,35,д,1900-01-01,0000,3520,3520,2020-08-16,000,0000,000,0,,0000,,0
0,e652fd9d-a021-44c7-b21d-da0ec3adeca2,ebe61d39-098d-4727-ae85-0c7a1d8492ce,6,022,0,0,000,3502200017002,2.0,2015-11-13,Поддубье,3532,3532,2a66de01-fdcf-44b8-ba50-06098842cf7f,,19250836013,19650448276,21,b1486739-843b-43fb-b47d-93ddc055e5f6,170,35022000170,162834,6acebae0-5b66-4799-926e-1038b6f54981,35,д,2014-01-05,0000,3520,3520,2020-08-16,000,0000,000,0,,0000,,0
0,e652fd9d-a021-44c7-b21d-da0ec3adeca2,2a66de01-fdcf-44b8-ba50-06098842cf7f,6,022,0,0,000,3502200017000,0.0,2020-08-13,Поддубье,3532,3532,b97bdad4-ec6c-494d-a0ee-04793c3f64ea,,19250848000,19650448,21,b1486739-843b-43fb-b47d-93ddc055e5f6,170,35022000170,,ebe61d39-098d-4727-ae85-0c7a1d8492ce,35,д,2015-11-13,0000,3520,3520,2020-08-16,000,0000,000,0,,0000,,0
0,e652fd9d-a021-44c7-b21d-da0ec3adeca2,b97bdad4-ec6c-494d-a0ee-04793c3f64ea,6,022,0,0,000,3502200017000,0.0,2079-06-06,Поддубье,3532,3532,aaf3a613-495d-4ea6-8728-ffc71e683e66,,19250848000,19650448276,21,b1486739-843b-43fb-b47d-93ddc055e5f6,170,35022000170,,2a66de01-fdcf-44b8-ba50-06098842cf7f,35,д,2020-08-13,0000,3520,3520,2020-08-16,000,0000,000,0,,0000,,0
1,e652fd9d-a021-44c7-b21d-da0ec3adeca2,aaf3a613-495d-4ea6-8728-ffc71e683e66,6,022,0,0,000,3502200017000,0.0,2079-06-06,Поддубье,3532,3532,,,19250836013,19650448276,21,b1486739-843b-43fb-b47d-93ddc055e5f6,170,35022000170,,b97bdad4-ec6c-494d-a0ee-04793c3f64ea,35,д,2020-08-13,0000,3520,3520,2020-08-16,000,0000,000,1,,0000,,0
0,5143e09c-2656-4d48-89ff-9c2e525586bd,0366f975-ecda-4b35-822e-4ee3e4f4db73,6,021,0,0,000,3502100002201,1.0,2079-06-06,Малая Гора,3537,3537,db36ba66-b1bc-4b41-a0a5-eea56a5fb69c,,,,1,499b4200-b421-4553-ab3d-fc7527d335e2,022,35021000022,161157,,35,д,1900-01-01,0000,3519,3519,2020-08-16,000,0000,000,0,,0000,,0
0,5143e09c-2656-4d48-89ff-9c2e525586bd,db36ba66-b1bc-4b41-a0a5-eea56a5fb69c,6,021,0,0,000,3502100002200,0.0,2020-08-12,Малая Гора,3537,3537,e660243f-c76f-4266-80d2-62477d8ab109,,19248808001,19648408301,20,499b4200-b421-4553-ab3d-fc7527d335e2,022,35021000022,161157,0366f975-ecda-4b35-822e-4ee3e4f4db73,35,д,2015-09-01,0000,3519,3519,2020-08-16,000,0000,000,0,,0000,,0
1,5143e09c-2656-4d48-89ff-9c2e525586bd,e660243f-c76f-4266-80d2-62477d8ab109,6,021,0,0,000,3502100002200,0.0,2079-06-06,Малая Гора,3537,3537,,,19248812006,19648408301,21,499b4200-b421-4553-ab3d-fc7527d335e2,022,35021000022,161157,db36ba66-b1bc-4b41-a0a5-eea56a5fb69c,35,д,2020-08-12,0000,3519,3519,2020-08-16,000,0000,000,1,,0000,,0
0,b5060796-d847-4d8a-96d2-7a0d0e1a96ae,1cfa49f3-80cc-4d69-9285-ccf9a13b4def,6,022,0,0,000,3502200016701,1.0,2079-06-06,Никитино,3532,3532,9f3fb9a8-f675-48b3-b8ae-b7e8f9aada75,,19250836010,19650448,1,b1486739-843b-43fb-b47d-93ddc055e5f6,167,35022000167,162834,,35,д,1900-01-01,0000,3520,3520,2020-08-16,000,0000,000,0,,0000,,0
0,b5060796-d847-4d8a-96d2-7a0d0e1a96ae,9f3fb9a8-f675-48b3-b8ae-b7e8f9aada75,6,022,0,0,000,3502200016702,2.0,2015-11-13,Никитино,3532,3532,ad87b1aa-342a-4a81-bd6e-b2d4f6a323be,,19250836010,19650448251,21,b1486739-843b-43fb-b47d-93ddc055e5f6,167,35022000167,162834,1cfa49f3-80cc-4d69-9285-ccf9a13b4def,35,д,2014-01-05,0000,3520,3520,2020-08-16,000,0000,000,0,,0000,,0
0,b5060796-d847-4d8a-96d2-7a0d0e1a96ae,ad87b1aa-342a-4a81-bd6e-b2d4f6a323be,6,022,0,0,000,3502200016700,0.0,2020-08-13,Никитино,3532,3532,3da15599-4149-4039-8350-ef48b006a479,,19250848000,19650448,21,b1486739-843b-43fb-b47d-93ddc055e5f6,167,35022000167,162834,9f3fb9a8-f675-48b3-b8ae-b7e8f9aada75,35,д,2015-11-13,0000,3520,3520,2020-08-16,000,0000,000,0,,0000,,0
0,b5060796-d847-4d8a-96d2-7a0d0e1a96ae,3da15599-4149-4039-8350-ef48b006a479,6,022,0,0,000,3502200016700,0.0,2079-06-06,Никитино,3532,3532,fcced967-3e1a-4875-8a4e-3a083ebb172c,,19250848000,19650448251,21,b1486739-843b-43fb-b47d-93ddc055e5f6,167,35022000167,162834,ad87b1aa-342a-4a81-bd6e-b2d4f6a323be,35,д,2020-08-13,0000,3520,3520,2020-08-16,000,0000,000,0,,0000,,0
1,b5060796-d847-4d8a-96d2-7a0d0e1a96ae,fcced967-3e1a-4875-8a4e-3a083ebb172c,6,022,0,0,000,3502200016700,0.0,2079-06-06,Никитино,3532,3532,,,19250836010,19650448251,21,b1486739-843b-43fb-b47d-93ddc055e5f6,167,35022000167,162834,3da15599-4149-4039-8350-ef48b006a479,35,д,2020-08-13,0000,3520,3520,2020-08-16,000,0000,000,1,,0000,,0
0,d78eae4f-123f-451f-b4a7-8afeb311507c,baf86622-5dc9-417f-9750-66560291fdc0,6,022,0,0,000,3502200005301,1.0,2079-06-06,Малое Восное,3532,3532,7ad42c9b-094f-4a22-9c15-62b92898d549,,19250808001,19650408,1,b1486739-843b-43fb-b47d-93ddc055e5f6,053,35022000053,162804,,35,д,1900-01-01,0000,3520,3520,2020-08-16,000,0000,000,0,,0000,,0
0,d78eae4f-123f-451f-b4a7-8afeb311507c,7ad42c9b-094f-4a22-9c15-62b92898d549,6,022,0,0,000,3502200005300,0.0,2079-06-06,Малое Восное,3532,3532,f34f7505-91c2-406e-b0da-9518c13b92e0,,19250808001,19650408,20,b1486739-843b-43fb-b47d-93ddc055e5f6,053,35022000053,162802,baf86622-5dc9-417f-9750-66560291fdc0,35,д,2010-01-01,0000,3520,3520,2020-08-16,000,0000,000,0,,0000,,0
1,d78eae4f-123f-451f-b4a7-8afeb311507c,f34f7505-91c2-406e-b0da-9518c13b92e0,6,022,0,0,000,3502200005300,0.0,2079-06-06,Малое Восное,3532,3532,,,19250808001,19650408101,21,b1486739-843b-43fb-b47d-93ddc055e5f6,053,35022000053,162802,7ad42c9b-094f-4a22-9c15-62b92898d549,35,д,2020-08-13,0000,3520,3520,2020-08-16,000,0000,000,1,,0000,,0
0,b69a7962-f775-4251-8cfa-f431f37bea9a,2d030cde-fdd7-4e03-8ecf-bba16bdc2674,6,022,0,0,000,3502200023601,1.0,2079-06-06,Темьяниково,3532,3532,359256f1-91c9-47c3-9931-0b8055a9f853,,19250848034,19650448,1,b1486739-843b-43fb-b47d-93ddc055e5f6,236,35022000236,162840,,35,д,1900-01-01,0000,3520,3520,2020-08-16,000,0000,000,0,,0000,,0
0,b69a7962-f775-4251-8cfa-f431f37bea9a,359256f1-91c9-47c3-9931-0b8055a9f853,6,022,0,0,000,3502200023602,2.0,2015-11-13,Темьяниково,3532,3532,acf70b14-2939-4fdd-bb9c-97e6899f519a,,19250848034,19650448326,21,b1486739-843b-43fb-b47d-93ddc055e5f6,236,35022000236,162840,2d030cde-fdd7-4e03-8ecf-bba16bdc2674,35,д,2014-01-05,0000,3520,3520,2020-08-16,000,0000,000,0,,0000,,0
0,b69a7962-f775-4251-8cfa-f431f37bea9a,acf70b14-2939-4fdd-bb9c-97e6899f519a,6,022,0,0,000,3502200023600,0.0,2020-08-13,Темьяниково,3532,3532,23857aac-bb64-464c-9f63-004bdea0b91e,,19250848000,19650448,21,b1486739-843b-43fb-b47d-93ddc055e5f6,236,35022000236,162801,359256f1-91c9-47c3-9931-0b8055a9f853,35,д,2015-11-13,0000,3520,3520,2020-08-16,000,0000,000,0,,0000,,0
0,b69a7962-f775-4251-8cfa-f431f37bea9a,23857aac-bb64-464c-9f63-004bdea0b91e,6,022,0,0,000,3502200023600,0.0,2079-06-06,Темьяниково,3532,3532,52623917-050d-4986-b69d-9a80e7de0b36,,19250848000,19650448326,21,b1486739-843b-43fb-b47d-93ddc055e5f6,236,35022000236,162801,acf70b14-2939-4fdd-bb9c-97e6899f519a,35,д,2020-08-13,0000,3520,3520,2020-08-16,000,0000,000,0,,0000,,0
1,b69a7962-f775-4251-8cfa-f431f37bea9a,52623917-050d-4986-b69d-9a80e7de0b36,6,022,0,0,000,3502200023600,0.0,2079-06-06,Темьяниково,3532,3532,,,19250848034,19650448326,21,b1486739-843b-43fb-b47d-93ddc055e5f6,236,35022000236,162801,23857aac-bb64-464c-9f63-004bdea0b91e,35,д,2020-08-13,0000,3520,3520,2020-08-16,000,0000,000,1,,0000,,0
0,a7700689-a226-4fc4-a56d-8c5913b978b3,348c7878-83c9-41c1-81da-ed32f7c6b527,6,022,0,0,000,3502200015601,1.0,2079-06-06,Алекино,3532,3532,3df6b89f-f1dc-4554-b358-c513e19969d3,,19250836002,19650448,1,b1486739-843b-43fb-b47d-93ddc055e5f6,156,35022000156,162834,,35,д,1900-01-01,0000,3520,3520,2020-08-16,000,0000,000,0,,0000,,0
0,a7700689-a226-4fc4-a56d-8c5913b978b3,3df6b89f-f1dc-4554-b358-c513e19969d3,6,022,0,0,000,3502200015602,2.0,2015-11-13,Алекино,3532,3532,6e2c8256-2229-4eed-a5c7-84ce91041c7b,,19250836002,19650448106,21,b1486739-843b-43fb-b47d-93ddc055e5f6,156,35022000156,162834,348c7878-83c9-41c1-81da-ed32f7c6b527,35,д,2014-01-05,0000,3520,3520,2020-08-16,000,0000,000,0,,0000,,0
0,a7700689-a226-4fc4-a56d-8c5913b978b3,6e2c8256-2229-4eed-a5c7-84ce91041c7b,6,022,0,0,000,3502200015603,3.0,2020-08-13,Алекино,3532,3532,c4e1dee9-77be-4f06-98c3-ff3e462670fc,,19250848000,19650448106,21,b1486739-843b-43fb-b47d-93ddc055e5f6,156,35022000156,162834,3df6b89f-f1dc-4554-b358-c513e19969d3,35,д,2015-11-13,0000,3520,3520,2020-08-16,000,0000,000,0,,0000,,0
0,a7700689-a226-4fc4-a56d-8c5913b978b3,c4e1dee9-77be-4f06-98c3-ff3e462670fc,6,022,0,0,000,3502200015600,0.0,2020-08-13,Алекино,3532,3532,662ffa83-5cf6-4fa1-978e-43570ca3fb21,,19250848000,19650448,21,b1486739-843b-43fb-b47d-93ddc055e5f6,156,35022000156,,6e2c8256-2229-4eed-a5c7-84ce91041c7b,35,д,2015-11-13,0000,3520,3520,2020-08-16,000,0000,000,0,,0000,,0
0,a7700689-a226-4fc4-a56d-8c5913b978b3,662ffa83-5cf6-4fa1-978e-43570ca3fb21,6,022,0,0,000,3502200015600,0.0,2079-06-06,Алекино,3532,3532,bbd6954f-d7db-42f5-b225-53253e9f45df,,19250848000,19650448106,21,b1486739-843b-43fb-b47d-93ddc055e5f6,156,35022000156,,c4e1dee9-77be-4f06-98c3-ff3e462670fc,35,д,2020-08-13,0000,3520,3520,2020-08-16,000,0000,000,0,,0000,,0
1,a7700689-a226-4fc4-a56d-8c5913b978b3,bbd6954f-d7db-42f5-b225-53253e9f45df,6,022,0,0,000,3502200015600,0.0,2079-06-06,Алекино,3532,3532,,,19250836002,19650448106,21,b1486739-843b-43fb-b47d-93ddc055e5f6,156,35022000156,,662ffa83-5cf6-4fa1-978e-43570ca3fb21,35,д,2020-08-13,0000,3520,3520,2020-08-16,000,0000,000,1,,0000,,0
0,f72c1f40-171a-4977-b9fd-cf47d827afea,daea965d-1f55-4711-9bdf-0f4e7593b5a1,6,022,0,0,000,3502200023201,1.0,2079-06-06,Свистуны,3532,3532,3c9c58bf-6bf5-45ad-8352-22f916bde394,,19250848030,19650448,1,b1486739-843b-43fb-b47d-93ddc055e5f6,232,35022000232,162840,,35,д,1900-01-01,0000,3520,3520,2020-08-16,000,0000,000,0,,0000,,0
0,f72c1f40-171a-4977-b9fd-cf47d827afea,3c9c58bf-6bf5-45ad-8352-22f916bde394,6,022,0,0,000,3502200023202,2.0,2015-11-13,Свистуны,3532,3532,97a559ef-ef8b-4656-923c-82ffe2764fcd,,19250848030,19650448301,21,b1486739-843b-43fb-b47d-93ddc055e5f6,232,35022000232,162840,daea965d-1f55-4711-9bdf-0f4e7593b5a1,35,д,2014-01-05,0000,3520,3520,2020-08-16,000,0000,000,0,,0000,,0
0,f72c1f40-171a-4977-b9fd-cf47d827afea,97a559ef-ef8b-4656-923c-82ffe2764fcd,6,022,0,0,000,3502200023200,0.0,2020-08-13,Свистуны,3532,3532,afa6ba3e-4d3a-47e1-91c0-e42259f527f9,,19250848000,19650448,21,b1486739-843b-43fb-b47d-93ddc055e5f6,232,35022000232,162810,3c9c58bf-6bf5-45ad-8352-22f916bde394,35,д,2015-11-13,0000,3520,3520,2020-08-16,000,0000,000,0,,0000,,0
0,f72c1f40-171a-4977-b9fd-cf47d827afea,afa6ba3e-4d3a-47e1-91c0-e42259f527f9,6,022,0,0,000,3502200023200,0.0,2079-06-06,Свистуны,3532,3532,c344e299-290c-4f4a-a012-30c06937167e,,19250848000,19650448301,21,b1486739-843b-43fb-b47d-93ddc055e5f6,232,35022000232,162810,97a559ef-ef8b-4656-923c-82ffe2764fcd,35,д,2020-08-13,0000,3520,3520,2020-08-16,000,0000,000,0,,0000,,0
1,f72c1f40-171a-4977-b9fd-cf47d827afea,c344e299-290c-4f4a-a012-30c06937167e,6,022,0,0,000,3502200023200,0.0,2079-06-06,Свистуны,3532,3532,,,19250848030,19650448301,21,b1486739-843b-43fb-b47d-93ddc055e5f6,232,35022000232,162810,afa6ba3e-4d3a-47e1-91c0-e42259f527f9,35,д,2020-08-13,0000,3520,3520,2020-08-16,000,0000,000,1,,0000,,0
0,c101f2d8-add9-4aba-b3df-004541718b0a,7c459bfc-866a-48e5-8817-51495db0bf14,6,022,0,0,000,3502200017201,1.0,2079-06-06,Федоровское,3532,3532,e69263ec-95f4-4f78-b848-02a4425629cb,,19250836015,19650448,1,b1486739-843b-43fb-b47d-93ddc055e5f6,172,35022000172,162834,,35,д,1900-01-01,0000,3520,3520,2020-08-16,000,0000,000,0,,0000,,0
0,c101f2d8-add9-4aba-b3df-004541718b0a,e69263ec-95f4-4f78-b848-02a4425629cb,6,022,0,0,000,3502200017202,2.0,2015-11-13,Федоровское,3532,3532,4fdf9db5-5e0e-4375-b8e0-dfeb627268b6,,19250836015,19650448341,21,b1486739-843b-43fb-b47d-93ddc055e5f6,172,35022000172,162834,7c459bfc-866a-48e5-8817-51495db0bf14,35,д,2014-01-05,0000,3520,3520,2020-08-16,000,0000,000,0,,0000,,0
0,c101f2d8-add9-4aba-b3df-004541718b0a,4fdf9db5-5e0e-4375-b8e0-dfeb627268b6,6,022,0,0,000,3502200017200,0.0,2020-08-13,Федоровское,3532,3532,b15c3139-35f9-488a-8617-eb05cd3df4ac,,19250848000,19650448,21,b1486739-843b-43fb-b47d-93ddc055e5f6,172,35022000172,162834,e69263ec-95f4-4f78-b848-02a4425629cb,35,д,2015-11-13,0000,3520,3520,2020-08-16,000,0000,000,0,,0000,,0
0,c101f2d8-add9-4aba-b3df-004541718b0a,b15c3139-35f9-488a-8617-eb05cd3df4ac,6,022,0,0,000,3502200017200,0.0,2079-06-06,Федоровское,3532,3532,d6c238ec-40db-46c0-858d-45a8a753e8ce,,19250848000,19650448341,21,b1486739-843b-43fb-b47d-93ddc055e5f6,172,35022000172,162834,4fdf9db5-5e0e-4375-b8e0-dfeb627268b6,35,д,2020-08-13,0000,3520,3520,2020-08-16,000,0000,000,0,,0000,,0
1,c101f2d8-add9-4aba-b3df-004541718b0a,d6c238ec-40db-46c0-858d-45a8a753e8ce,6,022,0,0,000,3502200017200,0.0,2079-06-06,Федоровское,3532,3532,,,19250836015,19650448341,21,b1486739-843b-43fb-b47d-93ddc055e5f6,172,35022000172,162834,b15c3139-35f9-488a-8617-eb05cd3df4ac,35,д,2020-08-13,0000,3520,3520,2020-08-16,000,0000,000,1,,0000,,0
0,fd90d9f4-f100-4032-85eb-2f91660dfa6e,af927973-28cb-43ea-a102-878491ac8efd,6,022,0,0,000,3502200023701,1.0,2079-06-06,Тимонино,3532,3532,b5e24156-be4b-4e1f-af08-b3e70111dec5,,19250848036,19650448,1,b1486739-843b-43fb-b47d-93ddc055e5f6,237,35022000237,162840,,35,д,1900-01-01,0000,3520,3520,2020-08-16,000,0000,000,0,,0000,,0
0,fd90d9f4-f100-4032-85eb-2f91660dfa6e,b5e24156-be4b-4e1f-af08-b3e70111dec5,6,022,0,0,000,3502200023702,2.0,2015-11-13,Тимонино,3532,3532,b15b49d4-f247-4b95-9acf-6913ddb65125,,19250848036,19650448336,21,b1486739-843b-43fb-b47d-93ddc055e5f6,237,35022000237,162840,af927973-28cb-43ea-a102-878491ac8efd,35,д,2014-01-05,0000,3520,3520,2020-08-16,000,0000,000,0,,0000,,0
0,fd90d9f4-f100-4032-85eb-2f91660dfa6e,b15b49d4-f247-4b95-9acf-6913ddb65125,6,022,0,0,000,3502200023700,0.0,2020-08-13,Тимонино,3532,3532,2b8736a7-cbc2-4976-8226-135c270485ca,,19250848000,19650448,21,b1486739-843b-43fb-b47d-93ddc055e5f6,237,35022000237,162810,b5e24156-be4b-4e1f-af08-b3e70111dec5,35,д,2015-11-13,0000,3520,3520,2020-08-16,000,0000,000,0,,0000,,0
0,fd90d9f4-f100-4032-85eb-2f91660dfa6e,2b8736a7-cbc2-4976-8226-135c270485ca,6,022,0,0,000,3502200023700,0.0,2079-06-06,Тимонино,3532,3532,daef29fb-a7b0-44ec-9db9-6e282dd0c497,,19250848000,19650448336,21,b1486739-843b-43fb-b47d-93ddc055e5f6,237,35022000237,162810,b15b49d4-f247-4b95-9acf-6913ddb65125,35,д,2020-08-13,0000,3520,3520,2020-08-16,000,0000,000,0,,0000,,0
1,fd90d9f4-f100-4032-85eb-2f91660dfa6e,daef29fb-a7b0-44ec-9db9-6e282dd0c497,6,022,0,0,000,3502200023700,0.0,2079-06-06,Тимонино,3532,3532,,,19250848036,19650448336,21,b1486739-843b-43fb-b47d-93ddc055e5f6,237,35022000237,162810,2b8736a7-cbc2-4976-8226-135c270485ca,35,д,2020-08-13,0000,3520,3520,2020-08-16,000,0000,000,1,,0000,,0
0,e1145ae3-44b6-4603-bd11-b4820d060639,f6b80b03-6119-4aa2-a0ba-002e9daf84e8,6,022,0,0,000,3502200016901,1.0,2014-01-04,Перя,3532,3532,de9f9909-e897-4ebf-977c-f87ca5cbc044,,19250836012,19650448,1,b1486739-843b-43fb-b47d-93ddc055e5f6,169,35022000169,162834,,35,д,1900-01-01,0000,3520,3520,2020-08-16,000,0000,000,0,,0000,,0
0,e1145ae3-44b6-4603-bd11-b4820d060639,de9f9909-e897-4ebf-977c-f87ca5cbc044,6,022,0,0,000,3502200016902,2.0,2015-11-13,Перя,3532,3532,c049dc9e-e2c7-47e4-b691-e4d78ea78099,,19250836012,19650448271,21,b1486739-843b-43fb-b47d-93ddc055e5f6,169,35022000169,162834,f6b80b03-6119-4aa2-a0ba-002e9daf84e8,35,д,2014-01-04,0000,3520,3520,2020-08-16,000,0000,000,0,,0000,,0
0,e1145ae3-44b6-4603-bd11-b4820d060639,c049dc9e-e2c7-47e4-b691-e4d78ea78099,6,022,0,0,000,3502200016903,3.0,2079-06-06,Перя,3532,3532,afc4ae1d-7400-4408-9386-bb04495e8010,,19250836012,19650448271,20,b1486739-843b-43fb-b47d-93ddc055e5f6,169,35022000169,162834,de9f9909-e897-4ebf-977c-f87ca5cbc044,35,п,2014-01-04,0000,3520,3520,2020-08-16,000,0000,000,0,,0000,,0
0,e1145ae3-44b6-4603-bd11-b4820d060639,afc4ae1d-7400-4408-9386-bb04495e8010,6,022,0,0,000,3502200016900,0.0,2020-08-13,Перя,3532,3532,551518fc-5ffa-4698-84b9-5428631fb241,,19250848000,19650448,21,b1486739-843b-43fb-b47d-93ddc055e5f6,169,35022000169,162834,c049dc9e-e2c7-47e4-b691-e4d78ea78099,35,п,2015-11-13,0000,3520,3520,2020-08-16,000,0000,000,0,,0000,,0
0,e1145ae3-44b6-4603-bd11-b4820d060639,551518fc-5ffa-4698-84b9-5428631fb241,6,022,0,0,000,3502200016900,0.0,2079-06-06,Перя,3532,3532,24c2bd37-6bac-4213-aea2-42b9b42b0286,,19250848000,19650448271,21,b1486739-843b-43fb-b47d-93ddc055e5f6,169,35022000169,162834,afc4ae1d-7400-4408-9386-bb04495e8010,35,п,2020-08-13,0000,3520,3520,2020-08-16,000,0000,000,0,,0000,,0
1,e1145ae3-44b6-4603-bd11-b4820d060639,24c2bd37-6bac-4213-aea2-42b9b42b0286,6,022,0,0,000,3502200016900,0.0,2079-06-06,Перя,3532,3532,,,19250836012,19650448271,21,b1486739-843b-43fb-b47d-93ddc055e5f6,169,35022000169,162834,551518fc-5ffa-4698-84b9-5428631fb241,35,п,2020-08-13,0000,3520,3520,2020-08-16,000,0000,000,1,,0000,,0
0,3aa43ada-60f3-47e7-8d51-36a07faeb22a,d099633b-e164-4ed6-955f-5a44842918ea,6,021,0,0,000,3502100015001,1.0,2014-01-04,Исаково (Устьянский с/с),3537,3537,03377ea7-906c-4e19-822f-9639c2c40170,,19248836008,19648436,1,499b4200-b421-4553-ab3d-fc7527d335e2,321,35021000150,161140,,35,д,1900-01-01,0000,3519,3519,2020-08-16,000,0000,000,0,,0000,,0
0,3aa43ada-60f3-47e7-8d51-36a07faeb22a,03377ea7-906c-4e19-822f-9639c2c40170,6,021,0,0,000,3502100015051,51.0,2014-01-04,Исаково (Устьянский с/с),3537,3537,37650f2c-c56a-4af3-900f-ccb492dddec2,,19248836008,19648436136,21,499b4200-b421-4553-ab3d-fc7527d335e2,321,35021000150,161140,d099633b-e164-4ed6-955f-5a44842918ea,35,д,2014-01-04,0000,3519,3519,2020-08-16,000,0000,000,0,,0000,,0
0,3aa43ada-60f3-47e7-8d51-36a07faeb22a,37650f2c-c56a-4af3-900f-ccb492dddec2,6,021,0,0,000,3502100400251,51.0,2079-06-06,Исаково,3537,3537,58301cd4-6be6-4867-ae44-bb6592db8b36,,19248836008,19648436136,50,499b4200-b421-4553-ab3d-fc7527d335e2,321,35021004002,161140,03377ea7-906c-4e19-822f-9639c2c40170,35,д,2014-01-04,0000,3519,3519,2020-08-16,000,0000,000,0,8ea2d245-e2a7-4523-a79b-12cfa66dea77,0000,,0
1,3aa43ada-60f3-47e7-8d51-36a07faeb22a,58301cd4-6be6-4867-ae44-bb6592db8b36,6,021,0,0,000,3502100032100,0.0,2079-06-06,Исаково,3537,3537,,,19248836008,19648436136,50,499b4200-b421-4553-ab3d-fc7527d335e2,321,35021000321,161140,37650f2c-c56a-4af3-900f-ccb492dddec2,35,д,2020-08-13,0000,3519,3519,2020-08-16,000,0000,000,1,,0000,,0
0,73d5ad4c-3de3-4045-b276-5dc4dfaeace7,c42336e2-73e6-421f-98e7-067a6b684f93,6,019,0,0,000,3501900006501,1.0,1900-01-01,Степановская (Кокшеньгское МО),3535,3535,e15ebbea-16d9-4137-9dbf-170be2b4c2f1,,19242804014,19642442,1,aad67fe6-f5da-4bce-9e53-2230c010914d,065,35019000065,161565,,35,д,1900-01-01,0000,3517,3517,2020-08-16,000,0000,000,0,,0000,,0
0,73d5ad4c-3de3-4045-b276-5dc4dfaeace7,e15ebbea-16d9-4137-9dbf-170be2b4c2f1,6,019,0,0,000,3501900006502,2.0,2020-08-12,Степановская (Тарногское МО),3535,3535,f180a7f1-fe90-40c6-b840-31a76baf9dd6,,19242804014,19642442,20,aad67fe6-f5da-4bce-9e53-2230c010914d,065,35019000065,161565,c42336e2-73e6-421f-98e7-067a6b684f93,35,д,1900-01-01,0000,3517,3517,2020-08-16,000,0000,000,0,aebcc4fa-bbbf-4ab3-bb52-fc3f061c06ab,0000,,0
0,73d5ad4c-3de3-4045-b276-5dc4dfaeace7,f180a7f1-fe90-40c6-b840-31a76baf9dd6,6,019,0,0,000,3501900006503,3.0,2020-08-12,Степановская (Тарногское МО),3535,3535,0f291f44-a725-4987-b016-b56899df69f3,,19242804014,19642442466,21,aad67fe6-f5da-4bce-9e53-2230c010914d,065,35019000065,161565,e15ebbea-16d9-4137-9dbf-170be2b4c2f1,35,д,2014-01-05,0000,3517,3517,2020-08-16,000,0000,000,0,aebcc4fa-bbbf-4ab3-bb52-fc3f061c06ab,0000,,0
1,73d5ad4c-3de3-4045-b276-5dc4dfaeace7,0f291f44-a725-4987-b016-b56899df69f3,6,019,0,0,000,3501900006500,0.0,2079-06-06,Степановская Верхнекокшеньгского сельсовета,3535,3535,,,19242804014,19642442466,20,aad67fe6-f5da-4bce-9e53-2230c010914d,065,35019000065,161565,f180a7f1-fe90-40c6-b840-31a76baf9dd6,35,д,2020-08-12,0000,3517,3517,2020-08-16,000,0000,000,1,,0000,,0
0,a0fa0bf7-b268-4cf2-89fa-814ff293f796,9f202509-1af2-4bfa-bca4-77dfecaec14d,6,022,0,0,000,3502200023901,1.0,2079-06-06,Шилово,3532,3532,6a8d558f-f980-4b92-bead-79e62ef174a8,,19250848039,19650448,1,b1486739-843b-43fb-b47d-93ddc055e5f6,239,35022000239,162840,,35,д,1900-01-01,0000,3520,3520,2020-08-16,000,0000,000,0,,0000,,0
0,a0fa0bf7-b268-4cf2-89fa-814ff293f796,6a8d558f-f980-4b92-bead-79e62ef174a8,6,022,0,0,000,3502200023902,2.0,2015-11-13,Шилово,3532,3532,17f8c566-7732-4fa5-8a52-e3b18f81d26a,,19250848039,19650448356,21,b1486739-843b-43fb-b47d-93ddc055e5f6,239,35022000239,162840,9f202509-1af2-4bfa-bca4-77dfecaec14d,35,д,2014-01-05,0000,3520,3520,2020-08-16,000,0000,000,0,,0000,,0
0,a0fa0bf7-b268-4cf2-89fa-814ff293f796,17f8c566-7732-4fa5-8a52-e3b18f81d26a,6,022,0,0,000,3502200023900,0.0,2020-08-13,Шилово,3532,3532,85ed6c60-d7a8-4bf9-8140-39b66cd22758,,19250848000,19650448,21,b1486739-843b-43fb-b47d-93ddc055e5f6,239,35022000239,162810,6a8d558f-f980-4b92-bead-79e62ef174a8,35,д,2015-11-13,0000,3520,3520,2020-08-16,000,0000,000,0,,0000,,0
0,a0fa0bf7-b268-4cf2-89fa-814ff293f796,85ed6c60-d7a8-4bf9-8140-39b66cd22758,6,022,0,0,000,3502200023900,0.0,2079-06-06,Шилово,3532,3532,bcdedc43-9b73-497c-8462-f14af7565ddd,,19250848000,19650448356,21,b1486739-843b-43fb-b47d-93ddc055e5f6,239,35022000239,162810,17f8c566-7732-4fa5-8a52-e3b18f81d26a,35,д,2020-08-13,0000,3520,3520,2020-08-16,000,0000,000,0,,0000,,0
1,a0fa0bf7-b268-4cf2-89fa-814ff293f796,bcdedc43-9b73-497c-8462-f14af7565ddd,6,022,0,0,000,3502200023900,0.0,2079-06-06,Шилово,3532,3532,,,19250848039,19650448356,21,b1486739-843b-43fb-b47d-93ddc055e5f6,239,35022000239,162810,85ed6c60-d7a8-4bf9-8140-39b66cd22758,35,д,2020-08-13,0000,3520,3520,2020-08-16,000,0000,000,1,dc70a872-38c6-4aaf-aea0-9904c7042223,0000,,0
0,ee6d33c9-2d26-42ea-929f-4936f2e15910,b328c139-7cdd-4f2e-b545-df7dd3598bb4,6,022,0,0,000,3502200017101,1.0,2079-06-06,Поповка,3532,3532,2df77866-0349-45de-97fd-f66ffdc3744e,,19250836014,19650448,1,b1486739-843b-43fb-b47d-93ddc055e5f6,171,35022000171,162834,,35,д,1900-01-01,0000,3520,3520,2020-08-16,000,0000,000,0,,0000,,0
0,ee6d33c9-2d26-42ea-929f-4936f2e15910,2df77866-0349-45de-97fd-f66ffdc3744e,6,022,0,0,000,3502200017102,2.0,2015-11-13,Поповка,3532,3532,590d6afd-1700-41f1-82b0-b582ebe25062,,19250836014,19650448281,21,b1486739-843b-43fb-b47d-93ddc055e5f6,171,35022000171,162834,b328c139-7cdd-4f2e-b545-df7dd3598bb4,35,д,2014-01-05,0000,3520,3520,2020-08-16,000,0000,000,0,,0000,,0
0,ee6d33c9-2d26-42ea-929f-4936f2e15910,590d6afd-1700-41f1-82b0-b582ebe25062,6,022,0,0,000,3502200017100,0.0,2020-08-13,Поповка,3532,3532,37addfa8-ca17-47c3-9194-2b17f656be6d,,19250848000,19650448,21,b1486739-843b-43fb-b47d-93ddc055e5f6,171,35022000171,162834,2df77866-0349-45de-97fd-f66ffdc3744e,35,д,2015-11-13,0000,3520,3520,2020-08-16,000,0000,000,0,,0000,,0
0,ee6d33c9-2d26-42ea-929f-4936f2e15910,37addfa8-ca17-47c3-9194-2b17f656be6d,6,022,0,0,000,3502200017100,0.0,2079-06-06,Поповка,3532,3532,cd81b952-e60a-455d-b995-1835bee24427,,19250848000,19650448281,21,b1486739-843b-43fb-b47d-93ddc055e5f6,171,35022000171,162834,590d6afd-1700-41f1-82b0-b582ebe25062,35,д,2020-08-13,0000,3520,3520,2020-08-16,000,0000,000,0,,0000,,0
1,ee6d33c9-2d26-42ea-929f-4936f2e15910,cd81b952-e60a-455d-b995-1835bee24427,6,022,0,0,000,3502200017100,0.0,2079-06-06,Поповка,3532,3532,,,19250836014,19650448281,21,b1486739-843b-43fb-b47d-93ddc055e5f6,171,35022000171,162834,37addfa8-ca17-47c3-9194-2b17f656be6d,35,д,2020-08-13,0000,3520,3520,2020-08-16,000,0000,000,1,,0000,,0
0,08ecccdb-658e-4a14-8356-7ef0a6e46c58,e8c22ee7-9055-4b92-97aa-4880248dbc2f,6,019,0,0,000,3501900006101,1.0,1900-01-01,Кузьминская (Кокшеньгское МО),3535,3535,f7c32a98-d34d-4d81-a48e-b2f6c8877f00,,19242804009,19642442,1,aad67fe6-f5da-4bce-9e53-2230c010914d,061,35019000061,161565,,35,д,1900-01-01,0000,3517,3517,2020-08-16,000,0000,000,0,,0000,,0
0,08ecccdb-658e-4a14-8356-7ef0a6e46c58,f7c32a98-d34d-4d81-a48e-b2f6c8877f00,6,019,0,0,000,3501900006102,2.0,2020-08-12,Кузьминская (Тарногское МО),3535,3535,b8980e08-ed0f-4f8a-a727-c207b559d075,,19242804009,19642442,20,aad67fe6-f5da-4bce-9e53-2230c010914d,061,35019000061,161565,e8c22ee7-9055-4b92-97aa-4880248dbc2f,35,д,1900-01-01,0000,3517,3517,2020-08-16,000,0000,000,0,aebcc4fa-bbbf-4ab3-bb52-fc3f061c06ab,0000,,0
0,08ecccdb-658e-4a14-8356-7ef0a6e46c58,b8980e08-ed0f-4f8a-a727-c207b559d075,6,019,0,0,000,3501900006103,3.0,2020-08-12,Кузьминская (Тарногское МО),3535,3535,785a746f-3ee6-48b0-b192-0eb49f57fa46,,19242804009,19642442276,21,aad67fe6-f5da-4bce-9e53-2230c010914d,061,35019000061,161565,f7c32a98-d34d-4d81-a48e-b2f6c8877f00,35,д,2014-01-05,0000,3517,3517,2020-08-16,000,0000,000,0,aebcc4fa-bbbf-4ab3-bb52-fc3f061c06ab,0000,,0
0,08ecccdb-658e-4a14-8356-7ef0a6e46c58,785a746f-3ee6-48b0-b192-0eb49f57fa46,6,019,0,0,000,3501900006104,4.0,2020-08-13,Кузьминская Верхнекокшеньского сельсовета,3535,3535,1e9b3ca3-8348-49cc-bfa2-f72fb2462247,,19242804009,19642442276,20,aad67fe6-f5da-4bce-9e53-2230c010914d,061,35019000061,161565,b8980e08-ed0f-4f8a-a727-c207b559d075,35,д,2020-08-12,0000,3517,3517,2020-08-16,000,0000,000,0,,0000,,0
1,08ecccdb-658e-4a14-8356-7ef0a6e46c58,1e9b3ca3-8348-49cc-bfa2-f72fb2462247,6,019,0,0,000,3501900006100,0.0,2079-06-06,Кузьминская Верхнекокшеньгского сельсовета,3535,3535,,,19242804009,19642442276,20,aad67fe6-f5da-4bce-9e53-2230c010914d,061,35019000061,161565,785a746f-3ee6-48b0-b192-0eb49f57fa46,35,д,2020-08-13,0000,3517,3517,2020-08-16,000,0000,000,1,,0000,,0
0,6f9d3526-9a84-46e1-b013-04d143ed49a2,bd4b8612-db01-4bf8-a40e-ef52ee8b03a9,6,022,0,0,000,3502200021601,1.0,2079-06-06,Дементьево,3532,3532,c61a5b58-0f33-45c4-ada0-0e0de2515573,,19250848012,19650448,1,b1486739-843b-43fb-b47d-93ddc055e5f6,216,35022000216,162840,,35,д,1900-01-01,0000,3520,3520,2020-08-16,000,0000,000,0,,0000,,0
0,6f9d3526-9a84-46e1-b013-04d143ed49a2,c61a5b58-0f33-45c4-ada0-0e0de2515573,6,022,0,0,000,3502200021602,2.0,2015-11-13,Дементьево,3532,3532,985ce372-eb4c-4ff1-9065-cbe8d02288a9,,19250848012,19650448171,21,b1486739-843b-43fb-b47d-93ddc055e5f6,216,35022000216,162840,bd4b8612-db01-4bf8-a40e-ef52ee8b03a9,35,д,2014-01-05,0000,3520,3520,2020-08-16,000,0000,000,0,,0000,,0
0,6f9d3526-9a84-46e1-b013-04d143ed49a2,985ce372-eb4c-4ff1-9065-cbe8d02288a9,6,022,0,0,000,3502200021600,0.0,2020-08-13,Дементьево,3532,3532,c338520a-4e60-4b88-a1f1-51e42c46c003,,19250848000,19650448,21,b1486739-843b-43fb-b47d-93ddc055e5f6,216,35022000216,162810,c61a5b58-0f33-45c4-ada0-0e0de2515573,35,д,2015-11-13,0000,3520,3520,2020-08-16,000,0000,000,0,,0000,,0
0,6f9d3526-9a84-46e1-b013-04d143ed49a2,c338520a-4e60-4b88-a1f1-51e42c46c003,6,022,0,0,000,3502200021600,0.0,2079-06-06,Дементьево,3532,3532,6e0522cd-edcc-4e88-bffe-621083c743ac,,19250848000,19650448171,21,b1486739-843b-43fb-b47d-93ddc055e5f6,216,35022000216,162810,985ce372-eb4c-4ff1-9065-cbe8d02288a9,35,д,2020-08-13,0000,3520,3520,2020-08-16,000,0000,000,0,,0000,,0
1,6f9d3526-9a84-46e1-b013-04d143ed49a2,6e0522cd-edcc-4e88-bffe-621083c743ac,6,022,0,0,000,3502200021600,0.0,2079-06-06,Дементьево,3532,3532,,,19250848012,19650448171,21,b1486739-843b-43fb-b47d-93ddc055e5f6,216,35022000216,162810,c338520a-4e60-4b88-a1f1-51e42c46c003,35,д,2020-08-13,0000,3520,3520,2020-08-16,000,0000,000,1,,0000,,0
0,2b6bbea2-ebeb-44ed-815f-d7d387ab10d7,382a222c-ff32-46c1-982f-660bf564e633,6,019,0,0,000,3501900006701,1.0,1900-01-01,Шалимовская (Кокшеньгское МО),3535,3535,7e800c7e-97ba-4071-8d19-8428f69c813f,,19242804016,19642442,1,aad67fe6-f5da-4bce-9e53-2230c010914d,067,35019000067,161565,,35,д,1900-01-01,0000,3517,3517,2020-08-16,000,0000,000,0,,0000,,0
0,2b6bbea2-ebeb-44ed-815f-d7d387ab10d7,7e800c7e-97ba-4071-8d19-8428f69c813f,6,019,0,0,000,3501900006702,2.0,2020-08-12,Шалимовская (Тарногское МО),3535,3535,3bdb84c2-f578-4561-be4b-aaa31f38d716,,19242804016,19642442,20,aad67fe6-f5da-4bce-9e53-2230c010914d,067,35019000067,161565,382a222c-ff32-46c1-982f-660bf564e633,35,д,1900-01-01,0000,3517,3517,2020-08-16,000,0000,000,0,aebcc4fa-bbbf-4ab3-bb52-fc3f061c06ab,0000,,0
0,2b6bbea2-ebeb-44ed-815f-d7d387ab10d7,3bdb84c2-f578-4561-be4b-aaa31f38d716,6,019,0,0,000,3501900006703,3.0,2020-08-12,Шалимовская (Тарногское МО),3535,3535,6ab1c0a7-6995-4203-b8a7-fb9b157e30f3,,19242804016,19642442511,21,aad67fe6-f5da-4bce-9e53-2230c010914d,067,35019000067,161565,7e800c7e-97ba-4071-8d19-8428f69c813f,35,д,2014-01-05,0000,3517,3517,2020-08-16,000,0000,000,0,aebcc4fa-bbbf-4ab3-bb52-fc3f061c06ab,0000,,0
0,2b6bbea2-ebeb-44ed-815f-d7d387ab10d7,6ab1c0a7-6995-4203-b8a7-fb9b157e30f3,6,019,0,0,000,3501900006704,4.0,2020-08-13,Шалимовская Верхнекокшеньского сельсовета,3535,3535,80cd17a6-cc76-40a3-a38c-ee95c5bc54fb,,19242804016,19642442511,20,aad67fe6-f5da-4bce-9e53-2230c010914d,067,35019000067,161565,3bdb84c2-f578-4561-be4b-aaa31f38d716,35,д,2020-08-12,0000,3517,3517,2020-08-16,000,0000,000,0,,0000,,0
1,2b6bbea2-ebeb-44ed-815f-d7d387ab10d7,80cd17a6-cc76-40a3-a38c-ee95c5bc54fb,6,019,0,0,000,3501900006700,0.0,2079-06-06,Шалимовская Верхнекокшеньгского сельсовета,3535,3535,,,19242804016,19642442511,20,aad67fe6-f5da-4bce-9e53-2230c010914d,067,35019000067,161565,6ab1c0a7-6995-4203-b8a7-fb9b157e30f3,35,д,2020-08-13,0000,3517,3517,2020-08-16,000,0000,000,1,,0000,,0
0,52da7758-0892-4efc-b0da-dc8ae24d1146,ba8f2ebb-00d9-44fb-bde4-16582cd81a8c,6,022,0,0,000,3502200023301,1.0,2079-06-06,Скоблево,3532,3532,364b9e48-4eac-4ebf-b021-24af7e1a8eb7,,19250848031,19650448,1,b1486739-843b-43fb-b47d-93ddc055e5f6,233,35022000233,162840,,35,д,1900-01-01,0000,3520,3520,2020-08-16,000,0000,000,0,,0000,,0
0,52da7758-0892-4efc-b0da-dc8ae24d1146,364b9e48-4eac-4ebf-b021-24af7e1a8eb7,6,022,0,0,000,3502200023302,2.0,2015-11-13,Скоблево,3532,3532,4445be84-7add-43da-8a61-de5dd903ec8c,,19250848031,19650448306,21,b1486739-843b-43fb-b47d-93ddc055e5f6,233,35022000233,162840,ba8f2ebb-00d9-44fb-bde4-16582cd81a8c,35,д,2014-01-05,0000,3520,3520,2020-08-16,000,0000,000,0,,0000,,0
0,52da7758-0892-4efc-b0da-dc8ae24d1146,4445be84-7add-43da-8a61-de5dd903ec8c,6,022,0,0,000,3502200023300,0.0,2020-08-13,Скоблево,3532,3532,a4de2e30-94a6-4961-b164-50ecff623cd9,,19250848000,19650448,21,b1486739-843b-43fb-b47d-93ddc055e5f6,233,35022000233,162810,364b9e48-4eac-4ebf-b021-24af7e1a8eb7,35,д,2015-11-13,0000,3520,3520,2020-08-16,000,0000,000,0,,0000,,0
0,52da7758-0892-4efc-b0da-dc8ae24d1146,a4de2e30-94a6-4961-b164-50ecff623cd9,6,022,0,0,000,3502200023300,0.0,2079-06-06,Скоблево,3532,3532,26eee317-8267-41d2-a58b-66b8557e3a95,,19250848000,19650448306,21,b1486739-843b-43fb-b47d-93ddc055e5f6,233,35022000233,162810,4445be84-7add-43da-8a61-de5dd903ec8c,35,д,2020-08-13,0000,3520,3520,2020-08-16,000,0000,000,0,,0000,,0
1,52da7758-0892-4efc-b0da-dc8ae24d1146,26eee317-8267-41d2-a58b-66b8557e3a95,6,022,0,0,000,3502200023300,0.0,2079-06-06,Скоблево,3532,3532,,,19250848031,19650448306,21,b1486739-843b-43fb-b47d-93ddc055e5f6,233,35022000233,162810,a4de2e30-94a6-4961-b164-50ecff623cd9,35,д,2020-08-13,0000,3520,3520,2020-08-16,000,0000,000,1,,0000,,0
0,0cfad484-a457-4faa-803d-1971664e2071,54a90c80-d643-4e6c-b718-77f44fb7135d,7,022,0,0,000,35022000072000301,1.0,2079-06-06,Привальная,3532,3532,13aafb61-4504-4ce5-915a-f08270a4ae16,,19250000001,19650105,1,acfb4db5-aef0-4865-8899-44a7e186bda0,072,350220000720003,162825,,35,ул,1900-01-01,0003,3520,3520,2020-08-16,000,0000,000,0,,0000,,0
0,0cfad484-a457-4faa-803d-1971664e2071,13aafb61-4504-4ce5-915a-f08270a4ae16,7,022,0,0,000,35022000072000302,2.0,2015-11-13,Привальная,3532,3532,d1e028ea-c469-4969-aba1-ee967e2fffd0,,19250000001,19650105,20,acfb4db5-aef0-4865-8899-44a7e186bda0,072,350220000720003,162825,54a90c80-d643-4e6c-b718-77f44fb7135d,35,ул,2015-08-17,0003,3520,3520,2020-08-16,000,0000,000,0,,0000,,0
0,0cfad484-a457-4faa-803d-1971664e2071,d1e028ea-c469-4969-aba1-ee967e2fffd0,7,022,0,0,000,35022000072000303,3.0,2016-04-27,Привальная,3532,3532,cbc8afae-c3b8-4e65-95e2-1ba185b2f447,,19250000001,19650105,20,acfb4db5-aef0-4865-8899-44a7e186bda0,072,350220000720003,162825,13aafb61-4504-4ce5-915a-f08270a4ae16,35,ул,2015-11-13,0003,3520,3520,2020-08-16,000,0000,000,0,,0000,,0
0,0cfad484-a457-4faa-803d-1971664e2071,cbc8afae-c3b8-4e65-95e2-1ba185b2f447,7,022,0,0,000,35022000072000300,0.0,2079-06-06,Привальная,3532,3532,bd03443f-de10-474b-8f2f-2545ae0c9252,,19250000001,19650404211,21,acfb4db5-aef0-4865-8899-44a7e186bda0,072,350220000720003,162825,d1e028ea-c469-4969-aba1-ee967e2fffd0,35,ул,2016-04-27,0003,3520,3520,2020-08-16,000,0000,000,0,,0000,,0
1,0cfad484-a457-4faa-803d-1971664e2071,bd03443f-de10-474b-8f2f-2545ae0c9252,7,022,0,0,000,35022000072000300,0.0,2079-06-06,Привальная,3532,3532,,,19250812010,19650404211,21,acfb4db5-aef0-4865-8899-44a7e186bda0,072,350220000720003,162825,cbc8afae-c3b8-4e65-95e2-1ba185b2f447,35,ул,2020-08-13,0003,3520,3520,2020-08-16,000,0000,000,1,,0000,,0
0,28a6476e-61cc-4435-924b-f477610fc2e1,d7c4ebc0-84ca-45fc-b4cc-d3a0ea271acf,6,022,0,0,000,3502200026501,1.0,2079-06-06,Солнечный,3532,3532,c912a523-7034-45b6-a7f6-bc21d763abe8,,19250848040,19650448,1,b1486739-843b-43fb-b47d-93ddc055e5f6,265,35022000265,162840,,35,п,1900-01-01,0000,3520,3520,2020-08-16,000,0000,000,0,,0000,,0
0,28a6476e-61cc-4435-924b-f477610fc2e1,c912a523-7034-45b6-a7f6-bc21d763abe8,6,022,0,0,000,3502200026502,2.0,2015-11-13,Солнечный,3532,3532,9cf0a90f-1723-41ad-a9e0-f0c91f896660,,19250848040,19650448311,21,b1486739-843b-43fb-b47d-93ddc055e5f6,265,35022000265,162840,d7c4ebc0-84ca-45fc-b4cc-d3a0ea271acf,35,п,2014-01-05,0000,3520,3520,2020-08-16,000,0000,000,0,,0000,,0
0,28a6476e-61cc-4435-924b-f477610fc2e1,9cf0a90f-1723-41ad-a9e0-f0c91f896660,6,022,0,0,000,3502200026500,0.0,2020-08-13,Солнечный,3532,3532,3e90365f-fc56-4001-9def-5556e788252e,,19250848000,19650448311,21,b1486739-843b-43fb-b47d-93ddc055e5f6,265,35022000265,162840,c912a523-7034-45b6-a7f6-bc21d763abe8,35,п,2015-11-13,0000,3520,3520,2020-08-16,000,0000,000,0,,0000,,0
1,28a6476e-61cc-4435-924b-f477610fc2e1,3e90365f-fc56-4001-9def-5556e788252e,6,022,0,0,000,3502200026500,0.0,2079-06-06,Солнечный,3532,3532,,,19250848040,19650448311,21,b1486739-843b-43fb-b47d-93ddc055e5f6,265,35022000265,162840,9cf0a90f-1723-41ad-a9e0-f0c91f896660,35,п,2020-08-13,0000,3520,3520,2020-08-16,000,0000,000,1,,0000,,0
0,90a24d0a-2b10-41c4-982e-deacce1c1cfa,52166f41-03d2-4029-8257-e03d8da7b0f5,7,022,0,0,000,35022000072000201,1.0,2079-06-06,Тихая,3532,3532,c238e8ca-7d2b-4fab-acd8-ce79e22476cb,,19250000001,19650105,1,acfb4db5-aef0-4865-8899-44a7e186bda0,072,350220000720002,162825,,35,ул,1900-01-01,0002,3520,3520,2020-08-16,000,0000,000,0,,0000,,0
0,90a24d0a-2b10-41c4-982e-deacce1c1cfa,c238e8ca-7d2b-4fab-acd8-ce79e22476cb,7,022,0,0,000,35022000072000202,2.0,2016-04-27,Тихая,3532,3532,be3919f5-570f-4a51-aa78-4070d60d3cb7,,19250000001,19650105,20,acfb4db5-aef0-4865-8899-44a7e186bda0,072,350220000720002,162825,52166f41-03d2-4029-8257-e03d8da7b0f5,35,ул,2015-11-13,0002,3520,3520,2020-08-16,000,0000,000,0,,0000,,0
0,90a24d0a-2b10-41c4-982e-deacce1c1cfa,be3919f5-570f-4a51-aa78-4070d60d3cb7,7,022,0,0,000,35022000072000200,0.0,2079-06-06,Тихая,3532,3532,f2fe1e2c-df08-49a0-b443-df1362afa831,,19250000001,19650404211,21,acfb4db5-aef0-4865-8899-44a7e186bda0,072,350220000720002,162825,c238e8ca-7d2b-4fab-acd8-ce79e22476cb,35,ул,2016-04-27,0002,3520,3520,2020-08-16,000,0000,000,0,,0000,,0
1,90a24d0a-2b10-41c4-982e-deacce1c1cfa,f2fe1e2c-df08-49a0-b443-df1362afa831,7,022,0,0,000,35022000072000200,0.0,2079-06-06,Тихая,3532,3532,,,19250812010,19650404211,21,acfb4db5-aef0-4865-8899-44a7e186bda0,072,350220000720002,162825,be3919f5-570f-4a51-aa78-4070d60d3cb7,35,ул,2020-08-13,0002,3520,3520,2020-08-16,000,0000,000,1,,0000,,0
0,59f9dc4f-ff9f-4cfb-86c4-7ca4ec2668c7,d82ecd30-2aa2-4b18-a03f-e6fd114a58eb,6,021,0,0,000,3502100022801,1.0,2014-01-04,Исаково (Заднесельский с/с),3537,3537,79b6d589-e684-48c4-a088-717c26008812,,19248816012,19648416,1,499b4200-b421-4553-ab3d-fc7527d335e2,320,35021000228,161147,,35,д,1900-01-01,0000,3519,3519,2020-08-16,000,0000,000,0,,0000,,0
0,59f9dc4f-ff9f-4cfb-86c4-7ca4ec2668c7,79b6d589-e684-48c4-a088-717c26008812,6,021,0,0,000,3502100022851,51.0,2014-01-04,Исаково (Заднесельский с/с),3537,3537,bc2e1263-6755-4343-a386-cd7d680abb44,,19248816012,19648416221,21,499b4200-b421-4553-ab3d-fc7527d335e2,320,35021000228,161147,d82ecd30-2aa2-4b18-a03f-e6fd114a58eb,35,д,2014-01-04,0000,3519,3519,2020-08-16,000,0000,000,0,,0000,,0
0,59f9dc4f-ff9f-4cfb-86c4-7ca4ec2668c7,bc2e1263-6755-4343-a386-cd7d680abb44,6,021,0,0,000,3502100200751,51.0,2079-06-06,Исаково,3537,3537,78cd2452-434d-43da-876d-2fd8e9125862,,19248816012,19648000,50,499b4200-b421-4553-ab3d-fc7527d335e2,320,35021002007,161147,79b6d589-e684-48c4-a088-717c26008812,35,д,2014-01-04,0000,3519,3519,2020-08-16,000,0000,000,0,54ec9bd5-5a23-4a5b-85ca-0ed39a1f7977,0000,,0
0,59f9dc4f-ff9f-4cfb-86c4-7ca4ec2668c7,78cd2452-434d-43da-876d-2fd8e9125862,6,021,0,0,000,3502100200751,51.0,2020-08-14,Исаково,3537,3537,d0232f5e-e885-472c-a7ba-1fe9258d0d14,,19248816012,19648436136,21,499b4200-b421-4553-ab3d-fc7527d335e2,320,35021002007,161147,bc2e1263-6755-4343-a386-cd7d680abb44,35,д,2020-08-12,0000,3519,3519,2020-08-16,000,0000,000,0,,0000,,0
0,59f9dc4f-ff9f-4cfb-86c4-7ca4ec2668c7,d0232f5e-e885-472c-a7ba-1fe9258d0d14,6,021,0,0,000,3502100032000,0.0,2079-06-06,Исаково,3537,3537,ac207b99-9f4a-4c64-b8a8-d5f26eae9d1f,,19248816012,19648436136,50,499b4200-b421-4553-ab3d-fc7527d335e2,320,35021000320,161147,78cd2452-434d-43da-876d-2fd8e9125862,35,д,2020-08-13,0000,3519,3519,2020-08-16,000,0000,000,0,,0000,,0
1,59f9dc4f-ff9f-4cfb-86c4-7ca4ec2668c7,ac207b99-9f4a-4c64-b8a8-d5f26eae9d1f,6,021,0,0,000,3502100032000,0.0,2079-06-06,Исаково,3537,3537,,,19248816012,19648436137,21,499b4200-b421-4553-ab3d-fc7527d335e2,320,35021000320,161147,d0232f5e-e885-472c-a7ba-1fe9258d0d14,35,д,2020-08-14,0000,3519,3519,2020-08-16,000,0000,000,1,,0000,,0
0,24835612-1b00-4485-8c10-d315d5e45b34,5788a342-d94b-4c53-8fb8-67cf1a7717db,7,022,0,0,000,35022000101000301,1.0,2079-06-06,Зеленая,3532,3532,6c2b18b3-39bc-4527-84d6-4f52b0e30fb0,,19250812001,19650412,1,2a9e669c-ded0-482b-8e6b-def661b4972c,101,350220001010003,162820,,35,ул,1900-01-01,0003,3520,3520,2020-08-16,000,0000,000,0,,0000,,0
0,24835612-1b00-4485-8c10-d315d5e45b34,6c2b18b3-39bc-4527-84d6-4f52b0e30fb0,7,022,0,0,000,35022000101000300,0.0,2079-06-06,Зеленая,3532,3532,ffab158a-ee81-45e1-8610-23832051e2ca,,19250812001,19650412111,21,2a9e669c-ded0-482b-8e6b-def661b4972c,101,350220001010003,162822,5788a342-d94b-4c53-8fb8-67cf1a7717db,35,ул,2002-12-24,0003,3520,3520,2020-08-16,000,0000,000,0,,0000,,0
1,24835612-1b00-4485-8c10-d315d5e45b34,ffab158a-ee81-45e1-8610-23832051e2ca,7,022,0,0,000,35022000101000300,0.0,2079-06-06,Зеленая,3532,3532,,,19250824004,19650412111,21,2a9e669c-ded0-482b-8e6b-def661b4972c,101,350220001010003,162822,6c2b18b3-39bc-4527-84d6-4f52b0e30fb0,35,ул,2020-08-13,0003,3520,3520,2020-08-16,000,0000,000,1,,0000,,0
0,dd12de12-9ec5-411f-935b-ccd619038d9c,89e9fc22-7d56-4d46-8862-c39bf271059e,6,019,0,0,000,3501900012401,1.0,1900-01-01,Шалимовская (Озерецкое МО),3535,3535,1a115dde-2fd7-48c8-80bb-86464833a9b0,,19242836015,19642442,1,aad67fe6-f5da-4bce-9e53-2230c010914d,195,35019000124,161564,,35,д,1900-01-01,0000,3517,3517,2020-08-16,000,0000,000,0,,0000,,0
0,dd12de12-9ec5-411f-935b-ccd619038d9c,1a115dde-2fd7-48c8-80bb-86464833a9b0,6,019,0,0,000,3501900012402,2.0,2014-01-04,Шалимовская (Тарногское МО),3535,3535,3b6cde1d-aff5-44eb-bd1b-51b20914be6b,,19242836015,19642442,20,aad67fe6-f5da-4bce-9e53-2230c010914d,195,35019000124,161564,89e9fc22-7d56-4d46-8862-c39bf271059e,35,д,1900-01-01,0000,3517,3517,2020-08-16,000,0000,000,0,aebcc4fa-bbbf-4ab3-bb52-fc3f061c06ab,0000,,0
0,dd12de12-9ec5-411f-935b-ccd619038d9c,3b6cde1d-aff5-44eb-bd1b-51b20914be6b,6,019,0,0,000,3501900012451,51.0,2014-01-04,Шалимовская (Тарногское МО),3535,3535,2c861ca1-3386-4767-b275-85ca5724f249,,19242836015,19642442516,21,aad67fe6-f5da-4bce-9e53-2230c010914d,195,35019000124,161564,1a115dde-2fd7-48c8-80bb-86464833a9b0,35,д,2014-01-04,0000,3517,3517,2020-08-16,000,0000,000,0,aebcc4fa-bbbf-4ab3-bb52-fc3f061c06ab,0000,,0
0,dd12de12-9ec5-411f-935b-ccd619038d9c,2c861ca1-3386-4767-b275-85ca5724f249,6,019,0,0,000,3501900600851,51.0,2020-08-12,Шалимовская,3535,3535,073e4046-f040-4935-9099-e88af28e3311,,19242836015,19642442516,50,aad67fe6-f5da-4bce-9e53-2230c010914d,195,35019006008,161565,3b6cde1d-aff5-44eb-bd1b-51b20914be6b,35,д,2014-01-04,0000,3517,3517,2020-08-16,000,0000,000,0,aebcc4fa-bbbf-4ab3-bb52-fc3f061c06ab,0000,,0
0,dd12de12-9ec5-411f-935b-ccd619038d9c,073e4046-f040-4935-9099-e88af28e3311,6,019,0,0,000,3501900019501,1.0,2020-08-12,Шалимовская,3535,3535,9550ef5e-4a37-4d19-89c1-6b4287ecc5e4,,19242836015,19642442516,50,aad67fe6-f5da-4bce-9e53-2230c010914d,195,35019000195,161565,2c861ca1-3386-4767-b275-85ca5724f249,35,д,2020-06-19,0000,3517,3517,2020-08-16,000,0000,000,0,,0000,,0
1,dd12de12-9ec5-411f-935b-ccd619038d9c,9550ef5e-4a37-4d19-89c1-6b4287ecc5e4,6,019,0,0,000,3501900019500,0.0,2079-06-06,Шалимовская Озерецкого сельсовета,3535,3535,,,19242836015,19642442516,20,aad67fe6-f5da-4bce-9e53-2230c010914d,195,35019000195,161565,073e4046-f040-4935-9099-e88af28e3311,35,д,2020-08-12,0000,3517,3517,2020-08-16,000,0000,000,1,,0000,,0
0,0fa7ec05-acae-49ef-bf91-166ef0086d80,8ba8aadb-0257-4df8-973e-b87d7638341a,6,022,0,0,000,3502200023401,1.0,2079-06-06,Соловцово,3532,3532,bf96c257-673a-4311-87e0-ada857ac6138,,19250848032,19650448,1,b1486739-843b-43fb-b47d-93ddc055e5f6,234,35022000234,162840,,35,д,1900-01-01,0000,3520,3520,2020-08-16,000,0000,000,0,,0000,,0
0,0fa7ec05-acae-49ef-bf91-166ef0086d80,bf96c257-673a-4311-87e0-ada857ac6138,6,022,0,0,000,3502200023402,2.0,2015-11-13,Соловцово,3532,3532,7c9d2706-8264-4a58-9ebc-05b24cd96adc,,19250848032,19650448316,21,b1486739-843b-43fb-b47d-93ddc055e5f6,234,35022000234,162840,8ba8aadb-0257-4df8-973e-b87d7638341a,35,д,2014-01-05,0000,3520,3520,2020-08-16,000,0000,000,0,,0000,,0
0,0fa7ec05-acae-49ef-bf91-166ef0086d80,7c9d2706-8264-4a58-9ebc-05b24cd96adc,6,022,0,0,000,3502200023400,0.0,2020-08-13,Соловцово,3532,3532,8663baeb-f637-4f73-8abc-3c3fd15baa34,,19250848000,19650448,21,b1486739-843b-43fb-b47d-93ddc055e5f6,234,35022000234,162840,bf96c257-673a-4311-87e0-ada857ac6138,35,д,2015-11-13,0000,3520,3520,2020-08-16,000,0000,000,0,,0000,,0
0,0fa7ec05-acae-49ef-bf91-166ef0086d80,8663baeb-f637-4f73-8abc-3c3fd15baa34,6,022,0,0,000,3502200023400,0.0,2079-06-06,Соловцово,3532,3532,a4911c05-b643-47eb-ab9e-a57026aa7229,,19250848000,19650448316,21,b1486739-843b-43fb-b47d-93ddc055e5f6,234,35022000234,162840,7c9d2706-8264-4a58-9ebc-05b24cd96adc,35,д,2020-08-13,0000,3520,3520,2020-08-16,000,0000,000,0,,0000,,0
1,0fa7ec05-acae-49ef-bf91-166ef0086d80,a4911c05-b643-47eb-ab9e-a57026aa7229,6,022,0,0,000,3502200023400,0.0,2079-06-06,Соловцово,3532,3532,,,19250848032,19650448316,21,b1486739-843b-43fb-b47d-93ddc055e5f6,234,35022000234,162840,8663baeb-f637-4f73-8abc-3c3fd15baa34,35,д,2020-08-13,0000,3520,3520,2020-08-16,000,0000,000,1,,0000,,0
0,127b3078-4b5b-4c6f-9c0b-21cf9676e7c0,4c4a9bc9-b9c1-4dca-b0e4-1cad9f4195cb,6,022,0,0,000,3502200026401,1.0,2079-06-06,Юбилейный,3532,3532,d83d5e3b-f285-42bf-b4d3-f4ee4b743f00,,19250848041,19650448,1,b1486739-843b-43fb-b47d-93ddc055e5f6,264,35022000264,162840,,35,п,1900-01-01,0000,3520,3520,2020-08-16,000,0000,000,0,,0000,,0
0,127b3078-4b5b-4c6f-9c0b-21cf9676e7c0,d83d5e3b-f285-42bf-b4d3-f4ee4b743f00,6,022,0,0,000,3502200026402,2.0,2015-11-13,Юбилейный,3532,3532,cd617dc2-e0a8-4133-8798-4c6aac9341fc,,19250848041,19650448366,21,b1486739-843b-43fb-b47d-93ddc055e5f6,264,35022000264,162840,4c4a9bc9-b9c1-4dca-b0e4-1cad9f4195cb,35,п,2014-01-05,0000,3520,3520,2020-08-16,000,0000,000,0,,0000,,0
0,127b3078-4b5b-4c6f-9c0b-21cf9676e7c0,cd617dc2-e0a8-4133-8798-4c6aac9341fc,6,022,0,0,000,3502200026400,0.0,2020-08-13,Юбилейный,3532,3532,ad6a0014-6eb1-4193-9811-2ecfc59cf632,,19250848000,19650448366,21,b1486739-843b-43fb-b47d-93ddc055e5f6,264,35022000264,162840,d83d5e3b-f285-42bf-b4d3-f4ee4b743f00,35,п,2015-11-13,0000,3520,3520,2020-08-16,000,0000,000,0,,0000,,0
1,127b3078-4b5b-4c6f-9c0b-21cf9676e7c0,ad6a0014-6eb1-4193-9811-2ecfc59cf632,6,022,0,0,000,3502200026400,0.0,2079-06-06,Юбилейный,3532,3532,,,19250848041,19650448366,21,b1486739-843b-43fb-b47d-93ddc055e5f6,264,35022000264,162840,cd617dc2-e0a8-4133-8798-4c6aac9341fc,35,п,2020-08-13,0000,3520,3520,2020-08-16,000,0000,000,1,,0000,,0
0,cce42e66-b44b-47af-9cc5-37d4a0f9b92c,c0c4ec9e-8a06-4213-b8a9-16fb29504851,7,022,0,0,000,35022000109000101,1.0,2079-06-06,Дачная,3532,3532,59bc96f3-4aff-4818-8686-e4acda4eeb36,,19250812001,19650412,1,6ce2838a-7be7-4f9e-bf4d-851c40fe2e45,109,350220001090001,162826,,35,ул,1900-01-01,0001,3520,3520,2020-08-16,000,0000,000,0,,0000,,0
0,cce42e66-b44b-47af-9cc5-37d4a0f9b92c,59bc96f3-4aff-4818-8686-e4acda4eeb36,7,022,0,0,000,35022000109000102,2.0,2019-08-08,Дачная,3532,3532,c8d2b79b-efb9-4b06-a46f-3d46f0e50b74,,19250812001,19650412,21,6ce2838a-7be7-4f9e-bf4d-851c40fe2e45,109,350220001090001,162826,c0c4ec9e-8a06-4213-b8a9-16fb29504851,35,ул,2019-08-07,0001,3520,3520,2020-08-16,000,0000,000,0,b7c5d675-98d4-4fba-8a9d-f6265dd1be8d,0000,,0
0,cce42e66-b44b-47af-9cc5-37d4a0f9b92c,c8d2b79b-efb9-4b06-a46f-3d46f0e50b74,7,022,0,0,000,35022000109000100,0.0,2079-06-06,Дачная,3532,3532,49f3be70-358a-4c3b-a073-1ee715f47aef,,19250812001,19650412186,21,6ce2838a-7be7-4f9e-bf4d-851c40fe2e45,109,350220001090001,162826,59bc96f3-4aff-4818-8686-e4acda4eeb36,35,ул,2019-08-08,0001,3520,3520,2020-08-16,000,0000,000,0,c4aac824-ee3e-49b1-ad5f-eb966e265e38,0000,,0
1,cce42e66-b44b-47af-9cc5-37d4a0f9b92c,49f3be70-358a-4c3b-a073-1ee715f47aef,7,022,0,0,000,35022000109000100,0.0,2079-06-06,Дачная,3532,3532,,,19250824015,19650412186,21,6ce2838a-7be7-4f9e-bf4d-851c40fe2e45,109,350220001090001,162826,c8d2b79b-efb9-4b06-a46f-3d46f0e50b74,35,ул,2020-08-13,0001,3520,3520,2020-08-16,000,0000,000,1,,0000,,0
0,98911acf-ba1b-4b18-8abc-5fcb7000eb9b,1c006125-2c34-4bd9-af04-af5ed1f700c4,6,022,0,0,000,3502200016201,1.0,2079-06-06,Колодня,3532,3532,05e86b16-6f96-483a-8a2c-3c65ef7f0ac4,,19250836006,19650448,1,b1486739-843b-43fb-b47d-93ddc055e5f6,162,35022000162,162834,,35,д,1900-01-01,0000,3520,3520,2020-08-16,000,0000,000,0,,0000,,0
0,98911acf-ba1b-4b18-8abc-5fcb7000eb9b,05e86b16-6f96-483a-8a2c-3c65ef7f0ac4,6,022,0,0,000,3502200016202,2.0,2015-11-13,Колодня,3532,3532,3bbe37a7-26a0-471e-9b46-fb2b11728959,,19250836006,19650448206,21,b1486739-843b-43fb-b47d-93ddc055e5f6,162,35022000162,162834,1c006125-2c34-4bd9-af04-af5ed1f700c4,35,д,2014-01-05,0000,3520,3520,2020-08-16,000,0000,000,0,,0000,,0
0,98911acf-ba1b-4b18-8abc-5fcb7000eb9b,3bbe37a7-26a0-471e-9b46-fb2b11728959,6,022,0,0,000,3502200016200,0.0,2020-08-13,Колодня,3532,3532,224e2745-76f1-4100-b72f-de21149b05c7,,19250848000,19650448,21,b1486739-843b-43fb-b47d-93ddc055e5f6,162,35022000162,162834,05e86b16-6f96-483a-8a2c-3c65ef7f0ac4,35,д,2015-11-13,0000,3520,3520,2020-08-16,000,0000,000,0,,0000,,0
0,98911acf-ba1b-4b18-8abc-5fcb7000eb9b,224e2745-76f1-4100-b72f-de21149b05c7,6,022,0,0,000,3502200016200,0.0,2079-06-06,Колодня,3532,3532,061da678-5c40-4fa5-9745-e5fcdb63edde,,19250848000,19650448206,21,b1486739-843b-43fb-b47d-93ddc055e5f6,162,35022000162,162834,3bbe37a7-26a0-471e-9b46-fb2b11728959,35,д,2020-08-13,0000,3520,3520,2020-08-16,000,0000,000,0,,0000,,0
1,98911acf-ba1b-4b18-8abc-5fcb7000eb9b,061da678-5c40-4fa5-9745-e5fcdb63edde,6,022,0,0,000,3502200016200,0.0,2079-06-06,Колодня,3532,3532,,,19250836006,19650448206,21,b1486739-843b-43fb-b47d-93ddc055e5f6,162,35022000162,162834,224e2745-76f1-4100-b72f-de21149b05c7,35,д,2020-08-13,0000,3520,3520,2020-08-16,000,0000,000,1,,0000,,0
0,133f10e8-97c4-4826-84dc-13accbc2e015,a27f2e0e-064f-45dc-a13f-08468eab418e,6,022,0,0,000,3502200021801,1.0,2079-06-06,Дягилево,3532,3532,0b82f670-4c4a-4e1e-a13a-7222fa600584,,19250848014,19650448,1,b1486739-843b-43fb-b47d-93ddc055e5f6,218,35022000218,162840,,35,д,1900-01-01,0000,3520,3520,2020-08-16,000,0000,000,0,,0000,,0
0,133f10e8-97c4-4826-84dc-13accbc2e015,0b82f670-4c4a-4e1e-a13a-7222fa600584,6,022,0,0,000,3502200021802,2.0,2015-11-13,Дягилево,3532,3532,48290df4-2b7e-491c-bd55-c667e985d758,,19250848014,19650448181,21,b1486739-843b-43fb-b47d-93ddc055e5f6,218,35022000218,162840,a27f2e0e-064f-45dc-a13f-08468eab418e,35,д,2014-01-05,0000,3520,3520,2020-08-16,000,0000,000,0,,0000,,0
0,133f10e8-97c4-4826-84dc-13accbc2e015,48290df4-2b7e-491c-bd55-c667e985d758,6,022,0,0,000,3502200021800,0.0,2020-08-13,Дягилево,3532,3532,2c33ba6b-b7d2-44c6-87e8-9f3477374313,,19250848000,19650448,21,b1486739-843b-43fb-b47d-93ddc055e5f6,218,35022000218,162810,0b82f670-4c4a-4e1e-a13a-7222fa600584,35,д,2015-11-13,0000,3520,3520,2020-08-16,000,0000,000,0,,0000,,0
0,133f10e8-97c4-4826-84dc-13accbc2e015,2c33ba6b-b7d2-44c6-87e8-9f3477374313,6,022,0,0,000,3502200021800,0.0,2079-06-06,Дягилево,3532,3532,fcc7cea7-df2d-4809-963c-6b39fccdb758,,19250848000,19650448181,21,b1486739-843b-43fb-b47d-93ddc055e5f6,218,35022000218,162810,48290df4-2b7e-491c-bd55-c667e985d758,35,д,2020-08-13,0000,3520,3520,2020-08-16,000,0000,000,0,,0000,,0
1,133f10e8-97c4-4826-84dc-13accbc2e015,fcc7cea7-df2d-4809-963c-6b39fccdb758,6,022,0,0,000,3502200021800,0.0,2079-06-06,Дягилево,3532,3532,,,19250848014,19650448181,21,b1486739-843b-43fb-b47d-93ddc055e5f6,218,35022000218,162810,2c33ba6b-b7d2-44c6-87e8-9f3477374313,35,д,2020-08-13,0000,3520,3520,2020-08-16,000,0000,000,1,,0000,,0
0,0aa97296-5626-4dcb-93cc-bd5fe76317b9,e494dc08-505b-4344-a665-be121f4346f5,6,022,0,0,000,3502200020501,1.0,2079-06-06,Андраково,3532,3532,701ec6de-8bd3-4777-86d7-e501d3396298,,19250848042,19650448,1,b1486739-843b-43fb-b47d-93ddc055e5f6,205,35022000205,162840,,35,д,1900-01-01,0000,3520,3520,2020-08-16,000,0000,000,0,,0000,,0
0,0aa97296-5626-4dcb-93cc-bd5fe76317b9,701ec6de-8bd3-4777-86d7-e501d3396298,6,022,0,0,000,3502200020502,2.0,2015-11-13,Андраково,3532,3532,27006f84-0fc5-47ff-853c-77489b85e039,,19250848042,19650448111,21,b1486739-843b-43fb-b47d-93ddc055e5f6,205,35022000205,162840,e494dc08-505b-4344-a665-be121f4346f5,35,д,2014-01-05,0000,3520,3520,2020-08-16,000,0000,000,0,,0000,,0
0,0aa97296-5626-4dcb-93cc-bd5fe76317b9,27006f84-0fc5-47ff-853c-77489b85e039,6,022,0,0,000,3502200020500,0.0,2020-08-13,Андраково,3532,3532,b9dd103c-adcf-4869-b2b5-cd8dcab40ac2,,19250848000,19650448,21,b1486739-843b-43fb-b47d-93ddc055e5f6,205,35022000205,162840,701ec6de-8bd3-4777-86d7-e501d3396298,35,д,2015-11-13,0000,3520,3520,2020-08-16,000,0000,000,0,,0000,,0
0,0aa97296-5626-4dcb-93cc-bd5fe76317b9,b9dd103c-adcf-4869-b2b5-cd8dcab40ac2,6,022,0,0,000,3502200020500,0.0,2079-06-06,Андраково,3532,3532,dd68572b-3859-4ff0-a307-4372f5a347a1,,19250848000,19650448111,21,b1486739-843b-43fb-b47d-93ddc055e5f6,205,35022000205,162840,27006f84-0fc5-47ff-853c-77489b85e039,35,д,2020-08-13,0000,3520,3520,2020-08-16,000,0000,000,0,,0000,,0
1,0aa97296-5626-4dcb-93cc-bd5fe76317b9,dd68572b-3859-4ff0-a307-4372f5a347a1,6,022,0,0,000,3502200020500,0.0,2079-06-06,Андраково,3532,3532,,,19250848042,19650448111,21,b1486739-843b-43fb-b47d-93ddc055e5f6,205,35022000205,162840,b9dd103c-adcf-4869-b2b5-cd8dcab40ac2,35,д,2020-08-13,0000,3520,3520,2020-08-16,000,0000,000,1,,0000,,0
0,feef674a-af25-4dea-b701-072713a49616,6f11220d-9a57-432b-869c-202f989e1a80,7,006,0,0,001,35006001006000301,1.0,2020-08-13,Набережная,3538,3538,cdee78ae-32c5-46dd-a84f-adc658809737,,19410000000,19614101,1,9db452cb-452a-4373-9610-a265b3b55653,000,350060010060003,162341,,35,ул,1900-01-01,0041,3526,3526,2020-08-16,000,0000,000,0,,0000,,0
0,feef674a-af25-4dea-b701-072713a49616,cdee78ae-32c5-46dd-a84f-adc658809737,7,006,0,0,001,35006001006000351,51.0,2020-08-13,Набережная,3538,3538,e78619a3-0131-456b-b3e1-bac6fb79a72f,,19410000000,19614101001,21,9db452cb-452a-4373-9610-a265b3b55653,000,350060010060003,,6f11220d-9a57-432b-869c-202f989e1a80,35,ул,2015-12-11,0041,3526,3526,2020-08-16,000,0000,000,0,,0000,,0
1,feef674a-af25-4dea-b701-072713a49616,e78619a3-0131-456b-b3e1-bac6fb79a72f,7,006,0,0,001,35006001000004100,0.0,2079-06-06,Коромыслово,3538,3538,,,19410000000,19614101001,50,9db452cb-452a-4373-9610-a265b3b55653,000,350060010000041,,cdee78ae-32c5-46dd-a84f-adc658809737,35,ул,2020-08-13,0041,3526,3526,2020-08-16,000,0000,000,1,,0000,,0
0,acfb4db5-aef0-4865-8899-44a7e186bda0,f6a227ab-bd4c-47d1-95db-c948bf6d569a,6,022,0,0,000,3502200007201,1.0,2079-06-06,Селище,3532,3532,195003fd-bde6-4fb9-9216-3cc01bfffa25,,19250000001,19650105,1,b1486739-843b-43fb-b47d-93ddc055e5f6,072,35022000072,162825,,35,д,1900-01-01,0000,3520,3520,2020-08-16,000,0000,000,0,,0000,,0
0,acfb4db5-aef0-4865-8899-44a7e186bda0,195003fd-bde6-4fb9-9216-3cc01bfffa25,6,022,0,0,000,3502200007202,2.0,2016-04-22,Селище,3532,3532,085a269f-c421-4182-9bfa-cad82ca5d4d0,,19250000001,19650105,21,b1486739-843b-43fb-b47d-93ddc055e5f6,072,35022000072,162825,f6a227ab-bd4c-47d1-95db-c948bf6d569a,35,д,2015-11-13,0000,3520,3520,2020-08-16,000,0000,000,0,,0000,,0
0,acfb4db5-aef0-4865-8899-44a7e186bda0,085a269f-c421-4182-9bfa-cad82ca5d4d0,6,022,0,0,000,3502200007200,0.0,2079-06-06,Селище,3532,3532,669d863c-a729-4ea4-bff8-9552377d806b,,19250000001,19650404211,20,b1486739-843b-43fb-b47d-93ddc055e5f6,072,35022000072,162825,195003fd-bde6-4fb9-9216-3cc01bfffa25,35,д,2016-04-22,0000,3520,3520,2020-08-16,000,0000,000,0,d5faa07f-d051-4bf9-bc69-47cf856f4d66,0000,,0
1,acfb4db5-aef0-4865-8899-44a7e186bda0,669d863c-a729-4ea4-bff8-9552377d806b,6,022,0,0,000,3502200007200,0.0,2079-06-06,Селище,3532,3532,,,19250812010,19650404211,21,b1486739-843b-43fb-b47d-93ddc055e5f6,072,35022000072,162825,085a269f-c421-4182-9bfa-cad82ca5d4d0,35,д,2020-08-13,0000,3520,3520,2020-08-16,000,0000,000,1,,0000,,0
0,e2bb1a84-75a6-4cd9-87bc-11f910ab06ea,8765a15c-516c-41c8-850d-5f67fc9b0bf3,6,022,0,0,000,3502200022201,1.0,2079-06-06,Кормовесово,3532,3532,4678ea78-e5fb-4ac6-9503-dc9490b34e01,,19250848018,19650448,1,b1486739-843b-43fb-b47d-93ddc055e5f6,222,35022000222,162840,,35,д,1900-01-01,0000,3520,3520,2020-08-16,000,0000,000,0,,0000,,0
0,e2bb1a84-75a6-4cd9-87bc-11f910ab06ea,4678ea78-e5fb-4ac6-9503-dc9490b34e01,6,022,0,0,000,3502200022202,2.0,2015-11-13,Кормовесово,3532,3532,c04bfae7-f756-40e9-8d4c-2b7221d366fc,,19250848018,19650448211,21,b1486739-843b-43fb-b47d-93ddc055e5f6,222,35022000222,162840,8765a15c-516c-41c8-850d-5f67fc9b0bf3,35,д,2014-01-05,0000,3520,3520,2020-08-16,000,0000,000,0,,0000,,0
0,e2bb1a84-75a6-4cd9-87bc-11f910ab06ea,c04bfae7-f756-40e9-8d4c-2b7221d366fc,6,022,0,0,000,3502200022200,0.0,2020-08-13,Кормовесово,3532,3532,33cbcddf-86a0-4c64-9659-477d4cdf5141,,19250848000,19650448,21,b1486739-843b-43fb-b47d-93ddc055e5f6,222,35022000222,162810,4678ea78-e5fb-4ac6-9503-dc9490b34e01,35,д,2015-11-13,0000,3520,3520,2020-08-16,000,0000,000,0,,0000,,0
0,e2bb1a84-75a6-4cd9-87bc-11f910ab06ea,33cbcddf-86a0-4c64-9659-477d4cdf5141,6,022,0,0,000,3502200022200,0.0,2079-06-06,Кормовесово,3532,3532,9c7277c2-8b09-4c82-ba37-b7c92c91d5a3,,19250848000,19650448211,21,b1486739-843b-43fb-b47d-93ddc055e5f6,222,35022000222,162810,c04bfae7-f756-40e9-8d4c-2b7221d366fc,35,д,2020-08-13,0000,3520,3520,2020-08-16,000,0000,000,0,,0000,,0
1,e2bb1a84-75a6-4cd9-87bc-11f910ab06ea,9c7277c2-8b09-4c82-ba37-b7c92c91d5a3,6,022,0,0,000,3502200022200,0.0,2079-06-06,Кормовесово,3532,3532,,,19250848018,19650448211,21,b1486739-843b-43fb-b47d-93ddc055e5f6,222,35022000222,162810,33cbcddf-86a0-4c64-9659-477d4cdf5141,35,д,2020-08-13,0000,3520,3520,2020-08-16,000,0000,000,1,,0000,,0
0,2d4b3834-eead-4c91-ae0a-8a7a06e398c0,8bf58ef7-98fc-420b-9b3a-241b5ca7b453,7,022,0,0,000,35022000265000301,1.0,2079-06-06,Луговой,3532,3532,1e4d7b36-ee6e-49eb-94e6-6b31ee1d287f,,19250848040,19650448,1,28a6476e-61cc-4435-924b-f477610fc2e1,265,350220002650003,162840,,35,пер,1900-01-01,0003,3520,3520,2020-08-16,000,0000,000,0,,0000,,0
0,2d4b3834-eead-4c91-ae0a-8a7a06e398c0,1e4d7b36-ee6e-49eb-94e6-6b31ee1d287f,7,022,0,0,000,35022000265000302,2.0,2015-11-13,Луговой,3532,3532,8ffe5301-4b87-4e77-a017-8cd5227348c9,,19250848040,19650448311,21,28a6476e-61cc-4435-924b-f477610fc2e1,265,350220002650003,162840,8bf58ef7-98fc-420b-9b3a-241b5ca7b453,35,пер,2014-01-05,0003,3520,3520,2020-08-16,000,0000,000,0,,0000,,0
0,2d4b3834-eead-4c91-ae0a-8a7a06e398c0,8ffe5301-4b87-4e77-a017-8cd5227348c9,7,022,0,0,000,35022000265000300,0.0,2020-08-13,Луговой,3532,3532,58bbbc1e-a352-4f23-99e3-fd01b4d7ee37,,19250848000,19650448311,21,28a6476e-61cc-4435-924b-f477610fc2e1,265,350220002650003,162840,1e4d7b36-ee6e-49eb-94e6-6b31ee1d287f,35,пер,2015-11-13,0003,3520,3520,2020-08-16,000,0000,000,0,,0000,,0
1,2d4b3834-eead-4c91-ae0a-8a7a06e398c0,58bbbc1e-a352-4f23-99e3-fd01b4d7ee37,7,022,0,0,000,35022000265000300,0.0,2079-06-06,Луговой,3532,3532,,,19250848040,19650448311,21,28a6476e-61cc-4435-924b-f477610fc2e1,265,350220002650003,162840,8ffe5301-4b87-4e77-a017-8cd5227348c9,35,пер,2020-08-13,0003,3520,3520,2020-08-16,000,0000,000,1,,0000,,0
0,add5b843-f97d-4098-be19-b88e99bdc47a,697c4739-0cdd-46c9-b7c9-a316e22fdf57,6,022,0,0,000,3502200026001,1.0,2020-08-13,Кузьминское,3532,3532,bce1960d-a58e-4239-8af2-4084381a2eb1,,19250848020,19650448,1,b1486739-843b-43fb-b47d-93ddc055e5f6,260,35022000260,162840,,35,д,1900-01-01,0000,3520,3520,2020-08-16,000,0000,000,0,,0000,,0
0,add5b843-f97d-4098-be19-b88e99bdc47a,bce1960d-a58e-4239-8af2-4084381a2eb1,6,022,0,0,000,3502200026051,51.0,2015-11-13,Кузьминское,3532,3532,13318bea-ea75-4b64-bef8-ee7891177761,,19250848020,19650448226,21,b1486739-843b-43fb-b47d-93ddc055e5f6,270,35022000260,162840,697c4739-0cdd-46c9-b7c9-a316e22fdf57,35,д,2014-01-04,0000,3520,3520,2020-08-16,000,0000,000,0,,0000,,0
0,add5b843-f97d-4098-be19-b88e99bdc47a,13318bea-ea75-4b64-bef8-ee7891177761,6,022,0,0,004,3502200400402,2.0,2018-06-29,Кузьминское,3532,3532,9227d134-0471-4c14-89db-bed93ce9b272,,19250848020,19650448226,50,3075f9b4-3c62-4b09-84e2-9c2236f37b4d,004,35022004004,162840,bce1960d-a58e-4239-8af2-4084381a2eb1,35,д,2014-01-04,0000,3520,3520,2020-08-16,000,0000,000,0,,0000,,0
0,add5b843-f97d-4098-be19-b88e99bdc47a,9227d134-0471-4c14-89db-bed93ce9b272,6,022,0,0,000,3502200400403,3.0,2018-06-28,Кузьминское,3532,3532,e58cab8d-df0e-4cd7-8011-3fbc4fa1fbc6,,19250848000,19650448,21,b1486739-843b-43fb-b47d-93ddc055e5f6,270,35022004004,,13318bea-ea75-4b64-bef8-ee7891177761,35,д,2015-11-13,0000,3520,3520,2020-08-16,000,0000,000,0,,0000,,0
0,add5b843-f97d-4098-be19-b88e99bdc47a,e58cab8d-df0e-4cd7-8011-3fbc4fa1fbc6,6,022,0,0,000,3502200400451,51.0,2018-06-29,Кузьминское,3532,3532,6b7c9eea-27ec-428e-9f60-8abee4331fb7,,19250836007,19650448221,21,b1486739-843b-43fb-b47d-93ddc055e5f6,270,35022004004,162834,9227d134-0471-4c14-89db-bed93ce9b272,35,д,2018-06-28,0000,3520,3520,2020-08-16,000,0000,000,0,9e9b4d8f-9053-4d1f-b01c-9cfe4e3fb468,0000,,0
0,add5b843-f97d-4098-be19-b88e99bdc47a,6b7c9eea-27ec-428e-9f60-8abee4331fb7,6,022,0,0,000,3502200027001,1.0,2020-08-13,Кузьминское,3532,3532,987eb0af-248f-4c78-b113-f3ac16fe0bde,,19250836007,19650448221,50,b1486739-843b-43fb-b47d-93ddc055e5f6,270,35022000270,,e58cab8d-df0e-4cd7-8011-3fbc4fa1fbc6,35,д,2018-06-29,0000,3520,3520,2020-08-16,000,0000,000,0,c4a87c96-5785-444e-9343-5983132df5b7,0000,,0
1,add5b843-f97d-4098-be19-b88e99bdc47a,987eb0af-248f-4c78-b113-f3ac16fe0bde,6,022,0,0,000,3502200027000,0.0,2079-06-06,Кузьминское Перского сельсовета,3532,3532,,,19250836007,19650448221,20,b1486739-843b-43fb-b47d-93ddc055e5f6,270,35022000270,,6b7c9eea-27ec-428e-9f60-8abee4331fb7,35,д,2020-08-13,0000,3520,3520,2020-08-16,000,0000,000,1,01386dd5-7432-4208-ba72-4bcadaaac42f,0000,,0
0,e404004d-6c32-4c43-84e5-af42c1b6a7b2,ae3956cf-fb8d-43bc-9a0c-349e455a028f,7,021,0,0,000,35021000022000101,1.0,2079-06-06,Горская,3537,3537,6711879a-1329-4baf-9a64-68579d0e19a3,,19248808001,19648408,1,5143e09c-2656-4d48-89ff-9c2e525586bd,022,350210000220001,161157,,35,ул,1900-01-01,0001,3519,3519,2020-08-16,000,0000,000,0,,0000,,0
0,e404004d-6c32-4c43-84e5-af42c1b6a7b2,6711879a-1329-4baf-9a64-68579d0e19a3,7,021,0,0,000,35021000022000102,2.0,2017-04-25,Горская,3537,3537,cd968550-0b57-4793-bcaf-69c6e2b35618,,19248808001,19648408,20,5143e09c-2656-4d48-89ff-9c2e525586bd,022,350210000220001,161157,ae3956cf-fb8d-43bc-9a0c-349e455a028f,35,ул,2015-01-01,0001,3519,3519,2020-08-16,000,0000,000,0,285a1894-4de5-496c-ad6c-928ce5ab7042,0000,,0
0,e404004d-6c32-4c43-84e5-af42c1b6a7b2,cd968550-0b57-4793-bcaf-69c6e2b35618,7,021,0,0,000,35021000022000100,0.0,2079-06-06,Горская,3537,3537,fd40ac00-feef-4e25-89bf-89913d94003e,,19248808001,19648408301,21,5143e09c-2656-4d48-89ff-9c2e525586bd,022,350210000220001,161157,6711879a-1329-4baf-9a64-68579d0e19a3,35,ул,2017-04-25,0001,3519,3519,2020-08-16,000,0000,000,0,285a1894-4de5-496c-ad6c-928ce5ab7042,0000,,0
1,e404004d-6c32-4c43-84e5-af42c1b6a7b2,fd40ac00-feef-4e25-89bf-89913d94003e,7,021,0,0,000,35021000022000100,0.0,2079-06-06,Горская,3537,3537,,,19248812006,19648408301,21,5143e09c-2656-4d48-89ff-9c2e525586bd,022,350210000220001,161157,cd968550-0b57-4793-bcaf-69c6e2b35618,35,ул,2020-08-12,0001,3519,3519,2020-08-16,000,0000,000,1,,0000,,0
0,91e68bd6-3954-4f14-8982-bbdae701f643,bbdabb00-de68-453c-a949-4967d03d86da,6,022,0,0,000,3502200010301,1.0,2079-06-06,Зимник,3532,3532,57e8587c-bc0c-4db8-b3ee-eddc2a70ce96,,19250812001,19650412,1,b1486739-843b-43fb-b47d-93ddc055e5f6,103,35022000103,162820,,35,д,1900-01-01,0000,3520,3520,2020-08-16,000,0000,000,0,,0000,,0
0,91e68bd6-3954-4f14-8982-bbdae701f643,57e8587c-bc0c-4db8-b3ee-eddc2a70ce96,6,022,0,0,000,3502200010300,0.0,2079-06-06,Зимник,3532,3532,c428cd22-d62a-466b-9fed-bca19bd96b9b,,19250812001,19650412,21,b1486739-843b-43fb-b47d-93ddc055e5f6,103,35022000103,,bbdabb00-de68-453c-a949-4967d03d86da,35,д,2002-12-24,0000,3520,3520,2020-08-16,000,0000,000,0,,0000,,0
0,91e68bd6-3954-4f14-8982-bbdae701f643,c428cd22-d62a-466b-9fed-bca19bd96b9b,6,022,0,0,000,3502200010300,0.0,2079-06-06,Зимник,3532,3532,ba4dde6c-9e0b-44b1-b805-04871ceac824,,19250812001,19650412136,21,b1486739-843b-43fb-b47d-93ddc055e5f6,103,35022000103,,57e8587c-bc0c-4db8-b3ee-eddc2a70ce96,35,д,2020-08-13,0000,3520,3520,2020-08-16,000,0000,000,0,,0000,,0
1,91e68bd6-3954-4f14-8982-bbdae701f643,ba4dde6c-9e0b-44b1-b805-04871ceac824,6,022,0,0,000,3502200010300,0.0,2079-06-06,Зимник,3532,3532,,,19250824006,19650412136,21,b1486739-843b-43fb-b47d-93ddc055e5f6,103,35022000103,,c428cd22-d62a-466b-9fed-bca19bd96b9b,35,д,2020-08-13,0000,3520,3520,2020-08-16,000,0000,000,1,,0000,,0
0,c4178968-2f29-4b79-a88d-74fb053a298c,9f7887a7-ffee-45dd-9722-f9fe295407d1,6,022,0,0,000,3502200021701,1.0,2079-06-06,Дора,3532,3532,b17a05a8-eb47-4e9e-97ec-b1066a4ea4da,,19250848013,19650448,1,b1486739-843b-43fb-b47d-93ddc055e5f6,217,35022000217,162840,,35,д,1900-01-01,0000,3520,3520,2020-08-16,000,0000,000,0,,0000,,0
0,c4178968-2f29-4b79-a88d-74fb053a298c,b17a05a8-eb47-4e9e-97ec-b1066a4ea4da,6,022,0,0,000,3502200021702,2.0,2015-11-13,Дора,3532,3532,31c4e036-c987-4dc0-897e-f7e6afc2e707,,19250848013,19650448176,21,b1486739-843b-43fb-b47d-93ddc055e5f6,217,35022000217,162840,9f7887a7-ffee-45dd-9722-f9fe295407d1,35,д,2014-01-05,0000,3520,3520,2020-08-16,000,0000,000,0,,0000,,0
0,c4178968-2f29-4b79-a88d-74fb053a298c,31c4e036-c987-4dc0-897e-f7e6afc2e707,6,022,0,0,000,3502200021700,0.0,2020-08-13,Дора,3532,3532,45d2a474-cc69-4329-8256-5fddfe90db72,,19250848000,19650448,21,b1486739-843b-43fb-b47d-93ddc055e5f6,217,35022000217,162810,b17a05a8-eb47-4e9e-97ec-b1066a4ea4da,35,д,2015-11-13,0000,3520,3520,2020-08-16,000,0000,000,0,,0000,,0
0,c4178968-2f29-4b79-a88d-74fb053a298c,45d2a474-cc69-4329-8256-5fddfe90db72,6,022,0,0,000,3502200021700,0.0,2079-06-06,Дора,3532,3532,9718089e-3509-4637-aef6-1bd7ad6942f4,,19250848000,19650448176,21,b1486739-843b-43fb-b47d-93ddc055e5f6,217,35022000217,162810,31c4e036-c987-4dc0-897e-f7e6afc2e707,35,д,2020-08-13,0000,3520,3520,2020-08-16,000,0000,000,0,,0000,,0
1,c4178968-2f29-4b79-a88d-74fb053a298c,9718089e-3509-4637-aef6-1bd7ad6942f4,6,022,0,0,000,3502200021700,0.0,2079-06-06,Дора,3532,3532,,,19250848013,19650448176,21,b1486739-843b-43fb-b47d-93ddc055e5f6,217,35022000217,162810,45d2a474-cc69-4329-8256-5fddfe90db72,35,д,2020-08-13,0000,3520,3520,2020-08-16,000,0000,000,1,,0000,,0
1,8062fbba-8bb7-44dc-b20e-bbfde1820131,8062fbba-8bb7-44dc-b20e-bbfde1820131,7,001,0,0,000,35001000004000800,0.0,2079-06-06,Александровская,3529,3529,,,19220844001,19620468124,10,de9e95bb-1cd1-4ae2-81ab-1d6fa2dbfdc4,004,350010000040008,160544,,35,ул,2020-08-12,0008,3507,3507,2020-08-16,000,0000,000,1,,0000,,0
0,0ebcf31b-2d6a-4f5a-8d97-466874e40359,565627f0-f528-4d0b-9811-74cfcbf15ae8,6,022,0,0,000,3502200001401,1.0,2079-06-06,Яковлевское,3532,3532,a26e5211-91f0-4893-96c7-9bce23cc74c3,,19250836001,19650448,1,b1486739-843b-43fb-b47d-93ddc055e5f6,014,35022000014,162834,,35,д,1900-01-01,0000,3520,3520,2020-08-16,000,0000,000,0,,0000,,0
0,0ebcf31b-2d6a-4f5a-8d97-466874e40359,a26e5211-91f0-4893-96c7-9bce23cc74c3,6,022,0,0,000,3502200001402,2.0,2015-11-13,Яковлевское,3532,3532,aeb06842-5334-4d6c-b96f-1714257d6130,,19250836001,19650448371,21,b1486739-843b-43fb-b47d-93ddc055e5f6,014,35022000014,162834,565627f0-f528-4d0b-9811-74cfcbf15ae8,35,д,2014-01-05,0000,3520,3520,2020-08-16,000,0000,000,0,,0000,,0
0,0ebcf31b-2d6a-4f5a-8d97-466874e40359,aeb06842-5334-4d6c-b96f-1714257d6130,6,022,0,0,000,3502200001400,0.0,2020-08-13,Яковлевское,3532,3532,89a05949-5102-4762-ad9c-2c44290d90a2,,19250848000,19650448371,21,b1486739-843b-43fb-b47d-93ddc055e5f6,014,35022000014,162834,a26e5211-91f0-4893-96c7-9bce23cc74c3,35,д,2015-11-13,0000,3520,3520,2020-08-16,000,0000,000,0,,0000,,0
1,0ebcf31b-2d6a-4f5a-8d97-466874e40359,89a05949-5102-4762-ad9c-2c44290d90a2,6,022,0,0,000,3502200001400,0.0,2079-06-06,Яковлевское,3532,3532,,,19250836001,19650448371,21,b1486739-843b-43fb-b47d-93ddc055e5f6,014,35022000014,162834,aeb06842-5334-4d6c-b96f-1714257d6130,35,д,2020-08-13,0000,3520,3520,2020-08-16,000,0000,000,1,,0000,,0
0,2454da40-ea27-4220-93dc-9cbbd8770589,c4d67e62-5f1b-4c4e-91f0-eaf8386922d0,6,020,0,0,000,3502000003201,1.0,2020-08-12,Климовская (Калининское МО),3535,3535,1683f0e9-0f4a-4ea7-98a2-e824ccb919f9,,19246820009,19646420,1,90841369-82e7-4bdb-8bb7-9a80c3a45545,032,35020000032,161310,,35,д,1900-01-01,0000,3518,3518,2020-08-16,000,0000,000,0,,0000,,0
0,2454da40-ea27-4220-93dc-9cbbd8770589,1683f0e9-0f4a-4ea7-98a2-e824ccb919f9,6,020,0,0,000,3502000003202,2.0,2020-08-12,Климовская (Калининское МО),3535,3535,ef74eaaf-78cd-4805-a0af-8225353181fa,,19246820009,19646420146,21,90841369-82e7-4bdb-8bb7-9a80c3a45545,032,35020000032,161310,c4d67e62-5f1b-4c4e-91f0-eaf8386922d0,35,д,2014-01-05,0000,3518,3518,2020-08-16,000,0000,000,0,,0000,,0
1,2454da40-ea27-4220-93dc-9cbbd8770589,ef74eaaf-78cd-4805-a0af-8225353181fa,6,020,0,0,000,3502000003200,0.0,2079-06-06,Климовская,3535,3535,,,19246820009,19646420146,20,90841369-82e7-4bdb-8bb7-9a80c3a45545,032,35020000032,161310,1683f0e9-0f4a-4ea7-98a2-e824ccb919f9,35,д,2020-08-12,0000,3518,3518,2020-08-16,000,0000,000,1,,0000,,0
0,b46e53d1-62d2-4253-af8b-ddf9ff96dced,ee3b4ff0-c1dc-443e-8961-8ed7bcdf6116,6,022,0,0,000,3502200015701,1.0,2079-06-06,Антоново,3532,3532,7f456ae5-44e2-4b1d-b232-b75454799256,,19250836003,19650448,1,b1486739-843b-43fb-b47d-93ddc055e5f6,157,35022000157,162834,,35,д,1900-01-01,0000,3520,3520,2020-08-16,000,0000,000,0,,0000,,0
0,b46e53d1-62d2-4253-af8b-ddf9ff96dced,7f456ae5-44e2-4b1d-b232-b75454799256,6,022,0,0,000,3502200015702,2.0,2015-11-13,Антоново,3532,3532,c85f7365-692a-4333-a0b4-5b8b7cd4eab4,,19250836003,19650448116,21,b1486739-843b-43fb-b47d-93ddc055e5f6,157,35022000157,162834,ee3b4ff0-c1dc-443e-8961-8ed7bcdf6116,35,д,2014-01-05,0000,3520,3520,2020-08-16,000,0000,000,0,,0000,,0
0,b46e53d1-62d2-4253-af8b-ddf9ff96dced,c85f7365-692a-4333-a0b4-5b8b7cd4eab4,6,022,0,0,000,3502200015700,0.0,2020-08-13,Антоново,3532,3532,e33c949f-321a-4999-abb9-b40dadecf3b6,,19250848000,19650448116,21,b1486739-843b-43fb-b47d-93ddc055e5f6,157,35022000157,162834,7f456ae5-44e2-4b1d-b232-b75454799256,35,д,2015-11-13,0000,3520,3520,2020-08-16,000,0000,000,0,,0000,,0
1,b46e53d1-62d2-4253-af8b-ddf9ff96dced,e33c949f-321a-4999-abb9-b40dadecf3b6,6,022,0,0,000,3502200015700,0.0,2079-06-06,Антоново,3532,3532,,,19250836003,19650448116,21,b1486739-843b-43fb-b47d-93ddc055e5f6,157,35022000157,162834,c85f7365-692a-4333-a0b4-5b8b7cd4eab4,35,д,2020-08-13,0000,3520,3520,2020-08-16,000,0000,000,1,,0000,,0
0,6ce2838a-7be7-4f9e-bf4d-851c40fe2e45,f8373c05-14c1-4d56-8ec1-67496371a5cb,6,022,0,0,000,3502200010901,1.0,1990-01-01,Староречье,3532,3532,148c5314-a289-47ac-9be1-779484fb4c1b,,19250812001,19650412,1,b1486739-843b-43fb-b47d-93ddc055e5f6,109,35022000109,162820,,35,д,1900-01-01,0000,3520,3520,2020-08-16,000,0000,000,0,,0000,,0
0,6ce2838a-7be7-4f9e-bf4d-851c40fe2e45,148c5314-a289-47ac-9be1-779484fb4c1b,6,022,0,0,000,3502200010902,2.0,1990-01-01,Староречье,3532,3532,f9ac7b16-8a0c-4e09-97e7-3c19ba4e07d9,,19250812001,19650412,20,b1486739-843b-43fb-b47d-93ddc055e5f6,109,35022000109,162820,f8373c05-14c1-4d56-8ec1-67496371a5cb,35,д,1900-01-01,0000,3520,3520,2020-08-16,000,0000,000,0,,0000,,0
0,6ce2838a-7be7-4f9e-bf4d-851c40fe2e45,f9ac7b16-8a0c-4e09-97e7-3c19ba4e07d9,6,022,0,0,000,3502200010903,3.0,2079-06-06,Староречье,3532,3532,7902b9f0-e7b5-40fd-8ffa-2f522084af1f,,19250812001,19650412,20,b1486739-843b-43fb-b47d-93ddc055e5f6,109,35022000109,,148c5314-a289-47ac-9be1-779484fb4c1b,35,п,1990-01-01,0000,3520,3520,2020-08-16,000,0000,000,0,,0000,,0
0,6ce2838a-7be7-4f9e-bf4d-851c40fe2e45,7902b9f0-e7b5-40fd-8ffa-2f522084af1f,6,022,0,0,000,3502200010904,4.0,2019-08-08,Староречье,3532,3532,6b8aba92-44d5-4663-a0a9-1f92bb6206fd,,19250812001,19650412,21,b1486739-843b-43fb-b47d-93ddc055e5f6,109,35022000109,162822,f9ac7b16-8a0c-4e09-97e7-3c19ba4e07d9,35,п,2019-08-07,0000,3520,3520,2020-08-16,000,0000,000,0,b7c5d675-98d4-4fba-8a9d-f6265dd1be8d,0000,,0
0,6ce2838a-7be7-4f9e-bf4d-851c40fe2e45,6b8aba92-44d5-4663-a0a9-1f92bb6206fd,6,022,0,0,000,3502200010900,0.0,2079-06-06,Староречье,3532,3532,89407c31-e864-471f-a921-dd4a329796c4,,19250812001,19650412186,21,b1486739-843b-43fb-b47d-93ddc055e5f6,109,35022000109,,7902b9f0-e7b5-40fd-8ffa-2f522084af1f,35,п,2019-08-08,0000,3520,3520,2020-08-16,000,0000,000,0,c4aac824-ee3e-49b1-ad5f-eb966e265e38,0000,,0
1,6ce2838a-7be7-4f9e-bf4d-851c40fe2e45,89407c31-e864-471f-a921-dd4a329796c4,6,022,0,0,000,3502200010900,0.0,2079-06-06,Староречье,3532,3532,,,19250824015,19650412186,21,b1486739-843b-43fb-b47d-93ddc055e5f6,109,35022000109,,6b8aba92-44d5-4663-a0a9-1f92bb6206fd,35,п,2020-08-13,0000,3520,3520,2020-08-16,000,0000,000,1,,0000,,0
0,a1291957-ceec-4061-9b58-567978483d83,a1291957-ceec-4061-9b58-567978483d83,7,018,0,0,000,35018000001008399,99.0,2020-08-17,Сельская,3535,3535,4daeece7-9d2b-4f4b-beae-d546178a91a5,,19240828001,19640428101,10,cee5afbc-a5b6-4235-a9ea-236a624fb671,001,350180000010083,162220,,35,ул,2017-08-15,0083,3516,3516,2020-08-17,000,0000,000,0,a5b5e395-5caa-47c5-8a7b-d8563daafb36,0000,,0
1,a1291957-ceec-4061-9b58-567978483d83,4daeece7-9d2b-4f4b-beae-d546178a91a5,7,018,0,0,000,35018000001008399,99.0,2079-06-06,Сельская,3535,3535,,,19240828001,19640428101,30,cee5afbc-a5b6-4235-a9ea-236a624fb671,001,350180000010083,162220,a1291957-ceec-4061-9b58-567978483d83,35,ул,2020-08-17,0083,3516,3516,2020-08-17,000,0000,000,0,,0000,,0
0,927772cb-5ac9-4cbd-be78-de87ac76a98c,1815d3a0-ecd3-45ae-a50f-e8660f0094c4,7,018,0,0,000,35018000001007601,1.0,1900-01-01,Василькова,3535,3535,d3254977-1ee3-48cb-846d-20605ce866c8,,19240828001,19640428,1,cee5afbc-a5b6-4235-a9ea-236a624fb671,001,350180000010076,162220,,35,ул,1900-01-01,0076,3516,3516,2020-08-17,000,0000,000,0,,0000,,0
0,927772cb-5ac9-4cbd-be78-de87ac76a98c,d3254977-1ee3-48cb-846d-20605ce866c8,7,018,0,0,000,35018000001007602,2.0,2020-08-17,Васильковая,3535,3535,27ce2d66-f765-4b87-9c48-8252841de86c,,19240828001,19640428,20,cee5afbc-a5b6-4235-a9ea-236a624fb671,001,350180000010076,162220,1815d3a0-ecd3-45ae-a50f-e8660f0094c4,35,ул,1900-01-01,0076,3516,3516,2020-08-17,000,0000,000,0,,0000,,0
0,927772cb-5ac9-4cbd-be78-de87ac76a98c,27ce2d66-f765-4b87-9c48-8252841de86c,7,018,0,0,000,35018000001007699,99.0,2020-08-17,Васильковая,3535,3535,d17d72e3-6ffc-4564-974e-48202fc8e0de,,19240828001,19640428101,21,cee5afbc-a5b6-4235-a9ea-236a624fb671,001,350180000010076,162220,d3254977-1ee3-48cb-846d-20605ce866c8,35,ул,2017-01-30,0076,3516,3516,2020-08-17,000,0000,000,0,,0000,,0
1,927772cb-5ac9-4cbd-be78-de87ac76a98c,d17d72e3-6ffc-4564-974e-48202fc8e0de,7,018,0,0,000,35018000001007699,99.0,2079-06-06,Васильковая,3535,3535,,,19240828001,19640428101,30,cee5afbc-a5b6-4235-a9ea-236a624fb671,001,350180000010076,162220,27ce2d66-f765-4b87-9c48-8252841de86c,35,ул,2020-08-17,0076,3516,3516,2020-08-17,000,0000,000,0,,0000,,0
1,0d513e9d-84c9-414d-8e9e-62836f29ad2f,0d513e9d-84c9-414d-8e9e-62836f29ad2f,7,009,0,0,000,35009000340000400,0.0,2079-06-06,Сосновая,3533,3533,,,19222824007,19622444113,10,48e305b9-9622-4c86-b0fb-d13d94cfd6fa,340,350090003400004,,,35,ул,2020-08-19,0004,3508,3508,2020-08-20,000,0000,000,1,,0000,,0
1,f876db2f-a33d-4f57-b2b8-8e1c8a48c410,f876db2f-a33d-4f57-b2b8-8e1c8a48c410,7,009,0,0,000,35009000340000200,0.0,2079-06-06,Лесная,3533,3533,,,19222824007,19622444113,10,48e305b9-9622-4c86-b0fb-d13d94cfd6fa,340,350090003400002,,,35,ул,2020-08-18,0002,3508,3508,2020-08-20,000,0000,000,1,,0000,,0
1,6352e1b8-eb2e-4160-8c17-502685e5ead3,6352e1b8-eb2e-4160-8c17-502685e5ead3,7,009,0,0,000,35009000340000100,0.0,2079-06-06,Дачная,3533,3533,,,19222824007,19622444113,10,48e305b9-9622-4c86-b0fb-d13d94cfd6fa,340,350090003400001,,,35,ул,2020-08-18,0001,3508,3508,2020-08-20,000,0000,000,1,,0000,,0
1,cdef57cd-c044-48da-af08-2b6521b81783,cdef57cd-c044-48da-af08-2b6521b81783,7,009,0,0,000,35009000340000500,0.0,2079-06-06,Зелёный,3533,3533,,,19222824007,19622444113,10,48e305b9-9622-4c86-b0fb-d13d94cfd6fa,340,350090003400005,,,35,пер,2020-08-19,0005,3508,3508,2020-08-20,000,0000,000,1,,0000,,0
1,73336503-d4ee-4917-a99c-43b48cda8bca,73336503-d4ee-4917-a99c-43b48cda8bca,7,009,0,0,000,35009000340000300,0.0,2079-06-06,Онежская,3533,3533,,,19222824007,19622444113,10,48e305b9-9622-4c86-b0fb-d13d94cfd6fa,340,350090003400003,,,35,ул,2020-08-19,0003,3508,3508,2020-08-20,000,0000,000,1,,0000,,0
0,0aec9401-1c16-4e65-a511-e58983d2c0f9,91ffeeef-3d95-4885-930f-ad65b850d54e,6,003,0,0,000,3500300001001,1.0,2079-06-06,Логдуз,3535,3535,7e6a6f55-2b17-42eb-a412-a8d1d3a36694,,19208836001,19608436,1,0a06561d-77b8-4a4d-90ee-46f933b425a4,010,35003000010,161358,,35,д,1900-01-01,0000,3502,3502,2020-08-22,000,0000,000,0,,0000,,0
0,0aec9401-1c16-4e65-a511-e58983d2c0f9,7e6a6f55-2b17-42eb-a412-a8d1d3a36694,6,003,0,0,000,3500300001000,0.0,2079-06-06,Логдуз,3535,3535,6e86840e-85a7-46c0-925f-3287b6cbbefc,,19208836001,19608448148,21,0a06561d-77b8-4a4d-90ee-46f933b425a4,010,35003000010,,91ffeeef-3d95-4885-930f-ad65b850d54e,35,д,2016-10-03,0000,3502,3502,2020-08-22,000,0000,000,0,,0000,,0
1,0aec9401-1c16-4e65-a511-e58983d2c0f9,6e86840e-85a7-46c0-925f-3287b6cbbefc,6,003,0,0,000,3500300001000,0.0,2079-06-06,Логдуз,3535,3535,,,19208836001,19608448148,21,0a06561d-77b8-4a4d-90ee-46f933b425a4,010,35003000010,161358,7e6a6f55-2b17-42eb-a412-a8d1d3a36694,35,д,2020-08-20,0000,3502,3502,2020-08-22,000,0000,000,1,,0000,,0
0,536fd9e9-e3f7-4c63-8eef-1b2a4b3106ff,536fd9e9-e3f7-4c63-8eef-1b2a4b3106ff,65,010,0,0,000,35010000000000551,51.0,2079-06-06,загородный оздоровительный лагерь Единство,3529,3529,0ccf88e2-e5bc-4a99-861f-9194784211fa,,19224828000,19624428,10,dacbb832-9ce6-4c42-8ed5-1558b3c8c46e,000,350100000000005,,,35,тер.,2018-05-11,0000,3509,3509,2020-08-27,000,0000,000,0,0ef43681-be0f-40a2-b694-b82672dce071,0005,,0
0,536fd9e9-e3f7-4c63-8eef-1b2a4b3106ff,0ccf88e2-e5bc-4a99-861f-9194784211fa,65,010,0,0,000,35010000528000100,0.0,2079-06-06,загородный оздоровительный лагерь Единство,3529,3529,e08c298b-943c-4c73-a98f-406765514dad,,19224828000,19624428,50,66054a41-53be-42cf-83f6-8cce5925e767,528,350100005280001,162030,536fd9e9-e3f7-4c63-8eef-1b2a4b3106ff,35,тер.,2019-08-30,0000,3509,3509,2020-08-27,000,0000,000,0,e40919b1-6302-4f15-8b6a-b396cb1b668b,0001,,0
0,536fd9e9-e3f7-4c63-8eef-1b2a4b3106ff,e08c298b-943c-4c73-a98f-406765514dad,65,010,0,0,000,35010000528000100,0.0,2079-06-06,загородный оздоровительный лагерь Единство,3529,3529,b6336245-5358-4c29-a5a2-aefcaedcec55,,19224828000,19624428441,21,66054a41-53be-42cf-83f6-8cce5925e767,528,350100005280001,162030,0ccf88e2-e5bc-4a99-861f-9194784211fa,35,тер.,2020-08-03,0000,3509,3509,2020-08-27,000,0000,000,0,,0001,,0
1,536fd9e9-e3f7-4c63-8eef-1b2a4b3106ff,b6336245-5358-4c29-a5a2-aefcaedcec55,65,010,0,0,000,35010000528000100,0.0,2079-06-06,загородный оздоровительный лагерь Единство,3529,3529,,,19224828024,19624428441,21,66054a41-53be-42cf-83f6-8cce5925e767,528,350100005280001,162030,e08c298b-943c-4c73-a98f-406765514dad,35,тер.,2020-08-26,0000,3509,3509,2020-08-27,000,0000,000,1,,0001,,0
0,c132ceb5-6e9f-4d40-8b11-2b400744bd32,ff24046d-2d92-4de4-9290-02fbfbf3577a,6,010,0,0,000,3501000054099,99.0,2020-08-24,Прудовица,3529,3529,63f9397f-a7d7-45c6-bff0-a79d2f9745d6,,19224000000,19624160253,1,dacbb832-9ce6-4c42-8ed5-1558b3c8c46e,540,35010000540,162042,,35,д,1900-01-01,0000,3509,3509,2020-08-27,000,0000,000,0,,0000,,0
1,c132ceb5-6e9f-4d40-8b11-2b400744bd32,63f9397f-a7d7-45c6-bff0-a79d2f9745d6,6,010,0,0,000,3501000054099,99.0,2079-06-06,Прудовица,3529,3529,,,19224000000,19624160253,30,dacbb832-9ce6-4c42-8ed5-1558b3c8c46e,540,35010000540,162042,ff24046d-2d92-4de4-9290-02fbfbf3577a,35,д,2020-08-24,0000,3509,3509,2020-08-27,000,0000,000,0,,0000,,0
