ACTSTATUS,AOGUID,AOID,AOLEVEL,AREACODE,AUTOCODE,CENTSTATUS,CITYCODE,CODE,CURRSTATUS,ENDDATE,FORMALNAME,IFNSFL,IFNSUL,NEXTID,OFFNAME,OKATO,OKTMO,OPERSTATUS,PARENTGUID,PLACECODE,PLAINCODE,POSTALCODE,PREVID,REGIONCODE,SHORTNAME,STARTDATE,STREETCODE,TERRIFNSFL,TERRIFNSUL,UPDATEDATE,CTARCODE,EXTRCODE,SEXTCODE,LIVESTATUS,NORMDOC,PLANCODE,CADNUM,DIVTYPE
0,9a678430-fe15-46bb-8de1-a35c73022b9c,0c502c41-2cb3-470f-9405-803d086f5cad,7,001,0,0,000,38001000437004001,1.0,2079-06-06,Светлая,3827,3827,0c87452e-7d22-4b81-a139-53cacd9f041b,,25212000046,25612440,51,546e7d36-71bd-488c-8c36-b8fa346e6d37,437,380010004370040,664038,9a678430-fe15-46bb-8de1-a35c73022b9c,38,ул,2016-09-29,0040,,,2020-08-30,000,0000,000,0,,0002,,0
0,9a678430-fe15-46bb-8de1-a35c73022b9c,9a678430-fe15-46bb-8de1-a35c73022b9c,91,001,0,0,000,,,2016-09-29,Светлая,3827,3827,0c502c41-2cb3-470f-9405-803d086f5cad,,25212000046,25612440,10,546e7d36-71bd-488c-8c36-b8fa346e6d37,437,,664038,,38,ул,2015-12-28,0000,,,2020-08-30,000,0000,000,0,85058e29-d5c7-4d27-b577-734480a19fc9,0000,,0
0,9a678430-fe15-46bb-8de1-a35c73022b9c,0c87452e-7d22-4b81-a139-53cacd9f041b,7,001,0,0,000,38001000437004051,51.0,2020-08-28,Светлая,3827,3827,43a46aef-f2b9-4367-9bb6-39a6a8003851,,25212000046,25612440101,20,546e7d36-71bd-488c-8c36-b8fa346e6d37,000,380010004370040,664038,0c502c41-2cb3-470f-9405-803d086f5cad,38,ул,2018-04-12,1732,,,2020-08-30,000,0000,000,0,4afb5e84-701d-4bad-9b70-6e8af7df35b1,1716,,0
0,9a678430-fe15-46bb-8de1-a35c73022b9c,43a46aef-f2b9-4367-9bb6-39a6a8003851,7,001,0,0,000,38001000000173200,0.0,2079-06-06,Светлая,3827,3827,d95ea797-61fa-4878-863a-0046404b61e7,,25212000046,25612440101,51,546e7d36-71bd-488c-8c36-b8fa346e6d37,000,380010000001732,664038,0c87452e-7d22-4b81-a139-53cacd9f041b,38,ул,2018-12-20,1732,,,2020-08-30,000,0000,000,0,81eaaf4d-f5fa-4c3e-974a-4b317a516be6,1716,,0
1,9a678430-fe15-46bb-8de1-a35c73022b9c,d95ea797-61fa-4878-863a-0046404b61e7,7,001,0,0,000,38001000000173200,0.0,2079-06-06,Светлая,3827,3827,,,25212000046,25612440,21,546e7d36-71bd-488c-8c36-b8fa346e6d37,000,380010000001732,664038,43a46aef-f2b9-4367-9bb6-39a6a8003851,38,ул,2020-08-28,1732,,,2020-08-30,000,0000,000,1,,1716,,0
0,b250ec29-9bd2-4088-8a7d-b35a35d98885,980d145d-10d2-478f-bb1c-9aaf5b037269,7,129,0,0,000,38129000014001901,1.0,2020-08-27,Гулун-Тумуркая,3849,3849,597dc3e5-20ef-4f30-9111-e859dacb3ad3,,25125932001,25825432,1,5838f9fd-83f5-457b-93c9-e2f4977fdb2c,014,381290000140019,669130,,38,ул,1900-01-01,0019,3845,3845,2020-08-30,000,0000,000,0,,0000,,0
0,b250ec29-9bd2-4088-8a7d-b35a35d98885,597dc3e5-20ef-4f30-9111-e859dacb3ad3,7,129,0,0,000,38129000014001902,2.0,2013-07-19,Гулун-Тумуркая,3849,3849,6522214e-70b3-49a6-98b6-1bd759139a6b,,25125932001,25825432,20,5838f9fd-83f5-457b-93c9-e2f4977fdb2c,014,381290000140019,669130,980d145d-10d2-478f-bb1c-9aaf5b037269,38,ул,2008-11-10,0019,3845,3845,2020-08-30,000,0000,000,0,ebadd84c-a210-48ec-9d0b-8eb1bb85f4df,0000,,0
0,b250ec29-9bd2-4088-8a7d-b35a35d98885,6522214e-70b3-49a6-98b6-1bd759139a6b,7,129,0,0,000,38129000014001903,3.0,2014-02-14,Гулун-Тумуркая,3849,3849,80fa5d12-d8a4-48fe-bb78-13b63df68259,,25125932001,25825432,21,5838f9fd-83f5-457b-93c9-e2f4977fdb2c,014,381290000140019,669130,597dc3e5-20ef-4f30-9111-e859dacb3ad3,38,ул,2013-07-19,0019,,,2020-08-30,000,0000,000,0,ebadd84c-a210-48ec-9d0b-8eb1bb85f4df,0000,,0
0,b250ec29-9bd2-4088-8a7d-b35a35d98885,80fa5d12-d8a4-48fe-bb78-13b63df68259,7,129,0,0,000,38129000014001904,4.0,2015-10-19,Гулун-Тумуркая,3849,3849,4aeca10e-75db-456d-975d-39b172ba17a0,,25125932001,25607432101,21,5838f9fd-83f5-457b-93c9-e2f4977fdb2c,014,381290000140019,669130,6522214e-70b3-49a6-98b6-1bd759139a6b,38,ул,2014-02-14,0019,,,2020-08-30,000,0000,000,0,ebadd84c-a210-48ec-9d0b-8eb1bb85f4df,0000,,0
0,b250ec29-9bd2-4088-8a7d-b35a35d98885,4aeca10e-75db-456d-975d-39b172ba17a0,7,129,0,0,000,38129000014001905,5.0,2020-08-27,Гулун-Тумуркая,3849,3849,69acf450-bf29-4009-95a1-67deaa6d7193,,25207000028,25607432101,21,5838f9fd-83f5-457b-93c9-e2f4977fdb2c,014,381290000140019,669130,80fa5d12-d8a4-48fe-bb78-13b63df68259,38,ул,2015-10-19,0019,,,2020-08-30,000,0000,000,0,,0000,,0
1,b250ec29-9bd2-4088-8a7d-b35a35d98885,69acf450-bf29-4009-95a1-67deaa6d7193,7,129,0,0,000,38129000014001900,0.0,2079-06-06,Гулун-Тумурская,3849,3849,,,25207000028,25607432101,20,5838f9fd-83f5-457b-93c9-e2f4977fdb2c,014,381290000140019,669130,4aeca10e-75db-456d-975d-39b172ba17a0,38,ул,2020-08-27,0019,,,2020-08-30,000,0000,000,1,,0000,,0
0,5d122450-5162-453a-a4e6-c030ae49e2e7,5d122450-5162-453a-a4e6-c030ae49e2e7,91,001,0,0,000,,,2016-09-28,Кедровая,3827,3827,a752805b-de4b-4929-aa1e-0c25be872a4d,,25212000000,25612440,10,a7b49534-9095-4acd-94dd-15166e8915c9,437,,664038,,38,ул,2015-12-28,0000,,,2020-08-30,000,0000,000,0,79424fd3-9323-44d3-9572-c16d9eac32b7,0000,,0
0,5d122450-5162-453a-a4e6-c030ae49e2e7,a752805b-de4b-4929-aa1e-0c25be872a4d,7,001,0,0,000,38001000437002401,1.0,2079-06-06,Кедровая,3827,3827,b51010b9-6490-47a6-9980-205950c3595a,,25212000000,25612440,51,a7b49534-9095-4acd-94dd-15166e8915c9,437,380010004370024,664038,5d122450-5162-453a-a4e6-c030ae49e2e7,38,ул,2016-09-28,0024,,,2020-08-30,000,0000,000,0,,0003,,0
0,5d122450-5162-453a-a4e6-c030ae49e2e7,b51010b9-6490-47a6-9980-205950c3595a,7,001,0,0,000,38001000437002451,51.0,2020-08-28,Кедровая,3827,3827,0548c6e4-1763-4f86-a35f-9106bd69df50,,25212000000,25612440101,20,a7b49534-9095-4acd-94dd-15166e8915c9,000,380010004370024,664038,a752805b-de4b-4929-aa1e-0c25be872a4d,38,ул,2018-04-12,1714,,,2020-08-30,000,0000,000,0,4afb5e84-701d-4bad-9b70-6e8af7df35b1,1712,,0
0,5d122450-5162-453a-a4e6-c030ae49e2e7,0548c6e4-1763-4f86-a35f-9106bd69df50,7,001,0,0,000,38001000000171400,0.0,2079-06-06,Кедровая,3827,3827,b250e3bc-5fdf-4f20-9bdb-9a2ee5a3036b,,25212000000,25612440101,51,a7b49534-9095-4acd-94dd-15166e8915c9,000,380010000001714,664038,b51010b9-6490-47a6-9980-205950c3595a,38,ул,2018-12-20,1714,,,2020-08-30,000,0000,000,0,81eaaf4d-f5fa-4c3e-974a-4b317a516be6,1712,,0
0,5d122450-5162-453a-a4e6-c030ae49e2e7,b250e3bc-5fdf-4f20-9bdb-9a2ee5a3036b,7,001,0,0,000,38001000000171400,0.0,2079-06-06,Кедровая,3827,3827,d3344e75-c042-4701-8236-7e122190269d,,25212000046,25612440101,21,a7b49534-9095-4acd-94dd-15166e8915c9,000,380010000001714,664038,0548c6e4-1763-4f86-a35f-9106bd69df50,38,ул,2020-08-19,1714,,,2020-08-30,000,0000,000,0,,1712,,0
1,5d122450-5162-453a-a4e6-c030ae49e2e7,d3344e75-c042-4701-8236-7e122190269d,7,001,0,0,000,38001000000171400,0.0,2079-06-06,Кедровая,3827,3827,,,25212000046,25612440,21,a7b49534-9095-4acd-94dd-15166e8915c9,000,380010000001714,664038,b250e3bc-5fdf-4f20-9bdb-9a2ee5a3036b,38,ул,2020-08-28,1714,,,2020-08-30,000,0000,000,1,,1712,,0
0,99927e56-4d44-4f8b-9539-84021daa4490,99927e56-4d44-4f8b-9539-84021daa4490,91,001,0,0,000,,,2016-09-29,Ангарская,3827,3827,d86c1713-fd63-4a2c-879c-8b2c8ec41ed6,,25212000046,25612440,10,546e7d36-71bd-488c-8c36-b8fa346e6d37,437,,664038,,38,ул,2015-12-28,0000,,,2020-08-30,000,0000,000,0,6fbf0cb0-8c28-41aa-957d-73b690221ad2,0000,,0
0,99927e56-4d44-4f8b-9539-84021daa4490,d86c1713-fd63-4a2c-879c-8b2c8ec41ed6,7,001,0,0,000,38001000437002701,1.0,2079-06-06,Ангарская,3827,3827,dc020ff7-d1cd-479b-8e87-f59afea2d45c,,25212000046,25612440,51,546e7d36-71bd-488c-8c36-b8fa346e6d37,437,380010004370027,664521,99927e56-4d44-4f8b-9539-84021daa4490,38,ул,2016-09-29,0027,,,2020-08-30,000,0000,000,0,,0002,,0
0,99927e56-4d44-4f8b-9539-84021daa4490,dc020ff7-d1cd-479b-8e87-f59afea2d45c,7,001,0,0,000,38001000437002751,51.0,2020-08-28,Ангарская,3827,3827,0e02676c-4eb0-444f-8cbc-b7d6b5895bf2,,25212000046,25612440101,20,546e7d36-71bd-488c-8c36-b8fa346e6d37,000,380010004370027,,d86c1713-fd63-4a2c-879c-8b2c8ec41ed6,38,ул,2018-04-12,1721,,,2020-08-30,000,0000,000,0,4afb5e84-701d-4bad-9b70-6e8af7df35b1,1716,,0
0,99927e56-4d44-4f8b-9539-84021daa4490,0e02676c-4eb0-444f-8cbc-b7d6b5895bf2,7,001,0,0,000,38001000000172100,0.0,2079-06-06,Ангарская,3827,3827,8b63296b-d0ec-4eb9-a181-f1ba6d6d3ad3,,25212000046,25612440101,51,546e7d36-71bd-488c-8c36-b8fa346e6d37,000,380010000001721,,dc020ff7-d1cd-479b-8e87-f59afea2d45c,38,ул,2018-12-20,1721,,,2020-08-30,000,0000,000,0,81eaaf4d-f5fa-4c3e-974a-4b317a516be6,1716,,0
0,99927e56-4d44-4f8b-9539-84021daa4490,8b63296b-d0ec-4eb9-a181-f1ba6d6d3ad3,7,001,0,0,000,38001000000172100,0.0,2079-06-06,Ангарская,3827,3827,bf937ae3-c8f7-491a-9abc-0bb99dc1449a,,25212000046,25612440101,21,546e7d36-71bd-488c-8c36-b8fa346e6d37,000,380010000001721,,0e02676c-4eb0-444f-8cbc-b7d6b5895bf2,38,ул,2020-08-20,1721,,,2020-08-30,000,0000,000,0,,1716,,0
1,99927e56-4d44-4f8b-9539-84021daa4490,bf937ae3-c8f7-491a-9abc-0bb99dc1449a,7,001,0,0,000,38001000000172100,0.0,2079-06-06,Ангарская,3827,3827,,,25212000046,25612440,21,546e7d36-71bd-488c-8c36-b8fa346e6d37,000,380010000001721,,8b63296b-d0ec-4eb9-a181-f1ba6d6d3ad3,38,ул,2020-08-28,1721,,,2020-08-30,000,0000,000,1,,1716,,0
0,baad96d6-9013-400d-83d5-f11f57b1ddb1,baad96d6-9013-400d-83d5-f11f57b1ddb1,91,001,0,0,000,,,2016-09-28,Цветочная,3827,3827,2e71fd56-24a3-4a45-80f2-58ea33b70148,,25212000046,25612440,10,df4b8976-7eda-4a88-864d-6208f9fef403,437,,664038,,38,ул,2015-12-02,0000,,,2020-08-30,000,0000,000,0,417eea46-c1c5-4b1f-be40-c899b525df1c,0000,,0
0,baad96d6-9013-400d-83d5-f11f57b1ddb1,2e71fd56-24a3-4a45-80f2-58ea33b70148,7,001,0,0,000,38001000437002101,1.0,2079-06-06,Цветочная,3827,3827,0fb8573a-6cb0-41a2-9264-cd5ef4a8b1d9,,25212000000,25612440,51,df4b8976-7eda-4a88-864d-6208f9fef403,437,380010004370021,664038,baad96d6-9013-400d-83d5-f11f57b1ddb1,38,ул,2016-09-28,0021,,,2020-08-30,000,0000,000,0,,0005,,0
0,baad96d6-9013-400d-83d5-f11f57b1ddb1,0fb8573a-6cb0-41a2-9264-cd5ef4a8b1d9,7,001,0,0,000,38001000437002151,51.0,2020-08-28,Цветочная,3827,3827,f2af2862-b089-475c-a95c-45f2db5a6860,,25212000000,25612440101,20,df4b8976-7eda-4a88-864d-6208f9fef403,000,380010004370021,664038,2e71fd56-24a3-4a45-80f2-58ea33b70148,38,ул,2018-04-12,1748,,,2020-08-30,000,0000,000,0,4afb5e84-701d-4bad-9b70-6e8af7df35b1,1739,,0
0,baad96d6-9013-400d-83d5-f11f57b1ddb1,f2af2862-b089-475c-a95c-45f2db5a6860,7,001,0,0,000,38001000000174802,2.0,2019-03-25,Цветочная,3827,3827,e9125dc5-6062-4fda-8583-6e68c82dd037,,25212000000,25612440101,51,df4b8976-7eda-4a88-864d-6208f9fef403,000,380010000001748,664038,0fb8573a-6cb0-41a2-9264-cd5ef4a8b1d9,38,ул,2018-12-20,1748,,,2020-08-30,000,0000,000,0,81eaaf4d-f5fa-4c3e-974a-4b317a516be6,1739,,0
0,baad96d6-9013-400d-83d5-f11f57b1ddb1,e9125dc5-6062-4fda-8583-6e68c82dd037,7,001,0,0,000,38001000000174800,0.0,2079-06-06,Цветочная,3827,3827,7d6070e4-24c5-4a05-bc35-69a64e5e0658,,25212000000,25612440101,20,df4b8976-7eda-4a88-864d-6208f9fef403,000,380010000001748,664038,f2af2862-b089-475c-a95c-45f2db5a6860,38,ул,2019-03-25,1748,,,2020-08-30,000,0000,000,0,89dafa91-70cf-47a7-9706-83960e08a0bb,1739,,0
0,baad96d6-9013-400d-83d5-f11f57b1ddb1,7d6070e4-24c5-4a05-bc35-69a64e5e0658,7,001,0,0,000,38001000000174800,0.0,2079-06-06,Цветочная,3827,3827,7dbe8e9e-4729-4a27-b7a7-5eff18de3e4f,,25212000046,25612440101,21,df4b8976-7eda-4a88-864d-6208f9fef403,000,380010000001748,664038,e9125dc5-6062-4fda-8583-6e68c82dd037,38,ул,2020-08-19,1748,,,2020-08-30,000,0000,000,0,,1739,,0
1,baad96d6-9013-400d-83d5-f11f57b1ddb1,7dbe8e9e-4729-4a27-b7a7-5eff18de3e4f,7,001,0,0,000,38001000000174800,0.0,2079-06-06,Цветочная,3827,3827,,,25212000046,25612440,21,df4b8976-7eda-4a88-864d-6208f9fef403,000,380010000001748,664038,7d6070e4-24c5-4a05-bc35-69a64e5e0658,38,ул,2020-08-28,1748,,,2020-08-30,000,0000,000,1,,1739,,0
0,a7b49534-9095-4acd-94dd-15166e8915c9,a7b49534-9095-4acd-94dd-15166e8915c9,90,001,0,0,000,38001000437000301,1.0,2016-09-28,Родник,3827,3827,2765c3ee-c57e-4db9-9437-7efabf0b5c79,,25212812000,25612440,10,0085e4fc-7982-44b3-a303-390afa70ca48,437,380010004370003,664511,,38,снт,2015-07-08,0000,,,2020-08-30,000,0000,000,0,ea499e9d-20fe-42b3-af98-41d769d12f9a,0000,,0
0,a7b49534-9095-4acd-94dd-15166e8915c9,2765c3ee-c57e-4db9-9437-7efabf0b5c79,90,001,0,0,000,38001000437000302,2.0,2016-09-28,Родник,3827,3827,a35dcf5d-dcf9-4ff0-a9b3-d39810665d49,,25212000046,25612440,20,08f4c119-098d-4098-a700-6caa9d027bb5,000,380010004370003,664038,a7b49534-9095-4acd-94dd-15166e8915c9,38,снт,2015-11-17,0000,,,2020-08-30,000,0000,000,0,974209df-349c-4dbf-945e-f504e49d2796,1712,,0
0,a7b49534-9095-4acd-94dd-15166e8915c9,a35dcf5d-dcf9-4ff0-a9b3-d39810665d49,90,001,0,0,000,38001000437000303,3.0,2016-03-16,Родник,3827,3827,27170586-46f4-44ae-abb1-7289836b23dc,,25212000000,25612440,20,08f4c119-098d-4098-a700-6caa9d027bb5,000,380010004370003,664038,2765c3ee-c57e-4db9-9437-7efabf0b5c79,38,снт,2015-12-02,0000,,,2020-08-30,000,0000,000,0,3c539bc4-3a7b-4efd-8d58-d130f77febe9,1712,,0
0,a7b49534-9095-4acd-94dd-15166e8915c9,27170586-46f4-44ae-abb1-7289836b23dc,90,001,0,0,000,38001000437000351,51.0,2016-09-28,Родник,3827,3827,97790c36-9fb0-4095-98a9-c28af105d820,,25212000046,25612440101,20,08f4c119-098d-4098-a700-6caa9d027bb5,000,380010004370003,664038,a35dcf5d-dcf9-4ff0-a9b3-d39810665d49,38,снт,2016-03-16,0000,,,2020-08-30,000,0000,000,0,83b77bd2-5ed8-4728-8856-eb0553c59086,1712,,0
0,a7b49534-9095-4acd-94dd-15166e8915c9,97790c36-9fb0-4095-98a9-c28af105d820,65,001,0,0,000,38001000437000304,4.0,2018-09-04,Родник,3827,3827,928d9f0d-3b5e-4c8b-88ed-36503e9ec2b8,,25212000000,25612440,50,0085e4fc-7982-44b3-a303-390afa70ca48,437,380010004370003,,27170586-46f4-44ae-abb1-7289836b23dc,38,снт,2016-09-28,0000,,,2020-08-30,000,0000,000,0,,0003,,0
0,a7b49534-9095-4acd-94dd-15166e8915c9,928d9f0d-3b5e-4c8b-88ed-36503e9ec2b8,65,001,0,0,000,38001000437000305,5.0,2020-08-28,Родник,3827,3827,5e6ee302-0281-4bf5-a34a-cdd3eff60d03,,25212000000,25612440101,20,08f4c119-098d-4098-a700-6caa9d027bb5,000,380010004370003,,97790c36-9fb0-4095-98a9-c28af105d820,38,снт,2018-04-12,0000,,,2020-08-30,000,0000,000,0,4afb5e84-701d-4bad-9b70-6e8af7df35b1,1712,,0
0,a7b49534-9095-4acd-94dd-15166e8915c9,5e6ee302-0281-4bf5-a34a-cdd3eff60d03,65,001,0,0,000,38001000437000351,51.0,2079-06-06,Родник,3827,3827,0a9b833f-9099-4a1c-a280-3d9a76eaf8be,,25212000000,25612440101,20,08f4c119-098d-4098-a700-6caa9d027bb5,000,380010004370003,,928d9f0d-3b5e-4c8b-88ed-36503e9ec2b8,38,тер. СНТ,2018-09-04,0000,,,2020-08-30,000,0000,000,0,30540a51-1bd7-4682-acc4-848705db2171,1712,,0
0,a7b49534-9095-4acd-94dd-15166e8915c9,0a9b833f-9099-4a1c-a280-3d9a76eaf8be,65,001,0,0,000,38001000000171200,0.0,2079-06-06,Родник,3827,3827,89ca6995-7937-4f0f-8904-21f04ea7d61d,,25212000000,25612440101,50,08f4c119-098d-4098-a700-6caa9d027bb5,000,380010000001712,664038,5e6ee302-0281-4bf5-a34a-cdd3eff60d03,38,тер. СНТ,2018-12-20,0000,,,2020-08-30,000,0000,000,0,81eaaf4d-f5fa-4c3e-974a-4b317a516be6,1712,,0
0,a7b49534-9095-4acd-94dd-15166e8915c9,89ca6995-7937-4f0f-8904-21f04ea7d61d,65,001,0,0,000,38001000000171200,0.0,2079-06-06,Родник,3827,3827,b93701aa-d28c-4e1c-9f9a-531836b984da,,25212000046,25612440101,21,08f4c119-098d-4098-a700-6caa9d027bb5,000,380010000001712,664038,0a9b833f-9099-4a1c-a280-3d9a76eaf8be,38,тер. СНТ,2020-08-19,0000,,,2020-08-30,000,0000,000,0,,1712,,0
1,a7b49534-9095-4acd-94dd-15166e8915c9,b93701aa-d28c-4e1c-9f9a-531836b984da,65,001,0,0,000,38001000000171200,0.0,2079-06-06,Родник,3827,3827,,,25212000046,25612440,21,08f4c119-098d-4098-a700-6caa9d027bb5,000,380010000001712,664038,89ca6995-7937-4f0f-8904-21f04ea7d61d,38,тер. СНТ,2020-08-28,0000,,,2020-08-30,000,0000,000,1,,1712,,0
0,5aa86845-d00b-4de0-b6aa-6038c341b2f9,5aa86845-d00b-4de0-b6aa-6038c341b2f9,91,001,0,0,000,,,2016-09-29,Садовая,3827,3827,cc801c47-19ff-46b5-b808-0c2f6144c9a5,,25212000046,25612440,10,4d6a946e-2747-49de-84f7-e6f1dc07bf62,437,,664038,,38,ул,2015-12-14,0000,,,2020-08-30,000,0000,000,0,8df769ae-bed1-4aad-b9cc-bb296a5334f0,0000,,0
0,5aa86845-d00b-4de0-b6aa-6038c341b2f9,cc801c47-19ff-46b5-b808-0c2f6144c9a5,7,001,0,0,000,38001000437004501,1.0,2079-06-06,Садовая,3827,3827,51d638e9-016c-49fb-8786-d29fc31141a1,,25212000046,25612440,51,4d6a946e-2747-49de-84f7-e6f1dc07bf62,437,380010004370045,664038,5aa86845-d00b-4de0-b6aa-6038c341b2f9,38,ул,2016-09-29,0045,,,2020-08-30,000,0000,000,0,,0001,,0
0,5aa86845-d00b-4de0-b6aa-6038c341b2f9,51d638e9-016c-49fb-8786-d29fc31141a1,7,001,0,0,000,38001000437004551,51.0,2020-08-28,Садовая,3827,3827,0dce59a6-2656-4fa5-a3af-0ca6d0d4832b,,25212000046,25612440101,20,4d6a946e-2747-49de-84f7-e6f1dc07bf62,000,380010004370045,664038,cc801c47-19ff-46b5-b808-0c2f6144c9a5,38,ул,2018-04-12,1738,,,2020-08-30,000,0000,000,0,4afb5e84-701d-4bad-9b70-6e8af7df35b1,1735,,0
0,5aa86845-d00b-4de0-b6aa-6038c341b2f9,0dce59a6-2656-4fa5-a3af-0ca6d0d4832b,7,001,0,0,000,38001000000173800,0.0,2079-06-06,Садовая,3827,3827,91baea96-6e79-42fa-b502-b38027c0b5ad,,25212000046,25612440101,51,4d6a946e-2747-49de-84f7-e6f1dc07bf62,000,380010000001738,664038,51d638e9-016c-49fb-8786-d29fc31141a1,38,ул,2018-12-20,1738,,,2020-08-30,000,0000,000,0,81eaaf4d-f5fa-4c3e-974a-4b317a516be6,1735,,0
1,5aa86845-d00b-4de0-b6aa-6038c341b2f9,91baea96-6e79-42fa-b502-b38027c0b5ad,7,001,0,0,000,38001000000173800,0.0,2079-06-06,Садовая,3827,3827,,,25212000046,25612440,21,4d6a946e-2747-49de-84f7-e6f1dc07bf62,000,380010000001738,664038,0dce59a6-2656-4fa5-a3af-0ca6d0d4832b,38,ул,2020-08-28,1738,,,2020-08-30,000,0000,000,1,,1735,,0
0,b3cc080e-e5af-4f27-801d-d9e45d125dae,b3cc080e-e5af-4f27-801d-d9e45d125dae,91,001,0,0,000,,,2016-09-28,Пчеловодная,3827,3827,c17dd9c2-beb9-4e4c-9907-48807e424522,,25212000000,25612440,10,a7b49534-9095-4acd-94dd-15166e8915c9,437,,664038,,38,ул,2015-12-28,0000,,,2020-08-30,000,0000,000,0,a721513d-4a60-429c-b5ef-269a788baef0,0000,,0
0,b3cc080e-e5af-4f27-801d-d9e45d125dae,c17dd9c2-beb9-4e4c-9907-48807e424522,7,001,0,0,000,38001000437002501,1.0,2079-06-06,Пчеловодная,3827,3827,d433eee6-71a6-4132-a7ad-f19a59edd947,,25212000000,25612440,51,a7b49534-9095-4acd-94dd-15166e8915c9,437,380010004370025,664038,b3cc080e-e5af-4f27-801d-d9e45d125dae,38,ул,2016-09-28,0025,,,2020-08-30,000,0000,000,0,,0003,,0
0,b3cc080e-e5af-4f27-801d-d9e45d125dae,d433eee6-71a6-4132-a7ad-f19a59edd947,7,001,0,0,000,38001000437002551,51.0,2020-08-28,Пчеловодная,3827,3827,c1a3c48f-7731-4567-af0b-53581bf188bb,,25212000046,25612440101,20,a7b49534-9095-4acd-94dd-15166e8915c9,000,380010004370025,664038,c17dd9c2-beb9-4e4c-9907-48807e424522,38,ул,2018-04-12,1715,,,2020-08-30,000,0000,000,0,4afb5e84-701d-4bad-9b70-6e8af7df35b1,1712,,0
0,b3cc080e-e5af-4f27-801d-d9e45d125dae,c1a3c48f-7731-4567-af0b-53581bf188bb,7,001,0,0,000,38001000000171500,0.0,2079-06-06,Пчеловодная,3827,3827,bbf844ac-d3c5-43cc-ae9e-499adb8c8816,,25212000046,25612440101,51,a7b49534-9095-4acd-94dd-15166e8915c9,000,380010000001715,664038,d433eee6-71a6-4132-a7ad-f19a59edd947,38,ул,2018-12-20,1715,,,2020-08-30,000,0000,000,0,81eaaf4d-f5fa-4c3e-974a-4b317a516be6,1712,,0
1,b3cc080e-e5af-4f27-801d-d9e45d125dae,bbf844ac-d3c5-43cc-ae9e-499adb8c8816,7,001,0,0,000,38001000000171500,0.0,2079-06-06,Пчеловодная,3827,3827,,,25212000046,25612440,21,a7b49534-9095-4acd-94dd-15166e8915c9,000,380010000001715,664038,c1a3c48f-7731-4567-af0b-53581bf188bb,38,ул,2020-08-28,1715,,,2020-08-30,000,0000,000,1,,1712,,0
0,bf6b3c3f-41a5-437f-a09b-76feda2bbdff,bf6b3c3f-41a5-437f-a09b-76feda2bbdff,7,001,0,0,000,38001000000189800,0.0,2079-06-06,Приозерная,3827,3827,219e4b97-0196-46d7-8abc-dac8dd5dd280,,25212000046,25612440101,10,4d6a946e-2747-49de-84f7-e6f1dc07bf62,000,380010000001898,664038,,38,ул,2019-03-27,1898,,,2020-08-30,000,0000,000,0,d514f373-2999-4df5-b70a-063ac395eaeb,1735,,0
1,bf6b3c3f-41a5-437f-a09b-76feda2bbdff,219e4b97-0196-46d7-8abc-dac8dd5dd280,7,001,0,0,000,38001000000189800,0.0,2079-06-06,Приозерная,3827,3827,,,25212000046,25612440,21,4d6a946e-2747-49de-84f7-e6f1dc07bf62,000,380010000001898,664038,bf6b3c3f-41a5-437f-a09b-76feda2bbdff,38,ул,2020-08-28,1898,,,2020-08-30,000,0000,000,1,,1735,,0
0,df4b8976-7eda-4a88-864d-6208f9fef403,df4b8976-7eda-4a88-864d-6208f9fef403,90,001,0,0,000,38001000437000551,51.0,2016-09-28,Байкальский,3827,3827,f4f41c41-b5c7-4b4d-afce-659a5314eabc,,25212812000,25612440,10,0085e4fc-7982-44b3-a303-390afa70ca48,437,380010004370005,664038,,38,снт,2015-07-13,0000,,,2020-08-30,000,0000,000,0,,0000,,0
0,df4b8976-7eda-4a88-864d-6208f9fef403,f4f41c41-b5c7-4b4d-afce-659a5314eabc,90,001,0,0,000,38001000437000551,51.0,2016-03-16,Байкальский,3827,3827,4c9ed7d8-ea64-4dde-9d78-02d41648cd40,,25212000046,25612440,40,08f4c119-098d-4098-a700-6caa9d027bb5,000,380010004370005,664038,df4b8976-7eda-4a88-864d-6208f9fef403,38,снт,2015-11-18,0000,,,2020-08-30,000,0000,000,0,2265f999-db37-4352-bdfc-425befaca403,1739,,0
0,df4b8976-7eda-4a88-864d-6208f9fef403,4c9ed7d8-ea64-4dde-9d78-02d41648cd40,90,001,0,0,000,38001000437000501,1.0,2015-12-02,Байкальский,3827,3827,a5eb7ad4-f9e6-40bf-a30a-71d443934a87,,25212000046,25612440,40,08f4c119-098d-4098-a700-6caa9d027bb5,000,380010004370005,664038,f4f41c41-b5c7-4b4d-afce-659a5314eabc,38,снт,2015-11-23,0000,,,2020-08-30,000,0000,000,0,9d679509-71dd-48cc-b075-07ba649a52b4,1739,,0
0,df4b8976-7eda-4a88-864d-6208f9fef403,a5eb7ad4-f9e6-40bf-a30a-71d443934a87,90,001,0,0,000,38001000437000502,2.0,2016-03-16,Байкальский,3827,3827,fbd487f7-57ed-4680-835c-6f8e936fb0b5,,25212000000,25612440,20,08f4c119-098d-4098-a700-6caa9d027bb5,000,380010004370005,664038,4c9ed7d8-ea64-4dde-9d78-02d41648cd40,38,снт,2015-12-02,0000,,,2020-08-30,000,0000,000,0,4e764e66-f9c2-4994-91ec-93daaf13c909,1739,,0
0,df4b8976-7eda-4a88-864d-6208f9fef403,fbd487f7-57ed-4680-835c-6f8e936fb0b5,90,001,0,0,000,38001000437000551,51.0,2016-09-28,Байкальский,3827,3827,83743cd8-1381-4e1a-b7e8-c8f6ba1e3dfb,,25212000046,25612440101,20,08f4c119-098d-4098-a700-6caa9d027bb5,000,380010004370005,664038,a5eb7ad4-f9e6-40bf-a30a-71d443934a87,38,снт,2016-03-16,0000,,,2020-08-30,000,0000,000,0,5f9e36e6-9ad2-4a88-999d-6a35f83965ec,1739,,0
0,df4b8976-7eda-4a88-864d-6208f9fef403,83743cd8-1381-4e1a-b7e8-c8f6ba1e3dfb,65,001,0,0,000,38001000437000503,3.0,2018-06-01,Байкальский,3827,3827,26abd266-e9bc-45de-8c39-3dad729cc98f,,25212000046,25612440,50,0085e4fc-7982-44b3-a303-390afa70ca48,437,380010004370005,664038,fbd487f7-57ed-4680-835c-6f8e936fb0b5,38,снт,2016-09-28,0000,,,2020-08-30,000,0000,000,0,,0005,,0
0,df4b8976-7eda-4a88-864d-6208f9fef403,26abd266-e9bc-45de-8c39-3dad729cc98f,65,001,0,0,000,38001000437000504,4.0,2020-08-28,Байкальский,3827,3827,4481456a-18b0-4ec6-a49b-b820750260c2,,25212000046,25612440101,20,08f4c119-098d-4098-a700-6caa9d027bb5,000,380010004370005,664038,83743cd8-1381-4e1a-b7e8-c8f6ba1e3dfb,38,снт,2018-04-12,0000,,,2020-08-30,000,0000,000,0,4afb5e84-701d-4bad-9b70-6e8af7df35b1,1739,,0
0,df4b8976-7eda-4a88-864d-6208f9fef403,4481456a-18b0-4ec6-a49b-b820750260c2,65,001,0,0,000,38001000437000505,5.0,2079-06-06,Байкальский,3827,3827,c614fba7-9bea-4680-a0cf-3d5887f2572c,,25212000046,25612440101,20,08f4c119-098d-4098-a700-6caa9d027bb5,000,380010004370005,664038,26abd266-e9bc-45de-8c39-3dad729cc98f,38,тер. СПК,2018-06-01,0000,,,2020-08-30,000,0000,000,0,e0b04fa1-5f76-46bf-98a3-a8349fc35c48,1739,,0
0,df4b8976-7eda-4a88-864d-6208f9fef403,c614fba7-9bea-4680-a0cf-3d5887f2572c,65,001,0,0,000,38001000437000551,51.0,2018-12-20,Байкальский,3827,3827,b863356c-2671-47d9-9e08-372d746d0962,,25212000046,25612440101,20,08f4c119-098d-4098-a700-6caa9d027bb5,000,380010004370005,664038,4481456a-18b0-4ec6-a49b-b820750260c2,38,тер. СПК,2018-09-04,0000,,,2020-08-30,000,0000,000,0,e0b04fa1-5f76-46bf-98a3-a8349fc35c48,1739,,0
0,df4b8976-7eda-4a88-864d-6208f9fef403,b863356c-2671-47d9-9e08-372d746d0962,65,001,0,0,000,38001000000173900,0.0,2079-06-06,Байкальский,3827,3827,eae8a640-d01e-48c4-96f0-5147ff4b77eb,,25212000046,25612440101,50,08f4c119-098d-4098-a700-6caa9d027bb5,000,380010000001739,,c614fba7-9bea-4680-a0cf-3d5887f2572c,38,тер. СПК,2018-12-20,0000,,,2020-08-30,000,0000,000,0,81eaaf4d-f5fa-4c3e-974a-4b317a516be6,1739,,0
0,df4b8976-7eda-4a88-864d-6208f9fef403,eae8a640-d01e-48c4-96f0-5147ff4b77eb,65,001,0,0,000,38001000000173900,0.0,2079-06-06,Байкальский,3827,3827,6bdc7765-e4c9-423c-9340-2668e69b43c9,,25212000046,25612440101,21,08f4c119-098d-4098-a700-6caa9d027bb5,000,380010000001739,,b863356c-2671-47d9-9e08-372d746d0962,38,тер. СПК,2020-08-19,0000,,,2020-08-30,000,0000,000,0,,1739,,0
1,df4b8976-7eda-4a88-864d-6208f9fef403,6bdc7765-e4c9-423c-9340-2668e69b43c9,65,001,0,0,000,38001000000173900,0.0,2079-06-06,Байкальский,3827,3827,,,25212000046,25612440,21,08f4c119-098d-4098-a700-6caa9d027bb5,000,380010000001739,,eae8a640-d01e-48c4-96f0-5147ff4b77eb,38,тер. СПК,2020-08-28,0000,,,2020-08-30,000,0000,000,1,,1739,,0
0,4d6a946e-2747-49de-84f7-e6f1dc07bf62,4d6a946e-2747-49de-84f7-e6f1dc07bf62,90,001,0,0,000,38001000437000101,1.0,2016-09-29,Берёзка-1,3827,3827,18c246b4-f1b5-49fa-a9c5-62d16d80bceb,,25212812000,25612440,10,0085e4fc-7982-44b3-a303-390afa70ca48,437,380010004370001,664038,,38,снт,2015-07-08,0000,,,2020-08-30,000,0000,000,0,164ed73d-c796-4499-bdff-c66dd38c1f17,0000,,0
0,4d6a946e-2747-49de-84f7-e6f1dc07bf62,18c246b4-f1b5-49fa-a9c5-62d16d80bceb,90,001,0,0,000,38001000437000102,2.0,2016-03-16,Берёзка-1,3827,3827,d3393d3c-ef9e-4ba2-a749-2c37d2b648d0,,25212000046,25612440,20,08f4c119-098d-4098-a700-6caa9d027bb5,000,380010004370001,664038,4d6a946e-2747-49de-84f7-e6f1dc07bf62,38,снт,2015-11-17,0000,,,2020-08-30,000,0000,000,0,e5ac23f7-716f-428d-b4eb-b6c1bcdb691f,1735,,0
0,4d6a946e-2747-49de-84f7-e6f1dc07bf62,d3393d3c-ef9e-4ba2-a749-2c37d2b648d0,90,001,0,0,000,38001000437000151,51.0,2016-09-29,Берёзка-1,3827,3827,6140e5d0-9e8c-460d-9134-768b31b487fe,,25212000046,25612440101,20,08f4c119-098d-4098-a700-6caa9d027bb5,000,380010004370001,664038,18c246b4-f1b5-49fa-a9c5-62d16d80bceb,38,снт,2016-03-16,0000,,,2020-08-30,000,0000,000,0,339f01ed-0a26-4f63-88a9-730cd6c2b2a1,1735,,0
0,4d6a946e-2747-49de-84f7-e6f1dc07bf62,6140e5d0-9e8c-460d-9134-768b31b487fe,65,001,0,0,000,38001000437000103,3.0,2018-09-14,Берёзка-1,3827,3827,0b18928d-3325-4bbc-9269-79a64c70e6e6,,25212000046,25612440,50,0085e4fc-7982-44b3-a303-390afa70ca48,437,380010004370001,,d3393d3c-ef9e-4ba2-a749-2c37d2b648d0,38,снт,2016-09-29,0000,,,2020-08-30,000,0000,000,0,,0001,,0
0,4d6a946e-2747-49de-84f7-e6f1dc07bf62,0b18928d-3325-4bbc-9269-79a64c70e6e6,65,001,0,0,000,38001000437000104,4.0,2020-08-28,Берёзка-1,3827,3827,d167f9c9-a2a4-414f-8873-39442aea6582,,25212000046,25612440101,20,08f4c119-098d-4098-a700-6caa9d027bb5,000,380010004370001,,6140e5d0-9e8c-460d-9134-768b31b487fe,38,снт,2018-04-12,0000,,,2020-08-30,000,0000,000,0,4afb5e84-701d-4bad-9b70-6e8af7df35b1,1735,,0
0,4d6a946e-2747-49de-84f7-e6f1dc07bf62,d167f9c9-a2a4-414f-8873-39442aea6582,65,001,0,0,000,38001000437000151,51.0,2079-06-06,Берёзка-1,3827,3827,eb82264d-99f3-49f4-b77d-e481a298296e,,25212000046,25612440101,20,08f4c119-098d-4098-a700-6caa9d027bb5,000,380010004370001,,0b18928d-3325-4bbc-9269-79a64c70e6e6,38,тер. СНТ,2018-09-14,0000,,,2020-08-30,000,0000,000,0,8b1934b4-a204-4218-bae6-2c970ed706f1,1735,,0
0,4d6a946e-2747-49de-84f7-e6f1dc07bf62,eb82264d-99f3-49f4-b77d-e481a298296e,65,001,0,0,000,38001000000173500,0.0,2079-06-06,Берёзка-1,3827,3827,0dddc555-b511-49a3-a87e-2510627a7d3e,,25212000046,25612440101,50,08f4c119-098d-4098-a700-6caa9d027bb5,000,380010000001735,,d167f9c9-a2a4-414f-8873-39442aea6582,38,тер. СНТ,2018-12-20,0000,,,2020-08-30,000,0000,000,0,81eaaf4d-f5fa-4c3e-974a-4b317a516be6,1735,,0
1,4d6a946e-2747-49de-84f7-e6f1dc07bf62,0dddc555-b511-49a3-a87e-2510627a7d3e,65,001,0,0,000,38001000000173500,0.0,2079-06-06,Берёзка-1,3827,3827,,,25212000046,25612440,21,08f4c119-098d-4098-a700-6caa9d027bb5,000,380010000001735,,eb82264d-99f3-49f4-b77d-e481a298296e,38,тер. СНТ,2020-08-28,0000,,,2020-08-30,000,0000,000,1,,1735,,0
0,bfcc7c42-aa5d-4a46-9410-60ec5feb74b2,bfcc7c42-aa5d-4a46-9410-60ec5feb74b2,91,001,0,0,000,,,2016-09-29,Болотная,3827,3827,fee8cd89-80f2-4caa-b880-a41d942d20a6,,25212000046,25612440,10,546e7d36-71bd-488c-8c36-b8fa346e6d37,437,,664038,,38,ул,2015-12-28,0000,,,2020-08-30,000,0000,000,0,a030dbcf-88e6-4ed0-b3e7-c38fff42861c,0000,,0
0,bfcc7c42-aa5d-4a46-9410-60ec5feb74b2,fee8cd89-80f2-4caa-b880-a41d942d20a6,7,001,0,0,000,38001000437002901,1.0,2079-06-06,Болотная,3827,3827,776d6455-a979-4fc2-8586-fcaf15ac245a,,25212000046,25612440,51,546e7d36-71bd-488c-8c36-b8fa346e6d37,437,380010004370029,664038,bfcc7c42-aa5d-4a46-9410-60ec5feb74b2,38,ул,2016-09-29,0029,,,2020-08-30,000,0000,000,0,,0002,,0
0,bfcc7c42-aa5d-4a46-9410-60ec5feb74b2,776d6455-a979-4fc2-8586-fcaf15ac245a,7,001,0,0,000,38001000437002951,51.0,2020-08-28,Болотная,3827,3827,4f257b06-e109-46da-bb65-dac493478859,,25212000046,25612440101,20,546e7d36-71bd-488c-8c36-b8fa346e6d37,000,380010004370029,664038,fee8cd89-80f2-4caa-b880-a41d942d20a6,38,ул,2018-04-12,1722,,,2020-08-30,000,0000,000,0,4afb5e84-701d-4bad-9b70-6e8af7df35b1,1716,,0
0,bfcc7c42-aa5d-4a46-9410-60ec5feb74b2,4f257b06-e109-46da-bb65-dac493478859,7,001,0,0,000,38001000000172200,0.0,2079-06-06,Болотная,3827,3827,47398c78-412a-4ba5-bf36-f94f0acb1691,,25212000046,25612440101,51,546e7d36-71bd-488c-8c36-b8fa346e6d37,000,380010000001722,664038,776d6455-a979-4fc2-8586-fcaf15ac245a,38,ул,2018-12-20,1722,,,2020-08-30,000,0000,000,0,81eaaf4d-f5fa-4c3e-974a-4b317a516be6,1716,,0
1,bfcc7c42-aa5d-4a46-9410-60ec5feb74b2,47398c78-412a-4ba5-bf36-f94f0acb1691,7,001,0,0,000,38001000000172200,0.0,2079-06-06,Болотная,3827,3827,,,25212000046,25612440,21,546e7d36-71bd-488c-8c36-b8fa346e6d37,000,380010000001722,664038,4f257b06-e109-46da-bb65-dac493478859,38,ул,2020-08-28,1722,,,2020-08-30,000,0000,000,1,,1716,,0
0,c5f962b5-52a8-44ba-8cdc-f0fb0ab0b378,c5f962b5-52a8-44ba-8cdc-f0fb0ab0b378,91,001,0,0,000,,,2016-09-28,Лесная,3827,3827,43509497-8e70-4848-b30a-1c53c0105e83,,25212000046,25612440,10,df4b8976-7eda-4a88-864d-6208f9fef403,437,,664038,,38,ул,2015-12-02,0000,,,2020-08-30,000,0000,000,0,afd6423e-fb61-4b66-b7d4-271e88942c2d,0000,,0
0,c5f962b5-52a8-44ba-8cdc-f0fb0ab0b378,43509497-8e70-4848-b30a-1c53c0105e83,7,001,0,0,000,38001000437001751,51.0,2079-06-06,Лесная,3827,3827,9fc51d35-1c63-4102-a533-5eca0c4aa430,,25212000046,25612440101,51,df4b8976-7eda-4a88-864d-6208f9fef403,437,380010004370017,664038,c5f962b5-52a8-44ba-8cdc-f0fb0ab0b378,38,ул,2016-09-28,0017,,,2020-08-30,000,0000,000,0,,0005,,0
0,c5f962b5-52a8-44ba-8cdc-f0fb0ab0b378,9fc51d35-1c63-4102-a533-5eca0c4aa430,7,001,0,0,000,38001000000174000,0.0,2079-06-06,Лесная,3827,3827,10d80160-b869-4396-9318-2bb0bd7ebfab,,25212000046,25612440101,51,df4b8976-7eda-4a88-864d-6208f9fef403,000,380010000001740,664038,43509497-8e70-4848-b30a-1c53c0105e83,38,ул,2018-12-20,1740,,,2020-08-30,000,0000,000,0,81eaaf4d-f5fa-4c3e-974a-4b317a516be6,1739,,0
1,c5f962b5-52a8-44ba-8cdc-f0fb0ab0b378,10d80160-b869-4396-9318-2bb0bd7ebfab,7,001,0,0,000,38001000000174000,0.0,2079-06-06,Лесная,3827,3827,,,25212000046,25612440,21,df4b8976-7eda-4a88-864d-6208f9fef403,000,380010000001740,664038,9fc51d35-1c63-4102-a533-5eca0c4aa430,38,ул,2020-08-28,1740,,,2020-08-30,000,0000,000,1,,1739,,0
0,63f01441-8d69-4143-802b-96d828e89c35,63f01441-8d69-4143-802b-96d828e89c35,91,001,0,0,000,,,2016-09-29,Тенистая,3827,3827,3af0d775-22f3-412a-a567-3287ed409cba,,25212000046,25612440,10,546e7d36-71bd-488c-8c36-b8fa346e6d37,437,,664038,,38,ул,2015-12-28,0000,,,2020-08-30,000,0000,000,0,300b001a-6eb8-4125-8fa7-5337bf20e5bc,0000,,0
0,63f01441-8d69-4143-802b-96d828e89c35,3af0d775-22f3-412a-a567-3287ed409cba,7,001,0,0,000,38001000437004201,1.0,2079-06-06,Тенистая,3827,3827,12b95721-6505-42e1-9ae1-6fb58563bc88,,25212000046,25612440,51,546e7d36-71bd-488c-8c36-b8fa346e6d37,437,380010004370042,664038,63f01441-8d69-4143-802b-96d828e89c35,38,ул,2016-09-29,0042,,,2020-08-30,000,0000,000,0,,0002,,0
0,63f01441-8d69-4143-802b-96d828e89c35,12b95721-6505-42e1-9ae1-6fb58563bc88,7,001,0,0,000,38001000437004251,51.0,2020-08-28,Тенистая,3827,3827,b693f2fe-a0e4-4e15-841e-76af80887e8d,,25212000046,25612440101,20,546e7d36-71bd-488c-8c36-b8fa346e6d37,000,380010004370042,664038,3af0d775-22f3-412a-a567-3287ed409cba,38,ул,2018-04-12,1734,,,2020-08-30,000,0000,000,0,4afb5e84-701d-4bad-9b70-6e8af7df35b1,1716,,0
0,63f01441-8d69-4143-802b-96d828e89c35,b693f2fe-a0e4-4e15-841e-76af80887e8d,7,001,0,0,000,38001000000173400,0.0,2079-06-06,Тенистая,3827,3827,79fc1bc1-0224-43dd-8e1a-51c751f322f3,,25212000046,25612440101,51,546e7d36-71bd-488c-8c36-b8fa346e6d37,000,380010000001734,664038,12b95721-6505-42e1-9ae1-6fb58563bc88,38,ул,2018-12-20,1734,,,2020-08-30,000,0000,000,0,81eaaf4d-f5fa-4c3e-974a-4b317a516be6,1716,,0
1,63f01441-8d69-4143-802b-96d828e89c35,79fc1bc1-0224-43dd-8e1a-51c751f322f3,7,001,0,0,000,38001000000173400,0.0,2079-06-06,Тенистая,3827,3827,,,25212000046,25612440,21,546e7d36-71bd-488c-8c36-b8fa346e6d37,000,380010000001734,664038,b693f2fe-a0e4-4e15-841e-76af80887e8d,38,ул,2020-08-28,1734,,,2020-08-30,000,0000,000,1,,1716,,0
0,62f406e1-e9ac-498c-9174-03c720e98372,62f406e1-e9ac-498c-9174-03c720e98372,91,001,0,0,000,,,2016-09-29,3-я Зеленая,3827,3827,5da26c38-50d2-4b3b-925f-9232eff523f6,,25212000046,25612440101,10,546e7d36-71bd-488c-8c36-b8fa346e6d37,437,,664038,,38,ул,2016-04-11,0000,,,2020-08-30,000,0000,000,0,1ad1447d-1f2e-4a7c-b193-2d572fb0e7ac,0000,,0
0,62f406e1-e9ac-498c-9174-03c720e98372,5da26c38-50d2-4b3b-925f-9232eff523f6,7,001,0,0,000,38001000437004351,51.0,2079-06-06,3-я Зеленая,3827,3827,f67813d9-64d9-4ade-8c90-ff301d85713f,,25212000046,25612440101,51,546e7d36-71bd-488c-8c36-b8fa346e6d37,437,380010004370043,664038,62f406e1-e9ac-498c-9174-03c720e98372,38,ул,2016-09-29,0043,,,2020-08-30,000,0000,000,0,,0002,,0
0,62f406e1-e9ac-498c-9174-03c720e98372,f67813d9-64d9-4ade-8c90-ff301d85713f,7,001,0,0,000,38001000000171900,0.0,2079-06-06,3-я Зеленая,3827,3827,b6d78171-ec7b-40b0-92d0-143ee1f2786a,,25212000046,25612440101,51,546e7d36-71bd-488c-8c36-b8fa346e6d37,000,380010000001719,664038,5da26c38-50d2-4b3b-925f-9232eff523f6,38,ул,2018-12-20,1719,,,2020-08-30,000,0000,000,0,81eaaf4d-f5fa-4c3e-974a-4b317a516be6,1716,,0
1,62f406e1-e9ac-498c-9174-03c720e98372,b6d78171-ec7b-40b0-92d0-143ee1f2786a,7,001,0,0,000,38001000000171900,0.0,2079-06-06,3-я Зеленая,3827,3827,,,25212000046,25612440,21,546e7d36-71bd-488c-8c36-b8fa346e6d37,000,380010000001719,664038,f67813d9-64d9-4ade-8c90-ff301d85713f,38,ул,2020-08-28,1719,,,2020-08-30,000,0000,000,1,,1716,,0
0,65dcf806-16df-4aa3-bd67-cd58b07262c6,65dcf806-16df-4aa3-bd67-cd58b07262c6,91,001,0,0,000,,,2016-09-29,Зеленая,3827,3827,d012198c-700b-4e05-a9b2-40f6bac89a04,,25212000046,25612440,10,546e7d36-71bd-488c-8c36-b8fa346e6d37,437,,664038,,38,ул,2015-12-28,0000,,,2020-08-30,000,0000,000,0,32185240-81b4-4251-8119-85dc8f053e25,0000,,0
0,65dcf806-16df-4aa3-bd67-cd58b07262c6,d012198c-700b-4e05-a9b2-40f6bac89a04,7,001,0,0,000,38001000437003351,51.0,2079-06-06,Зеленая,3827,3827,65590db5-736b-41f2-8ba9-fa7626b78970,,25212000046,25612440101,51,546e7d36-71bd-488c-8c36-b8fa346e6d37,437,380010004370033,664038,65dcf806-16df-4aa3-bd67-cd58b07262c6,38,ул,2016-09-29,0033,,,2020-08-30,000,0000,000,0,,0002,,0
0,65dcf806-16df-4aa3-bd67-cd58b07262c6,65590db5-736b-41f2-8ba9-fa7626b78970,7,001,0,0,000,38001000000171700,0.0,2079-06-06,Зеленая,3827,3827,453b9817-0f8c-475c-8009-e557a4b5e6ac,,25212000046,25612440101,51,546e7d36-71bd-488c-8c36-b8fa346e6d37,000,380010000001717,664038,d012198c-700b-4e05-a9b2-40f6bac89a04,38,ул,2018-12-20,1717,,,2020-08-30,000,0000,000,0,81eaaf4d-f5fa-4c3e-974a-4b317a516be6,1716,,0
1,65dcf806-16df-4aa3-bd67-cd58b07262c6,453b9817-0f8c-475c-8009-e557a4b5e6ac,7,001,0,0,000,38001000000171700,0.0,2079-06-06,Зеленая,3827,3827,,,25212000046,25612440,21,546e7d36-71bd-488c-8c36-b8fa346e6d37,000,380010000001717,664038,65590db5-736b-41f2-8ba9-fa7626b78970,38,ул,2020-08-28,1717,,,2020-08-30,000,0000,000,1,,1716,,0
0,546e7d36-71bd-488c-8c36-b8fa346e6d37,546e7d36-71bd-488c-8c36-b8fa346e6d37,90,001,0,0,000,38001000437000201,1.0,2016-09-29,Берёзка-2,3827,3827,0617d4e3-8d9a-4ed7-8398-ea9ea4f79ea4,,25212812000,25612440,10,0085e4fc-7982-44b3-a303-390afa70ca48,437,380010004370002,664038,,38,снт,2015-07-08,0000,,,2020-08-30,000,0000,000,0,ea499e9d-20fe-42b3-af98-41d769d12f9a,0000,,0
0,546e7d36-71bd-488c-8c36-b8fa346e6d37,0617d4e3-8d9a-4ed7-8398-ea9ea4f79ea4,90,001,0,0,000,38001000437000202,2.0,2016-09-29,Берёзка-2,3827,3827,18b6ea0f-3077-4070-b271-f261c223a81a,,25212000046,25612440,20,08f4c119-098d-4098-a700-6caa9d027bb5,000,380010004370002,664038,546e7d36-71bd-488c-8c36-b8fa346e6d37,38,снт,2015-11-17,0000,,,2020-08-30,000,0000,000,0,6261b8fe-6b9d-436f-a662-a3d2dcbfa71a,1716,,0
0,546e7d36-71bd-488c-8c36-b8fa346e6d37,18b6ea0f-3077-4070-b271-f261c223a81a,90,001,0,0,000,38001000437000251,51.0,2016-09-29,Берёзка-2,3827,3827,3d977dcd-6c20-4534-8204-1d3dbaa33654,,25212000046,25612440101,20,08f4c119-098d-4098-a700-6caa9d027bb5,000,380010004370002,664038,0617d4e3-8d9a-4ed7-8398-ea9ea4f79ea4,38,снт,2016-03-16,0000,,,2020-08-30,000,0000,000,0,53095a08-9b02-49f6-bd2f-28f94158d6a9,1716,,0
0,546e7d36-71bd-488c-8c36-b8fa346e6d37,3d977dcd-6c20-4534-8204-1d3dbaa33654,65,001,0,0,000,38001000437000203,3.0,2018-09-14,Берёзка-2,3827,3827,73aa7795-b00b-4f51-a532-9a59a31344ce,,25212000046,25612440101,50,0085e4fc-7982-44b3-a303-390afa70ca48,437,380010004370002,,18b6ea0f-3077-4070-b271-f261c223a81a,38,снт,2016-09-29,0000,,,2020-08-30,000,0000,000,0,,0002,,0
0,546e7d36-71bd-488c-8c36-b8fa346e6d37,73aa7795-b00b-4f51-a532-9a59a31344ce,65,001,0,0,000,38001000437000204,4.0,2020-08-28,Берёзка-2,3827,3827,3dd9b597-e601-47d9-94fd-a3edd6549828,,25212000046,25612440101,20,08f4c119-098d-4098-a700-6caa9d027bb5,000,380010004370002,,3d977dcd-6c20-4534-8204-1d3dbaa33654,38,снт,2018-04-12,0000,,,2020-08-30,000,0000,000,0,4afb5e84-701d-4bad-9b70-6e8af7df35b1,1716,,0
0,546e7d36-71bd-488c-8c36-b8fa346e6d37,3dd9b597-e601-47d9-94fd-a3edd6549828,65,001,0,0,000,38001000437000251,51.0,2079-06-06,Берёзка-2,3827,3827,d439c714-6a86-469d-80bb-446e6b4b5219,,25212000046,25612440101,20,08f4c119-098d-4098-a700-6caa9d027bb5,000,380010004370002,,73aa7795-b00b-4f51-a532-9a59a31344ce,38,тер. СНТ,2018-09-14,0000,,,2020-08-30,000,0000,000,0,d5960dbc-469c-4c15-b3b8-eed0c66c9201,1716,,0
0,546e7d36-71bd-488c-8c36-b8fa346e6d37,d439c714-6a86-469d-80bb-446e6b4b5219,65,001,0,0,000,38001000000171600,0.0,2079-06-06,Берёзка-2,3827,3827,38bc3033-90c4-4f64-a732-b71c67542b1c,,25212000046,25612440101,50,08f4c119-098d-4098-a700-6caa9d027bb5,000,380010000001716,,3dd9b597-e601-47d9-94fd-a3edd6549828,38,тер. СНТ,2018-12-20,0000,,,2020-08-30,000,0000,000,0,81eaaf4d-f5fa-4c3e-974a-4b317a516be6,1716,,0
0,546e7d36-71bd-488c-8c36-b8fa346e6d37,38bc3033-90c4-4f64-a732-b71c67542b1c,65,001,0,0,000,38001000000171600,0.0,2079-06-06,Берёзка-2,3827,3827,d7214516-37f7-4135-868e-19b568b3d0d2,,25212000046,25612440101,21,08f4c119-098d-4098-a700-6caa9d027bb5,000,380010000001716,,d439c714-6a86-469d-80bb-446e6b4b5219,38,тер. СНТ,2020-08-20,0000,,,2020-08-30,000,0000,000,0,,1716,,0
1,546e7d36-71bd-488c-8c36-b8fa346e6d37,d7214516-37f7-4135-868e-19b568b3d0d2,65,001,0,0,000,38001000000171600,0.0,2079-06-06,Берёзка-2,3827,3827,,,25212000046,25612440,21,08f4c119-098d-4098-a700-6caa9d027bb5,000,380010000001716,,38bc3033-90c4-4f64-a732-b71c67542b1c,38,тер. СНТ,2020-08-28,0000,,,2020-08-30,000,0000,000,1,,1716,,0
0,00209948-eee6-4c31-ab3c-ce565f8852fd,00209948-eee6-4c31-ab3c-ce565f8852fd,91,001,0,0,000,,,2016-09-29,Лесная,3827,3827,5589bf14-8aa2-45ad-9029-15d37711a1df,,25212000046,25612440,10,546e7d36-71bd-488c-8c36-b8fa346e6d37,437,,664038,,38,ул,2015-12-28,0000,,,2020-08-30,000,0000,000,0,8d7d897c-544d-48ea-9d72-ab6bb6b02ee4,0000,,0
0,00209948-eee6-4c31-ab3c-ce565f8852fd,5589bf14-8aa2-45ad-9029-15d37711a1df,7,001,0,0,000,38001000437003601,1.0,2079-06-06,Лесная,3827,3827,b3d3812b-a733-413d-9d65-6dbfa48bbe36,,25212000046,25612440,51,546e7d36-71bd-488c-8c36-b8fa346e6d37,437,380010004370036,664038,00209948-eee6-4c31-ab3c-ce565f8852fd,38,ул,2016-09-29,0036,,,2020-08-30,000,0000,000,0,,0002,,0
0,00209948-eee6-4c31-ab3c-ce565f8852fd,b3d3812b-a733-413d-9d65-6dbfa48bbe36,7,001,0,0,000,38001000437003651,51.0,2020-08-28,Лесная,3827,3827,41c9cee4-060b-499c-843d-f028d8213192,,25212000046,25612440101,20,546e7d36-71bd-488c-8c36-b8fa346e6d37,000,380010004370036,664038,5589bf14-8aa2-45ad-9029-15d37711a1df,38,ул,2018-04-12,1727,,,2020-08-30,000,0000,000,0,4afb5e84-701d-4bad-9b70-6e8af7df35b1,1716,,0
0,00209948-eee6-4c31-ab3c-ce565f8852fd,41c9cee4-060b-499c-843d-f028d8213192,7,001,0,0,000,38001000000172700,0.0,2079-06-06,Лесная,3827,3827,012ed279-6086-4f6e-8edc-9395b2f3b910,,25212000046,25612440101,51,546e7d36-71bd-488c-8c36-b8fa346e6d37,000,380010000001727,664038,b3d3812b-a733-413d-9d65-6dbfa48bbe36,38,ул,2018-12-20,1727,,,2020-08-30,000,0000,000,0,81eaaf4d-f5fa-4c3e-974a-4b317a516be6,1716,,0
1,00209948-eee6-4c31-ab3c-ce565f8852fd,012ed279-6086-4f6e-8edc-9395b2f3b910,7,001,0,0,000,38001000000172700,0.0,2079-06-06,Лесная,3827,3827,,,25212000046,25612440,21,546e7d36-71bd-488c-8c36-b8fa346e6d37,000,380010000001727,664038,41c9cee4-060b-499c-843d-f028d8213192,38,ул,2020-08-28,1727,,,2020-08-30,000,0000,000,1,,1716,,0
0,9295e6b7-910d-4852-a002-15f384cf9ddf,9295e6b7-910d-4852-a002-15f384cf9ddf,91,001,0,0,000,,,2016-09-29,Кедровая,3827,3827,c27b845b-925e-47a0-8268-a05bc0b296fd,,25212000046,25612440,10,546e7d36-71bd-488c-8c36-b8fa346e6d37,437,,664038,,38,ул,2015-12-28,0000,,,2020-08-30,000,0000,000,0,fdce6f14-d385-4d47-95a8-e1acf4297d04,0000,,0
0,9295e6b7-910d-4852-a002-15f384cf9ddf,c27b845b-925e-47a0-8268-a05bc0b296fd,7,001,0,0,000,38001000437003451,51.0,2079-06-06,Кедровая,3827,3827,84771d8c-b452-42f5-8087-1b9977ce6297,,25212000046,25612440101,51,546e7d36-71bd-488c-8c36-b8fa346e6d37,437,380010004370034,664038,9295e6b7-910d-4852-a002-15f384cf9ddf,38,ул,2016-09-29,0034,,,2020-08-30,000,0000,000,0,,0002,,0
0,9295e6b7-910d-4852-a002-15f384cf9ddf,84771d8c-b452-42f5-8087-1b9977ce6297,7,001,0,0,000,38001000000171800,0.0,2079-06-06,Кедровая,3827,3827,a51f4174-bc89-4b26-a307-9dd66cf5b8cd,,25212000046,25612440101,51,546e7d36-71bd-488c-8c36-b8fa346e6d37,000,380010000001718,664038,c27b845b-925e-47a0-8268-a05bc0b296fd,38,ул,2018-12-20,1718,,,2020-08-30,000,0000,000,0,81eaaf4d-f5fa-4c3e-974a-4b317a516be6,1716,,0
1,9295e6b7-910d-4852-a002-15f384cf9ddf,a51f4174-bc89-4b26-a307-9dd66cf5b8cd,7,001,0,0,000,38001000000171800,0.0,2079-06-06,Кедровая,3827,3827,,,25212000046,25612440,21,546e7d36-71bd-488c-8c36-b8fa346e6d37,000,380010000001718,664038,84771d8c-b452-42f5-8087-1b9977ce6297,38,ул,2020-08-28,1718,,,2020-08-30,000,0000,000,1,,1716,,0
0,38249849-3dd9-40c1-9ee1-2b899565138d,38249849-3dd9-40c1-9ee1-2b899565138d,91,001,0,0,000,,,2016-09-29,Верхняя,3827,3827,c9e05bea-1de4-46fb-a4e2-907fca2ef749,,25212000046,25612440,10,546e7d36-71bd-488c-8c36-b8fa346e6d37,437,,664038,,38,ул,2015-12-28,0000,,,2020-08-30,000,0000,000,0,93fe5aca-7022-4d06-839d-7b26c5bd56e3,0000,,0
0,38249849-3dd9-40c1-9ee1-2b899565138d,c9e05bea-1de4-46fb-a4e2-907fca2ef749,7,001,0,0,000,38001000437003001,1.0,2079-06-06,Верхняя,3827,3827,ad37ab34-c267-4e90-8761-3f7798adae66,,25212000046,25612440,51,546e7d36-71bd-488c-8c36-b8fa346e6d37,437,380010004370030,664038,38249849-3dd9-40c1-9ee1-2b899565138d,38,ул,2016-09-29,0030,,,2020-08-30,000,0000,000,0,,0002,,0
0,38249849-3dd9-40c1-9ee1-2b899565138d,ad37ab34-c267-4e90-8761-3f7798adae66,7,001,0,0,000,38001000437003051,51.0,2020-08-28,Верхняя,3827,3827,49075949-5fae-41de-8eb6-abfdc9f14cd4,,25212000046,25612440101,20,546e7d36-71bd-488c-8c36-b8fa346e6d37,000,380010004370030,664038,c9e05bea-1de4-46fb-a4e2-907fca2ef749,38,ул,2018-04-12,1723,,,2020-08-30,000,0000,000,0,4afb5e84-701d-4bad-9b70-6e8af7df35b1,1716,,0
0,38249849-3dd9-40c1-9ee1-2b899565138d,49075949-5fae-41de-8eb6-abfdc9f14cd4,7,001,0,0,000,38001000000172300,0.0,2079-06-06,Верхняя,3827,3827,c9e533a8-cc87-43ee-9260-eeb181ae30b8,,25212000046,25612440101,51,546e7d36-71bd-488c-8c36-b8fa346e6d37,000,380010000001723,664038,ad37ab34-c267-4e90-8761-3f7798adae66,38,ул,2018-12-20,1723,,,2020-08-30,000,0000,000,0,81eaaf4d-f5fa-4c3e-974a-4b317a516be6,1716,,0
1,38249849-3dd9-40c1-9ee1-2b899565138d,c9e533a8-cc87-43ee-9260-eeb181ae30b8,7,001,0,0,000,38001000000172300,0.0,2079-06-06,Верхняя,3827,3827,,,25212000046,25612440,21,546e7d36-71bd-488c-8c36-b8fa346e6d37,000,380010000001723,664038,49075949-5fae-41de-8eb6-abfdc9f14cd4,38,ул,2020-08-28,1723,,,2020-08-30,000,0000,000,1,,1716,,0
0,f7b776d1-f7b2-4608-ba47-ec95208d4249,f7b776d1-f7b2-4608-ba47-ec95208d4249,91,001,0,0,000,,,2016-09-29,Березовая,3827,3827,37a5bb71-b576-498e-b2dc-3345208392f0,,25212000046,25612440,10,4d6a946e-2747-49de-84f7-e6f1dc07bf62,437,,664038,,38,ул,2015-12-14,0000,,,2020-08-30,000,0000,000,0,a3887b29-cc40-4405-b9c0-f34f043082a4,0000,,0
0,f7b776d1-f7b2-4608-ba47-ec95208d4249,37a5bb71-b576-498e-b2dc-3345208392f0,7,001,0,0,000,38001000437004401,1.0,2079-06-06,Березовая,3827,3827,4729c408-51df-4b48-a421-e0bd6b0a26d6,,25212000046,25612440,51,4d6a946e-2747-49de-84f7-e6f1dc07bf62,437,380010004370044,664038,f7b776d1-f7b2-4608-ba47-ec95208d4249,38,ул,2016-09-29,0044,,,2020-08-30,000,0000,000,0,,0001,,0
0,f7b776d1-f7b2-4608-ba47-ec95208d4249,4729c408-51df-4b48-a421-e0bd6b0a26d6,7,001,0,0,000,38001000437004451,51.0,2020-08-28,Березовая,3827,3827,4626df6b-2a3b-4c87-b33e-70ad387395db,,25212000046,25612440101,20,4d6a946e-2747-49de-84f7-e6f1dc07bf62,000,380010004370044,664038,37a5bb71-b576-498e-b2dc-3345208392f0,38,ул,2018-04-12,1736,,,2020-08-30,000,0000,000,0,4afb5e84-701d-4bad-9b70-6e8af7df35b1,1735,,0
0,f7b776d1-f7b2-4608-ba47-ec95208d4249,4626df6b-2a3b-4c87-b33e-70ad387395db,7,001,0,0,000,38001000000173600,0.0,2079-06-06,Березовая,3827,3827,9b6adc67-ff4a-415d-b81c-9c3c68b3b529,,25212000046,25612440101,51,4d6a946e-2747-49de-84f7-e6f1dc07bf62,000,380010000001736,664038,4729c408-51df-4b48-a421-e0bd6b0a26d6,38,ул,2018-12-20,1736,,,2020-08-30,000,0000,000,0,81eaaf4d-f5fa-4c3e-974a-4b317a516be6,1735,,0
1,f7b776d1-f7b2-4608-ba47-ec95208d4249,9b6adc67-ff4a-415d-b81c-9c3c68b3b529,7,001,0,0,000,38001000000173600,0.0,2079-06-06,Березовая,3827,3827,,,25212000046,25612440,21,4d6a946e-2747-49de-84f7-e6f1dc07bf62,000,380010000001736,664038,4626df6b-2a3b-4c87-b33e-70ad387395db,38,ул,2020-08-28,1736,,,2020-08-30,000,0000,000,1,,1735,,0
0,a99b380d-3778-4baa-8621-f67feff5b6d0,a99b380d-3778-4baa-8621-f67feff5b6d0,90,001,0,0,000,38001000437000401,1.0,2016-09-28,Фронтовик,3827,3827,134296a7-dd51-4902-9526-07b532a4af1f,,25212812000,25612440,10,0085e4fc-7982-44b3-a303-390afa70ca48,437,380010004370004,664038,,38,снт,2015-07-08,0000,,,2020-08-30,000,0000,000,0,ea499e9d-20fe-42b3-af98-41d769d12f9a,0000,,0
0,a99b380d-3778-4baa-8621-f67feff5b6d0,134296a7-dd51-4902-9526-07b532a4af1f,90,001,0,0,000,38001000437000402,2.0,2016-03-16,Фронтовик,3827,3827,310d8965-4d97-4fb1-a9c1-de3d6fdefaf8,,25212000046,25612440,20,08f4c119-098d-4098-a700-6caa9d027bb5,000,380010004370004,664038,a99b380d-3778-4baa-8621-f67feff5b6d0,38,снт,2015-11-17,0000,,,2020-08-30,000,0000,000,0,9c82467a-8391-4018-a844-eedf97403d85,1703,,0
0,a99b380d-3778-4baa-8621-f67feff5b6d0,310d8965-4d97-4fb1-a9c1-de3d6fdefaf8,90,001,0,0,000,38001000437000403,3.0,2016-03-16,Фронтовик,3827,3827,bceadd57-b247-459e-b397-6122bfdde09b,,25212000000,25612440,20,08f4c119-098d-4098-a700-6caa9d027bb5,000,380010004370004,664038,134296a7-dd51-4902-9526-07b532a4af1f,38,снт,2015-12-02,0000,,,2020-08-30,000,0000,000,0,f1c8e2b0-f317-4777-af30-caf3162ca0ab,1703,,0
0,a99b380d-3778-4baa-8621-f67feff5b6d0,bceadd57-b247-459e-b397-6122bfdde09b,90,001,0,0,000,38001000437000451,51.0,2016-09-28,Фронтовик,3827,3827,246124f0-a53e-4745-8187-e59f5ae2f949,,25212000046,25612440101,20,08f4c119-098d-4098-a700-6caa9d027bb5,000,380010004370004,664038,310d8965-4d97-4fb1-a9c1-de3d6fdefaf8,38,снт,2016-03-16,0000,,,2020-08-30,000,0000,000,0,0b7117d8-f279-4dc7-a1ee-d7ae19b3f156,1703,,0
0,a99b380d-3778-4baa-8621-f67feff5b6d0,246124f0-a53e-4745-8187-e59f5ae2f949,65,001,0,0,000,38001000437000404,4.0,2018-08-31,Фронтовик,3827,3827,68d0bc1c-8b4e-4cdc-bbfc-8662b5312e82,,25212000046,25612440,50,0085e4fc-7982-44b3-a303-390afa70ca48,437,380010004370004,,bceadd57-b247-459e-b397-6122bfdde09b,38,снт,2016-09-28,0000,,,2020-08-30,000,0000,000,0,,0004,,0
0,a99b380d-3778-4baa-8621-f67feff5b6d0,68d0bc1c-8b4e-4cdc-bbfc-8662b5312e82,65,001,0,0,000,38001000437000405,5.0,2079-06-06,Фронтовик,3827,3827,299d94c2-695a-47df-9e05-6853135265bc,,25212000046,25612440101,20,08f4c119-098d-4098-a700-6caa9d027bb5,000,380010004370004,,246124f0-a53e-4745-8187-e59f5ae2f949,38,тер. СНТ,2018-08-31,0000,,,2020-08-30,000,0000,000,0,eb1ddec6-96c3-4f05-b56e-42fcfd75581a,1703,,0
0,a99b380d-3778-4baa-8621-f67feff5b6d0,299d94c2-695a-47df-9e05-6853135265bc,65,001,0,0,000,38001000437000451,51.0,2018-12-20,Фронтовик,3827,3827,0548360f-a2b4-45a9-967e-5a8188c86fab,,25212000046,25612440101,20,08f4c119-098d-4098-a700-6caa9d027bb5,000,380010004370004,,68d0bc1c-8b4e-4cdc-bbfc-8662b5312e82,38,тер. СНТ,2018-09-04,0000,,,2020-08-30,000,0000,000,0,eb1ddec6-96c3-4f05-b56e-42fcfd75581a,1703,,0
0,a99b380d-3778-4baa-8621-f67feff5b6d0,0548360f-a2b4-45a9-967e-5a8188c86fab,65,001,0,0,000,38001000000170306,6.0,2019-04-17,Фронтовик,3827,3827,799bc5c2-7501-419c-ae37-1ea677b2d717,,25212000046,25612440101,50,08f4c119-098d-4098-a700-6caa9d027bb5,000,380010000001703,,299d94c2-695a-47df-9e05-6853135265bc,38,тер. СНТ,2018-12-20,0000,,,2020-08-30,000,0000,000,0,81eaaf4d-f5fa-4c3e-974a-4b317a516be6,1703,,0
0,a99b380d-3778-4baa-8621-f67feff5b6d0,799bc5c2-7501-419c-ae37-1ea677b2d717,65,001,0,0,000,38001000000170300,0.0,2079-06-06,Фронтовик,3827,3827,e10f7b85-156a-4f13-8b0c-1e1f762c6b01,,25212000046,25612440101,21,08f4c119-098d-4098-a700-6caa9d027bb5,000,380010000001703,664038,0548360f-a2b4-45a9-967e-5a8188c86fab,38,тер. СНТ,2019-04-17,0000,,,2020-08-30,000,0000,000,0,5da9724a-5098-4b71-98d5-93567670eb07,1703,,0
0,a99b380d-3778-4baa-8621-f67feff5b6d0,e10f7b85-156a-4f13-8b0c-1e1f762c6b01,65,001,0,0,000,38001000000170300,0.0,2079-06-06,Фронтовик,3827,3827,61697971-01c7-487a-a47f-ef230543a531,,25212000046,25612440101,21,08f4c119-098d-4098-a700-6caa9d027bb5,000,380010000001703,664038,799bc5c2-7501-419c-ae37-1ea677b2d717,38,тер. СНТ,2020-08-19,0000,,,2020-08-30,000,0000,000,0,,1703,,0
1,a99b380d-3778-4baa-8621-f67feff5b6d0,61697971-01c7-487a-a47f-ef230543a531,65,001,0,0,000,38001000000170300,0.0,2079-06-06,Фронтовик,3827,3827,,,25212000046,25612440,21,08f4c119-098d-4098-a700-6caa9d027bb5,000,380010000001703,664038,e10f7b85-156a-4f13-8b0c-1e1f762c6b01,38,тер. СНТ,2020-08-28,0000,,,2020-08-30,000,0000,000,1,,1703,,0
0,48e44eff-f054-4a07-9733-8d459c0ee523,48e44eff-f054-4a07-9733-8d459c0ee523,91,001,0,0,000,,,2016-09-28,Радужная,3827,3827,17b6c2fb-db15-417d-9fc0-36b939bae684,,25212000046,25612440,10,df4b8976-7eda-4a88-864d-6208f9fef403,437,,664038,,38,ул,2015-12-02,0000,,,2020-08-30,000,0000,000,0,cb08ea3c-8bd0-4d08-8c05-25b66557d3fe,0000,,0
0,48e44eff-f054-4a07-9733-8d459c0ee523,17b6c2fb-db15-417d-9fc0-36b939bae684,7,001,0,0,000,38001000437001801,1.0,2079-06-06,Радужная,3827,3827,0ac52c7b-81dc-4d26-8d6a-2f54a79cf7f4,,25212000046,25612440,51,df4b8976-7eda-4a88-864d-6208f9fef403,437,380010004370018,664038,48e44eff-f054-4a07-9733-8d459c0ee523,38,ул,2016-09-28,0018,,,2020-08-30,000,0000,000,0,,0005,,0
0,48e44eff-f054-4a07-9733-8d459c0ee523,0ac52c7b-81dc-4d26-8d6a-2f54a79cf7f4,7,001,0,0,000,38001000437001851,51.0,2020-08-28,Радужная,3827,3827,5c93c57f-f293-4be0-8b68-3eb6f3fdfa8a,,25212000046,25612440101,20,df4b8976-7eda-4a88-864d-6208f9fef403,000,380010004370018,664038,17b6c2fb-db15-417d-9fc0-36b939bae684,38,ул,2018-04-12,1744,,,2020-08-30,000,0000,000,0,4afb5e84-701d-4bad-9b70-6e8af7df35b1,1739,,0
0,48e44eff-f054-4a07-9733-8d459c0ee523,5c93c57f-f293-4be0-8b68-3eb6f3fdfa8a,7,001,0,0,000,38001000000174400,0.0,2079-06-06,Радужная,3827,3827,1a3499fd-0563-4d99-aaa3-c541b998ba83,,25212000046,25612440101,51,df4b8976-7eda-4a88-864d-6208f9fef403,000,380010000001744,664038,0ac52c7b-81dc-4d26-8d6a-2f54a79cf7f4,38,ул,2018-12-20,1744,,,2020-08-30,000,0000,000,0,81eaaf4d-f5fa-4c3e-974a-4b317a516be6,1739,,0
1,48e44eff-f054-4a07-9733-8d459c0ee523,1a3499fd-0563-4d99-aaa3-c541b998ba83,7,001,0,0,000,38001000000174400,0.0,2079-06-06,Радужная,3827,3827,,,25212000046,25612440,21,df4b8976-7eda-4a88-864d-6208f9fef403,000,380010000001744,664038,5c93c57f-f293-4be0-8b68-3eb6f3fdfa8a,38,ул,2020-08-28,1744,,,2020-08-30,000,0000,000,1,,1739,,0
0,83a16606-a38a-4718-95e9-3558c4308afb,83a16606-a38a-4718-95e9-3558c4308afb,91,001,0,0,000,,,2016-09-29,Сосновая,3827,3827,d6a1dd34-77b0-4af0-98cd-2d6f2f5a8daa,,25212000046,25612440,10,546e7d36-71bd-488c-8c36-b8fa346e6d37,437,,664038,,38,ул,2015-12-28,0000,,,2020-08-30,000,0000,000,0,135df0e4-9a7a-48ff-9ff2-b2ff4486a890,0000,,0
0,83a16606-a38a-4718-95e9-3558c4308afb,d6a1dd34-77b0-4af0-98cd-2d6f2f5a8daa,7,001,0,0,000,38001000437004101,1.0,2079-06-06,Сосновая,3827,3827,b6a73145-7196-4c14-99e3-3d57181f9083,,25212000046,25612440,51,546e7d36-71bd-488c-8c36-b8fa346e6d37,437,380010004370041,664038,83a16606-a38a-4718-95e9-3558c4308afb,38,ул,2016-09-29,0041,,,2020-08-30,000,0000,000,0,,0002,,0
0,83a16606-a38a-4718-95e9-3558c4308afb,b6a73145-7196-4c14-99e3-3d57181f9083,7,001,0,0,000,38001000437004151,51.0,2020-08-28,Сосновая,3827,3827,a1e968e5-b388-4e27-baa1-1c0c6d6c6713,,25212000046,25612440101,20,546e7d36-71bd-488c-8c36-b8fa346e6d37,000,380010004370041,664038,d6a1dd34-77b0-4af0-98cd-2d6f2f5a8daa,38,ул,2018-04-12,1733,,,2020-08-30,000,0000,000,0,4afb5e84-701d-4bad-9b70-6e8af7df35b1,1716,,0
0,83a16606-a38a-4718-95e9-3558c4308afb,a1e968e5-b388-4e27-baa1-1c0c6d6c6713,7,001,0,0,000,38001000000173300,0.0,2079-06-06,Сосновая,3827,3827,fbaa370b-73ae-4085-a66a-8a1b29f53f4c,,25212000046,25612440101,51,546e7d36-71bd-488c-8c36-b8fa346e6d37,000,380010000001733,664038,b6a73145-7196-4c14-99e3-3d57181f9083,38,ул,2018-12-20,1733,,,2020-08-30,000,0000,000,0,81eaaf4d-f5fa-4c3e-974a-4b317a516be6,1716,,0
1,83a16606-a38a-4718-95e9-3558c4308afb,fbaa370b-73ae-4085-a66a-8a1b29f53f4c,7,001,0,0,000,38001000000173300,0.0,2079-06-06,Сосновая,3827,3827,,,25212000046,25612440,21,546e7d36-71bd-488c-8c36-b8fa346e6d37,000,380010000001733,664038,a1e968e5-b388-4e27-baa1-1c0c6d6c6713,38,ул,2020-08-28,1733,,,2020-08-30,000,0000,000,1,,1716,,0
0,6809e499-cf3c-4a3a-8349-a55411ed91d7,6809e499-cf3c-4a3a-8349-a55411ed91d7,91,001,0,0,000,,,2016-09-29,Нижняя,3827,3827,fcb9ddb7-7007-46e2-8401-a29e7930326b,,25212000046,25612440,10,546e7d36-71bd-488c-8c36-b8fa346e6d37,437,,664038,,38,ул,2015-12-28,0000,,,2020-08-30,000,0000,000,0,de6e6652-8d8b-4f9e-b858-2b146544565e,0000,,0
0,6809e499-cf3c-4a3a-8349-a55411ed91d7,fcb9ddb7-7007-46e2-8401-a29e7930326b,7,001,0,0,000,38001000437003801,1.0,2079-06-06,Нижняя,3827,3827,b7ea5972-b5bb-4600-ac5b-854bdef6807c,,25212000046,25612440,51,546e7d36-71bd-488c-8c36-b8fa346e6d37,437,380010004370038,664038,6809e499-cf3c-4a3a-8349-a55411ed91d7,38,ул,2016-09-29,0038,,,2020-08-30,000,0000,000,0,,0002,,0
0,6809e499-cf3c-4a3a-8349-a55411ed91d7,b7ea5972-b5bb-4600-ac5b-854bdef6807c,7,001,0,0,000,38001000437003851,51.0,2020-08-28,Нижняя,3827,3827,d516a9a0-426f-498b-93fa-1fe1bfe5cde4,,25212000046,25612440101,20,546e7d36-71bd-488c-8c36-b8fa346e6d37,000,380010004370038,664038,fcb9ddb7-7007-46e2-8401-a29e7930326b,38,ул,2018-04-12,1729,,,2020-08-30,000,0000,000,0,4afb5e84-701d-4bad-9b70-6e8af7df35b1,1716,,0
0,6809e499-cf3c-4a3a-8349-a55411ed91d7,d516a9a0-426f-498b-93fa-1fe1bfe5cde4,7,001,0,0,000,38001000000172900,0.0,2079-06-06,Нижняя,3827,3827,348c8e0c-abeb-48b5-a2fb-9b47989f9d3b,,25212000046,25612440101,51,546e7d36-71bd-488c-8c36-b8fa346e6d37,000,380010000001729,664038,b7ea5972-b5bb-4600-ac5b-854bdef6807c,38,ул,2018-12-20,1729,,,2020-08-30,000,0000,000,0,81eaaf4d-f5fa-4c3e-974a-4b317a516be6,1716,,0
1,6809e499-cf3c-4a3a-8349-a55411ed91d7,348c8e0c-abeb-48b5-a2fb-9b47989f9d3b,7,001,0,0,000,38001000000172900,0.0,2079-06-06,Нижняя,3827,3827,,,25212000046,25612440,21,546e7d36-71bd-488c-8c36-b8fa346e6d37,000,380010000001729,664038,d516a9a0-426f-498b-93fa-1fe1bfe5cde4,38,ул,2020-08-28,1729,,,2020-08-30,000,0000,000,1,,1716,,0
0,15fb8a02-1a72-404b-8d6c-4f4859ea6261,15fb8a02-1a72-404b-8d6c-4f4859ea6261,91,001,0,0,000,,,2016-09-29,Заводская,3827,3827,2f1a8e8e-5d21-46f5-ac1c-8509c87914fd,,25212000046,25612440,10,546e7d36-71bd-488c-8c36-b8fa346e6d37,437,,664038,,38,ул,2015-12-28,0000,,,2020-08-30,000,0000,000,0,c807952e-951d-462e-8b88-5ef7299ecba7,0000,,0
0,15fb8a02-1a72-404b-8d6c-4f4859ea6261,2f1a8e8e-5d21-46f5-ac1c-8509c87914fd,7,001,0,0,000,38001000437003201,1.0,2079-06-06,Заводская,3827,3827,3314f760-0d61-4c77-8d78-6a5384a28db2,,25212000046,25612440,51,546e7d36-71bd-488c-8c36-b8fa346e6d37,437,380010004370032,664038,15fb8a02-1a72-404b-8d6c-4f4859ea6261,38,ул,2016-09-29,0032,,,2020-08-30,000,0000,000,0,,0002,,0
0,15fb8a02-1a72-404b-8d6c-4f4859ea6261,3314f760-0d61-4c77-8d78-6a5384a28db2,7,001,0,0,000,38001000437003251,51.0,2020-08-28,Заводская,3827,3827,e8a6037f-bbc2-4b20-bc75-612d4e491f19,,25212000046,25612440101,20,546e7d36-71bd-488c-8c36-b8fa346e6d37,000,380010004370032,664038,2f1a8e8e-5d21-46f5-ac1c-8509c87914fd,38,ул,2018-04-12,1725,,,2020-08-30,000,0000,000,0,4afb5e84-701d-4bad-9b70-6e8af7df35b1,1716,,0
0,15fb8a02-1a72-404b-8d6c-4f4859ea6261,e8a6037f-bbc2-4b20-bc75-612d4e491f19,7,001,0,0,000,38001000000172500,0.0,2079-06-06,Заводская,3827,3827,ed0ff7ac-43c9-4985-9a1c-39edad885cfb,,25212000046,25612440101,51,546e7d36-71bd-488c-8c36-b8fa346e6d37,000,380010000001725,664038,3314f760-0d61-4c77-8d78-6a5384a28db2,38,ул,2018-12-20,1725,,,2020-08-30,000,0000,000,0,81eaaf4d-f5fa-4c3e-974a-4b317a516be6,1716,,0
1,15fb8a02-1a72-404b-8d6c-4f4859ea6261,ed0ff7ac-43c9-4985-9a1c-39edad885cfb,7,001,0,0,000,38001000000172500,0.0,2079-06-06,Заводская,3827,3827,,,25212000046,25612440,21,546e7d36-71bd-488c-8c36-b8fa346e6d37,000,380010000001725,664038,e8a6037f-bbc2-4b20-bc75-612d4e491f19,38,ул,2020-08-28,1725,,,2020-08-30,000,0000,000,1,,1716,,0
1,7de0a1e9-e510-47b8-8dc2-39223c6d1988,7de0a1e9-e510-47b8-8dc2-39223c6d1988,65,001,0,0,000,38001000063008900,0.0,2079-06-06,Падь Морозова,3827,3827,,,25212000077,25612442,10,c7775d38-1acb-4e06-ab3f-9789aba6790e,063,380010000630089,,,38,тер.,2020-08-28,0000,,,2020-08-30,000,0000,000,1,,0089,,0
1,c1a3741e-a387-4c7b-81df-abd23614592d,c1a3741e-a387-4c7b-81df-abd23614592d,7,001,0,0,000,38001000046002200,0.0,2079-06-06,Байкальских просторов,3827,3827,,,25212000057,25612431141,10,35ad19fc-7d6f-4ebb-b986-f63d66700079,046,380010000460022,,,38,ул,2020-09-02,0022,,,2020-09-03,000,0000,000,1,,0012,,0
1,46295ae2-9f51-4511-bbfd-8d162f3ce658,46295ae2-9f51-4511-bbfd-8d162f3ce658,7,001,0,0,000,38001000046002100,0.0,2079-06-06,Морозных узоров,3827,3827,,,25212000057,25612431141,10,35ad19fc-7d6f-4ebb-b986-f63d66700079,046,380010000460021,,,38,ул,2020-09-02,0021,,,2020-09-03,000,0000,000,1,,0012,,0
0,cbf81e44-e07c-4630-9e79-65d3dc625a1f,1ac0b4fd-1aa1-479a-8fbd-f42b991b3a2b,6,018,0,0,000,3801800002901,1.0,2015-11-12,Турбаза Снежная,3848,3848,f27d77d6-a921-4e90-8cfe-dd7852eed3c2,,25234805001,25634408101,1,dddfffa9-c02c-48c5-b0e4-1871e61b5f45,029,38018000029,665913,,38,тер,1900-01-01,0000,,,2020-09-03,000,0000,000,0,,0000,,0
0,cbf81e44-e07c-4630-9e79-65d3dc625a1f,f27d77d6-a921-4e90-8cfe-dd7852eed3c2,6,018,0,0,000,3801800002902,2.0,2015-11-12,Турбаза Снежная,3810,3810,51b3fdc5-5858-4d5a-b6a3-822a12f6ea73,,25234805001,25634408101,21,dddfffa9-c02c-48c5-b0e4-1871e61b5f45,000,38018000029,665913,1ac0b4fd-1aa1-479a-8fbd-f42b991b3a2b,38,тер,2012-12-28,0000,,,2020-09-03,000,0000,000,0,2432d673-6cf7-4cdb-aafa-7da8d558aa8e,0008,,0
0,cbf81e44-e07c-4630-9e79-65d3dc625a1f,51b3fdc5-5858-4d5a-b6a3-822a12f6ea73,6,018,0,0,000,3801800002951,51.0,2015-11-12,Турбаза Снежная,3810,3810,91f3c2ad-8d95-4417-87af-5fee9dec79ce,,25234000014,25634408101,21,dddfffa9-c02c-48c5-b0e4-1871e61b5f45,000,38018000029,665913,f27d77d6-a921-4e90-8cfe-dd7852eed3c2,38,тер,2015-11-12,0000,,,2020-09-03,000,0000,000,0,2432d673-6cf7-4cdb-aafa-7da8d558aa8e,0008,,0
0,cbf81e44-e07c-4630-9e79-65d3dc625a1f,91f3c2ad-8d95-4417-87af-5fee9dec79ce,90,018,0,0,000,38018000008001051,51.0,2016-09-29,Турбаза Снежная,3810,3810,ab0de2a3-94ff-4340-87eb-170c0623d878,,25234000014,25634408101,50,63c8c77b-402a-4e88-95e8-288ba01b153b,008,380180000080010,665913,51b3fdc5-5858-4d5a-b6a3-822a12f6ea73,38,тер,2015-11-12,0000,,,2020-09-03,000,0000,000,0,bfa8dbf4-8082-4892-b493-b6895a87b132,0000,,0
0,cbf81e44-e07c-4630-9e79-65d3dc625a1f,ab0de2a3-94ff-4340-87eb-170c0623d878,65,018,0,0,000,38018000008001051,51.0,2019-04-23,Турбаза Снежная,3810,3810,ab3eb372-92a4-4365-af34-87f36b9664c5,,25234000014,25634408101,50,63c8c77b-402a-4e88-95e8-288ba01b153b,008,380180000080010,665913,91f3c2ad-8d95-4417-87af-5fee9dec79ce,38,тер,2016-09-29,0000,,,2020-09-03,000,0000,000,0,,0010,,0
0,cbf81e44-e07c-4630-9e79-65d3dc625a1f,ab3eb372-92a4-4365-af34-87f36b9664c5,65,018,0,0,000,38018000000000803,3.0,2019-04-23,Турбаза Снежная,3810,3810,fadc3b80-a0a5-4c8a-b672-ce472f0113f4,,25234000014,25634408101,50,dddfffa9-c02c-48c5-b0e4-1871e61b5f45,000,380180000000008,665913,ab0de2a3-94ff-4340-87eb-170c0623d878,38,тер,2018-12-21,0000,,,2020-09-03,000,0000,000,0,e650b4c3-81a2-497d-80f7-f244fa9fe3bf,0008,,0
0,cbf81e44-e07c-4630-9e79-65d3dc625a1f,fadc3b80-a0a5-4c8a-b672-ce472f0113f4,65,018,0,0,000,38018000000000804,4.0,2020-09-01,Рекрационный комплекс Снежная,3810,3810,7bb0aedb-ffe5-40d4-9c13-4cb0c2824099,,25234000014,25634408101,20,dddfffa9-c02c-48c5-b0e4-1871e61b5f45,000,380180000000008,,ab3eb372-92a4-4365-af34-87f36b9664c5,38,тер,2019-04-23,0000,,,2020-09-03,000,0000,000,0,5dd83cad-d6a7-43ba-ae47-b4e207e9d7aa,0008,,0
1,cbf81e44-e07c-4630-9e79-65d3dc625a1f,7bb0aedb-ffe5-40d4-9c13-4cb0c2824099,65,018,0,0,000,38018000000000800,0.0,2079-06-06,культурно-экологический парк Озера на Снежной,3810,3810,,,25234000014,25634408,20,dddfffa9-c02c-48c5-b0e4-1871e61b5f45,000,380180000000008,,fadc3b80-a0a5-4c8a-b672-ce472f0113f4,38,тер,2020-09-01,0000,,,2020-09-03,000,0000,000,1,,0008,,0
1,88e9fa8e-c4f5-40e8-aa5b-0b15da0e9407,88e9fa8e-c4f5-40e8-aa5b-0b15da0e9407,7,001,0,0,000,38001000046001900,0.0,2079-06-06,Горных хребтов,3827,3827,,,25212000057,25612431141,10,35ad19fc-7d6f-4ebb-b986-f63d66700079,046,380010000460019,,,38,ул,2020-09-02,0019,,,2020-09-03,000,0000,000,1,,0012,,0
1,45b9ad81-af79-4f6d-b6db-525112e920a0,45b9ad81-af79-4f6d-b6db-525112e920a0,7,001,0,0,000,38001000046001400,0.0,2079-06-06,Рябинового заката,3827,3827,,,25212000057,25612431141,10,35ad19fc-7d6f-4ebb-b986-f63d66700079,046,380010000460014,,,38,ул,2020-09-02,0014,,,2020-09-03,000,0000,000,1,,0012,,0
1,b721eb03-35bf-48f4-bd9a-74e8402e0098,b721eb03-35bf-48f4-bd9a-74e8402e0098,7,001,0,0,000,38001000046001600,0.0,2079-06-06,Таежных ароматов,3827,3827,,,25212000057,25612431141,10,35ad19fc-7d6f-4ebb-b986-f63d66700079,046,380010000460016,,,38,ул,2020-09-02,0016,,,2020-09-03,000,0000,000,1,,0012,,0
1,17134001-58bb-4f7f-b79a-8632dbda1f15,17134001-58bb-4f7f-b79a-8632dbda1f15,7,001,0,0,000,38001000046001700,0.0,2079-06-06,Брусничного румянца,3827,3827,,,25212000057,25612431141,10,35ad19fc-7d6f-4ebb-b986-f63d66700079,046,380010000460017,,,38,ул,2020-09-02,0017,,,2020-09-03,000,0000,000,1,,0012,,0
1,2de54da0-769e-4e82-b025-517afbbc1a9d,2de54da0-769e-4e82-b025-517afbbc1a9d,7,001,0,0,000,38001000046001500,0.0,2079-06-06,Земляничной росы,3827,3827,,,25212000057,25612431141,10,35ad19fc-7d6f-4ebb-b986-f63d66700079,046,380010000460015,,,38,ул,2020-09-02,0015,,,2020-09-03,000,0000,000,1,,0012,,0
1,754a866c-3266-41a6-856a-618bd86079a8,754a866c-3266-41a6-856a-618bd86079a8,7,001,0,0,000,38001000046002300,0.0,2079-06-06,Хвойного шепота,3827,3827,,,25212000057,25612431141,10,35ad19fc-7d6f-4ebb-b986-f63d66700079,046,380010000460023,,,38,ул,2020-09-02,0023,,,2020-09-03,000,0000,000,1,,0012,,0
1,f0b6cbb8-a82f-43ec-b0f9-0c37532c322c,f0b6cbb8-a82f-43ec-b0f9-0c37532c322c,7,001,0,0,000,38001000046002000,0.0,2079-06-06,Искристых родников,3827,3827,,,25212000057,25612431141,10,35ad19fc-7d6f-4ebb-b986-f63d66700079,046,380010000460020,,,38,ул,2020-09-02,0020,,,2020-09-03,000,0000,000,1,,0012,,0
1,46478396-f991-4e61-82a6-efa297ce84b4,46478396-f991-4e61-82a6-efa297ce84b4,7,001,0,0,000,38001000046001800,0.0,2079-06-06,Полевых цветов,3827,3827,,,25212000057,25612431141,10,35ad19fc-7d6f-4ebb-b986-f63d66700079,046,380010000460018,,,38,ул,2020-09-02,0018,,,2020-09-03,000,0000,000,1,,0012,,0
1,c9d75831-b95b-4fd6-b029-5a5d909df87d,c9d75831-b95b-4fd6-b029-5a5d909df87d,7,001,0,0,000,38001000068004300,0.0,2079-06-06,Веселая,3827,3827,,,25212000083,25612437101,10,0c9575ca-838d-4e81-adec-2152992cc7af,068,380010000680043,,,38,ул,2020-09-02,0043,,,2020-09-03,000,0000,000,1,,0000,,0
1,982d6a12-53b6-4c15-93ea-9edbe7ac744b,982d6a12-53b6-4c15-93ea-9edbe7ac744b,7,001,0,0,000,38001000068004400,0.0,2079-06-06,Юбилейная,3827,3827,,,25212000083,25612437101,10,0c9575ca-838d-4e81-adec-2152992cc7af,068,380010000680044,,,38,ул,2020-09-02,0044,,,2020-09-03,000,0000,000,1,,0000,,0
0,f17350d0-b322-4aaf-8af1-d5f8d2cdd6a4,22186b40-2e55-4c54-91dc-2d7cf983e43b,7,001,0,0,000,38001000077000101,1.0,2079-06-06,Комсомольская,3827,3827,2a6360f4-b627-4d66-ab7c-002584c46cd6,,25212807006,25612407,1,145b5a17-53a8-412b-8906-5f010b2c2a79,077,380010000770001,664533,,38,ул,1900-01-01,0001,,,2020-08-16,000,0000,000,0,,0000,,0
0,f17350d0-b322-4aaf-8af1-d5f8d2cdd6a4,2a6360f4-b627-4d66-ab7c-002584c46cd6,7,001,0,0,000,38001000077000102,2.0,2015-10-23,Комсомольская,3827,3827,dd157ad7-d9e9-4803-a350-38e1d877a7d1,,25212807006,25612407116,21,145b5a17-53a8-412b-8906-5f010b2c2a79,077,380010000770001,664533,22186b40-2e55-4c54-91dc-2d7cf983e43b,38,ул,2014-01-10,0001,,,2020-08-16,000,0000,000,0,,0000,,0
0,f17350d0-b322-4aaf-8af1-d5f8d2cdd6a4,dd157ad7-d9e9-4803-a350-38e1d877a7d1,7,001,0,0,000,38001000077000100,0.0,2079-06-06,Комсомольская,3827,3827,1332410b-34d6-458d-bdef-b14153dc1ca9,,25212807006,25612407116,21,145b5a17-53a8-412b-8906-5f010b2c2a79,077,380010000770001,,2a6360f4-b627-4d66-ab7c-002584c46cd6,38,ул,2015-10-23,0001,,,2020-08-16,000,0000,000,0,,0000,,0
1,f17350d0-b322-4aaf-8af1-d5f8d2cdd6a4,1332410b-34d6-458d-bdef-b14153dc1ca9,7,001,0,0,000,38001000077000100,0.0,2079-06-06,Комсомольская,3827,3827,,,25212000065,25612407116,21,145b5a17-53a8-412b-8906-5f010b2c2a79,077,380010000770001,,dd157ad7-d9e9-4803-a350-38e1d877a7d1,38,ул,2020-08-14,0001,,,2020-08-16,000,0000,000,1,,0000,,0
1,b4be86d4-faf2-46b3-acc1-a74b24bd6701,b4be86d4-faf2-46b3-acc1-a74b24bd6701,7,001,0,0,000,38001000046001300,0.0,2079-06-06,Солнечный,3827,3827,,,25212000057,25612431141,10,2a80a4e0-9e2a-459a-9585-542c5132f6d9,046,380010000460013,,,38,пер,2020-08-13,0013,,,2020-08-16,000,0000,000,1,,0010,,0
0,726cb3b2-69b2-4ae6-997f-c8e3e5794a74,726cb3b2-69b2-4ae6-997f-c8e3e5794a74,7,000,0,0,004,38000004019003401,1.0,2020-08-14,5,3801,3801,4f056674-1ab0-40ad-a309-6371ad5df979,,25203501000,25703000,10,56bed203-b52b-41f6-861f-187653cc2824,019,380000040190034,,,38,ул,2016-10-20,0034,,,2020-08-16,000,0000,000,0,f97ea375-690b-4f37-b3e1-15da1499a6e6,0026,,0
0,726cb3b2-69b2-4ae6-997f-c8e3e5794a74,4f056674-1ab0-40ad-a309-6371ad5df979,7,000,0,0,004,38000004019003451,51.0,2019-05-31,5,3801,3801,8126ef70-ba88-43e6-9899-42375311b902,,25203501000,25703000001,21,56bed203-b52b-41f6-861f-187653cc2824,000,380000040190034,,726cb3b2-69b2-4ae6-997f-c8e3e5794a74,38,ул,2019-02-06,1009,,,2020-08-16,000,0000,000,0,79c32747-49fa-4bb4-8488-564c734c1a6d,1004,,0
0,726cb3b2-69b2-4ae6-997f-c8e3e5794a74,8126ef70-ba88-43e6-9899-42375311b902,7,000,0,0,004,38000004000100901,1.0,2020-08-14,5,3801,3801,513a3043-fd24-4ddf-a259-16c13a1c22bf,,25203501000,25703000001,51,56bed203-b52b-41f6-861f-187653cc2824,000,380000040001009,,4f056674-1ab0-40ad-a309-6371ad5df979,38,ул,2019-05-31,1009,,,2020-08-16,000,0000,000,0,4ed0e452-4bd6-4462-aadc-c69cfe4b73b9,1004,,0
0,726cb3b2-69b2-4ae6-997f-c8e3e5794a74,513a3043-fd24-4ddf-a259-16c13a1c22bf,7,000,0,0,004,38000004000100901,1.0,2079-06-06,5,3801,3801,d7f5cd27-0301-4e9e-b156-3b237dca6577,,25203501000,25703000001,21,56bed203-b52b-41f6-861f-187653cc2824,000,380000040001009,665814,8126ef70-ba88-43e6-9899-42375311b902,38,ул,2020-05-22,1009,,,2020-08-16,000,0000,000,0,,1004,,0
1,726cb3b2-69b2-4ae6-997f-c8e3e5794a74,d7f5cd27-0301-4e9e-b156-3b237dca6577,7,000,0,0,004,38000004000100900,0.0,2079-06-06,5-я,3801,3801,,,25203501000,25703000001,20,56bed203-b52b-41f6-861f-187653cc2824,000,380000040001009,665814,513a3043-fd24-4ddf-a259-16c13a1c22bf,38,ул,2020-08-14,1009,,,2020-08-16,000,0000,000,1,,1004,,0
0,a6722311-6588-4ac8-b3ec-3d0689cbbcfd,12649fb1-6db4-4b68-9557-56d1a9eacf7f,7,000,0,0,005,38000005018007701,1.0,2019-03-14,Промплощадка,3805,3805,b7adfeef-21ac-47ad-99c4-ebdfc78e88ab,,25414365000,25714000,1,ae36f331-d184-4331-86b4-f7cac19d18df,018,380000050180077,665712,,38,тер,1900-01-01,0077,,,2020-08-17,000,0000,000,0,,0000,,0
0,a6722311-6588-4ac8-b3ec-3d0689cbbcfd,b7adfeef-21ac-47ad-99c4-ebdfc78e88ab,7,000,0,0,005,38000005018007702,2.0,2016-07-21,Промплощадка,3805,3805,f98d5c90-8907-44e0-ab2f-6234fe7ee1db,,25414000000,25714000,21,bdf6b629-b33e-4cfa-b4b2-7f693e1d821c,000,380000050180077,665712,12649fb1-6db4-4b68-9557-56d1a9eacf7f,38,тер,2014-02-04,0000,,,2020-08-17,000,0000,000,0,8fda32b9-671b-4e92-8579-a5df2887703f,0203,,0
0,a6722311-6588-4ac8-b3ec-3d0689cbbcfd,f98d5c90-8907-44e0-ab2f-6234fe7ee1db,7,000,0,0,005,38000005018007703,3.0,2017-11-09,Промплощадка,3805,3805,590b44db-bddd-40d3-ad33-34eab175faa4,,25414365000,25714000,21,bdf6b629-b33e-4cfa-b4b2-7f693e1d821c,000,380000050180077,665712,b7adfeef-21ac-47ad-99c4-ebdfc78e88ab,38,тер,2016-07-21,0000,,,2020-08-17,000,0000,000,0,8fda32b9-671b-4e92-8579-a5df2887703f,0203,,0
0,a6722311-6588-4ac8-b3ec-3d0689cbbcfd,590b44db-bddd-40d3-ad33-34eab175faa4,7,000,0,0,005,38000005018007751,51.0,2019-03-14,Промплощадка,3805,3805,e4a2be36-c289-467f-85a3-d984719de774,,25414365000,25714000001,21,bdf6b629-b33e-4cfa-b4b2-7f693e1d821c,000,380000050180077,665712,f98d5c90-8907-44e0-ab2f-6234fe7ee1db,38,тер,2017-11-09,0000,,,2020-08-17,000,0000,000,0,9a73a650-b2c6-4f15-b85b-20e7b3f631e8,0203,,0
0,a6722311-6588-4ac8-b3ec-3d0689cbbcfd,e4a2be36-c289-467f-85a3-d984719de774,65,000,0,0,005,38000005018009751,51.0,2020-08-17,Промплощадка,3805,3805,82091900-7b49-4c5d-834d-930aa1c783cf,,25414365000,25714000001,50,ae36f331-d184-4331-86b4-f7cac19d18df,018,380000050180097,665712,590b44db-bddd-40d3-ad33-34eab175faa4,38,тер,2019-03-14,0000,,,2020-08-17,000,0000,000,0,79d58b6a-b7e3-476d-bd1d-da2af0653138,0097,,0
0,a6722311-6588-4ac8-b3ec-3d0689cbbcfd,82091900-7b49-4c5d-834d-930aa1c783cf,65,000,0,0,005,38000005000020399,99.0,2020-08-17,Промплощадка,3805,3805,97cf3aa1-f34d-4133-a07d-a0b027114dfb,,25414365000,25714000001,50,bdf6b629-b33e-4cfa-b4b2-7f693e1d821c,000,380000050000203,665712,e4a2be36-c289-467f-85a3-d984719de774,38,тер,2019-10-11,0000,,,2020-08-17,000,0000,000,0,7e2f33a3-4bb0-4c48-bed4-7dd85d79971b,0203,,0
1,a6722311-6588-4ac8-b3ec-3d0689cbbcfd,97cf3aa1-f34d-4133-a07d-a0b027114dfb,65,000,0,0,005,38000005000020399,99.0,2079-06-06,Промплощадка,3805,3805,,,25414365000,25714000001,30,bdf6b629-b33e-4cfa-b4b2-7f693e1d821c,000,380000050000203,665712,82091900-7b49-4c5d-834d-930aa1c783cf,38,тер,2020-08-17,0000,,,2020-08-17,000,0000,000,0,,0203,,0
0,77ee4a60-d1ae-4c66-ac3a-9d54417cdab2,77ee4a60-d1ae-4c66-ac3a-9d54417cdab2,7,000,0,0,005,38000005000026800,0.0,2079-06-06,Восточная,3804,3804,ada42729-8825-4024-bc38-affc88486900,,25414000000,25714000001,10,219f7489-0ce2-4078-9a4d-23530e8dd2ee,000,380000050000268,665700,,38,ул,2019-10-29,0268,,,2020-08-20,000,0000,000,0,559e3dda-f82b-4341-918c-eb57917a122d,0045,,0
1,77ee4a60-d1ae-4c66-ac3a-9d54417cdab2,ada42729-8825-4024-bc38-affc88486900,7,000,0,0,005,38000005000026800,0.0,2079-06-06,Восточная,3805,3805,,,25414000000,25714000001,21,219f7489-0ce2-4078-9a4d-23530e8dd2ee,000,380000050000268,665700,77ee4a60-d1ae-4c66-ac3a-9d54417cdab2,38,ул,2020-08-18,0268,,,2020-08-20,000,0000,000,1,,0045,,0
0,3c297be0-7fe8-47ad-a105-7781a11a2bcc,3c297be0-7fe8-47ad-a105-7781a11a2bcc,91,001,0,0,000,,,2016-09-28,Ивановская,3827,3827,9c0730a5-3e75-4feb-8024-e508e3e8823a,,25212000046,25612440,10,df4b8976-7eda-4a88-864d-6208f9fef403,437,,664038,,38,ул,2015-12-02,0000,,,2020-08-20,000,0000,000,0,cba3af21-b6b5-458e-8cee-3fb128f29eb7,0000,,0
0,3c297be0-7fe8-47ad-a105-7781a11a2bcc,9c0730a5-3e75-4feb-8024-e508e3e8823a,7,001,0,0,000,38001000437001601,1.0,2079-06-06,Ивановская,3827,3827,32f785ae-dcff-4849-9002-c8651df3ae9d,,25212000000,25612440,51,df4b8976-7eda-4a88-864d-6208f9fef403,437,380010004370016,664038,3c297be0-7fe8-47ad-a105-7781a11a2bcc,38,ул,2016-09-28,0016,,,2020-08-20,000,0000,000,0,,0005,,0
0,3c297be0-7fe8-47ad-a105-7781a11a2bcc,32f785ae-dcff-4849-9002-c8651df3ae9d,7,001,0,0,000,38001000437001651,51.0,2018-12-20,Ивановская,3827,3827,2a55fb01-497c-44e2-a50f-8d183fafeb90,,25212000000,25612440,20,df4b8976-7eda-4a88-864d-6208f9fef403,000,380010004370016,664038,9c0730a5-3e75-4feb-8024-e508e3e8823a,38,ул,2018-04-12,1743,,,2020-08-20,000,0000,000,0,4afb5e84-701d-4bad-9b70-6e8af7df35b1,1739,,0
0,3c297be0-7fe8-47ad-a105-7781a11a2bcc,2a55fb01-497c-44e2-a50f-8d183fafeb90,7,001,0,0,000,38001000000174300,0.0,2079-06-06,Ивановская,3827,3827,911b9c63-712e-489c-b390-7f58712f1055,,25212000000,25612440,51,df4b8976-7eda-4a88-864d-6208f9fef403,000,380010000001743,664038,32f785ae-dcff-4849-9002-c8651df3ae9d,38,ул,2018-12-20,1743,,,2020-08-20,000,0000,000,0,81eaaf4d-f5fa-4c3e-974a-4b317a516be6,1739,,0
1,3c297be0-7fe8-47ad-a105-7781a11a2bcc,911b9c63-712e-489c-b390-7f58712f1055,7,001,0,0,000,38001000000174300,0.0,2079-06-06,Ивановская,3827,3827,,,25212000046,25612440,21,df4b8976-7eda-4a88-864d-6208f9fef403,000,380010000001743,664038,2a55fb01-497c-44e2-a50f-8d183fafeb90,38,ул,2020-08-19,1743,,,2020-08-20,000,0000,000,1,,1739,,0
0,6f03ae65-872d-4c01-9e7d-19b84d618a52,6f03ae65-872d-4c01-9e7d-19b84d618a52,91,001,0,0,000,,,2016-09-28,Напольная,3827,3827,ce16bc98-5b85-4844-8de4-aed7d8c3ad45,,25212000000,25612440,10,a99b380d-3778-4baa-8621-f67feff5b6d0,437,,664038,,38,ул,2015-12-28,0000,,,2020-08-20,000,0000,000,0,86984741-e452-47c7-b219-9d46933de5fa,0000,,0
0,6f03ae65-872d-4c01-9e7d-19b84d618a52,ce16bc98-5b85-4844-8de4-aed7d8c3ad45,7,001,0,0,000,38001000437000851,51.0,2079-06-06,Напольная,3827,3827,8e69125c-9eae-46b0-918b-7a154c9efee2,,25212000000,25612440,51,a99b380d-3778-4baa-8621-f67feff5b6d0,437,380010004370008,664038,6f03ae65-872d-4c01-9e7d-19b84d618a52,38,ул,2016-09-28,0008,,,2020-08-20,000,0000,000,0,,0004,,0
0,6f03ae65-872d-4c01-9e7d-19b84d618a52,8e69125c-9eae-46b0-918b-7a154c9efee2,7,001,0,0,000,38001000000170700,0.0,2079-06-06,Напольная,3827,3827,12981882-9efa-4d7a-8566-d974dd9e0235,,25212000000,25612440,51,a99b380d-3778-4baa-8621-f67feff5b6d0,000,380010000001707,664038,ce16bc98-5b85-4844-8de4-aed7d8c3ad45,38,ул,2018-12-20,1707,,,2020-08-20,000,0000,000,0,81eaaf4d-f5fa-4c3e-974a-4b317a516be6,1703,,0
1,6f03ae65-872d-4c01-9e7d-19b84d618a52,12981882-9efa-4d7a-8566-d974dd9e0235,7,001,0,0,000,38001000000170700,0.0,2079-06-06,Напольная,3827,3827,,,25212000046,25612440,21,a99b380d-3778-4baa-8621-f67feff5b6d0,000,380010000001707,664038,8e69125c-9eae-46b0-918b-7a154c9efee2,38,ул,2020-08-19,1707,,,2020-08-20,000,0000,000,1,,1703,,0
0,fc23dccb-859a-4bfd-bdb0-7f0606e1bac0,fc23dccb-859a-4bfd-bdb0-7f0606e1bac0,7,000,0,0,005,38000005000027000,0.0,2079-06-06,Багульная,3804,3804,606ea8d9-7356-48b1-bc55-a02b2a8f039c,,25414000000,25714000001,10,219f7489-0ce2-4078-9a4d-23530e8dd2ee,000,380000050000270,665700,,38,ул,2019-10-29,0270,,,2020-08-20,000,0000,000,0,559e3dda-f82b-4341-918c-eb57917a122d,0045,,0
1,fc23dccb-859a-4bfd-bdb0-7f0606e1bac0,606ea8d9-7356-48b1-bc55-a02b2a8f039c,7,000,0,0,005,38000005000027000,0.0,2079-06-06,Багульная,3805,3805,,,25414000000,25714000001,21,219f7489-0ce2-4078-9a4d-23530e8dd2ee,000,380000050000270,665700,fc23dccb-859a-4bfd-bdb0-7f0606e1bac0,38,ул,2020-08-18,0270,,,2020-08-20,000,0000,000,1,,0045,,0
0,219f7489-0ce2-4078-9a4d-23530e8dd2ee,219f7489-0ce2-4078-9a4d-23530e8dd2ee,65,000,0,0,005,38000005000004501,1.0,2019-12-18,ДПК Росток,3804,3804,6ee02074-f110-4784-bd52-a08147a9686a,,25414000000,25714000001,10,bdf6b629-b33e-4cfa-b4b2-7f693e1d821c,000,380000050000045,665700,,38,тер.,2018-07-09,0000,,,2020-08-20,000,0000,000,0,08e2aa90-c1cf-4d6a-bb16-26f56f9bd330,0045,,0
0,219f7489-0ce2-4078-9a4d-23530e8dd2ee,6ee02074-f110-4784-bd52-a08147a9686a,65,000,0,0,005,38000005000004500,0.0,2079-06-06,Росток,3804,3804,3a99f2cd-656e-4243-aebb-7ef2e7340570,,25414000000,25714000001,20,bdf6b629-b33e-4cfa-b4b2-7f693e1d821c,000,380000050000045,665700,219f7489-0ce2-4078-9a4d-23530e8dd2ee,38,тер. СНТ,2019-12-18,0000,,,2020-08-20,000,0000,000,0,9941f40d-ae78-4550-8982-bf657912d8b0,0045,,0
1,219f7489-0ce2-4078-9a4d-23530e8dd2ee,3a99f2cd-656e-4243-aebb-7ef2e7340570,65,000,0,0,005,38000005000004500,0.0,2079-06-06,Росток,3805,3805,,,25414000000,25714000001,21,bdf6b629-b33e-4cfa-b4b2-7f693e1d821c,000,380000050000045,665700,6ee02074-f110-4784-bd52-a08147a9686a,38,тер. СНТ,2020-08-18,0000,,,2020-08-20,000,0000,000,1,,0045,,0
0,60015dc5-9e85-4457-af06-ce0e69e1ea09,60015dc5-9e85-4457-af06-ce0e69e1ea09,91,001,0,0,000,,,2016-09-28,Тупиковая,3827,3827,74281e31-b55e-4aec-8ed9-6363f73f507d,,25212000000,25612440,10,a99b380d-3778-4baa-8621-f67feff5b6d0,437,,664038,,38,ул,2015-12-28,0000,,,2020-08-20,000,0000,000,0,d2bde567-3157-4f6e-b173-c44ea5f29c0e,0000,,0
0,60015dc5-9e85-4457-af06-ce0e69e1ea09,74281e31-b55e-4aec-8ed9-6363f73f507d,7,001,0,0,000,38001000437001251,51.0,2079-06-06,Тупиковая,3827,3827,87c98717-d0e3-403f-8a7a-2ade6e130ba9,,25212000000,25612440,51,a99b380d-3778-4baa-8621-f67feff5b6d0,437,380010004370012,664038,60015dc5-9e85-4457-af06-ce0e69e1ea09,38,ул,2016-09-28,0012,,,2020-08-20,000,0000,000,0,,0004,,0
0,60015dc5-9e85-4457-af06-ce0e69e1ea09,87c98717-d0e3-403f-8a7a-2ade6e130ba9,7,001,0,0,000,38001000000171100,0.0,2079-06-06,Тупиковая,3827,3827,545cf2e4-d448-4f31-9adb-0a133b27a972,,25212000000,25612440,51,a99b380d-3778-4baa-8621-f67feff5b6d0,000,380010000001711,664038,74281e31-b55e-4aec-8ed9-6363f73f507d,38,ул,2018-12-20,1711,,,2020-08-20,000,0000,000,0,81eaaf4d-f5fa-4c3e-974a-4b317a516be6,1703,,0
1,60015dc5-9e85-4457-af06-ce0e69e1ea09,545cf2e4-d448-4f31-9adb-0a133b27a972,7,001,0,0,000,38001000000171100,0.0,2079-06-06,Тупиковая,3827,3827,,,25212000046,25612440,21,a99b380d-3778-4baa-8621-f67feff5b6d0,000,380010000001711,664038,87c98717-d0e3-403f-8a7a-2ade6e130ba9,38,ул,2020-08-19,1711,,,2020-08-20,000,0000,000,1,,1703,,0
0,201a455b-ada5-4e54-a0df-56df253841de,201a455b-ada5-4e54-a0df-56df253841de,7,000,0,0,005,38000005000026400,0.0,2079-06-06,Нижняя,3804,3804,b48978c6-d158-43b8-955e-dcf87db4eb5a,,25414000000,25714000001,10,219f7489-0ce2-4078-9a4d-23530e8dd2ee,000,380000050000264,665700,,38,ул,2019-10-29,0264,,,2020-08-20,000,0000,000,0,559e3dda-f82b-4341-918c-eb57917a122d,0045,,0
1,201a455b-ada5-4e54-a0df-56df253841de,b48978c6-d158-43b8-955e-dcf87db4eb5a,7,000,0,0,005,38000005000026400,0.0,2079-06-06,Нижняя,3805,3805,,,25414000000,25714000001,21,219f7489-0ce2-4078-9a4d-23530e8dd2ee,000,380000050000264,665700,201a455b-ada5-4e54-a0df-56df253841de,38,ул,2020-08-18,0264,,,2020-08-20,000,0000,000,1,,0045,,0
1,2c9c12fd-e630-4aac-8a13-84a3587d8f23,2c9c12fd-e630-4aac-8a13-84a3587d8f23,65,005,0,0,002,38005002000000900,0.0,2079-06-06,ГСК Крепость,3805,3805,,,25204503000,25604103001,10,04bc8726-0523-4aeb-8450-fe07ff425372,000,380050020000009,,,38,тер.,2020-08-19,0000,,,2020-08-20,000,0000,000,1,,0009,,0
0,cc5c85d7-db33-4849-8c1b-066867e9ded1,cc5c85d7-db33-4849-8c1b-066867e9ded1,7,000,0,0,005,38000005000026900,0.0,2079-06-06,Лесная,3804,3804,771822f4-9e04-42c8-994d-0d8cdb99923e,,25414000000,25714000001,10,219f7489-0ce2-4078-9a4d-23530e8dd2ee,000,380000050000269,665700,,38,ул,2019-10-29,0269,,,2020-08-20,000,0000,000,0,559e3dda-f82b-4341-918c-eb57917a122d,0045,,0
1,cc5c85d7-db33-4849-8c1b-066867e9ded1,771822f4-9e04-42c8-994d-0d8cdb99923e,7,000,0,0,005,38000005000026900,0.0,2079-06-06,Лесная,3805,3805,,,25414000000,25714000001,21,219f7489-0ce2-4078-9a4d-23530e8dd2ee,000,380000050000269,665700,cc5c85d7-db33-4849-8c1b-066867e9ded1,38,ул,2020-08-18,0269,,,2020-08-20,000,0000,000,1,,0045,,0
0,c56e7e32-e3a3-4e8b-b497-82ef8428c4d8,c56e7e32-e3a3-4e8b-b497-82ef8428c4d8,7,000,0,0,005,38000005000043100,0.0,2079-06-06,Солнечная,3804,3804,64f70a26-341c-41f7-a980-6db501baa143,,25414000000,25714000001,10,219f7489-0ce2-4078-9a4d-23530e8dd2ee,000,380000050000431,665700,,38,ул,2019-12-20,0431,,,2020-08-20,000,0000,000,0,1c6e5190-f820-458e-8594-1d576a760bff,0045,,0
1,c56e7e32-e3a3-4e8b-b497-82ef8428c4d8,64f70a26-341c-41f7-a980-6db501baa143,7,000,0,0,005,38000005000043100,0.0,2079-06-06,Солнечная,3805,3805,,,25414000000,25714000001,21,219f7489-0ce2-4078-9a4d-23530e8dd2ee,000,380000050000431,665700,c56e7e32-e3a3-4e8b-b497-82ef8428c4d8,38,ул,2020-08-18,0431,,,2020-08-20,000,0000,000,1,,0045,,0
0,af67fdfa-f161-47c5-b390-00416969e93c,af67fdfa-f161-47c5-b390-00416969e93c,91,001,0,0,000,,,2016-09-28,Березовая,3827,3827,2bfb2444-6dd2-4382-a91c-dd683d8418ee,,25212000000,25612440,10,a7b49534-9095-4acd-94dd-15166e8915c9,437,,664038,,38,ул,2015-12-28,0000,,,2020-08-20,000,0000,000,0,4278da54-35e1-4add-93f8-2d508892d05d,0000,,0
0,af67fdfa-f161-47c5-b390-00416969e93c,2bfb2444-6dd2-4382-a91c-dd683d8418ee,7,001,0,0,000,38001000437002301,1.0,2079-06-06,Березовая,3827,3827,bcdd13de-b542-4a78-bee9-9de109105f70,,25212000000,25612440,51,a7b49534-9095-4acd-94dd-15166e8915c9,437,380010004370023,665854,af67fdfa-f161-47c5-b390-00416969e93c,38,ул,2016-09-28,0023,,,2020-08-20,000,0000,000,0,,0003,,0
0,af67fdfa-f161-47c5-b390-00416969e93c,bcdd13de-b542-4a78-bee9-9de109105f70,7,001,0,0,000,38001000437002351,51.0,2018-12-20,Березовая,3827,3827,43735624-f9bf-48f1-96ce-173b5aa77460,,25212000000,25612440,20,a7b49534-9095-4acd-94dd-15166e8915c9,000,380010004370023,,2bfb2444-6dd2-4382-a91c-dd683d8418ee,38,ул,2018-04-12,1713,,,2020-08-20,000,0000,000,0,4afb5e84-701d-4bad-9b70-6e8af7df35b1,1712,,0
0,af67fdfa-f161-47c5-b390-00416969e93c,43735624-f9bf-48f1-96ce-173b5aa77460,7,001,0,0,000,38001000000171302,2.0,2019-06-07,Березовая,3827,3827,abd1ea1c-c67f-4b67-b77e-ffcd5fa99293,,25212000000,25612440,51,a7b49534-9095-4acd-94dd-15166e8915c9,000,380010000001713,,bcdd13de-b542-4a78-bee9-9de109105f70,38,ул,2018-12-20,1713,,,2020-08-20,000,0000,000,0,81eaaf4d-f5fa-4c3e-974a-4b317a516be6,1712,,0
0,af67fdfa-f161-47c5-b390-00416969e93c,abd1ea1c-c67f-4b67-b77e-ffcd5fa99293,7,001,0,0,000,38001000000171300,0.0,2079-06-06,Березовая,3827,3827,49319a08-00ce-4455-bf5c-0b37af75f601,,25212000000,25612440,21,a7b49534-9095-4acd-94dd-15166e8915c9,000,380010000001713,664038,43735624-f9bf-48f1-96ce-173b5aa77460,38,ул,2019-06-07,1713,,,2020-08-20,000,0000,000,0,bae24ecf-77f1-4e32-91ff-ff95b2dc4f9c,1712,,0
1,af67fdfa-f161-47c5-b390-00416969e93c,49319a08-00ce-4455-bf5c-0b37af75f601,7,001,0,0,000,38001000000171300,0.0,2079-06-06,Березовая,3827,3827,,,25212000046,25612440,21,a7b49534-9095-4acd-94dd-15166e8915c9,000,380010000001713,664038,abd1ea1c-c67f-4b67-b77e-ffcd5fa99293,38,ул,2020-08-19,1713,,,2020-08-20,000,0000,000,1,,1712,,0
0,5ae83374-25f0-46a9-bfc8-41a921c714ae,5ae83374-25f0-46a9-bfc8-41a921c714ae,7,000,0,0,005,38000005000026700,0.0,2079-06-06,Сосновая,3804,3804,c2ce0b75-9342-4663-8a0d-a5963b44b7d4,,25414000000,25714000001,10,219f7489-0ce2-4078-9a4d-23530e8dd2ee,000,380000050000267,665700,,38,ул,2019-10-29,0267,,,2020-08-20,000,0000,000,0,559e3dda-f82b-4341-918c-eb57917a122d,0045,,0
1,5ae83374-25f0-46a9-bfc8-41a921c714ae,c2ce0b75-9342-4663-8a0d-a5963b44b7d4,7,000,0,0,005,38000005000026700,0.0,2079-06-06,Сосновая,3805,3805,,,25414000000,25714000001,21,219f7489-0ce2-4078-9a4d-23530e8dd2ee,000,380000050000267,665700,5ae83374-25f0-46a9-bfc8-41a921c714ae,38,ул,2020-08-18,0267,,,2020-08-20,000,0000,000,1,,0045,,0
0,9ec5a9a2-7ede-4066-9dc9-8fddcf3b461d,9ec5a9a2-7ede-4066-9dc9-8fddcf3b461d,91,001,0,0,000,,,2016-09-28,Березовая,3827,3827,1ba08570-62e2-4f38-a281-4659d651c199,,25212000000,25612440,10,a99b380d-3778-4baa-8621-f67feff5b6d0,437,,664038,,38,ул,2015-12-28,0000,,,2020-08-20,000,0000,000,0,9f67efc8-65d7-4f6f-b086-82486cd14607,0000,,0
0,9ec5a9a2-7ede-4066-9dc9-8fddcf3b461d,1ba08570-62e2-4f38-a281-4659d651c199,7,001,0,0,000,38001000437005251,51.0,2079-06-06,Березовая,3827,3827,6b042a91-9eee-45f3-970f-bb3049406012,,25212000000,25612440,51,a99b380d-3778-4baa-8621-f67feff5b6d0,437,380010004370052,664038,9ec5a9a2-7ede-4066-9dc9-8fddcf3b461d,38,ул,2016-09-28,0052,,,2020-08-20,000,0000,000,0,,0004,,0
0,9ec5a9a2-7ede-4066-9dc9-8fddcf3b461d,6b042a91-9eee-45f3-970f-bb3049406012,7,001,0,0,000,38001000000170400,0.0,2079-06-06,Березовая,3827,3827,01f1239a-abdf-44e1-9a9f-a2c3e82f182d,,25212000000,25612440,51,a99b380d-3778-4baa-8621-f67feff5b6d0,000,380010000001704,664038,1ba08570-62e2-4f38-a281-4659d651c199,38,ул,2018-12-20,1704,,,2020-08-20,000,0000,000,0,81eaaf4d-f5fa-4c3e-974a-4b317a516be6,1703,,0
1,9ec5a9a2-7ede-4066-9dc9-8fddcf3b461d,01f1239a-abdf-44e1-9a9f-a2c3e82f182d,7,001,0,0,000,38001000000170400,0.0,2079-06-06,Березовая,3827,3827,,,25212000046,25612440,21,a99b380d-3778-4baa-8621-f67feff5b6d0,000,380010000001704,664038,6b042a91-9eee-45f3-970f-bb3049406012,38,ул,2020-08-19,1704,,,2020-08-20,000,0000,000,1,,1703,,0
0,64e5dcd5-7eb3-4fb8-8308-89ff67bc1ca0,64e5dcd5-7eb3-4fb8-8308-89ff67bc1ca0,7,038,0,0,005,38000005000044500,0.0,2079-06-06,Павлова,3804,3804,a86439cb-bd37-4171-acc7-490657e317ee,,25414000000,25714000001,10,219f7489-0ce2-4078-9a4d-23530e8dd2ee,000,380000050000445,665700,,38,ул,2020-01-20,0445,,,2020-08-20,000,0000,000,0,,0045,,0
1,64e5dcd5-7eb3-4fb8-8308-89ff67bc1ca0,a86439cb-bd37-4171-acc7-490657e317ee,7,038,0,0,005,38000005000044500,0.0,2079-06-06,Павлова,3805,3805,,,25414000000,25714000001,21,219f7489-0ce2-4078-9a4d-23530e8dd2ee,000,380000050000445,665700,64e5dcd5-7eb3-4fb8-8308-89ff67bc1ca0,38,ул,2020-08-18,0445,,,2020-08-20,000,0000,000,1,,0045,,0
0,ce598bfb-43d8-40e3-83ca-7e9f6ec9a08e,ce598bfb-43d8-40e3-83ca-7e9f6ec9a08e,91,001,0,0,000,,,2016-09-28,Земляничная,3827,3827,7ab20f65-1b5a-4b03-ab5e-a18d51be76e6,,25212000046,25612440,10,df4b8976-7eda-4a88-864d-6208f9fef403,437,,664038,,38,ул,2015-12-02,0000,,,2020-08-20,000,0000,000,0,20fa3430-5a1c-4af5-8f9f-7cd0d50e8c01,0000,,0
0,ce598bfb-43d8-40e3-83ca-7e9f6ec9a08e,7ab20f65-1b5a-4b03-ab5e-a18d51be76e6,7,001,0,0,000,38001000437001501,1.0,2079-06-06,Земляничная,3827,3827,5ad3ec46-3f7c-47c0-85f9-5911dd79af4d,,25212000000,25612440,51,df4b8976-7eda-4a88-864d-6208f9fef403,437,380010004370015,664038,ce598bfb-43d8-40e3-83ca-7e9f6ec9a08e,38,ул,2016-09-28,0015,,,2020-08-20,000,0000,000,0,,0005,,0
0,ce598bfb-43d8-40e3-83ca-7e9f6ec9a08e,5ad3ec46-3f7c-47c0-85f9-5911dd79af4d,7,001,0,0,000,38001000437001551,51.0,2018-12-20,Земляничная,3827,3827,375be03e-dfe0-442c-8733-691e1f21a03b,,25212000000,25612440,20,df4b8976-7eda-4a88-864d-6208f9fef403,000,380010004370015,664038,7ab20f65-1b5a-4b03-ab5e-a18d51be76e6,38,ул,2018-04-12,1742,,,2020-08-20,000,0000,000,0,4afb5e84-701d-4bad-9b70-6e8af7df35b1,1739,,0
0,ce598bfb-43d8-40e3-83ca-7e9f6ec9a08e,375be03e-dfe0-442c-8733-691e1f21a03b,7,001,0,0,000,38001000000174202,2.0,2019-03-25,Земляничная,3827,3827,bd90b8be-eda6-4757-a614-92115648a887,,25212000000,25612440,51,df4b8976-7eda-4a88-864d-6208f9fef403,000,380010000001742,664038,5ad3ec46-3f7c-47c0-85f9-5911dd79af4d,38,ул,2018-12-20,1742,,,2020-08-20,000,0000,000,0,81eaaf4d-f5fa-4c3e-974a-4b317a516be6,1739,,0
0,ce598bfb-43d8-40e3-83ca-7e9f6ec9a08e,bd90b8be-eda6-4757-a614-92115648a887,7,001,0,0,000,38001000000174200,0.0,2079-06-06,Земляничная,3827,3827,7484b892-5a29-4679-be15-f3519c5774b3,,25212000000,25612440,20,df4b8976-7eda-4a88-864d-6208f9fef403,000,380010000001742,664038,375be03e-dfe0-442c-8733-691e1f21a03b,38,ул,2019-03-25,1742,,,2020-08-20,000,0000,000,0,89dafa91-70cf-47a7-9706-83960e08a0bb,1739,,0
1,ce598bfb-43d8-40e3-83ca-7e9f6ec9a08e,7484b892-5a29-4679-be15-f3519c5774b3,7,001,0,0,000,38001000000174200,0.0,2079-06-06,Земляничная,3827,3827,,,25212000046,25612440,21,df4b8976-7eda-4a88-864d-6208f9fef403,000,380010000001742,664038,bd90b8be-eda6-4757-a614-92115648a887,38,ул,2020-08-19,1742,,,2020-08-20,000,0000,000,1,,1739,,0
0,6f4cd4ab-97ae-4318-9150-74943d530bb4,6f4cd4ab-97ae-4318-9150-74943d530bb4,91,001,0,0,000,,,2016-09-28,Садовая,3827,3827,8c409b23-f0fe-4cab-978c-7355116902ab,,25212000000,25612440,10,a99b380d-3778-4baa-8621-f67feff5b6d0,437,,664038,,38,ул,2015-12-28,0000,,,2020-08-20,000,0000,000,0,8aac8636-896f-4295-acad-a18d9c83027d,0000,,0
0,6f4cd4ab-97ae-4318-9150-74943d530bb4,8c409b23-f0fe-4cab-978c-7355116902ab,7,001,0,0,000,38001000437001151,51.0,2079-06-06,Садовая,3827,3827,e232c5f6-c3e4-4cdd-994c-13c7f22da30d,,25212000000,25612440,51,a99b380d-3778-4baa-8621-f67feff5b6d0,437,380010004370011,664038,6f4cd4ab-97ae-4318-9150-74943d530bb4,38,ул,2016-09-28,0011,,,2020-08-20,000,0000,000,0,,0004,,0
0,6f4cd4ab-97ae-4318-9150-74943d530bb4,e232c5f6-c3e4-4cdd-994c-13c7f22da30d,7,001,0,0,000,38001000000171000,0.0,2079-06-06,Садовая,3827,3827,aa4520b1-b9bd-4919-9b5c-25cb393bb0a7,,25212000000,25612440,51,a99b380d-3778-4baa-8621-f67feff5b6d0,000,380010000001710,664038,8c409b23-f0fe-4cab-978c-7355116902ab,38,ул,2018-12-20,1710,,,2020-08-20,000,0000,000,0,81eaaf4d-f5fa-4c3e-974a-4b317a516be6,1703,,0
1,6f4cd4ab-97ae-4318-9150-74943d530bb4,aa4520b1-b9bd-4919-9b5c-25cb393bb0a7,7,001,0,0,000,38001000000171000,0.0,2079-06-06,Садовая,3827,3827,,,25212000046,25612440,21,a99b380d-3778-4baa-8621-f67feff5b6d0,000,380010000001710,664038,e232c5f6-c3e4-4cdd-994c-13c7f22da30d,38,ул,2020-08-19,1710,,,2020-08-20,000,0000,000,1,,1703,,0
0,a86b3668-aa92-455f-b988-d4bd70bfed28,a86b3668-aa92-455f-b988-d4bd70bfed28,91,001,0,0,000,,,2016-09-28,Новая,3827,3827,51aceeae-9637-4381-ac69-160acac8977d,,25212000000,25612440,10,a99b380d-3778-4baa-8621-f67feff5b6d0,437,,664038,,38,ул,2015-12-28,0000,,,2020-08-20,000,0000,000,0,b0eb7259-f9a6-4ea8-b718-385bd7cf08ed,0000,,0
0,a86b3668-aa92-455f-b988-d4bd70bfed28,51aceeae-9637-4381-ac69-160acac8977d,7,001,0,0,000,38001000437000951,51.0,2079-06-06,Новая,3827,3827,8ce49d42-c60c-40bf-b676-a49b75dceb9c,,25212000000,25612440,51,a99b380d-3778-4baa-8621-f67feff5b6d0,437,380010004370009,664038,a86b3668-aa92-455f-b988-d4bd70bfed28,38,ул,2016-09-28,0009,,,2020-08-20,000,0000,000,0,,0004,,0
0,a86b3668-aa92-455f-b988-d4bd70bfed28,8ce49d42-c60c-40bf-b676-a49b75dceb9c,7,001,0,0,000,38001000000170800,0.0,2079-06-06,Новая,3827,3827,06bb5e74-a75c-4e65-ab72-be3ec1a46338,,25212000000,25612440,51,a99b380d-3778-4baa-8621-f67feff5b6d0,000,380010000001708,664038,51aceeae-9637-4381-ac69-160acac8977d,38,ул,2018-12-20,1708,,,2020-08-20,000,0000,000,0,81eaaf4d-f5fa-4c3e-974a-4b317a516be6,1703,,0
1,a86b3668-aa92-455f-b988-d4bd70bfed28,06bb5e74-a75c-4e65-ab72-be3ec1a46338,7,001,0,0,000,38001000000170800,0.0,2079-06-06,Новая,3827,3827,,,25212000046,25612440,21,a99b380d-3778-4baa-8621-f67feff5b6d0,000,380010000001708,664038,8ce49d42-c60c-40bf-b676-a49b75dceb9c,38,ул,2020-08-19,1708,,,2020-08-20,000,0000,000,1,,1703,,0
0,d93a5262-3480-4c87-ac89-84f440d8544d,d93a5262-3480-4c87-ac89-84f440d8544d,7,000,0,0,005,38000005000026200,0.0,2079-06-06,Таежная,3804,3804,32d61c2d-686b-4d00-a5e5-2e0708d30f3d,,25414000000,25714000001,10,219f7489-0ce2-4078-9a4d-23530e8dd2ee,000,380000050000262,665700,,38,ул,2019-10-29,0262,,,2020-08-20,000,0000,000,0,559e3dda-f82b-4341-918c-eb57917a122d,0045,,0
1,d93a5262-3480-4c87-ac89-84f440d8544d,32d61c2d-686b-4d00-a5e5-2e0708d30f3d,7,000,0,0,005,38000005000026200,0.0,2079-06-06,Таежная,3805,3805,,,25414000000,25714000001,21,219f7489-0ce2-4078-9a4d-23530e8dd2ee,000,380000050000262,665700,d93a5262-3480-4c87-ac89-84f440d8544d,38,ул,2020-08-18,0262,,,2020-08-20,000,0000,000,1,,0045,,0
0,173cf195-a50a-43c1-b41f-2ce9c22bd78c,173cf195-a50a-43c1-b41f-2ce9c22bd78c,7,000,0,0,005,38000005000026300,0.0,2079-06-06,Нагорная,3804,3804,117ff919-cdaa-4f1f-81ae-12a75f9f7f98,,25414000000,25714000001,10,219f7489-0ce2-4078-9a4d-23530e8dd2ee,000,380000050000263,665700,,38,ул,2019-10-29,0263,,,2020-08-20,000,0000,000,0,559e3dda-f82b-4341-918c-eb57917a122d,0045,,0
1,173cf195-a50a-43c1-b41f-2ce9c22bd78c,117ff919-cdaa-4f1f-81ae-12a75f9f7f98,7,000,0,0,005,38000005000026300,0.0,2079-06-06,Нагорная,3805,3805,,,25414000000,25714000001,21,219f7489-0ce2-4078-9a4d-23530e8dd2ee,000,380000050000263,665700,173cf195-a50a-43c1-b41f-2ce9c22bd78c,38,ул,2020-08-18,0263,,,2020-08-20,000,0000,000,1,,0045,,0
0,0e4a0df8-dbc0-4c88-a041-c87d4329365b,0e4a0df8-dbc0-4c88-a041-c87d4329365b,91,001,0,0,000,,,2016-09-28,Зеленая,3827,3827,801caa1a-0bf3-4086-9129-1d24193597ef,,25212000000,25612440,10,a99b380d-3778-4baa-8621-f67feff5b6d0,437,,664001,,38,ул,2015-12-28,0000,,,2020-08-20,000,0000,000,0,e77eee06-4657-46c1-a84f-2c6fb43ad72e,0000,,0
0,0e4a0df8-dbc0-4c88-a041-c87d4329365b,801caa1a-0bf3-4086-9129-1d24193597ef,7,001,0,0,000,38001000437000651,51.0,2079-06-06,Зеленая,3827,3827,2e24e463-3311-4eec-80d5-2439c5893656,,25212000000,25612440,51,a99b380d-3778-4baa-8621-f67feff5b6d0,437,380010004370006,664001,0e4a0df8-dbc0-4c88-a041-c87d4329365b,38,ул,2016-09-28,0006,,,2020-08-20,000,0000,000,0,,0004,,0
0,0e4a0df8-dbc0-4c88-a041-c87d4329365b,2e24e463-3311-4eec-80d5-2439c5893656,7,001,0,0,000,38001000000170501,1.0,2019-04-17,Зеленая,3827,3827,525764ba-14cc-4f1f-a315-7b423bb808a0,,25212000000,25612440,51,a99b380d-3778-4baa-8621-f67feff5b6d0,000,380010000001705,664001,801caa1a-0bf3-4086-9129-1d24193597ef,38,ул,2018-12-20,1705,,,2020-08-20,000,0000,000,0,81eaaf4d-f5fa-4c3e-974a-4b317a516be6,1703,,0
0,0e4a0df8-dbc0-4c88-a041-c87d4329365b,525764ba-14cc-4f1f-a315-7b423bb808a0,7,001,0,0,000,38001000000170500,0.0,2079-06-06,Зеленая,3827,3827,7a9cddbd-88c9-4818-89da-28b5cba92363,,25212000000,25612440,21,a99b380d-3778-4baa-8621-f67feff5b6d0,000,380010000001705,664038,2e24e463-3311-4eec-80d5-2439c5893656,38,ул,2019-04-17,1705,,,2020-08-20,000,0000,000,0,5da9724a-5098-4b71-98d5-93567670eb07,1703,,0
1,0e4a0df8-dbc0-4c88-a041-c87d4329365b,7a9cddbd-88c9-4818-89da-28b5cba92363,7,001,0,0,000,38001000000170500,0.0,2079-06-06,Зеленая,3827,3827,,,25212000046,25612440,21,a99b380d-3778-4baa-8621-f67feff5b6d0,000,380010000001705,664038,525764ba-14cc-4f1f-a315-7b423bb808a0,38,ул,2020-08-19,1705,,,2020-08-20,000,0000,000,1,,1703,,0
1,070191be-dc75-4ee3-b2bc-e0a312aabdd9,070191be-dc75-4ee3-b2bc-e0a312aabdd9,65,005,0,0,002,38005002000001100,0.0,2079-06-06,ГСК Волга,3805,3805,,,25204503000,25604103001,10,04bc8726-0523-4aeb-8450-fe07ff425372,000,380050020000011,,,38,тер.,2020-08-19,0000,,,2020-08-20,000,0000,000,1,,0011,,0
0,cffc0e9d-7fd7-4aa5-a71e-cdb432f1272d,cffc0e9d-7fd7-4aa5-a71e-cdb432f1272d,91,001,0,0,000,,,2016-09-28,Березовая,3827,3827,d249659f-ec47-411e-b158-234087e14b8a,,25212000046,25612440,10,df4b8976-7eda-4a88-864d-6208f9fef403,437,,664038,,38,ул,2015-12-02,0000,,,2020-08-20,000,0000,000,0,ee689ee5-95d7-4337-a0c2-d3b737c44f48,0000,,0
0,cffc0e9d-7fd7-4aa5-a71e-cdb432f1272d,d249659f-ec47-411e-b158-234087e14b8a,7,001,0,0,000,38001000437001401,1.0,2079-06-06,Березовая,3827,3827,d8dc9e01-0dbd-487c-aa10-43cef4c70982,,25212000000,25612440,51,df4b8976-7eda-4a88-864d-6208f9fef403,437,380010004370014,664038,cffc0e9d-7fd7-4aa5-a71e-cdb432f1272d,38,ул,2016-09-28,0014,,,2020-08-20,000,0000,000,0,,0005,,0
0,cffc0e9d-7fd7-4aa5-a71e-cdb432f1272d,d8dc9e01-0dbd-487c-aa10-43cef4c70982,7,001,0,0,000,38001000437001451,51.0,2018-12-20,Березовая,3827,3827,835f7d1c-cb58-441b-97cf-e0d5b612ed89,,25212000000,25612440,20,df4b8976-7eda-4a88-864d-6208f9fef403,000,380010004370014,664038,d249659f-ec47-411e-b158-234087e14b8a,38,ул,2018-04-12,1741,,,2020-08-20,000,0000,000,0,4afb5e84-701d-4bad-9b70-6e8af7df35b1,1739,,0
0,cffc0e9d-7fd7-4aa5-a71e-cdb432f1272d,835f7d1c-cb58-441b-97cf-e0d5b612ed89,7,001,0,0,000,38001000000174100,0.0,2079-06-06,Березовая,3827,3827,3faf19ad-501f-404c-82ba-4f1775f3ca9b,,25212000000,25612440,51,df4b8976-7eda-4a88-864d-6208f9fef403,000,380010000001741,664038,d8dc9e01-0dbd-487c-aa10-43cef4c70982,38,ул,2018-12-20,1741,,,2020-08-20,000,0000,000,0,81eaaf4d-f5fa-4c3e-974a-4b317a516be6,1739,,0
1,cffc0e9d-7fd7-4aa5-a71e-cdb432f1272d,3faf19ad-501f-404c-82ba-4f1775f3ca9b,7,001,0,0,000,38001000000174100,0.0,2079-06-06,Березовая,3827,3827,,,25212000046,25612440,21,df4b8976-7eda-4a88-864d-6208f9fef403,000,380010000001741,664038,835f7d1c-cb58-441b-97cf-e0d5b612ed89,38,ул,2020-08-19,1741,,,2020-08-20,000,0000,000,1,,1739,,0
0,9467a774-b215-4065-8eee-a95a0d643b14,9467a774-b215-4065-8eee-a95a0d643b14,91,001,0,0,000,,,2016-09-28,Короткая,3827,3827,10a196c2-062f-479d-8a34-031d92669e29,,25212000000,25612440,10,a99b380d-3778-4baa-8621-f67feff5b6d0,437,,664038,,38,ул,2015-12-28,0000,,,2020-08-20,000,0000,000,0,586f5e6f-94a6-42be-be2a-55f7d43a525f,0000,,0
0,9467a774-b215-4065-8eee-a95a0d643b14,10a196c2-062f-479d-8a34-031d92669e29,7,001,0,0,000,38001000437005351,51.0,2079-06-06,Короткая,3827,3827,f1a7e0b4-06bd-4233-acb1-687774fab896,,25212000000,25612440,51,a99b380d-3778-4baa-8621-f67feff5b6d0,437,380010004370053,664038,9467a774-b215-4065-8eee-a95a0d643b14,38,ул,2016-09-28,0053,,,2020-08-20,000,0000,000,0,,0004,,0
0,9467a774-b215-4065-8eee-a95a0d643b14,f1a7e0b4-06bd-4233-acb1-687774fab896,7,001,0,0,000,38001000000170600,0.0,2079-06-06,Короткая,3827,3827,b08d01d9-d454-48b3-bc87-00148ddfc93c,,25212000000,25612440,51,a99b380d-3778-4baa-8621-f67feff5b6d0,000,380010000001706,664038,10a196c2-062f-479d-8a34-031d92669e29,38,ул,2018-12-20,1706,,,2020-08-20,000,0000,000,0,81eaaf4d-f5fa-4c3e-974a-4b317a516be6,1703,,0
1,9467a774-b215-4065-8eee-a95a0d643b14,b08d01d9-d454-48b3-bc87-00148ddfc93c,7,001,0,0,000,38001000000170600,0.0,2079-06-06,Короткая,3827,3827,,,25212000046,25612440,21,a99b380d-3778-4baa-8621-f67feff5b6d0,000,380010000001706,664038,f1a7e0b4-06bd-4233-acb1-687774fab896,38,ул,2020-08-19,1706,,,2020-08-20,000,0000,000,1,,1703,,0
0,35a80f39-5aff-4676-b0b0-d963aa9354b0,35a80f39-5aff-4676-b0b0-d963aa9354b0,7,000,0,0,005,38000005000044400,0.0,2079-06-06,Брусничная,3804,3804,51955b3b-79ef-4525-9ac7-52361239481c,,25414000000,25714000001,10,219f7489-0ce2-4078-9a4d-23530e8dd2ee,000,380000050000444,665700,,38,ул,2019-12-25,0444,,,2020-08-20,000,0000,000,0,236ce9e2-3e6a-4758-a7ce-bdb8534682fa,0045,,0
1,35a80f39-5aff-4676-b0b0-d963aa9354b0,51955b3b-79ef-4525-9ac7-52361239481c,7,000,0,0,005,38000005000044400,0.0,2079-06-06,Брусничная,3805,3805,,,25414000000,25714000001,21,219f7489-0ce2-4078-9a4d-23530e8dd2ee,000,380000050000444,665700,35a80f39-5aff-4676-b0b0-d963aa9354b0,38,ул,2020-08-18,0444,,,2020-08-20,000,0000,000,1,,0045,,0
0,5eaff892-4d95-4b56-87c7-106b4807f89b,5eaff892-4d95-4b56-87c7-106b4807f89b,91,001,0,0,000,,,2016-09-28,Центральная,3827,3827,0d527173-15c2-434b-aa10-36f18158152d,,25212000000,25612440,10,df4b8976-7eda-4a88-864d-6208f9fef403,437,,664038,,38,ул,2015-12-28,0000,,,2020-08-20,000,0000,000,0,ab395479-d6c7-4357-b251-946464d10f83,0000,,0
0,5eaff892-4d95-4b56-87c7-106b4807f89b,0d527173-15c2-434b-aa10-36f18158152d,7,001,0,0,000,38001000437002201,1.0,2079-06-06,Центральная,3827,3827,e93b1126-914c-4d37-9381-04db1d5afa51,,25212000000,25612440,51,df4b8976-7eda-4a88-864d-6208f9fef403,437,380010004370022,664038,5eaff892-4d95-4b56-87c7-106b4807f89b,38,ул,2016-09-28,0022,,,2020-08-20,000,0000,000,0,,0005,,0
0,5eaff892-4d95-4b56-87c7-106b4807f89b,e93b1126-914c-4d37-9381-04db1d5afa51,7,001,0,0,000,38001000437002251,51.0,2018-12-20,Центральная,3827,3827,5efb732f-242f-4773-a132-afca93621814,,25212000000,25612440,20,df4b8976-7eda-4a88-864d-6208f9fef403,000,380010004370022,664038,0d527173-15c2-434b-aa10-36f18158152d,38,ул,2018-04-12,1749,,,2020-08-20,000,0000,000,0,4afb5e84-701d-4bad-9b70-6e8af7df35b1,1739,,0
0,5eaff892-4d95-4b56-87c7-106b4807f89b,5efb732f-242f-4773-a132-afca93621814,7,001,0,0,000,38001000000174902,2.0,2019-03-25,Центральная,3827,3827,71c99275-4d10-470e-8417-3fe0b3467a8c,,25212000000,25612440,51,df4b8976-7eda-4a88-864d-6208f9fef403,000,380010000001749,664038,e93b1126-914c-4d37-9381-04db1d5afa51,38,ул,2018-12-20,1749,,,2020-08-20,000,0000,000,0,81eaaf4d-f5fa-4c3e-974a-4b317a516be6,1739,,0
0,5eaff892-4d95-4b56-87c7-106b4807f89b,71c99275-4d10-470e-8417-3fe0b3467a8c,7,001,0,0,000,38001000000174900,0.0,2079-06-06,Центральная,3827,3827,0b50875b-5279-4081-a3ae-d2db70176f72,,25212000000,25612440,20,df4b8976-7eda-4a88-864d-6208f9fef403,000,380010000001749,664038,5efb732f-242f-4773-a132-afca93621814,38,ул,2019-03-25,1749,,,2020-08-20,000,0000,000,0,89dafa91-70cf-47a7-9706-83960e08a0bb,1739,,0
1,5eaff892-4d95-4b56-87c7-106b4807f89b,0b50875b-5279-4081-a3ae-d2db70176f72,7,001,0,0,000,38001000000174900,0.0,2079-06-06,Центральная,3827,3827,,,25212000046,25612440,21,df4b8976-7eda-4a88-864d-6208f9fef403,000,380010000001749,664038,71c99275-4d10-470e-8417-3fe0b3467a8c,38,ул,2020-08-19,1749,,,2020-08-20,000,0000,000,1,,1739,,0
0,befcbf38-109e-44c2-bd10-8d932cdbe37b,befcbf38-109e-44c2-bd10-8d932cdbe37b,91,001,0,0,000,,,2016-09-28,Приозерная,3827,3827,13bcd740-d0fa-44fe-82f3-878d8ed88ea8,,25212000000,25612440,10,a99b380d-3778-4baa-8621-f67feff5b6d0,437,,664038,,38,ул,2015-12-28,0000,,,2020-08-20,000,0000,000,0,218b2214-9f42-42c9-889f-27778cf9b105,0000,,0
0,befcbf38-109e-44c2-bd10-8d932cdbe37b,13bcd740-d0fa-44fe-82f3-878d8ed88ea8,7,001,0,0,000,38001000437001051,51.0,2079-06-06,Приозерная,3827,3827,e1a63030-0875-48e7-aa82-98aeb4747aac,,25212000000,25612440,51,a99b380d-3778-4baa-8621-f67feff5b6d0,437,380010004370010,664038,befcbf38-109e-44c2-bd10-8d932cdbe37b,38,ул,2016-09-28,0010,,,2020-08-20,000,0000,000,0,,0004,,0
0,befcbf38-109e-44c2-bd10-8d932cdbe37b,e1a63030-0875-48e7-aa82-98aeb4747aac,7,001,0,0,000,38001000000170900,0.0,2079-06-06,Приозерная,3827,3827,6be6f422-8783-4725-9683-5516ba12d62d,,25212000000,25612440,51,a99b380d-3778-4baa-8621-f67feff5b6d0,000,380010000001709,664038,13bcd740-d0fa-44fe-82f3-878d8ed88ea8,38,ул,2018-12-20,1709,,,2020-08-20,000,0000,000,0,81eaaf4d-f5fa-4c3e-974a-4b317a516be6,1703,,0
1,befcbf38-109e-44c2-bd10-8d932cdbe37b,6be6f422-8783-4725-9683-5516ba12d62d,7,001,0,0,000,38001000000170900,0.0,2079-06-06,Приозерная,3827,3827,,,25212000046,25612440,21,a99b380d-3778-4baa-8621-f67feff5b6d0,000,380010000001709,664038,e1a63030-0875-48e7-aa82-98aeb4747aac,38,ул,2020-08-19,1709,,,2020-08-20,000,0000,000,1,,1703,,0
0,cb82d5c9-8748-4d4d-b2fe-65bcaab8da2b,cb82d5c9-8748-4d4d-b2fe-65bcaab8da2b,7,000,0,0,005,38000005000026600,0.0,2079-06-06,Кедровая,3804,3804,7615877b-fc7d-4591-b55a-e531e2ff038c,,25414000000,25714000001,10,219f7489-0ce2-4078-9a4d-23530e8dd2ee,000,380000050000266,665700,,38,ул,2019-10-29,0266,,,2020-08-20,000,0000,000,0,559e3dda-f82b-4341-918c-eb57917a122d,0045,,0
1,cb82d5c9-8748-4d4d-b2fe-65bcaab8da2b,7615877b-fc7d-4591-b55a-e531e2ff038c,7,000,0,0,005,38000005000026600,0.0,2079-06-06,Кедровая,3805,3805,,,25414000000,25714000001,21,219f7489-0ce2-4078-9a4d-23530e8dd2ee,000,380000050000266,665700,cb82d5c9-8748-4d4d-b2fe-65bcaab8da2b,38,ул,2020-08-18,0266,,,2020-08-20,000,0000,000,1,,0045,,0
0,9cafd761-f358-4aa5-9acc-8f7460ec546e,9cafd761-f358-4aa5-9acc-8f7460ec546e,7,000,0,0,005,38000005000045500,0.0,2079-06-06,Первомайская,3804,3804,c988afa1-b080-46a1-8c70-04dcbd925459,,25414000000,25714000001,10,219f7489-0ce2-4078-9a4d-23530e8dd2ee,000,380000050000455,665700,,38,ул,2020-02-02,0455,,,2020-08-20,000,0000,000,0,,0045,,0
1,9cafd761-f358-4aa5-9acc-8f7460ec546e,c988afa1-b080-46a1-8c70-04dcbd925459,7,000,0,0,005,38000005000045500,0.0,2079-06-06,Первомайская,3805,3805,,,25414000000,25714000001,21,219f7489-0ce2-4078-9a4d-23530e8dd2ee,000,380000050000455,665700,9cafd761-f358-4aa5-9acc-8f7460ec546e,38,ул,2020-08-18,0455,,,2020-08-20,000,0000,000,1,,0045,,0
0,c22a8ecd-075a-457e-8855-a3359778e6cf,c22a8ecd-075a-457e-8855-a3359778e6cf,7,000,0,0,005,38000005000026500,0.0,2079-06-06,Рябиновая,3804,3804,26eb5c3a-c5ce-4c04-a926-e91cb00ee67f,,25414000000,25714000001,10,219f7489-0ce2-4078-9a4d-23530e8dd2ee,000,380000050000265,665700,,38,ул,2019-10-29,0265,,,2020-08-20,000,0000,000,0,559e3dda-f82b-4341-918c-eb57917a122d,0045,,0
1,c22a8ecd-075a-457e-8855-a3359778e6cf,26eb5c3a-c5ce-4c04-a926-e91cb00ee67f,7,000,0,0,005,38000005000026500,0.0,2079-06-06,Рябиновая,3805,3805,,,25414000000,25714000001,21,219f7489-0ce2-4078-9a4d-23530e8dd2ee,000,380000050000265,665700,c22a8ecd-075a-457e-8855-a3359778e6cf,38,ул,2020-08-18,0265,,,2020-08-20,000,0000,000,1,,0045,,0
1,b83cd52c-b737-4632-8d61-af37556ee88d,b83cd52c-b737-4632-8d61-af37556ee88d,65,005,0,0,002,38005002000000300,0.0,2079-06-06,АЗК-41,3805,3805,,,25204503000,25604103001,10,04bc8726-0523-4aeb-8450-fe07ff425372,000,380050020000003,,,38,тер.,2020-08-19,0000,,,2020-08-20,000,0000,000,1,,0003,,0
0,3eced1ec-fcc5-4d70-9e19-e4b48aedfd2a,3eced1ec-fcc5-4d70-9e19-e4b48aedfd2a,91,001,0,0,000,,,2016-09-29,Бакалейная,3827,3827,61c78862-dacd-4503-9036-1d39b64b9327,,25212000046,25612440,10,546e7d36-71bd-488c-8c36-b8fa346e6d37,437,,664038,,38,ул,2015-12-28,0000,,,2020-08-22,000,0000,000,0,b7fecc1f-3adc-4dfa-928c-eda0d2dafaad,0000,,0
0,3eced1ec-fcc5-4d70-9e19-e4b48aedfd2a,61c78862-dacd-4503-9036-1d39b64b9327,7,001,0,0,000,38001000437002801,1.0,2079-06-06,Бакалейная,3827,3827,10c7a699-4fa4-499e-bf8e-87a9c228eadc,,25212000000,25612440,51,546e7d36-71bd-488c-8c36-b8fa346e6d37,437,380010004370028,664521,3eced1ec-fcc5-4d70-9e19-e4b48aedfd2a,38,ул,2016-09-29,0028,,,2020-08-22,000,0000,000,0,,0002,,0
0,3eced1ec-fcc5-4d70-9e19-e4b48aedfd2a,10c7a699-4fa4-499e-bf8e-87a9c228eadc,7,001,0,0,000,38001000437002851,51.0,2018-12-20,Бакалейная,3827,3827,f24553c3-5d68-4672-8c6d-2614873b7d47,,25212000000,25612440,20,546e7d36-71bd-488c-8c36-b8fa346e6d37,000,380010004370028,664521,61c78862-dacd-4503-9036-1d39b64b9327,38,ул,2018-04-12,1720,,,2020-08-22,000,0000,000,0,4afb5e84-701d-4bad-9b70-6e8af7df35b1,1716,,0
0,3eced1ec-fcc5-4d70-9e19-e4b48aedfd2a,f24553c3-5d68-4672-8c6d-2614873b7d47,7,001,0,0,000,38001000000172000,0.0,2079-06-06,Бакалейная,3827,3827,53102aa6-450a-4034-86f9-eed3ffe5d96c,,25212000000,25612440,51,546e7d36-71bd-488c-8c36-b8fa346e6d37,000,380010000001720,664521,10c7a699-4fa4-499e-bf8e-87a9c228eadc,38,ул,2018-12-20,1720,,,2020-08-22,000,0000,000,0,81eaaf4d-f5fa-4c3e-974a-4b317a516be6,1716,,0
1,3eced1ec-fcc5-4d70-9e19-e4b48aedfd2a,53102aa6-450a-4034-86f9-eed3ffe5d96c,7,001,0,0,000,38001000000172000,0.0,2079-06-06,Бакалейная,3827,3827,,,25212000046,25612440,21,546e7d36-71bd-488c-8c36-b8fa346e6d37,000,380010000001720,664521,f24553c3-5d68-4672-8c6d-2614873b7d47,38,ул,2020-08-20,1720,,,2020-08-22,000,0000,000,1,,1716,,0
1,2a72d1a0-d61c-461d-b98b-a4baf46a4917,2a72d1a0-d61c-461d-b98b-a4baf46a4917,7,022,0,0,000,38022000000000400,0.0,2079-06-06,Лесная,3817,3817,,,25242000000,25642701,10,a11bffce-2f60-407f-9eeb-c866a0428004,000,380220000000004,,,38,ул,2020-08-20,0004,,,2020-08-22,000,0000,000,1,,0022,,0
1,360f1614-a0a8-4fb0-9d62-4257e23f35d0,360f1614-a0a8-4fb0-9d62-4257e23f35d0,7,022,0,0,000,38022000000000100,0.0,2079-06-06,Кавказская,3817,3817,,,25242000000,25642701,10,a11bffce-2f60-407f-9eeb-c866a0428004,000,380220000000001,,,38,ул,2020-08-20,0001,,,2020-08-22,000,0000,000,1,,0022,,0
1,48fa4209-a9ff-44cf-9516-625cf8af14a4,48fa4209-a9ff-44cf-9516-625cf8af14a4,7,022,0,0,000,38022000000001000,0.0,2079-06-06,Кедровая,3817,3817,,,25242000000,25642701,10,a11bffce-2f60-407f-9eeb-c866a0428004,000,380220000000010,,,38,ул,2020-08-20,0010,,,2020-08-22,000,0000,000,1,,0022,,0
0,992303df-339d-4252-89d2-b471be2cd168,992303df-339d-4252-89d2-b471be2cd168,91,001,0,0,000,,,2016-09-29,Насосная,3827,3827,ca31dbe6-6ec2-472e-88a8-b1fb0934c674,,25212000046,25612440,10,546e7d36-71bd-488c-8c36-b8fa346e6d37,437,,664038,,38,ул,2015-12-28,0000,,,2020-08-22,000,0000,000,0,3796dc68-b006-4223-aa47-8ab2ab60ffb5,0000,,0
0,992303df-339d-4252-89d2-b471be2cd168,ca31dbe6-6ec2-472e-88a8-b1fb0934c674,7,001,0,0,000,38001000437003701,1.0,2079-06-06,Насосная,3827,3827,d90a5caa-5223-4aa7-82ca-681325911f66,,25212000000,25612440,51,546e7d36-71bd-488c-8c36-b8fa346e6d37,437,380010004370037,664521,992303df-339d-4252-89d2-b471be2cd168,38,ул,2016-09-29,0037,,,2020-08-22,000,0000,000,0,,0002,,0
0,992303df-339d-4252-89d2-b471be2cd168,d90a5caa-5223-4aa7-82ca-681325911f66,7,001,0,0,000,38001000437003751,51.0,2018-12-20,Насосная,3827,3827,42e1ef8d-84d4-4f27-9497-8422135f6c7a,,25212000000,25612440,20,546e7d36-71bd-488c-8c36-b8fa346e6d37,000,380010004370037,,ca31dbe6-6ec2-472e-88a8-b1fb0934c674,38,ул,2018-04-12,1728,,,2020-08-22,000,0000,000,0,4afb5e84-701d-4bad-9b70-6e8af7df35b1,1716,,0
0,992303df-339d-4252-89d2-b471be2cd168,42e1ef8d-84d4-4f27-9497-8422135f6c7a,7,001,0,0,000,38001000000172802,2.0,2019-06-07,Насосная,3827,3827,b1749ccc-d6f7-4b14-a12f-463a1157f256,,25212000000,25612440,51,546e7d36-71bd-488c-8c36-b8fa346e6d37,000,380010000001728,,d90a5caa-5223-4aa7-82ca-681325911f66,38,ул,2018-12-20,1728,,,2020-08-22,000,0000,000,0,81eaaf4d-f5fa-4c3e-974a-4b317a516be6,1716,,0
0,992303df-339d-4252-89d2-b471be2cd168,b1749ccc-d6f7-4b14-a12f-463a1157f256,7,001,0,0,000,38001000000172800,0.0,2079-06-06,Насосная,3827,3827,c7c7f5ce-a405-4152-87d7-5a171823f410,,25212000000,25612440,21,546e7d36-71bd-488c-8c36-b8fa346e6d37,000,380010000001728,664038,42e1ef8d-84d4-4f27-9497-8422135f6c7a,38,ул,2019-06-07,1728,,,2020-08-22,000,0000,000,0,bae24ecf-77f1-4e32-91ff-ff95b2dc4f9c,1716,,0
1,992303df-339d-4252-89d2-b471be2cd168,c7c7f5ce-a405-4152-87d7-5a171823f410,7,001,0,0,000,38001000000172800,0.0,2079-06-06,Насосная,3827,3827,,,25212000046,25612440,21,546e7d36-71bd-488c-8c36-b8fa346e6d37,000,380010000001728,664038,b1749ccc-d6f7-4b14-a12f-463a1157f256,38,ул,2020-08-20,1728,,,2020-08-22,000,0000,000,1,,1716,,0
0,09893767-3f30-4fd5-a0e4-d23bb558c930,5bd66ca3-dbc1-4b18-8f9a-78db6ac83428,7,000,0,0,004,38000004004001901,1.0,2020-08-21,Парковая,3801,3801,16207089-5c9e-44d0-a6df-a44f1a278696,,25405000000,25603101,1,53d56d97-11c1-4b9f-a269-b6f2ed17c702,004,380000040040019,665806,,38,ул,1900-01-01,0019,,,2020-08-22,000,0000,000,0,,0000,,0
0,09893767-3f30-4fd5-a0e4-d23bb558c930,16207089-5c9e-44d0-a6df-a44f1a278696,7,000,0,0,004,38000004004001902,2.0,2014-04-28,Парковая,3801,3801,bd882e09-7d1a-4ee1-b560-18d466c1fcee,,25405000000,25603101001,21,53d56d97-11c1-4b9f-a269-b6f2ed17c702,000,380000040040019,665806,5bd66ca3-dbc1-4b18-8f9a-78db6ac83428,38,ул,2014-03-06,0774,,,2020-08-22,000,0000,000,0,,0757,,0
0,09893767-3f30-4fd5-a0e4-d23bb558c930,bd882e09-7d1a-4ee1-b560-18d466c1fcee,7,000,0,0,004,38000004004001903,3.0,2016-03-25,Парковая,3801,3801,6d22249e-2677-449b-9d4f-2665fb388430,,25405000000,25603101,21,53d56d97-11c1-4b9f-a269-b6f2ed17c702,000,380000040040019,665806,16207089-5c9e-44d0-a6df-a44f1a278696,38,ул,2014-04-28,0774,,,2020-08-22,000,0000,000,0,,0757,,0
0,09893767-3f30-4fd5-a0e4-d23bb558c930,6d22249e-2677-449b-9d4f-2665fb388430,7,000,0,0,004,38000004004001904,4.0,2016-03-25,Парковая,3801,3801,f13855b8-9d17-40ca-9a35-5beaaeea1cc9,,25203501000,25603101,21,53d56d97-11c1-4b9f-a269-b6f2ed17c702,000,380000040040019,665806,bd882e09-7d1a-4ee1-b560-18d466c1fcee,38,ул,2015-10-16,0774,,,2020-08-22,000,0000,000,0,,0757,,0
0,09893767-3f30-4fd5-a0e4-d23bb558c930,f13855b8-9d17-40ca-9a35-5beaaeea1cc9,7,000,0,0,004,38000004004001905,5.0,2017-12-07,Парковая,3801,3801,dabacca6-5ff6-4c42-9a22-a8344da502c9,,25203501000,25703000,21,53d56d97-11c1-4b9f-a269-b6f2ed17c702,000,380000040040019,665806,6d22249e-2677-449b-9d4f-2665fb388430,38,ул,2016-03-25,0774,,,2020-08-22,000,0000,000,0,,0757,,0
0,09893767-3f30-4fd5-a0e4-d23bb558c930,dabacca6-5ff6-4c42-9a22-a8344da502c9,7,000,0,0,004,38000004004001951,51.0,2019-03-20,Парковая,3801,3801,25a5814b-22a7-4791-945a-b43a5730bb7f,,25203501000,25703000001,21,53d56d97-11c1-4b9f-a269-b6f2ed17c702,000,380000040040019,665806,f13855b8-9d17-40ca-9a35-5beaaeea1cc9,38,ул,2017-12-07,0774,,,2020-08-22,000,0000,000,0,cf7a5833-6f74-4d36-ac30-347adebd5a6f,0757,,0
0,09893767-3f30-4fd5-a0e4-d23bb558c930,25a5814b-22a7-4791-945a-b43a5730bb7f,7,000,0,0,004,38000004000077499,99.0,2020-08-21,Парковая,3801,3801,daac1879-7cb4-4de4-8782-d00f1c209a0d,,25203501000,25703000001,51,53d56d97-11c1-4b9f-a269-b6f2ed17c702,000,380000040000774,665806,dabacca6-5ff6-4c42-9a22-a8344da502c9,38,ул,2019-03-20,0774,,,2020-08-22,000,0000,000,0,d58405eb-3051-4eb2-bf4f-5f0282a7a497,0757,,0
1,09893767-3f30-4fd5-a0e4-d23bb558c930,daac1879-7cb4-4de4-8782-d00f1c209a0d,7,000,0,0,004,38000004000077499,99.0,2079-06-06,Парковая,3801,3801,,,25203501000,25703000001,30,53d56d97-11c1-4b9f-a269-b6f2ed17c702,000,380000040000774,665806,25a5814b-22a7-4791-945a-b43a5730bb7f,38,ул,2020-08-21,0774,,,2020-08-22,000,0000,000,0,,0757,,0
0,a446a7fe-6db0-4d29-b20d-df9078aadb09,a12141f5-078f-40cc-bd8d-a75ebffb0dea,7,000,0,0,004,38000004004002901,1.0,2020-08-21,Таежная,3801,3801,34bec2f6-88cf-4e69-be09-e2867220388d,,25405000000,25603101,1,53d56d97-11c1-4b9f-a269-b6f2ed17c702,004,380000040040029,665806,,38,ул,1900-01-01,0029,,,2020-08-22,000,0000,000,0,,0000,,0
0,a446a7fe-6db0-4d29-b20d-df9078aadb09,34bec2f6-88cf-4e69-be09-e2867220388d,7,000,0,0,004,38000004004002902,2.0,2014-04-28,Таежная,3801,3801,cceff7cd-b336-4c20-8a5c-8d4e1704c235,,25405000000,25603101001,21,53d56d97-11c1-4b9f-a269-b6f2ed17c702,000,380000040040029,665806,a12141f5-078f-40cc-bd8d-a75ebffb0dea,38,ул,2014-03-06,0786,,,2020-08-22,000,0000,000,0,,0757,,0
0,a446a7fe-6db0-4d29-b20d-df9078aadb09,cceff7cd-b336-4c20-8a5c-8d4e1704c235,7,000,0,0,004,38000004004002903,3.0,2016-03-25,Таежная,3801,3801,f9eeec78-3a4a-45fb-889e-944929693c03,,25405000000,25603101,21,53d56d97-11c1-4b9f-a269-b6f2ed17c702,000,380000040040029,665806,34bec2f6-88cf-4e69-be09-e2867220388d,38,ул,2014-04-28,0786,,,2020-08-22,000,0000,000,0,,0757,,0
0,a446a7fe-6db0-4d29-b20d-df9078aadb09,f9eeec78-3a4a-45fb-889e-944929693c03,7,000,0,0,004,38000004004002904,4.0,2016-03-25,Таежная,3801,3801,417f2917-0e6c-4c2e-9ead-69ce39b877aa,,25203501000,25603101,21,53d56d97-11c1-4b9f-a269-b6f2ed17c702,000,380000040040029,665806,cceff7cd-b336-4c20-8a5c-8d4e1704c235,38,ул,2015-10-16,0786,,,2020-08-22,000,0000,000,0,,0757,,0
0,a446a7fe-6db0-4d29-b20d-df9078aadb09,417f2917-0e6c-4c2e-9ead-69ce39b877aa,7,000,0,0,004,38000004004002905,5.0,2017-12-07,Таежная,3801,3801,171c306e-2c98-4a12-98a8-db82dd83a35c,,25203501000,25703000,21,53d56d97-11c1-4b9f-a269-b6f2ed17c702,000,380000040040029,665806,f9eeec78-3a4a-45fb-889e-944929693c03,38,ул,2016-03-25,0786,,,2020-08-22,000,0000,000,0,,0757,,0
0,a446a7fe-6db0-4d29-b20d-df9078aadb09,171c306e-2c98-4a12-98a8-db82dd83a35c,7,000,0,0,004,38000004004002951,51.0,2019-03-20,Таежная,3801,3801,b7eb6a19-8ca4-4bd5-bad4-8490590903c3,,25203501000,25703000001,21,53d56d97-11c1-4b9f-a269-b6f2ed17c702,000,380000040040029,665806,417f2917-0e6c-4c2e-9ead-69ce39b877aa,38,ул,2017-12-07,0786,,,2020-08-22,000,0000,000,0,cf7a5833-6f74-4d36-ac30-347adebd5a6f,0757,,0
0,a446a7fe-6db0-4d29-b20d-df9078aadb09,b7eb6a19-8ca4-4bd5-bad4-8490590903c3,7,000,0,0,004,38000004000078699,99.0,2020-08-21,Таежная,3801,3801,a05c7482-13f9-48f8-bf0c-58fcdb208c58,,25203501000,25703000001,51,53d56d97-11c1-4b9f-a269-b6f2ed17c702,000,380000040000786,665806,171c306e-2c98-4a12-98a8-db82dd83a35c,38,ул,2019-03-20,0786,,,2020-08-22,000,0000,000,0,d58405eb-3051-4eb2-bf4f-5f0282a7a497,0757,,0
1,a446a7fe-6db0-4d29-b20d-df9078aadb09,a05c7482-13f9-48f8-bf0c-58fcdb208c58,7,000,0,0,004,38000004000078699,99.0,2079-06-06,Таежная,3801,3801,,,25203501000,25703000001,30,53d56d97-11c1-4b9f-a269-b6f2ed17c702,000,380000040000786,665806,b7eb6a19-8ca4-4bd5-bad4-8490590903c3,38,ул,2020-08-21,0786,,,2020-08-22,000,0000,000,0,,0757,,0
1,9fd21ba0-2ef6-4f2f-a9bd-62cf13b28593,9fd21ba0-2ef6-4f2f-a9bd-62cf13b28593,7,022,0,0,000,38022000000001100,0.0,2079-06-06,Черемуховая,3817,3817,,,25242000000,25642701,10,a11bffce-2f60-407f-9eeb-c866a0428004,000,380220000000011,,,38,ул,2020-08-20,0011,,,2020-08-22,000,0000,000,1,,0022,,0
1,33b3d32e-7051-4d74-a4d7-388bb33ff3d2,33b3d32e-7051-4d74-a4d7-388bb33ff3d2,7,022,0,0,000,38022000000000900,0.0,2079-06-06,Сосновая,3817,3817,,,25242000000,25642701,10,a11bffce-2f60-407f-9eeb-c866a0428004,000,380220000000009,,,38,ул,2020-08-20,0009,,,2020-08-22,000,0000,000,1,,0022,,0
1,bd6121bb-da6d-4980-938c-5feab4efb8e3,bd6121bb-da6d-4980-938c-5feab4efb8e3,7,022,0,0,000,38022000000000300,0.0,2079-06-06,Лиственная,3817,3817,,,25242000000,25642701,10,a11bffce-2f60-407f-9eeb-c866a0428004,000,380220000000003,,,38,ул,2020-08-20,0003,,,2020-08-22,000,0000,000,1,,0022,,0
1,78841ccf-c7c6-46c9-aabe-830132b728f5,78841ccf-c7c6-46c9-aabe-830132b728f5,7,022,0,0,000,38022000000000500,0.0,2079-06-06,Березовая,3817,3817,,,25242000000,25642701,10,a11bffce-2f60-407f-9eeb-c866a0428004,000,380220000000005,,,38,ул,2020-08-20,0005,,,2020-08-22,000,0000,000,1,,0022,,0
1,bb863f21-ff97-4fab-bfa2-c585f6a85522,bb863f21-ff97-4fab-bfa2-c585f6a85522,7,022,0,0,000,38022000000000600,0.0,2079-06-06,Рябиновая,3817,3817,,,25242000000,25642701,10,a11bffce-2f60-407f-9eeb-c866a0428004,000,380220000000006,,,38,ул,2020-08-20,0006,,,2020-08-22,000,0000,000,1,,0022,,0
0,1201aeb4-1be5-42b4-80de-44d0c80b16cd,1dd712b6-23be-46e8-843e-b0f461bc449f,7,000,0,0,004,38000004004004201,1.0,2020-08-21,Егорова,3801,3801,c61ff127-aef0-46f4-8d1a-0903bcd3deba,,25405000000,25603101,1,53d56d97-11c1-4b9f-a269-b6f2ed17c702,004,380000040040042,665813,,38,пер,1900-01-01,0042,,,2020-08-22,000,0000,000,0,,0000,,0
0,1201aeb4-1be5-42b4-80de-44d0c80b16cd,c61ff127-aef0-46f4-8d1a-0903bcd3deba,7,000,0,0,004,38000004004004202,2.0,2014-04-28,Егорова,3801,3801,f2755ab4-f13a-4cd3-92b1-fed15ed8c236,,25405000000,25603101001,21,53d56d97-11c1-4b9f-a269-b6f2ed17c702,000,380000040040042,665813,1dd712b6-23be-46e8-843e-b0f461bc449f,38,пер,2014-03-06,0761,,,2020-08-22,000,0000,000,0,,0757,,0
0,1201aeb4-1be5-42b4-80de-44d0c80b16cd,f2755ab4-f13a-4cd3-92b1-fed15ed8c236,7,000,0,0,004,38000004004004203,3.0,2016-03-25,Егорова,3801,3801,9aa7c9e2-7293-4461-99c9-06d3733c8205,,25405000000,25603101,21,53d56d97-11c1-4b9f-a269-b6f2ed17c702,000,380000040040042,665813,c61ff127-aef0-46f4-8d1a-0903bcd3deba,38,пер,2014-04-28,0761,,,2020-08-22,000,0000,000,0,,0757,,0
0,1201aeb4-1be5-42b4-80de-44d0c80b16cd,9aa7c9e2-7293-4461-99c9-06d3733c8205,7,000,0,0,004,38000004004004204,4.0,2016-03-25,Егорова,3801,3801,33bd7f14-369e-472e-915a-56d1436040e3,,25203501000,25603101,21,53d56d97-11c1-4b9f-a269-b6f2ed17c702,000,380000040040042,665813,f2755ab4-f13a-4cd3-92b1-fed15ed8c236,38,пер,2015-10-16,0761,,,2020-08-22,000,0000,000,0,,0757,,0
0,1201aeb4-1be5-42b4-80de-44d0c80b16cd,33bd7f14-369e-472e-915a-56d1436040e3,7,000,0,0,004,38000004004004205,5.0,2017-12-07,Егорова,3801,3801,3d1a8ba9-2252-4aed-abe9-e7fc52f79354,,25203501000,25703000,21,53d56d97-11c1-4b9f-a269-b6f2ed17c702,000,380000040040042,665813,9aa7c9e2-7293-4461-99c9-06d3733c8205,38,пер,2016-03-25,0761,,,2020-08-22,000,0000,000,0,,0757,,0
0,1201aeb4-1be5-42b4-80de-44d0c80b16cd,3d1a8ba9-2252-4aed-abe9-e7fc52f79354,7,000,0,0,004,38000004004004251,51.0,2019-03-20,Егорова,3801,3801,56ee852c-fa3c-48ee-aa0d-5eec0f0b7036,,25203501000,25703000001,21,53d56d97-11c1-4b9f-a269-b6f2ed17c702,000,380000040040042,665813,33bd7f14-369e-472e-915a-56d1436040e3,38,пер,2017-12-07,0761,,,2020-08-22,000,0000,000,0,cf7a5833-6f74-4d36-ac30-347adebd5a6f,0757,,0
0,1201aeb4-1be5-42b4-80de-44d0c80b16cd,56ee852c-fa3c-48ee-aa0d-5eec0f0b7036,7,000,0,0,004,38000004000076199,99.0,2020-08-21,Егорова,3801,3801,593c68a4-392a-4b7d-9c2e-97d3f007ca40,,25203501000,25703000001,51,53d56d97-11c1-4b9f-a269-b6f2ed17c702,000,380000040000761,665813,3d1a8ba9-2252-4aed-abe9-e7fc52f79354,38,пер,2019-03-20,0761,,,2020-08-22,000,0000,000,0,d58405eb-3051-4eb2-bf4f-5f0282a7a497,0757,,0
1,1201aeb4-1be5-42b4-80de-44d0c80b16cd,593c68a4-392a-4b7d-9c2e-97d3f007ca40,7,000,0,0,004,38000004000076199,99.0,2079-06-06,Егорова,3801,3801,,,25203501000,25703000001,30,53d56d97-11c1-4b9f-a269-b6f2ed17c702,000,380000040000761,665813,56ee852c-fa3c-48ee-aa0d-5eec0f0b7036,38,пер,2020-08-21,0761,,,2020-08-22,000,0000,000,0,,0757,,0
0,767c4f53-1ebe-433a-8695-29fdec2042d9,708b4f1a-b10c-466e-9afd-abb5ff0822c8,7,013,0,0,000,38013000001007501,1.0,2018-12-18,20 Годовщины Октября,3814,3814,eb1fec76-6f1c-49a1-9b61-969a16a9d4ff,,25222551000,25622151,1,94f62b20-bed1-4967-ae70-bb52191baf9f,001,380130000010075,665301,,38,ул,1900-01-01,0075,,,2020-08-22,000,0000,000,0,,0000,,0
0,767c4f53-1ebe-433a-8695-29fdec2042d9,eb1fec76-6f1c-49a1-9b61-969a16a9d4ff,7,013,0,0,000,38013000001007502,2.0,2018-12-18,20 Годовщины Октября,3814,3814,eec9590e-8013-416a-a6fd-8e51b2a5c5da,,25222551000,25622151,20,94f62b20-bed1-4967-ae70-bb52191baf9f,001,380130000010075,665301,708b4f1a-b10c-466e-9afd-abb5ff0822c8,38,ул,2010-10-24,0075,,,2020-08-22,000,0000,000,0,cd75e341-6116-4b96-8c70-97680884a5a0,0000,,0
0,767c4f53-1ebe-433a-8695-29fdec2042d9,eec9590e-8013-416a-a6fd-8e51b2a5c5da,7,013,0,0,000,38013000001007503,3.0,2020-08-20,22-ой Годовщины Октября,3814,3814,34e145a2-b951-447e-a176-d6d06bbad673,,25222551000,25622151,20,94f62b20-bed1-4967-ae70-bb52191baf9f,001,380130000010075,,eb1fec76-6f1c-49a1-9b61-969a16a9d4ff,38,ул,2018-12-18,0075,,,2020-08-22,000,0000,000,0,41ff8e61-785b-4b1f-bb0c-a1da74dda0e6,0000,,0
1,767c4f53-1ebe-433a-8695-29fdec2042d9,34e145a2-b951-447e-a176-d6d06bbad673,7,013,0,0,000,38013000001007500,0.0,2079-06-06,20-ой Годовщины Октября,3814,3814,,,25222551000,25622151051,20,94f62b20-bed1-4967-ae70-bb52191baf9f,001,380130000010075,,eec9590e-8013-416a-a6fd-8e51b2a5c5da,38,ул,2020-08-20,0075,,,2020-08-22,000,0000,000,1,,0000,,0
0,e7f3cb82-986e-4ea0-a998-fa6092aa6c58,7c0ff42d-cd81-4092-b96f-6c89a288d47e,7,000,0,0,004,38000004004004001,1.0,2020-08-21,Чапаева,3801,3801,c7ee425a-19db-4e1b-98c8-e1e612a57189,,25405000000,25603101,1,53d56d97-11c1-4b9f-a269-b6f2ed17c702,004,380000040040040,665806,,38,ул,1900-01-01,0040,,,2020-08-22,000,0000,000,0,,0000,,0
0,e7f3cb82-986e-4ea0-a998-fa6092aa6c58,c7ee425a-19db-4e1b-98c8-e1e612a57189,7,000,0,0,004,38000004004004002,2.0,2014-04-28,Чапаева,3801,3801,a2157a1a-ec66-433d-baaa-d549e3e2b1a8,,25405000000,25603101001,21,53d56d97-11c1-4b9f-a269-b6f2ed17c702,000,380000040040040,665806,7c0ff42d-cd81-4092-b96f-6c89a288d47e,38,ул,2014-03-06,0790,,,2020-08-22,000,0000,000,0,,0757,,0
0,e7f3cb82-986e-4ea0-a998-fa6092aa6c58,a2157a1a-ec66-433d-baaa-d549e3e2b1a8,7,000,0,0,004,38000004004004003,3.0,2016-03-25,Чапаева,3801,3801,86d72404-1b01-45e1-9992-ceeb94f9918c,,25405000000,25603101,21,53d56d97-11c1-4b9f-a269-b6f2ed17c702,000,380000040040040,665806,c7ee425a-19db-4e1b-98c8-e1e612a57189,38,ул,2014-04-28,0790,,,2020-08-22,000,0000,000,0,,0757,,0
0,e7f3cb82-986e-4ea0-a998-fa6092aa6c58,86d72404-1b01-45e1-9992-ceeb94f9918c,7,000,0,0,004,38000004004004004,4.0,2016-03-25,Чапаева,3801,3801,278a8f15-8f83-4af0-8ed9-cba404c37b63,,25203501000,25603101,21,53d56d97-11c1-4b9f-a269-b6f2ed17c702,000,380000040040040,665806,a2157a1a-ec66-433d-baaa-d549e3e2b1a8,38,ул,2015-10-16,0790,,,2020-08-22,000,0000,000,0,,0757,,0
0,e7f3cb82-986e-4ea0-a998-fa6092aa6c58,278a8f15-8f83-4af0-8ed9-cba404c37b63,7,000,0,0,004,38000004004004005,5.0,2017-12-07,Чапаева,3801,3801,a8cd9e7b-1673-4d36-866b-e27ab1fc8de6,,25203501000,25703000,21,53d56d97-11c1-4b9f-a269-b6f2ed17c702,000,380000040040040,665806,86d72404-1b01-45e1-9992-ceeb94f9918c,38,ул,2016-03-25,0790,,,2020-08-22,000,0000,000,0,,0757,,0
0,e7f3cb82-986e-4ea0-a998-fa6092aa6c58,a8cd9e7b-1673-4d36-866b-e27ab1fc8de6,7,000,0,0,004,38000004004004051,51.0,2019-03-20,Чапаева,3801,3801,8f8e0ee2-8db0-4a84-99e1-b1b92ef4ddb2,,25203501000,25703000001,21,53d56d97-11c1-4b9f-a269-b6f2ed17c702,000,380000040040040,665806,278a8f15-8f83-4af0-8ed9-cba404c37b63,38,ул,2017-12-07,0790,,,2020-08-22,000,0000,000,0,cf7a5833-6f74-4d36-ac30-347adebd5a6f,0757,,0
0,e7f3cb82-986e-4ea0-a998-fa6092aa6c58,8f8e0ee2-8db0-4a84-99e1-b1b92ef4ddb2,7,000,0,0,004,38000004000079099,99.0,2020-08-21,Чапаева,3801,3801,94ae475b-bf04-4c69-aa85-dfdd504c29f1,,25203501000,25703000001,51,53d56d97-11c1-4b9f-a269-b6f2ed17c702,000,380000040000790,665806,a8cd9e7b-1673-4d36-866b-e27ab1fc8de6,38,ул,2019-03-20,0790,,,2020-08-22,000,0000,000,0,d58405eb-3051-4eb2-bf4f-5f0282a7a497,0757,,0
1,e7f3cb82-986e-4ea0-a998-fa6092aa6c58,94ae475b-bf04-4c69-aa85-dfdd504c29f1,7,000,0,0,004,38000004000079099,99.0,2079-06-06,Чапаева,3801,3801,,,25203501000,25703000001,30,53d56d97-11c1-4b9f-a269-b6f2ed17c702,000,380000040000790,665806,8f8e0ee2-8db0-4a84-99e1-b1b92ef4ddb2,38,ул,2020-08-21,0790,,,2020-08-22,000,0000,000,0,,0757,,0
1,8624545b-24ca-4794-9f02-c7604a21b446,8624545b-24ca-4794-9f02-c7604a21b446,7,022,0,0,000,38022000000000200,0.0,2079-06-06,Ольховая,3817,3817,,,25242000000,25642701,10,a11bffce-2f60-407f-9eeb-c866a0428004,000,380220000000002,,,38,ул,2020-08-20,0002,,,2020-08-22,000,0000,000,1,,0022,,0
1,80af2245-ad49-4017-9f5a-57086bc9ada3,80af2245-ad49-4017-9f5a-57086bc9ada3,7,022,0,0,000,38022000000000800,0.0,2079-06-06,Еловая,3817,3817,,,25242000000,25642701,10,a11bffce-2f60-407f-9eeb-c866a0428004,000,380220000000008,,,38,ул,2020-08-20,0008,,,2020-08-22,000,0000,000,1,,0022,,0
1,69c135a0-270c-4a73-ae16-0d824c43ee8e,69c135a0-270c-4a73-ae16-0d824c43ee8e,7,022,0,0,000,38022000000000700,0.0,2079-06-06,Пихтовая,3817,3817,,,25242000000,25642701,10,a11bffce-2f60-407f-9eeb-c866a0428004,000,380220000000007,,,38,ул,2020-08-20,0007,,,2020-08-22,000,0000,000,1,,0022,,0
0,83b0f6aa-66b0-45e1-9412-3db6dd58c32c,9b742332-eccf-4a20-a657-f7d29734183a,7,000,0,0,004,38000004004004301,1.0,2020-08-21,Косова,3801,3801,3c0179a0-f0b1-4a1e-912e-4d95ad7ef345,,25405000000,25603101,1,53d56d97-11c1-4b9f-a269-b6f2ed17c702,004,380000040040043,665838,,38,проезд,1900-01-01,0043,,,2020-08-22,000,0000,000,0,,0000,,0
0,83b0f6aa-66b0-45e1-9412-3db6dd58c32c,3c0179a0-f0b1-4a1e-912e-4d95ad7ef345,7,000,0,0,004,38000004004004302,2.0,2014-04-28,Косова,3801,3801,527dc8c6-4f4a-474e-936d-3f7e5b23c612,,25405000000,25603101001,21,53d56d97-11c1-4b9f-a269-b6f2ed17c702,000,380000040040043,665838,9b742332-eccf-4a20-a657-f7d29734183a,38,проезд,2014-03-06,0764,,,2020-08-22,000,0000,000,0,,0757,,0
0,83b0f6aa-66b0-45e1-9412-3db6dd58c32c,527dc8c6-4f4a-474e-936d-3f7e5b23c612,7,000,0,0,004,38000004004004303,3.0,2016-03-25,Косова,3801,3801,ae269dbf-3b10-467c-9b70-7af0b943abfb,,25405000000,25603101,21,53d56d97-11c1-4b9f-a269-b6f2ed17c702,000,380000040040043,665838,3c0179a0-f0b1-4a1e-912e-4d95ad7ef345,38,проезд,2014-04-28,0764,,,2020-08-22,000,0000,000,0,,0757,,0
0,83b0f6aa-66b0-45e1-9412-3db6dd58c32c,ae269dbf-3b10-467c-9b70-7af0b943abfb,7,000,0,0,004,38000004004004304,4.0,2016-03-25,Косова,3801,3801,9ae00da3-f35f-44ab-83c0-6491a557653c,,25203501000,25603101,21,53d56d97-11c1-4b9f-a269-b6f2ed17c702,000,380000040040043,665838,527dc8c6-4f4a-474e-936d-3f7e5b23c612,38,проезд,2015-10-16,0764,,,2020-08-22,000,0000,000,0,,0757,,0
0,83b0f6aa-66b0-45e1-9412-3db6dd58c32c,9ae00da3-f35f-44ab-83c0-6491a557653c,7,000,0,0,004,38000004004004305,5.0,2017-12-07,Косова,3801,3801,e08a650e-3db3-42e6-b30b-4352e269e4ec,,25203501000,25703000,21,53d56d97-11c1-4b9f-a269-b6f2ed17c702,000,380000040040043,665838,ae269dbf-3b10-467c-9b70-7af0b943abfb,38,проезд,2016-03-25,0764,,,2020-08-22,000,0000,000,0,,0757,,0
0,83b0f6aa-66b0-45e1-9412-3db6dd58c32c,e08a650e-3db3-42e6-b30b-4352e269e4ec,7,000,0,0,004,38000004004004351,51.0,2019-03-20,Косова,3801,3801,4fc67d56-2073-4505-92cd-741f50d57472,,25203501000,25703000001,21,53d56d97-11c1-4b9f-a269-b6f2ed17c702,000,380000040040043,665838,9ae00da3-f35f-44ab-83c0-6491a557653c,38,проезд,2017-12-07,0764,,,2020-08-22,000,0000,000,0,cf7a5833-6f74-4d36-ac30-347adebd5a6f,0757,,0
0,83b0f6aa-66b0-45e1-9412-3db6dd58c32c,4fc67d56-2073-4505-92cd-741f50d57472,7,000,0,0,004,38000004000076499,99.0,2020-08-21,Косова,3801,3801,0012cbf3-bcde-4db5-b7cb-29ac0338b75b,,25203501000,25703000001,51,53d56d97-11c1-4b9f-a269-b6f2ed17c702,000,380000040000764,665838,e08a650e-3db3-42e6-b30b-4352e269e4ec,38,проезд,2019-03-20,0764,,,2020-08-22,000,0000,000,0,d58405eb-3051-4eb2-bf4f-5f0282a7a497,0757,,0
1,83b0f6aa-66b0-45e1-9412-3db6dd58c32c,0012cbf3-bcde-4db5-b7cb-29ac0338b75b,7,000,0,0,004,38000004000076499,99.0,2079-06-06,Косова,3801,3801,,,25203501000,25703000001,30,53d56d97-11c1-4b9f-a269-b6f2ed17c702,000,380000040000764,665838,4fc67d56-2073-4505-92cd-741f50d57472,38,проезд,2020-08-21,0764,,,2020-08-22,000,0000,000,0,,0757,,0
1,9516fcfe-28cc-4448-9099-b59950bffbc3,9516fcfe-28cc-4448-9099-b59950bffbc3,65,025,0,0,000,38025000034000500,0.0,2079-06-06,Кирзавод,3851,3851,,,25248000038,25648443111,10,367ff7ad-a432-4961-8762-cb9cf3f74066,034,380250000340005,665407,,38,тер.,2020-08-24,0000,,,2020-08-27,000,0000,000,1,,0005,,0
0,bf040587-debe-4b5e-8c52-6d74f21bffc5,538e97cf-f1f9-468d-9a4b-420c538655df,7,013,0,0,000,38013000001001101,1.0,2020-08-24,22 Годовщины Октября,3814,3814,6ef8e045-38fb-4aff-a64f-d65685c6d75d,,25222551000,25622151,1,94f62b20-bed1-4967-ae70-bb52191baf9f,001,380130000010011,665302,,38,ул,1900-01-01,0011,,,2020-08-27,000,0000,000,0,,0000,,0
0,bf040587-debe-4b5e-8c52-6d74f21bffc5,6ef8e045-38fb-4aff-a64f-d65685c6d75d,7,013,0,0,000,38013000001001102,2.0,2020-08-24,22 Годовщины Октября,3814,3814,718690d4-42de-4159-a110-c3d3666b2935,,25222551000,25622151,20,94f62b20-bed1-4967-ae70-bb52191baf9f,001,380130000010011,665302,538e97cf-f1f9-468d-9a4b-420c538655df,38,ул,2010-10-24,0011,,,2020-08-27,000,0000,000,0,cd75e341-6116-4b96-8c70-97680884a5a0,0000,,0
1,bf040587-debe-4b5e-8c52-6d74f21bffc5,718690d4-42de-4159-a110-c3d3666b2935,7,013,0,0,000,38013000001001100,0.0,2079-06-06,22-ой Годовщины Октября,3814,3814,,,25222551000,25622151051,20,94f62b20-bed1-4967-ae70-bb52191baf9f,001,380130000010011,665302,6ef8e045-38fb-4aff-a64f-d65685c6d75d,38,ул,2020-08-24,0011,,,2020-08-27,000,0000,000,1,,0000,,0
