ACTSTATUS,AOGUID,AOID,AOLEVEL,AREACODE,AUTOCODE,CENTSTATUS,CITYCODE,CODE,CURRSTATUS,ENDDATE,FORMALNAME,IFNSFL,IFNSUL,NEXTID,OFFNAME,OKATO,OKTMO,OPERSTATUS,PARENTGUID,PLACECODE,PLAINCODE,POSTALCODE,PREVID,REGIONCODE,SHORTNAME,STARTDATE,STREETCODE,TERRIFNSFL,TERRIFNSUL,UPDATEDATE,CTARCODE,EXTRCODE,SEXTCODE,LIVESTATUS,NORMDOC,PLANCODE,CADNUM,DIVTYPE
1,26e79e87-3746-48bf-a5fa-e1433eff7a1a,3ec166c6-fa71-468a-9dc2-507dcd559baf,7,000,0,0,001,45000001000021700,0.0,2079-06-06,Парижской Коммуны,4501,4501,,,37401000000,37701000001,20,3bbda77d-ba3f-4457-9d44-c440815cda89,000,450000010000217,640015,43d547e0-6645-4d7c-b192-cde8af156c68,45,ул,2020-08-27,0217,,,2020-08-30,000,0000,000,1,,0000,,0
0,26e79e87-3746-48bf-a5fa-e1433eff7a1a,43d547e0-6645-4d7c-b192-cde8af156c68,7,000,0,0,001,45000001000021700,0.0,2079-06-06,Парижской Коммуны,4501,4501,3ec166c6-fa71-468a-9dc2-507dcd559baf,,37401000000,37701000,1,3bbda77d-ba3f-4457-9d44-c440815cda89,000,450000010000217,640015,,45,ул,1900-01-01,0217,,,2020-08-30,000,0000,000,0,,0000,,0
0,c9c459f9-4f50-4653-a977-592582ed7b41,c9c459f9-4f50-4653-a977-592582ed7b41,90,009,0,0,000,45009000000005451,51.0,2016-09-29,Коллективный сад Содружество,4510,4510,76afd272-45f3-48bd-b585-0f570125250b,,37214840000,37614440126,10,b4ee11d9-870b-4e92-bfc0-ac8c47d23cb6,000,450090000000054,641303,,45,тер,2012-12-17,0000,,,2020-08-30,000,0000,000,0,701a751e-b02a-403c-88ba-485d2e866d6f,0000,,0
0,c9c459f9-4f50-4653-a977-592582ed7b41,76afd272-45f3-48bd-b585-0f570125250b,65,009,0,0,000,45009000000005401,1.0,2020-08-27,Коллективный сад Содружество,4510,4510,0035429c-f8d9-436d-9872-d600441603b4,,37214840000,37614440126,50,b4ee11d9-870b-4e92-bfc0-ac8c47d23cb6,000,450090000000054,641303,c9c459f9-4f50-4653-a977-592582ed7b41,45,тер,2016-09-29,0000,,,2020-08-30,000,0000,000,0,,0054,,0
1,c9c459f9-4f50-4653-a977-592582ed7b41,0035429c-f8d9-436d-9872-d600441603b4,65,009,0,0,000,45009000000005400,0.0,2079-06-06,СНТ Содружество,4510,4510,,,37214840000,37614440,20,b4ee11d9-870b-4e92-bfc0-ac8c47d23cb6,000,450090000000054,641303,76afd272-45f3-48bd-b585-0f570125250b,45,тер,2020-08-27,0000,,,2020-08-30,000,0000,000,1,,0054,,0
1,4fd277c2-62df-4b45-bb9d-6beb148108b8,da13c64f-c18c-4ebc-a20d-f46e2ba6da25,7,000,0,0,001,45000001000028500,0.0,2079-06-06,Тельмана,4501,4501,,,37401000000,37701000001,20,3bbda77d-ba3f-4457-9d44-c440815cda89,000,450000010000285,,3be628ee-60a5-4d3c-be16-0065d3bb090a,45,ул,2020-08-20,0285,,,2020-08-22,000,0000,000,1,,0000,,0
0,e63cd094-4426-4217-89d3-d8b04dce490c,e63cd094-4426-4217-89d3-d8b04dce490c,7,000,0,0,001,45000001008007951,51.0,2079-06-06,Армейская,4501,4501,1b187fa0-2d70-4126-9195-72763a02ddc1,,37401000000,37701000,10,cab11b43-5052-4bec-b26c-ca279f4dd9c6,008,450000010080079,640040,,45,ул,2015-11-09,0079,,,2020-08-22,000,0000,000,0,c3f4b959-6372-42be-909e-06492751a7f9,0000,,0
1,509147ed-1302-422b-b8c7-57456c1dcd77,509147ed-1302-422b-b8c7-57456c1dcd77,7,022,0,0,000,45022000025001900,0.0,2079-06-06,22 - ой,4508,4508,,,37240836001,37640436,10,29c90536-e793-4ebf-923a-6f96ac7ec77a,025,450220000250019,,,45,км,2020-08-19,0019,,,2020-08-20,000,0000,000,1,,0018,,0
1,29c90536-e793-4ebf-923a-6f96ac7ec77a,29c90536-e793-4ebf-923a-6f96ac7ec77a,65,022,0,0,000,45022000025001800,0.0,2079-06-06,Автодорога Дальняя Кубасова - Кызылбай,4508,4508,,,37240836001,37640436,10,c8b0a50e-9864-4320-99ad-e1b6d153f011,025,450220000250018,,,45,тер.,2020-08-18,0000,,,2020-08-20,000,0000,000,1,,0018,,0
0,ee1590b9-7d36-4c43-9641-53defef5ccbb,22e9ce1f-9e95-4346-9480-b5f6213010fa,7,022,0,0,000,45022000025001101,1.0,2020-08-18,И.Фасук,4508,4508,d03bf7a6-1e9d-4c45-9163-7e050f6fa081,,37240836001,37640436,1,c8b0a50e-9864-4320-99ad-e1b6d153f011,025,450220000250011,641975,,45,пер,1900-01-01,0011,4523,4523,2020-08-20,000,0000,000,0,,0000,,0
0,ee1590b9-7d36-4c43-9641-53defef5ccbb,d03bf7a6-1e9d-4c45-9163-7e050f6fa081,7,022,0,0,000,45022000025001101,1.0,2020-08-18,И.Фасук,4508,4508,fe6cb3eb-7cad-49d9-9e3a-875df6969764,,37240836001,37640436101,20,c8b0a50e-9864-4320-99ad-e1b6d153f011,025,450220000250011,641975,22e9ce1f-9e95-4346-9480-b5f6213010fa,45,пер,2020-08-18,0011,4523,4523,2020-08-20,000,0000,000,0,,0000,,0
1,ee1590b9-7d36-4c43-9641-53defef5ccbb,fe6cb3eb-7cad-49d9-9e3a-875df6969764,7,022,0,0,000,45022000025001100,0.0,2079-06-06,И.Фасуга,4508,4508,,,37240836001,37640436101,20,c8b0a50e-9864-4320-99ad-e1b6d153f011,025,450220000250011,641975,d03bf7a6-1e9d-4c45-9163-7e050f6fa081,45,пер,2020-08-18,0011,4523,4523,2020-08-20,000,0000,000,1,,0000,,0
0,4fd277c2-62df-4b45-bb9d-6beb148108b8,3be628ee-60a5-4d3c-be16-0065d3bb090a,7,000,0,0,001,45000001000028500,0.0,2079-06-06,Тельмана,4501,4501,da13c64f-c18c-4ebc-a20d-f46e2ba6da25,,,37701000,1,3bbda77d-ba3f-4457-9d44-c440815cda89,000,450000010000285,,,45,ул,1900-01-01,0285,,,2020-08-22,000,0000,000,0,,0000,,0
0,e63cd094-4426-4217-89d3-d8b04dce490c,1b187fa0-2d70-4126-9195-72763a02ddc1,7,000,0,0,001,45000001000134800,0.0,2020-08-20,Армейская,4501,4501,442ca766-6543-446c-a054-612b498eca44,,37401000000,37701000,51,cab11b43-5052-4bec-b26c-ca279f4dd9c6,000,450000010001348,640040,e63cd094-4426-4217-89d3-d8b04dce490c,45,ул,2018-07-10,1348,,,2020-08-22,000,0000,000,0,82880b83-faff-4d7c-ba71-37822302bb9c,1289,,0
1,e63cd094-4426-4217-89d3-d8b04dce490c,442ca766-6543-446c-a054-612b498eca44,7,000,0,0,001,45000001000134800,0.0,2079-06-06,Армейская,4501,4501,,,37401000000,37701000001,20,cab11b43-5052-4bec-b26c-ca279f4dd9c6,000,450000010001348,640040,1b187fa0-2d70-4126-9195-72763a02ddc1,45,ул,2020-08-20,1348,,,2020-08-22,000,0000,000,1,,1289,,0
0,e7b4d7b3-e7b7-4437-99ae-93b8de9ff45d,e0fdb595-223c-4e09-aee5-9f0ced31621c,7,000,0,0,001,45000001000002000,0.0,2079-06-06,Аргентовского,4501,4501,3847bb92-3df2-4198-b925-aa2bd9edaa53,,37401000000,37701000,1,3bbda77d-ba3f-4457-9d44-c440815cda89,000,450000010000020,,,45,ул,1900-01-01,0020,,,2020-08-22,000,0000,000,0,,0000,,0
1,e7b4d7b3-e7b7-4437-99ae-93b8de9ff45d,3847bb92-3df2-4198-b925-aa2bd9edaa53,7,000,0,0,001,45000001000002000,0.0,2079-06-06,Аргентовского,4501,4501,,,37401000000,37701000001,20,3bbda77d-ba3f-4457-9d44-c440815cda89,000,450000010000020,,e0fdb595-223c-4e09-aee5-9f0ced31621c,45,ул,2020-08-20,0020,,,2020-08-22,000,0000,000,1,,0000,,0
0,80ff424c-4a9d-464a-939d-2c626fa29e97,80ff424c-4a9d-464a-939d-2c626fa29e97,65,000,0,0,001,45000001000112600,0.0,2079-06-06,8-й,4501,4501,e2a9f8b0-af25-4a52-bf94-c93ab2a9c835,,37401000000,37701000,10,3bbda77d-ba3f-4457-9d44-c440815cda89,000,450000010001126,,,45,мкр.,2017-04-19,0000,,,2020-08-22,000,0000,000,0,1c0dcbd0-e9e5-4813-adb9-e8a6ec63ad57,1126,,0
1,80ff424c-4a9d-464a-939d-2c626fa29e97,e2a9f8b0-af25-4a52-bf94-c93ab2a9c835,65,000,0,0,001,45000001000112600,0.0,2079-06-06,8-й,4501,4501,,,37401000000,37701000001,20,3bbda77d-ba3f-4457-9d44-c440815cda89,000,450000010001126,,80ff424c-4a9d-464a-939d-2c626fa29e97,45,мкр.,2020-08-20,0000,,,2020-08-22,000,0000,000,1,,1126,,0
0,544cd1d4-8753-43cf-8bfb-c6034a405256,fc623b1f-83f7-4c1c-8a08-730f58cde8c7,7,000,0,0,001,45000001000012000,0.0,2079-06-06,Кооперативная,4501,4501,c87cc83a-77d0-4b40-a536-ff8d847c7a64,,,37701000,1,3bbda77d-ba3f-4457-9d44-c440815cda89,000,450000010000120,640007,,45,ул,1900-01-01,0120,,,2020-08-22,000,0000,000,0,,0000,,0
1,544cd1d4-8753-43cf-8bfb-c6034a405256,c87cc83a-77d0-4b40-a536-ff8d847c7a64,7,000,0,0,001,45000001000012000,0.0,2079-06-06,Кооперативная,4501,4501,,,37401000000,37701000001,20,3bbda77d-ba3f-4457-9d44-c440815cda89,000,450000010000120,640007,fc623b1f-83f7-4c1c-8a08-730f58cde8c7,45,ул,2020-08-21,0120,,,2020-08-22,000,0000,000,1,,0000,,0
0,66bd45b7-ece8-4334-b35c-2820f7139955,ee464b10-2710-4aac-9b6b-bdb6efcd822a,7,000,0,0,001,45000001000022400,0.0,2079-06-06,Пионерская,4501,4501,6786fbce-794d-490f-b1fd-4bc0dc112dec,,37401000000,37701000,1,3bbda77d-ba3f-4457-9d44-c440815cda89,000,450000010000224,640004,,45,ул,1900-01-01,0224,,,2020-08-27,000,0000,000,0,,0000,,0
1,66bd45b7-ece8-4334-b35c-2820f7139955,6786fbce-794d-490f-b1fd-4bc0dc112dec,7,000,0,0,001,45000001000022400,0.0,2079-06-06,Пионерская,4501,4501,,,37401000000,37701000001,20,3bbda77d-ba3f-4457-9d44-c440815cda89,000,450000010000224,640004,ee464b10-2710-4aac-9b6b-bdb6efcd822a,45,ул,2020-08-25,0224,,,2020-08-27,000,0000,000,1,,0000,,0
0,e89d3c72-02d7-46a2-aab7-b72f0c6f633a,72958bb1-4e75-48ff-8150-0481e2fd62e3,7,000,0,0,001,45000001026000251,51.0,2079-06-06,Юбилейная,4501,4501,0e2ddacc-f7b6-4cb4-aa2e-2b0211e4d859,,37401000000,37701000,1,eeb96122-208f-4ad0-9c68-f669efc12a0e,026,450000010260002,,,45,ул,1900-01-01,0002,,,2020-08-27,000,0000,000,0,,0000,,0
0,e89d3c72-02d7-46a2-aab7-b72f0c6f633a,0e2ddacc-f7b6-4cb4-aa2e-2b0211e4d859,7,000,0,0,001,45000001000145900,0.0,2020-08-25,Юбилейная,4501,4501,5c737b1a-ee61-4907-99d8-0af180f27fc5,,37401000000,37701000,51,eeb96122-208f-4ad0-9c68-f669efc12a0e,000,450000010001459,,72958bb1-4e75-48ff-8150-0481e2fd62e3,45,ул,2018-07-10,1459,,,2020-08-27,000,0000,000,0,82880b83-faff-4d7c-ba71-37822302bb9c,1458,,0
1,e89d3c72-02d7-46a2-aab7-b72f0c6f633a,5c737b1a-ee61-4907-99d8-0af180f27fc5,7,000,0,0,001,45000001000145900,0.0,2079-06-06,Юбилейная,4501,4501,,,37401000000,37701000001,20,eeb96122-208f-4ad0-9c68-f669efc12a0e,000,450000010001459,,0e2ddacc-f7b6-4cb4-aa2e-2b0211e4d859,45,ул,2020-08-25,1459,,,2020-08-27,000,0000,000,1,,1458,,0
