ACTSTATUS,AOGUID,AOID,AOLEVEL,AREACODE,AUTOCODE,CENTSTATUS,CITYCODE,CODE,CURRSTATUS,ENDDATE,FORMALNAME,IFNSFL,IFNSUL,NEXTID,OFFNAME,OKATO,OKTMO,OPERSTATUS,PARENTGUID,PLACECODE,PLAINCODE,POSTALCODE,PREVID,REGIONCODE,SHORTNAME,STARTDATE,STREETCODE,TERRIFNSFL,TERRIFNSUL,UPDATEDATE,CTARCODE,EXTRCODE,SEXTCODE,LIVESTATUS,NORMDOC,PLANCODE,CADNUM,DIVTYPE
0,e43afd7a-3fda-4ef9-9ce8-cb9add29ed30,1428de68-a2dc-48d9-a461-9a6ad17ed45b,7,005,0,0,075,47005075003000901,1.0,2079-06-06,1-я,4703,4703,5b6472fe-f19d-4a28-8602-d46b59cbcba0,,41212808001,41612408,1,5b1cdc7c-6d22-4cfd-b60b-9038df103ad9,003,470050750030009,188640,,47,линия,1900-01-01,0009,,,2020-08-30,000,0000,000,0,,0000,,0
0,e43afd7a-3fda-4ef9-9ce8-cb9add29ed30,5b6472fe-f19d-4a28-8602-d46b59cbcba0,7,005,0,0,000,47005075003000951,51.0,2020-08-27,1-я,4703,4703,9386a7cd-0560-4060-a844-9dbc732e3507,,41212808001,41612408101,21,5b1cdc7c-6d22-4cfd-b60b-9038df103ad9,000,470050750030009,188640,1428de68-a2dc-48d9-a461-9a6ad17ed45b,47,линия,2014-04-28,0381,,,2020-08-30,000,0000,000,0,,0379,,0
0,e43afd7a-3fda-4ef9-9ce8-cb9add29ed30,9386a7cd-0560-4060-a844-9dbc732e3507,7,005,0,0,000,47005000000038102,2.0,2019-10-16,1-я,4703,4703,7167576b-e56b-4de6-aff9-f4a772735634,,41212808001,41612408101,51,5b1cdc7c-6d22-4cfd-b60b-9038df103ad9,000,470050000000381,188640,5b6472fe-f19d-4a28-8602-d46b59cbcba0,47,линия,2018-03-20,0381,,,2020-08-30,000,0000,000,0,d47a2741-9896-41a4-aa4e-59ded3463260,0379,,0
0,e43afd7a-3fda-4ef9-9ce8-cb9add29ed30,7167576b-e56b-4de6-aff9-f4a772735634,7,005,0,0,000,47005000000038100,0.0,2079-06-06,1-я,4703,4703,3e304246-c92b-4f6a-85fa-ea912c44b778,,41212000002,41612408101,21,5b1cdc7c-6d22-4cfd-b60b-9038df103ad9,000,470050000000381,188640,9386a7cd-0560-4060-a844-9dbc732e3507,47,линия,2019-10-16,0381,,,2020-08-30,000,0000,000,0,d47a2741-9896-41a4-aa4e-59ded3463260,0379,,0
1,e43afd7a-3fda-4ef9-9ce8-cb9add29ed30,3e304246-c92b-4f6a-85fa-ea912c44b778,7,005,0,0,000,47005000000038100,0.0,2079-06-06,1-я,4703,4703,,,41212000002,41612408,21,5b1cdc7c-6d22-4cfd-b60b-9038df103ad9,000,470050000000381,188640,7167576b-e56b-4de6-aff9-f4a772735634,47,линия,2020-08-27,0381,,,2020-08-30,000,0000,000,1,,0379,,0
0,879a58c5-b36a-465c-80d5-8a170a2a3953,e1802ab8-b468-45cc-bfa0-54b82dc14b25,7,005,0,0,075,47005075003000301,1.0,2079-06-06,7-я,4703,4703,f6d204c3-e650-434e-b200-fa16ce7b6889,,41212808001,41612408,1,5b1cdc7c-6d22-4cfd-b60b-9038df103ad9,003,470050750030003,188640,,47,линия,1900-01-01,0003,,,2020-08-30,000,0000,000,0,,0000,,0
0,879a58c5-b36a-465c-80d5-8a170a2a3953,f6d204c3-e650-434e-b200-fa16ce7b6889,7,005,0,0,000,47005075003000351,51.0,2020-08-27,7-я,4703,4703,487df58c-c161-42e3-8e61-3ca1d1d4f045,,41212808001,41612408101,21,5b1cdc7c-6d22-4cfd-b60b-9038df103ad9,000,470050750030003,188640,e1802ab8-b468-45cc-bfa0-54b82dc14b25,47,линия,2014-04-28,0387,,,2020-08-30,000,0000,000,0,,0379,,0
0,879a58c5-b36a-465c-80d5-8a170a2a3953,487df58c-c161-42e3-8e61-3ca1d1d4f045,7,005,0,0,000,47005000000038702,2.0,2019-10-16,7-я,4703,4703,2c0cebf7-2818-4a87-b5af-6bc05b7160cc,,41212808001,41612408101,51,5b1cdc7c-6d22-4cfd-b60b-9038df103ad9,000,470050000000387,188640,f6d204c3-e650-434e-b200-fa16ce7b6889,47,линия,2018-03-20,0387,,,2020-08-30,000,0000,000,0,d47a2741-9896-41a4-aa4e-59ded3463260,0379,,0
0,879a58c5-b36a-465c-80d5-8a170a2a3953,2c0cebf7-2818-4a87-b5af-6bc05b7160cc,7,005,0,0,000,47005000000038700,0.0,2079-06-06,7-я,4703,4703,785135d2-c403-4269-9cfa-af0da994bda3,,41212000002,41612408101,21,5b1cdc7c-6d22-4cfd-b60b-9038df103ad9,000,470050000000387,188640,487df58c-c161-42e3-8e61-3ca1d1d4f045,47,линия,2019-10-16,0387,,,2020-08-30,000,0000,000,0,d47a2741-9896-41a4-aa4e-59ded3463260,0379,,0
1,879a58c5-b36a-465c-80d5-8a170a2a3953,785135d2-c403-4269-9cfa-af0da994bda3,7,005,0,0,000,47005000000038700,0.0,2079-06-06,7-я,4703,4703,,,41212000002,41612408,21,5b1cdc7c-6d22-4cfd-b60b-9038df103ad9,000,470050000000387,188640,2c0cebf7-2818-4a87-b5af-6bc05b7160cc,47,линия,2020-08-27,0387,,,2020-08-30,000,0000,000,1,,0379,,0
0,31218f71-e502-468b-a8d8-0fb68f678d73,b5eefe3c-3d83-4fc6-9c9b-3309002f9752,7,005,0,0,075,47005075003000701,1.0,2079-06-06,9-я,4703,4703,a4f2adcf-8729-4d93-97e1-93eef0733dd6,,41212808001,41612408,1,5b1cdc7c-6d22-4cfd-b60b-9038df103ad9,003,470050750030007,188640,,47,линия,1900-01-01,0007,,,2020-08-30,000,0000,000,0,,0000,,0
0,31218f71-e502-468b-a8d8-0fb68f678d73,a4f2adcf-8729-4d93-97e1-93eef0733dd6,7,005,0,0,000,47005075003000751,51.0,2020-08-27,9-я,4703,4703,eea62f8f-ae7e-40a2-bd97-c35de9db71c2,,41212808001,41612408101,21,5b1cdc7c-6d22-4cfd-b60b-9038df103ad9,000,470050750030007,188640,b5eefe3c-3d83-4fc6-9c9b-3309002f9752,47,линия,2014-04-28,0389,,,2020-08-30,000,0000,000,0,,0379,,0
0,31218f71-e502-468b-a8d8-0fb68f678d73,eea62f8f-ae7e-40a2-bd97-c35de9db71c2,7,005,0,0,000,47005000000038902,2.0,2019-10-16,9-я,4703,4703,c5bafd1e-52ce-44e4-a86a-9c853851b20e,,41212808001,41612408101,51,5b1cdc7c-6d22-4cfd-b60b-9038df103ad9,000,470050000000389,188640,a4f2adcf-8729-4d93-97e1-93eef0733dd6,47,линия,2018-03-20,0389,,,2020-08-30,000,0000,000,0,d47a2741-9896-41a4-aa4e-59ded3463260,0379,,0
0,31218f71-e502-468b-a8d8-0fb68f678d73,c5bafd1e-52ce-44e4-a86a-9c853851b20e,7,005,0,0,000,47005000000038900,0.0,2079-06-06,9-я,4703,4703,8b8be012-b50b-40f3-8e77-a7d342ecb693,,41212000002,41612408101,21,5b1cdc7c-6d22-4cfd-b60b-9038df103ad9,000,470050000000389,188640,eea62f8f-ae7e-40a2-bd97-c35de9db71c2,47,линия,2019-10-16,0389,,,2020-08-30,000,0000,000,0,d47a2741-9896-41a4-aa4e-59ded3463260,0379,,0
1,31218f71-e502-468b-a8d8-0fb68f678d73,8b8be012-b50b-40f3-8e77-a7d342ecb693,7,005,0,0,000,47005000000038900,0.0,2079-06-06,9-я,4703,4703,,,41212000002,41612408,21,5b1cdc7c-6d22-4cfd-b60b-9038df103ad9,000,470050000000389,188640,c5bafd1e-52ce-44e4-a86a-9c853851b20e,47,линия,2020-08-27,0389,,,2020-08-30,000,0000,000,1,,0379,,0
0,c9c04a5c-65ec-4a4f-9811-1579efd08d04,941fffbd-9fa0-4386-a752-35dcb75e3446,7,005,0,0,075,47005075003000101,1.0,2079-06-06,5-я,4703,4703,adf88b06-dc84-41fc-9ae2-0120fbc4420d,,41212808001,41612408,1,5b1cdc7c-6d22-4cfd-b60b-9038df103ad9,003,470050750030001,188640,,47,линия,1900-01-01,0001,,,2020-08-30,000,0000,000,0,,0000,,0
0,c9c04a5c-65ec-4a4f-9811-1579efd08d04,adf88b06-dc84-41fc-9ae2-0120fbc4420d,7,005,0,0,000,47005075003000151,51.0,2020-08-27,5-я,4703,4703,ccaf66de-64ba-4032-9505-549a8cb00a90,,41212808001,41612408101,21,5b1cdc7c-6d22-4cfd-b60b-9038df103ad9,000,470050750030001,188640,941fffbd-9fa0-4386-a752-35dcb75e3446,47,линия,2014-04-28,0385,,,2020-08-30,000,0000,000,0,,0379,,0
0,c9c04a5c-65ec-4a4f-9811-1579efd08d04,ccaf66de-64ba-4032-9505-549a8cb00a90,7,005,0,0,000,47005000000038502,2.0,2019-10-16,5-я,4703,4703,96973c84-0f40-4481-9801-a8fef2b679a5,,41212808001,41612408101,51,5b1cdc7c-6d22-4cfd-b60b-9038df103ad9,000,470050000000385,188640,adf88b06-dc84-41fc-9ae2-0120fbc4420d,47,линия,2018-03-20,0385,,,2020-08-30,000,0000,000,0,d47a2741-9896-41a4-aa4e-59ded3463260,0379,,0
0,c9c04a5c-65ec-4a4f-9811-1579efd08d04,96973c84-0f40-4481-9801-a8fef2b679a5,7,005,0,0,000,47005000000038500,0.0,2079-06-06,5-я,4703,4703,e7aedc9b-f5fd-4752-90da-38f29bd20984,,41212000002,41612408101,21,5b1cdc7c-6d22-4cfd-b60b-9038df103ad9,000,470050000000385,188640,ccaf66de-64ba-4032-9505-549a8cb00a90,47,линия,2019-10-16,0385,,,2020-08-30,000,0000,000,0,d47a2741-9896-41a4-aa4e-59ded3463260,0379,,0
1,c9c04a5c-65ec-4a4f-9811-1579efd08d04,e7aedc9b-f5fd-4752-90da-38f29bd20984,7,005,0,0,000,47005000000038500,0.0,2079-06-06,5-я,4703,4703,,,41212000002,41612408,21,5b1cdc7c-6d22-4cfd-b60b-9038df103ad9,000,470050000000385,188640,96973c84-0f40-4481-9801-a8fef2b679a5,47,линия,2020-08-27,0385,,,2020-08-30,000,0000,000,1,,0379,,0
0,6ffd7a86-2e7c-4585-b0f3-c93b826df198,5a51393c-b0f8-41cb-8163-fdceb2a24689,6,005,0,0,000,4700503600201,1.0,2018-03-20,Агат,4703,4703,300add9f-8a0d-4d76-bd6c-49817485f5bc,,41212808002,41612408,1,db8758d6-b8ea-453d-a75f-8f2d3ff49fb0,000,47005036002,188640,,47,снт,1900-01-01,0000,,,2020-08-30,000,0000,000,0,,0438,,0
0,6ffd7a86-2e7c-4585-b0f3-c93b826df198,300add9f-8a0d-4d76-bd6c-49817485f5bc,6,005,0,0,000,4700503600251,51.0,2020-08-28,Агат,4703,4703,09328369-51a5-44e4-a5b1-e39b4e2853d7,,41212808002,41612408106,21,db8758d6-b8ea-453d-a75f-8f2d3ff49fb0,000,47005036002,,5a51393c-b0f8-41cb-8163-fdceb2a24689,47,снт,2014-04-25,0000,,,2020-08-30,000,0000,000,0,,0438,,0
0,6ffd7a86-2e7c-4585-b0f3-c93b826df198,09328369-51a5-44e4-a5b1-e39b4e2853d7,65,005,0,0,000,47005000000043802,2.0,2079-06-06,Агат,4703,4703,951ceb55-2f97-4877-8116-5ba250b8f267,,41212808002,41612408106,50,db8758d6-b8ea-453d-a75f-8f2d3ff49fb0,000,470050000000438,,300add9f-8a0d-4d76-bd6c-49817485f5bc,47,тер. СНТ,2018-03-20,0000,,,2020-08-30,000,0000,000,0,d47a2741-9896-41a4-aa4e-59ded3463260,0438,,0
0,6ffd7a86-2e7c-4585-b0f3-c93b826df198,951ceb55-2f97-4877-8116-5ba250b8f267,65,005,0,0,000,47005000000043800,0.0,2079-06-06,Агат,4703,4703,e20a3ef9-cd1c-48fd-abf6-7c47711e4a27,,41212000003,41612408106,21,db8758d6-b8ea-453d-a75f-8f2d3ff49fb0,000,470050000000438,,09328369-51a5-44e4-a5b1-e39b4e2853d7,47,тер. СНТ,2019-10-17,0000,,,2020-08-30,000,0000,000,0,d47a2741-9896-41a4-aa4e-59ded3463260,0438,,0
1,6ffd7a86-2e7c-4585-b0f3-c93b826df198,e20a3ef9-cd1c-48fd-abf6-7c47711e4a27,65,005,0,0,000,47005000000043800,0.0,2079-06-06,Агат,4703,4703,,,41212000003,41612408,21,db8758d6-b8ea-453d-a75f-8f2d3ff49fb0,000,470050000000438,,951ceb55-2f97-4877-8116-5ba250b8f267,47,тер. СНТ,2020-08-28,0000,,,2020-08-30,000,0000,000,1,,0438,,0
0,769ebc55-1c24-4573-b63f-f04eefa32c46,81111680-f086-4ba7-bd02-cd8369843319,6,012,0,0,000,4701200012299,99.0,2020-08-28,Нижняя Колония,4725,4725,fc385c44-5619-4008-af97-a720353023a0,,41230824000,41630424,1,cb759ab0-cd6c-4a97-8035-8052239e4551,122,47012000122,188502,,47,д,1900-01-01,0000,,,2020-08-30,000,0000,000,0,,0000,,0
0,769ebc55-1c24-4573-b63f-f04eefa32c46,fc385c44-5619-4008-af97-a720353023a0,6,012,0,0,000,4701200012299,99.0,2079-06-06,Нижняя Колония,4725,4725,31de719a-4ce1-49b5-907d-6910e38829b3,,41230824000,41630424,21,cb759ab0-cd6c-4a97-8035-8052239e4551,122,47012000122,188502,81111680-f086-4ba7-bd02-cd8369843319,47,д,2020-04-23,0000,,,2020-08-30,000,0000,000,0,,0000,,0
1,769ebc55-1c24-4573-b63f-f04eefa32c46,31de719a-4ce1-49b5-907d-6910e38829b3,6,012,0,0,000,4701200012299,99.0,2079-06-06,Нижняя Колония,4725,4725,,,41230824000,41630424,30,cb759ab0-cd6c-4a97-8035-8052239e4551,122,47012000122,188502,fc385c44-5619-4008-af97-a720353023a0,47,д,2020-08-28,0000,,,2020-08-30,000,0000,000,0,,0000,,0
1,e93570bb-ac7f-4144-a852-50198b799000,e93570bb-ac7f-4144-a852-50198b799000,7,007,0,0,000,47007000201000500,0.0,2079-06-06,Васильевский,4705,4705,,,41218000129,41618404111,10,a8531c26-88b2-4416-b188-ea295da1fb7e,201,470070002010005,,,47,пер,2020-08-28,0005,,,2020-08-30,000,0000,000,1,,0000,,0
0,99c9a9a7-6f03-4673-a4c2-aa143db139be,5b448e3c-97da-4666-8c06-97040388f125,7,005,0,0,075,47005075003000801,1.0,2079-06-06,4-я,4703,4703,ba6f9656-463d-4ca7-b174-60885e176159,,41212808001,41612408,1,5b1cdc7c-6d22-4cfd-b60b-9038df103ad9,003,470050750030008,188640,,47,линия,1900-01-01,0008,,,2020-08-30,000,0000,000,0,,0000,,0
0,99c9a9a7-6f03-4673-a4c2-aa143db139be,ba6f9656-463d-4ca7-b174-60885e176159,7,005,0,0,000,47005075003000851,51.0,2020-08-27,4-я,4703,4703,889ce6c6-b388-40ed-9cef-8f1873c1fef5,,41212808001,41612408101,21,5b1cdc7c-6d22-4cfd-b60b-9038df103ad9,000,470050750030008,188640,5b448e3c-97da-4666-8c06-97040388f125,47,линия,2014-04-28,0384,,,2020-08-30,000,0000,000,0,,0379,,0
0,99c9a9a7-6f03-4673-a4c2-aa143db139be,889ce6c6-b388-40ed-9cef-8f1873c1fef5,7,005,0,0,000,47005000000038402,2.0,2019-10-16,4-я,4703,4703,ab6000d9-50e0-4797-86fa-f00694e6bcab,,41212808001,41612408101,51,5b1cdc7c-6d22-4cfd-b60b-9038df103ad9,000,470050000000384,188640,ba6f9656-463d-4ca7-b174-60885e176159,47,линия,2018-03-20,0384,,,2020-08-30,000,0000,000,0,d47a2741-9896-41a4-aa4e-59ded3463260,0379,,0
0,99c9a9a7-6f03-4673-a4c2-aa143db139be,ab6000d9-50e0-4797-86fa-f00694e6bcab,7,005,0,0,000,47005000000038400,0.0,2079-06-06,4-я,4703,4703,2834534d-e45a-43d6-a671-fdb36d9008cb,,41212000002,41612408101,21,5b1cdc7c-6d22-4cfd-b60b-9038df103ad9,000,470050000000384,188640,889ce6c6-b388-40ed-9cef-8f1873c1fef5,47,линия,2019-10-16,0384,,,2020-08-30,000,0000,000,0,d47a2741-9896-41a4-aa4e-59ded3463260,0379,,0
1,99c9a9a7-6f03-4673-a4c2-aa143db139be,2834534d-e45a-43d6-a671-fdb36d9008cb,7,005,0,0,000,47005000000038400,0.0,2079-06-06,4-я,4703,4703,,,41212000002,41612408,21,5b1cdc7c-6d22-4cfd-b60b-9038df103ad9,000,470050000000384,188640,ab6000d9-50e0-4797-86fa-f00694e6bcab,47,линия,2020-08-27,0384,,,2020-08-30,000,0000,000,1,,0379,,0
0,5b1cdc7c-6d22-4cfd-b60b-9038df103ad9,ced66ca4-26e6-4bcd-b349-ec8a1bad3067,6,005,0,0,075,4700507500301,1.0,2018-03-20,Звезда,4703,4703,674f0b77-eb01-4aae-9913-37ad9e62b39e,,41212808001,41612408,1,3f3a9a4f-b4e9-43ad-9f19-3e6df9d29d31,003,47005075003,188640,,47,снт,1900-01-01,0000,,,2020-08-30,000,0000,000,0,,0000,,0
0,5b1cdc7c-6d22-4cfd-b60b-9038df103ad9,674f0b77-eb01-4aae-9913-37ad9e62b39e,6,005,0,0,000,4700507500351,51.0,2020-08-27,Звезда,4703,4703,c11f5d94-4a2e-4838-bbbe-cab88ec398de,,41212808001,41612408101,21,db8758d6-b8ea-453d-a75f-8f2d3ff49fb0,000,47005075003,,ced66ca4-26e6-4bcd-b349-ec8a1bad3067,47,снт,2014-04-28,0000,,,2020-08-30,000,0000,000,0,,0379,,0
0,5b1cdc7c-6d22-4cfd-b60b-9038df103ad9,c11f5d94-4a2e-4838-bbbe-cab88ec398de,65,005,0,0,000,47005000000037902,2.0,2079-06-06,Звезда,4703,4703,ae3ad34a-2c57-44fc-9fa1-cf24c7bf4cda,,41212808001,41612408101,50,db8758d6-b8ea-453d-a75f-8f2d3ff49fb0,000,470050000000379,,674f0b77-eb01-4aae-9913-37ad9e62b39e,47,тер. СНТ,2018-03-20,0000,,,2020-08-30,000,0000,000,0,d47a2741-9896-41a4-aa4e-59ded3463260,0379,,0
0,5b1cdc7c-6d22-4cfd-b60b-9038df103ad9,ae3ad34a-2c57-44fc-9fa1-cf24c7bf4cda,65,005,0,0,000,47005000000037900,0.0,2079-06-06,Звезда,4703,4703,11fae91b-85ff-4483-962e-db31d9fb4d8e,,41212000002,41612408101,21,db8758d6-b8ea-453d-a75f-8f2d3ff49fb0,000,470050000000379,,c11f5d94-4a2e-4838-bbbe-cab88ec398de,47,тер. СНТ,2019-10-16,0000,,,2020-08-30,000,0000,000,0,d47a2741-9896-41a4-aa4e-59ded3463260,0379,,0
1,5b1cdc7c-6d22-4cfd-b60b-9038df103ad9,11fae91b-85ff-4483-962e-db31d9fb4d8e,65,005,0,0,000,47005000000037900,0.0,2079-06-06,Звезда,4703,4703,,,41212000002,41612408,21,db8758d6-b8ea-453d-a75f-8f2d3ff49fb0,000,470050000000379,,ae3ad34a-2c57-44fc-9fa1-cf24c7bf4cda,47,тер. СНТ,2020-08-27,0000,,,2020-08-30,000,0000,000,1,,0379,,0
1,a6e87bf1-158a-4342-a7a5-77ee64951f39,a6e87bf1-158a-4342-a7a5-77ee64951f39,65,012,0,0,000,47012000000229400,0.0,2079-06-06,ДНТ Верхняя Мыза,4725,4725,,,41230000000,41630424,10,cb759ab0-cd6c-4a97-8035-8052239e4551,000,470120000002294,,,47,тер.,2020-08-28,0000,,,2020-08-30,000,0000,000,1,,2294,,0
1,ee298524-bb96-40ec-b013-87245864e8ff,ee298524-bb96-40ec-b013-87245864e8ff,7,018,0,0,000,47018000013010200,0.0,2079-06-06,Кружевная,4716,4716,,,41248567000,41648165051,10,ee598bbe-20c2-46f3-9e1a-13cfef927346,013,470180000130102,187021,,47,ул,2020-08-27,0102,,,2020-08-30,000,0000,000,1,,0000,,0
0,d970f9e9-4ed5-4f94-8b58-7082fc5c021f,3ffc9ad5-ac8e-43ed-800a-8ffbccc9cc8d,7,005,0,0,075,47005075003000501,1.0,2079-06-06,10-я,4703,4703,ff3cd4ee-e4bd-4855-b59c-4b8a4426275a,,41212808001,41612408,1,5b1cdc7c-6d22-4cfd-b60b-9038df103ad9,003,470050750030005,188640,,47,линия,1900-01-01,0005,,,2020-08-30,000,0000,000,0,,0000,,0
0,d970f9e9-4ed5-4f94-8b58-7082fc5c021f,ff3cd4ee-e4bd-4855-b59c-4b8a4426275a,7,005,0,0,000,47005075003000551,51.0,2020-08-27,10-я,4703,4703,64381705-4ec2-441c-ba4a-2252fc0a70ed,,41212808001,41612408101,21,5b1cdc7c-6d22-4cfd-b60b-9038df103ad9,000,470050750030005,188640,3ffc9ad5-ac8e-43ed-800a-8ffbccc9cc8d,47,линия,2014-04-28,0380,,,2020-08-30,000,0000,000,0,,0379,,0
0,d970f9e9-4ed5-4f94-8b58-7082fc5c021f,64381705-4ec2-441c-ba4a-2252fc0a70ed,7,005,0,0,000,47005000000038002,2.0,2019-10-16,10-я,4703,4703,8b56151b-e7c5-4db7-9de9-1814b40541ee,,41212808001,41612408101,51,5b1cdc7c-6d22-4cfd-b60b-9038df103ad9,000,470050000000380,188640,ff3cd4ee-e4bd-4855-b59c-4b8a4426275a,47,линия,2018-03-20,0380,,,2020-08-30,000,0000,000,0,d47a2741-9896-41a4-aa4e-59ded3463260,0379,,0
0,d970f9e9-4ed5-4f94-8b58-7082fc5c021f,8b56151b-e7c5-4db7-9de9-1814b40541ee,7,005,0,0,000,47005000000038000,0.0,2079-06-06,10-я,4703,4703,9e1a659f-927e-4251-bc4b-1ba90b2f8d07,,41212000002,41612408101,21,5b1cdc7c-6d22-4cfd-b60b-9038df103ad9,000,470050000000380,188640,64381705-4ec2-441c-ba4a-2252fc0a70ed,47,линия,2019-10-16,0380,,,2020-08-30,000,0000,000,0,d47a2741-9896-41a4-aa4e-59ded3463260,0379,,0
1,d970f9e9-4ed5-4f94-8b58-7082fc5c021f,9e1a659f-927e-4251-bc4b-1ba90b2f8d07,7,005,0,0,000,47005000000038000,0.0,2079-06-06,10-я,4703,4703,,,41212000002,41612408,21,5b1cdc7c-6d22-4cfd-b60b-9038df103ad9,000,470050000000380,188640,8b56151b-e7c5-4db7-9de9-1814b40541ee,47,линия,2020-08-27,0380,,,2020-08-30,000,0000,000,1,,0379,,0
0,84746edc-3541-4d11-843d-e8167c0dbce1,bc18bbc5-af4b-4b7e-a33d-867cdda1b07f,7,005,0,0,075,47005075003000601,1.0,2079-06-06,8-я,4703,4703,2e632ec5-37d5-4dd3-9433-e5224aeddee9,,41212808001,41612408,1,5b1cdc7c-6d22-4cfd-b60b-9038df103ad9,003,470050750030006,188640,,47,линия,1900-01-01,0006,,,2020-08-30,000,0000,000,0,,0000,,0
0,84746edc-3541-4d11-843d-e8167c0dbce1,2e632ec5-37d5-4dd3-9433-e5224aeddee9,7,005,0,0,000,47005075003000651,51.0,2020-08-27,8-я,4703,4703,8c970046-7253-46ea-b37a-39cc0a6d98df,,41212808001,41612408101,21,5b1cdc7c-6d22-4cfd-b60b-9038df103ad9,000,470050750030006,188640,bc18bbc5-af4b-4b7e-a33d-867cdda1b07f,47,линия,2014-04-28,0388,,,2020-08-30,000,0000,000,0,,0379,,0
0,84746edc-3541-4d11-843d-e8167c0dbce1,8c970046-7253-46ea-b37a-39cc0a6d98df,7,005,0,0,000,47005000000038802,2.0,2019-10-16,8-я,4703,4703,4e1a7d2d-a9df-45cf-b451-15adfe273771,,41212808001,41612408101,51,5b1cdc7c-6d22-4cfd-b60b-9038df103ad9,000,470050000000388,188640,2e632ec5-37d5-4dd3-9433-e5224aeddee9,47,линия,2018-03-20,0388,,,2020-08-30,000,0000,000,0,d47a2741-9896-41a4-aa4e-59ded3463260,0379,,0
0,84746edc-3541-4d11-843d-e8167c0dbce1,4e1a7d2d-a9df-45cf-b451-15adfe273771,7,005,0,0,000,47005000000038800,0.0,2079-06-06,8-я,4703,4703,9138babf-d59c-421d-9ea4-50c24d5d60ba,,41212000002,41612408101,21,5b1cdc7c-6d22-4cfd-b60b-9038df103ad9,000,470050000000388,188640,8c970046-7253-46ea-b37a-39cc0a6d98df,47,линия,2019-10-16,0388,,,2020-08-30,000,0000,000,0,d47a2741-9896-41a4-aa4e-59ded3463260,0379,,0
1,84746edc-3541-4d11-843d-e8167c0dbce1,9138babf-d59c-421d-9ea4-50c24d5d60ba,7,005,0,0,000,47005000000038800,0.0,2079-06-06,8-я,4703,4703,,,41212000002,41612408,21,5b1cdc7c-6d22-4cfd-b60b-9038df103ad9,000,470050000000388,188640,4e1a7d2d-a9df-45cf-b451-15adfe273771,47,линия,2020-08-27,0388,,,2020-08-30,000,0000,000,1,,0379,,0
0,e49f51eb-3ba4-44c6-962e-ec1be2b82d15,ed557424-dd1d-49e0-973f-b1747910732f,7,005,0,0,075,47005075003001001,1.0,2079-06-06,6-я,4703,4703,3c6bfc77-1159-42ba-9221-b600c901246d,,41212808001,41612408,1,5b1cdc7c-6d22-4cfd-b60b-9038df103ad9,003,470050750030010,188640,,47,линия,1900-01-01,0010,,,2020-08-30,000,0000,000,0,,0000,,0
0,e49f51eb-3ba4-44c6-962e-ec1be2b82d15,3c6bfc77-1159-42ba-9221-b600c901246d,7,005,0,0,000,47005075003001051,51.0,2020-08-27,6-я,4703,4703,693b5a15-e959-4a68-8d1a-92be97340111,,41212808001,41612408101,21,5b1cdc7c-6d22-4cfd-b60b-9038df103ad9,000,470050750030010,188640,ed557424-dd1d-49e0-973f-b1747910732f,47,линия,2014-04-28,0386,,,2020-08-30,000,0000,000,0,,0379,,0
0,e49f51eb-3ba4-44c6-962e-ec1be2b82d15,693b5a15-e959-4a68-8d1a-92be97340111,7,005,0,0,000,47005000000038602,2.0,2019-10-16,6-я,4703,4703,cd01c66c-95a0-4f44-ad86-47535c62bb11,,41212808001,41612408101,51,5b1cdc7c-6d22-4cfd-b60b-9038df103ad9,000,470050000000386,188640,3c6bfc77-1159-42ba-9221-b600c901246d,47,линия,2018-03-20,0386,,,2020-08-30,000,0000,000,0,d47a2741-9896-41a4-aa4e-59ded3463260,0379,,0
0,e49f51eb-3ba4-44c6-962e-ec1be2b82d15,cd01c66c-95a0-4f44-ad86-47535c62bb11,7,005,0,0,000,47005000000038600,0.0,2079-06-06,6-я,4703,4703,39268b0f-5cfb-4cfa-94ed-53b6e452cf14,,41212000002,41612408101,21,5b1cdc7c-6d22-4cfd-b60b-9038df103ad9,000,470050000000386,188640,693b5a15-e959-4a68-8d1a-92be97340111,47,линия,2019-10-16,0386,,,2020-08-30,000,0000,000,0,d47a2741-9896-41a4-aa4e-59ded3463260,0379,,0
1,e49f51eb-3ba4-44c6-962e-ec1be2b82d15,39268b0f-5cfb-4cfa-94ed-53b6e452cf14,7,005,0,0,000,47005000000038600,0.0,2079-06-06,6-я,4703,4703,,,41212000002,41612408,21,5b1cdc7c-6d22-4cfd-b60b-9038df103ad9,000,470050000000386,188640,cd01c66c-95a0-4f44-ad86-47535c62bb11,47,линия,2020-08-27,0386,,,2020-08-30,000,0000,000,1,,0379,,0
0,b8b632a1-0092-4663-99ee-91076599e6b1,94970f85-d351-44bb-85b9-d21fa5e2c06a,6,005,0,0,000,4700507500401,1.0,2018-03-20,Касимово,4703,4703,be7009fe-8723-475a-a6e8-487cd8f71c55,,41212808001,41612408,1,db8758d6-b8ea-453d-a75f-8f2d3ff49fb0,000,47005075004,188640,,47,снт,1900-01-01,0000,,,2020-08-30,000,0000,000,0,,0362,,0
0,b8b632a1-0092-4663-99ee-91076599e6b1,be7009fe-8723-475a-a6e8-487cd8f71c55,6,005,0,0,000,4700507500451,51.0,2020-08-27,Касимово,4703,4703,ffbbe4b7-0de2-4366-b5fb-b3b62d5dbea7,,41212808001,41612408101,21,db8758d6-b8ea-453d-a75f-8f2d3ff49fb0,000,47005075004,,94970f85-d351-44bb-85b9-d21fa5e2c06a,47,снт,2014-04-28,0000,,,2020-08-30,000,0000,000,0,,0362,,0
0,b8b632a1-0092-4663-99ee-91076599e6b1,ffbbe4b7-0de2-4366-b5fb-b3b62d5dbea7,65,005,0,0,000,47005000000036202,2.0,2079-06-06,Касимово,4703,4703,dbf5b333-160c-4b6f-861f-02793f8d71ba,,41212808001,41612408101,50,db8758d6-b8ea-453d-a75f-8f2d3ff49fb0,000,470050000000362,,be7009fe-8723-475a-a6e8-487cd8f71c55,47,тер. СНТ,2018-03-20,0000,,,2020-08-30,000,0000,000,0,d47a2741-9896-41a4-aa4e-59ded3463260,0362,,0
0,b8b632a1-0092-4663-99ee-91076599e6b1,dbf5b333-160c-4b6f-861f-02793f8d71ba,65,005,0,0,000,47005000000036203,3.0,2019-10-16,Касимово,4703,4703,bb692139-cfee-4a75-abda-d6dd45293e1a,,41212808001,41612408101,21,db8758d6-b8ea-453d-a75f-8f2d3ff49fb0,000,470050000000362,188653,ffbbe4b7-0de2-4366-b5fb-b3b62d5dbea7,47,тер. СНТ,2019-06-11,0000,,,2020-08-30,000,0000,000,0,717eb1c8-c5b0-462c-84be-886c816d7138,0362,,0
0,b8b632a1-0092-4663-99ee-91076599e6b1,bb692139-cfee-4a75-abda-d6dd45293e1a,65,005,0,0,000,47005000000036200,0.0,2079-06-06,Касимово,4703,4703,f9fbe03e-44c9-47bc-9de7-39395793df39,,41212000002,41612408101,21,db8758d6-b8ea-453d-a75f-8f2d3ff49fb0,000,470050000000362,188653,dbf5b333-160c-4b6f-861f-02793f8d71ba,47,тер. СНТ,2019-10-16,0000,,,2020-08-30,000,0000,000,0,717eb1c8-c5b0-462c-84be-886c816d7138,0362,,0
1,b8b632a1-0092-4663-99ee-91076599e6b1,f9fbe03e-44c9-47bc-9de7-39395793df39,65,005,0,0,000,47005000000036200,0.0,2079-06-06,Касимово,4703,4703,,,41212000002,41612408,21,db8758d6-b8ea-453d-a75f-8f2d3ff49fb0,000,470050000000362,188653,bb692139-cfee-4a75-abda-d6dd45293e1a,47,тер. СНТ,2020-08-27,0000,,,2020-08-30,000,0000,000,1,,0362,,0
1,8a578a33-c58e-4896-8483-ee8aa02cb543,8a578a33-c58e-4896-8483-ee8aa02cb543,7,018,0,0,000,47018000573004900,0.0,2079-06-06,2-й Индустриальный,4716,4716,,,41248000091,41648165106,10,9a3a5092-348e-4f1d-9543-35253b5c9fa4,573,470180005730049,187046,,47,пр-д,2020-08-27,0049,,,2020-08-30,000,0000,000,1,,0000,,0
0,37f56a61-6e15-4f27-96ef-72e2ead56a8e,c99e11a6-891b-41f1-8a21-a63b0b8c4a9e,7,005,0,0,075,47005075003000401,1.0,2079-06-06,2-я,4703,4703,1d24c8ad-4e5f-44e5-8edd-b71a3db1a8af,,41212808001,41612408,1,5b1cdc7c-6d22-4cfd-b60b-9038df103ad9,003,470050750030004,188640,,47,линия,1900-01-01,0004,,,2020-08-30,000,0000,000,0,,0000,,0
0,37f56a61-6e15-4f27-96ef-72e2ead56a8e,1d24c8ad-4e5f-44e5-8edd-b71a3db1a8af,7,005,0,0,000,47005075003000451,51.0,2020-08-27,2-я,4703,4703,045f6260-ce8d-41f2-91a9-c0a935717c6c,,41212808001,41612408101,21,5b1cdc7c-6d22-4cfd-b60b-9038df103ad9,000,470050750030004,188640,c99e11a6-891b-41f1-8a21-a63b0b8c4a9e,47,линия,2014-04-28,0382,,,2020-08-30,000,0000,000,0,,0379,,0
0,37f56a61-6e15-4f27-96ef-72e2ead56a8e,045f6260-ce8d-41f2-91a9-c0a935717c6c,7,005,0,0,000,47005000000038202,2.0,2019-10-16,2-я,4703,4703,d4b24be4-4743-4ae2-901a-602f840ae2e3,,41212808001,41612408101,51,5b1cdc7c-6d22-4cfd-b60b-9038df103ad9,000,470050000000382,188640,1d24c8ad-4e5f-44e5-8edd-b71a3db1a8af,47,линия,2018-03-20,0382,,,2020-08-30,000,0000,000,0,d47a2741-9896-41a4-aa4e-59ded3463260,0379,,0
0,37f56a61-6e15-4f27-96ef-72e2ead56a8e,d4b24be4-4743-4ae2-901a-602f840ae2e3,7,005,0,0,000,47005000000038200,0.0,2079-06-06,2-я,4703,4703,4ed65325-2997-41ac-9ccc-a20464fd24a1,,41212000002,41612408101,21,5b1cdc7c-6d22-4cfd-b60b-9038df103ad9,000,470050000000382,188640,045f6260-ce8d-41f2-91a9-c0a935717c6c,47,линия,2019-10-16,0382,,,2020-08-30,000,0000,000,0,d47a2741-9896-41a4-aa4e-59ded3463260,0379,,0
1,37f56a61-6e15-4f27-96ef-72e2ead56a8e,4ed65325-2997-41ac-9ccc-a20464fd24a1,7,005,0,0,000,47005000000038200,0.0,2079-06-06,2-я,4703,4703,,,41212000002,41612408,21,5b1cdc7c-6d22-4cfd-b60b-9038df103ad9,000,470050000000382,188640,d4b24be4-4743-4ae2-901a-602f840ae2e3,47,линия,2020-08-27,0382,,,2020-08-30,000,0000,000,1,,0379,,0
0,914cab9e-4209-4064-9a09-f95f05aa6439,bf3ec778-fe8e-4960-98cc-50da9c3f0650,7,005,0,0,075,47005075003000201,1.0,2079-06-06,3-я,4703,4703,6a9d16bf-e07f-4358-9916-0b8f4d4f488d,,41212808001,41612408,1,5b1cdc7c-6d22-4cfd-b60b-9038df103ad9,003,470050750030002,188640,,47,линия,1900-01-01,0002,,,2020-08-30,000,0000,000,0,,0000,,0
0,914cab9e-4209-4064-9a09-f95f05aa6439,6a9d16bf-e07f-4358-9916-0b8f4d4f488d,7,005,0,0,000,47005075003000251,51.0,2020-08-27,3-я,4703,4703,8b0d6ba7-ed6e-452e-9aa4-a0c09fb45aa1,,41212808001,41612408101,21,5b1cdc7c-6d22-4cfd-b60b-9038df103ad9,000,470050750030002,188640,bf3ec778-fe8e-4960-98cc-50da9c3f0650,47,линия,2014-04-28,0383,,,2020-08-30,000,0000,000,0,,0379,,0
0,914cab9e-4209-4064-9a09-f95f05aa6439,8b0d6ba7-ed6e-452e-9aa4-a0c09fb45aa1,7,005,0,0,000,47005000000038302,2.0,2019-10-16,3-я,4703,4703,8098c28f-80ab-4c9f-8575-13db3372a393,,41212808001,41612408101,51,5b1cdc7c-6d22-4cfd-b60b-9038df103ad9,000,470050000000383,188640,6a9d16bf-e07f-4358-9916-0b8f4d4f488d,47,линия,2018-03-20,0383,,,2020-08-30,000,0000,000,0,d47a2741-9896-41a4-aa4e-59ded3463260,0379,,0
0,914cab9e-4209-4064-9a09-f95f05aa6439,8098c28f-80ab-4c9f-8575-13db3372a393,7,005,0,0,000,47005000000038300,0.0,2079-06-06,3-я,4703,4703,98f763b9-2a40-4dd2-afa3-b3be3fdb4b88,,41212000002,41612408101,21,5b1cdc7c-6d22-4cfd-b60b-9038df103ad9,000,470050000000383,188640,8b0d6ba7-ed6e-452e-9aa4-a0c09fb45aa1,47,линия,2019-10-16,0383,,,2020-08-30,000,0000,000,0,d47a2741-9896-41a4-aa4e-59ded3463260,0379,,0
1,914cab9e-4209-4064-9a09-f95f05aa6439,98f763b9-2a40-4dd2-afa3-b3be3fdb4b88,7,005,0,0,000,47005000000038300,0.0,2079-06-06,3-я,4703,4703,,,41212000002,41612408,21,5b1cdc7c-6d22-4cfd-b60b-9038df103ad9,000,470050000000383,188640,8098c28f-80ab-4c9f-8575-13db3372a393,47,линия,2020-08-27,0383,,,2020-08-30,000,0000,000,1,,0379,,0
0,09c03d26-8927-45f7-8c8a-b1c09d256fca,09c03d26-8927-45f7-8c8a-b1c09d256fca,90,005,0,0,000,47005000532003751,51.0,2016-09-28,СНТ Лесное,4703,4703,77a973d9-8fde-4ca7-91b5-dca8e7d021e6,,41212848015,41612448131,10,db8758d6-b8ea-453d-a75f-8f2d3ff49fb0,000,470050005320037,188676,,47,снт,2005-06-15,0000,,,2020-08-30,000,0000,000,0,582962e6-d8ba-4379-aa53-6c6fc55ed2db,1432,,0
0,09c03d26-8927-45f7-8c8a-b1c09d256fca,77a973d9-8fde-4ca7-91b5-dca8e7d021e6,65,005,0,0,000,47005000532003701,1.0,2019-03-22,СНТ Лесное,4703,4703,502f86a0-e6d4-46de-b2c5-614128add7ae,,41212848015,41612448131,50,db8758d6-b8ea-453d-a75f-8f2d3ff49fb0,000,470050005320037,188676,09c03d26-8927-45f7-8c8a-b1c09d256fca,47,снт,2016-09-28,0000,,,2020-08-30,000,0000,000,0,,1432,,0
0,09c03d26-8927-45f7-8c8a-b1c09d256fca,502f86a0-e6d4-46de-b2c5-614128add7ae,65,005,0,0,000,47005000532003702,2.0,2079-06-06,Лесное,4703,4703,15035f02-7182-43f5-a76e-504c078bf103,,41212848015,41612448131,20,db8758d6-b8ea-453d-a75f-8f2d3ff49fb0,000,470050005320037,188676,77a973d9-8fde-4ca7-91b5-dca8e7d021e6,47,тер. СНТ,2019-03-22,0000,,,2020-08-30,000,0000,000,0,7aa911bc-20bf-495f-a131-b5b9bb6bdfdb,1432,,0
0,09c03d26-8927-45f7-8c8a-b1c09d256fca,15035f02-7182-43f5-a76e-504c078bf103,65,005,0,0,000,47005000532003751,51.0,2020-08-27,Лесное,4703,4703,0f9538b6-e7ae-470f-a859-7d0a7561e193,,41212000141,41612448131,21,db8758d6-b8ea-453d-a75f-8f2d3ff49fb0,000,470050005320037,,502f86a0-e6d4-46de-b2c5-614128add7ae,47,тер. СНТ,2019-10-17,0000,,,2020-08-30,000,0000,000,0,7aa911bc-20bf-495f-a131-b5b9bb6bdfdb,1432,,0
1,09c03d26-8927-45f7-8c8a-b1c09d256fca,0f9538b6-e7ae-470f-a859-7d0a7561e193,65,005,0,0,000,47005000000143200,0.0,2079-06-06,Лесное,4703,4703,,,41212000141,41612448,50,db8758d6-b8ea-453d-a75f-8f2d3ff49fb0,000,470050000001432,,15035f02-7182-43f5-a76e-504c078bf103,47,тер. СНТ,2020-08-27,0000,,,2020-08-30,000,0000,000,1,,1432,,0
1,d8672910-1e1e-4e61-9911-7075804b8f5d,d8672910-1e1e-4e61-9911-7075804b8f5d,7,006,0,0,000,47006000000336500,0.0,2079-06-06,Травяной,4704,4704,,,41215506000,41615106,10,6b3571c2-990e-494f-a7eb-a7ad8802e7ac,000,470060000003365,188930,,47,пр-д,2020-09-01,3365,,,2020-09-03,000,0000,000,1,,0020,,0
1,9b2e722d-9a48-4f0a-be9e-1db1aa86744a,9b2e722d-9a48-4f0a-be9e-1db1aa86744a,7,006,0,0,000,47006000000336400,0.0,2079-06-06,Клеверный,4704,4704,,,41215000014,41615492,10,d8088434-19d0-45f3-ad0b-53e6424c2fe4,000,470060000003364,188880,,47,пр-д,2020-09-01,3364,,,2020-09-03,000,0000,000,1,,0031,,0
1,b34aafe5-6c41-43ba-bf31-b15fc60bf3f5,b34aafe5-6c41-43ba-bf31-b15fc60bf3f5,7,006,0,0,000,47006000000336300,0.0,2079-06-06,Островной,4704,4704,,,41215000002,41615492,10,bdcbeb94-96c7-4215-bf60-1c83f6a92e0a,000,470060000003363,188880,,47,пр-д,2020-09-01,3363,,,2020-09-03,000,0000,000,1,,0032,,0
1,a146c72a-b93c-4bf3-9271-0a9f26ae9ec2,a146c72a-b93c-4bf3-9271-0a9f26ae9ec2,7,006,0,0,000,47006000019010400,0.0,2079-06-06,Лесной,4704,4704,,,41215000079,41615460101,10,2481847d-4222-495d-bf27-cec9ee31baed,019,470060000190104,188855,,47,пр-д,2020-09-01,0104,,,2020-09-03,000,0000,000,1,,0000,,0
1,6f831464-3af9-4c1e-8896-b785735ae900,6f831464-3af9-4c1e-8896-b785735ae900,7,006,0,0,000,47006000170001800,0.0,2079-06-06,Хлебный,4704,4704,,,41215000111,41615464231,10,dfbefd87-6409-4635-9f67-a4b0d58bf781,170,470060001700018,188824,,47,пр-д,2020-09-01,0018,,,2020-09-03,000,0000,000,1,,0000,,0
1,c6288109-dbe3-49c6-aff4-25fb7a1fca34,c6288109-dbe3-49c6-aff4-25fb7a1fca34,7,006,0,0,000,47006000000336900,0.0,2079-06-06,Каменная,4704,4704,,,41215508000,41615108,10,604101e5-2cc8-4837-94e9-482bc26ba35f,000,470060000003369,188840,,47,ул,2020-09-01,3369,,,2020-09-03,000,0000,000,1,,0005,,0
1,ce2cf617-47bd-43cb-afb7-5e4310433c04,ce2cf617-47bd-43cb-afb7-5e4310433c04,7,005,0,0,000,47005000008003400,0.0,2079-06-06,Любови Барановой,4703,4703,,,41212000008,41612402101,10,7db77c8e-fb17-4f25-999b-95732a3baef5,008,470050000080034,188660,,47,ул,2020-09-01,0034,,,2020-09-03,000,0000,000,1,,0000,,0
1,f2f8acdf-5000-44ba-8ae3-281926d31114,f2f8acdf-5000-44ba-8ae3-281926d31114,65,005,0,0,000,47005000000143300,0.0,2079-06-06,Транспортная,4703,4703,,,41212504000,41612103,10,db8758d6-b8ea-453d-a75f-8f2d3ff49fb0,000,470050000001433,,,47,тер.,2020-09-02,0000,,,2020-09-03,000,0000,000,1,,1433,,0
1,07cdcf5d-45c5-4fae-b119-9d32e1371626,07cdcf5d-45c5-4fae-b119-9d32e1371626,65,005,0,0,000,47005000000143400,0.0,2079-06-06,электродепо Северное,4703,4703,,,41212504000,41612103,10,db8758d6-b8ea-453d-a75f-8f2d3ff49fb0,000,470050000001434,,,47,тер.,2020-09-02,0000,,,2020-09-03,000,0000,000,1,,1434,,0
1,effbf032-ac44-48c2-acbe-bdbd753fc785,effbf032-ac44-48c2-acbe-bdbd753fc785,7,006,0,0,000,47006000000336600,0.0,2079-06-06,Пчелинский,4704,4704,,,41215000000,41615436,10,f6646e05-7c7c-4bfe-bf10-5b2776d638d9,000,470060000003366,188836,,47,пр-д,2020-09-01,3366,,,2020-09-03,000,0000,000,1,,0038,,0
1,96cd25a1-0b24-4f2f-bd3d-140b31cbd224,96cd25a1-0b24-4f2f-bd3d-140b31cbd224,7,006,0,0,000,47006000000337000,0.0,2079-06-06,Лесная,4704,4704,,,41215508000,41615108,10,604101e5-2cc8-4837-94e9-482bc26ba35f,000,470060000003370,188840,,47,ул,2020-09-01,3370,,,2020-09-03,000,0000,000,1,,0005,,0
1,e8f4eee1-d1ea-4d7a-b24a-b61fc2580b02,e8f4eee1-d1ea-4d7a-b24a-b61fc2580b02,7,006,0,0,000,47006000000336800,0.0,2079-06-06,Лесное Поле,4704,4704,,,41215508000,41615108,10,4e1f1905-06c9-4c78-b95c-59e13bc75c0c,000,470060000003368,188917,,47,пр-д,2020-09-01,3368,,,2020-09-03,000,0000,000,1,,0046,,0
1,38dbe841-3725-4b8c-882b-97f2eb4bec5d,38dbe841-3725-4b8c-882b-97f2eb4bec5d,65,013,0,0,000,47013000736000100,0.0,2079-06-06,базы отдыха Аврора-интур-Санкт-Петербург,4710,4710,,,41233000290,41633154271,10,c0f17f14-67ab-463f-a6fb-33879c1aa8cb,736,470130007360001,188261,,47,тер.,2020-09-01,0000,,,2020-09-03,000,0000,000,1,,0001,,0
1,b17e2f20-317f-410d-b5a2-ccbe734f3376,b17e2f20-317f-410d-b5a2-ccbe734f3376,7,012,0,0,000,47012000008002500,0.0,2079-06-06,Дивноозерная,4725,4725,,,41230000051,41630428101,10,8fbead84-4fdc-4317-bf64-dc0fef08dc2f,008,470120000080025,188515,,47,ул,2020-09-02,0025,,,2020-09-03,000,0000,000,1,,0000,,0
1,089c05fa-d661-4702-9d6d-316acfb6c108,089c05fa-d661-4702-9d6d-316acfb6c108,7,006,0,0,000,47006000000336200,0.0,2079-06-06,Груздёвый,4704,4704,,,41215000014,41615492,10,80ec4110-82f2-492d-ade7-d69802fedb03,000,470060000003362,188903,,47,пр-д,2020-09-01,3362,,,2020-09-03,000,0000,000,1,,0030,,0
1,43cc0fd5-5f51-481a-9fd3-a8ef3a74b810,43cc0fd5-5f51-481a-9fd3-a8ef3a74b810,65,012,0,0,000,47012000000229500,0.0,2079-06-06,Петровское,4725,4725,,,41230000126,41630412,10,cb759ab0-cd6c-4a97-8035-8052239e4551,000,470120000002295,,,47,тер. ДНП,2020-09-01,0000,,,2020-09-03,000,0000,000,1,,2295,,0
1,bb10133c-7ec0-4e43-8b40-93b2ed3c996e,bb10133c-7ec0-4e43-8b40-93b2ed3c996e,7,006,0,0,000,47006000000336700,0.0,2079-06-06,Яхтенный,4704,4704,,,41215000000,41615464,10,27d0365a-fe99-47ab-8795-9fd766f54d14,000,470060000003367,188845,,47,пр-д,2020-09-01,3367,,,2020-09-03,000,0000,000,1,,0042,,0
1,4ea62ac5-6d64-4d1b-8cd6-cd90f62f0d68,4ea62ac5-6d64-4d1b-8cd6-cd90f62f0d68,7,006,0,0,000,47006000019010300,0.0,2079-06-06,Спокойный,4704,4704,,,41215000079,41615460101,10,2481847d-4222-495d-bf27-cec9ee31baed,019,470060000190103,188855,,47,пр-д,2020-09-01,0103,,,2020-09-03,000,0000,000,1,,0000,,0
0,73c53350-62af-4e81-bd39-7a4544f26fcb,73c53350-62af-4e81-bd39-7a4544f26fcb,7,012,0,0,000,47012000000039000,0.0,2079-06-06,Величавая,4725,4725,1081d811-6bb0-4efb-8dc3-9926c1e3ad4f,,41230836000,41630436,10,7eb67f56-5da9-46e3-92d1-edaa8bc7eb5b,000,470120000000390,188523,,47,ул,2017-11-09,0390,,,2020-08-16,000,0000,000,0,19730708-fa08-49f3-8c7f-cb1bee4b4951,0378,,0
1,73c53350-62af-4e81-bd39-7a4544f26fcb,1081d811-6bb0-4efb-8dc3-9926c1e3ad4f,7,012,0,0,000,47012000000039000,0.0,2079-06-06,Величавая,4725,4725,,,41230000096,41630436,20,7eb67f56-5da9-46e3-92d1-edaa8bc7eb5b,000,470120000000390,188523,73c53350-62af-4e81-bd39-7a4544f26fcb,47,ул,2020-08-14,0390,,,2020-08-16,000,0000,000,1,,0378,,0
0,edf1e2d7-328b-4c9f-876a-53dba20f5f07,edf1e2d7-328b-4c9f-876a-53dba20f5f07,7,012,0,0,000,47012000000038000,0.0,2079-06-06,Чародейная,4725,4725,1ad2ebee-3a0b-4add-ab8b-234ba6aeeb5f,,41230836000,41630436,10,7eb67f56-5da9-46e3-92d1-edaa8bc7eb5b,000,470120000000380,188523,,47,ул,2017-11-09,0380,,,2020-08-16,000,0000,000,0,19730708-fa08-49f3-8c7f-cb1bee4b4951,0378,,0
1,edf1e2d7-328b-4c9f-876a-53dba20f5f07,1ad2ebee-3a0b-4add-ab8b-234ba6aeeb5f,7,012,0,0,000,47012000000038000,0.0,2079-06-06,Чародейная,4725,4725,,,41230000096,41630436,20,7eb67f56-5da9-46e3-92d1-edaa8bc7eb5b,000,470120000000380,188523,edf1e2d7-328b-4c9f-876a-53dba20f5f07,47,ул,2020-08-14,0380,,,2020-08-16,000,0000,000,1,,0378,,0
0,d41e183f-36f2-4624-85a3-6ec6a3f32d6a,d41e183f-36f2-4624-85a3-6ec6a3f32d6a,65,012,0,0,000,47012000000035200,0.0,2079-06-06,Сельскохозяйственная зона 3,4725,4725,88eece00-4ce0-4e15-9330-6df010623e78,,41230836000,41630436,10,cb759ab0-cd6c-4a97-8035-8052239e4551,000,470120000000352,188523,,47,тер.,2017-07-27,0000,,,2020-08-16,000,0000,000,0,417efb92-858d-4a59-9a12-99501e1e95b7,0352,,0
1,d41e183f-36f2-4624-85a3-6ec6a3f32d6a,88eece00-4ce0-4e15-9330-6df010623e78,65,012,0,0,000,47012000000035200,0.0,2079-06-06,Сельскохозяйственная зона 3,4725,4725,,,41230000085,41630436,20,cb759ab0-cd6c-4a97-8035-8052239e4551,000,470120000000352,188523,d41e183f-36f2-4624-85a3-6ec6a3f32d6a,47,тер.,2020-08-14,0000,,,2020-08-16,000,0000,000,1,,0352,,0
0,a4d36a18-7950-4fb9-ae7a-b1f36ae10005,79ba0bfc-8c1f-4d16-8884-fd65319ffc3e,6,012,0,0,000,4701200027651,51.0,2019-03-19,СНТ Вертикаль,4725,4725,597d0868-badf-4a02-b28b-b220feb1a2f6,,41230828000,41630428,1,cb759ab0-cd6c-4a97-8035-8052239e4551,276,47012000276,188514,,47,тер,1900-01-01,0000,,,2020-08-16,000,0000,000,0,,0000,,0
0,a4d36a18-7950-4fb9-ae7a-b1f36ae10005,597d0868-badf-4a02-b28b-b220feb1a2f6,65,012,0,0,000,47012000000196200,0.0,2079-06-06,СНТ Вертикаль,4725,4725,a233dad9-7c5b-431a-8e2b-0e017bb6276f,,41230828000,41630428,50,cb759ab0-cd6c-4a97-8035-8052239e4551,000,470120000001962,188515,79ba0bfc-8c1f-4d16-8884-fd65319ffc3e,47,тер,2019-03-19,0000,,,2020-08-16,000,0000,000,0,9425b2dd-688c-4bdb-8eba-701c37031a90,1962,,0
0,a4d36a18-7950-4fb9-ae7a-b1f36ae10005,a233dad9-7c5b-431a-8e2b-0e017bb6276f,65,012,0,0,000,47012000000196200,0.0,2079-06-06,СНТ Вертикаль,4725,4725,cb099039-063c-4b64-9221-4e48068367ce,,41230000051,41630428,20,cb759ab0-cd6c-4a97-8035-8052239e4551,000,470120000001962,188515,597d0868-badf-4a02-b28b-b220feb1a2f6,47,тер,2020-08-12,0000,,,2020-08-16,000,0000,000,0,,1962,,0
1,a4d36a18-7950-4fb9-ae7a-b1f36ae10005,cb099039-063c-4b64-9221-4e48068367ce,65,012,0,0,000,47012000000196200,0.0,2079-06-06,СНТ Вертикаль,4725,4725,,,41230000051,41630428,20,cb759ab0-cd6c-4a97-8035-8052239e4551,000,470120000001962,188515,a233dad9-7c5b-431a-8e2b-0e017bb6276f,47,тер,2020-08-12,0000,,,2020-08-16,000,0000,000,1,,1962,,0
0,9b9275d9-7f8f-4bde-95cf-d887e2b933be,9b9275d9-7f8f-4bde-95cf-d887e2b933be,7,005,0,0,000,47005000000069800,0.0,2079-06-06,Центральный,4703,4703,75b33178-f740-459d-a00e-4309ac603470,,41212828000,41612428,10,e243ebd8-0078-4cf7-b711-287120edaa54,000,470050000000698,,,47,пр-д,2018-07-12,0698,,,2020-08-16,000,0000,000,0,75b0b93c-74af-4b19-8fc8-38b8b119de2e,0032,,0
1,9b9275d9-7f8f-4bde-95cf-d887e2b933be,75b33178-f740-459d-a00e-4309ac603470,7,005,0,0,000,47005000000069800,0.0,2079-06-06,Центральный,4703,4703,,,41212504000,41612103,21,e243ebd8-0078-4cf7-b711-287120edaa54,000,470050000000698,,9b9275d9-7f8f-4bde-95cf-d887e2b933be,47,пр-д,2020-08-12,0698,,,2020-08-16,000,0000,000,1,,0032,,0
0,facc2fb3-2ade-464f-8fb6-f06b1126643e,facc2fb3-2ade-464f-8fb6-f06b1126643e,91,005,0,0,000,,,2016-09-28,6,4703,4703,6127013b-9f46-45ae-82c7-e572e68c3701,,41212000000,41000000,10,e243ebd8-0078-4cf7-b711-287120edaa54,000,,188662,,47,кв-л,2016-02-12,0000,,,2020-08-16,000,0000,000,0,2b60ec5c-3e34-4b2c-bfcc-d28e36ba24f3,0000,,0
0,facc2fb3-2ade-464f-8fb6-f06b1126643e,6127013b-9f46-45ae-82c7-e572e68c3701,91,005,0,0,000,,,2020-08-12,6,4703,4703,449575e6-a508-4289-82ba-98c5d4332dd7,,41212828000,41612428000,21,e243ebd8-0078-4cf7-b711-287120edaa54,000,,188662,facc2fb3-2ade-464f-8fb6-f06b1126643e,47,кв-л,2016-06-30,0120,,,2020-08-16,000,0000,000,0,2b60ec5c-3e34-4b2c-bfcc-d28e36ba24f3,0032,,0
0,facc2fb3-2ade-464f-8fb6-f06b1126643e,449575e6-a508-4289-82ba-98c5d4332dd7,7,005,0,0,000,47005000000012000,0.0,2079-06-06,6,4703,4703,f8139c27-fe47-4ffd-82fb-6bd906202f9f,,41212828000,41612428000,51,e243ebd8-0078-4cf7-b711-287120edaa54,000,470050000000120,188662,6127013b-9f46-45ae-82c7-e572e68c3701,47,кв-л,2016-09-28,0120,,,2020-08-16,000,0000,000,0,,0032,,0
1,facc2fb3-2ade-464f-8fb6-f06b1126643e,f8139c27-fe47-4ffd-82fb-6bd906202f9f,7,005,0,0,000,47005000000012000,0.0,2079-06-06,6,4703,4703,,,41212504000,41612103,21,e243ebd8-0078-4cf7-b711-287120edaa54,000,470050000000120,188662,449575e6-a508-4289-82ba-98c5d4332dd7,47,кв-л,2020-08-12,0120,,,2020-08-16,000,0000,000,1,,0032,,0
1,057dc7fc-80ca-4af8-b649-3eef483717e2,057dc7fc-80ca-4af8-b649-3eef483717e2,65,011,0,0,000,47011000133000500,0.0,2079-06-06,Озёрная,4711,4711,,,41227000118,41627420146,10,eea0a577-208a-4959-a14b-54233423908f,133,470110001330005,187729,,47,тер.,2020-08-13,0000,,,2020-08-16,000,0000,000,1,,0005,,0
0,067b8beb-efba-476a-a033-c9d48198ead7,067b8beb-efba-476a-a033-c9d48198ead7,7,012,0,0,000,47012000000039100,0.0,2079-06-06,Богатырская,4725,4725,a44b7510-377a-4151-b0cc-3a61c2f14594,,41230836000,41630436,10,7eb67f56-5da9-46e3-92d1-edaa8bc7eb5b,000,470120000000391,,,47,ул,2017-11-09,0391,,,2020-08-16,000,0000,000,0,19730708-fa08-49f3-8c7f-cb1bee4b4951,0378,,0
1,067b8beb-efba-476a-a033-c9d48198ead7,a44b7510-377a-4151-b0cc-3a61c2f14594,7,012,0,0,000,47012000000039100,0.0,2079-06-06,Богатырская,4725,4725,,,41230000096,41630436,20,7eb67f56-5da9-46e3-92d1-edaa8bc7eb5b,000,470120000000391,,067b8beb-efba-476a-a033-c9d48198ead7,47,ул,2020-08-14,0391,,,2020-08-16,000,0000,000,1,,0378,,0
0,009d6aad-f9b4-425f-875a-f84d765f1ae3,009d6aad-f9b4-425f-875a-f84d765f1ae3,65,012,0,0,000,47012000000042500,0.0,2079-06-06,Солнечное,4725,4725,7fba00ab-7e1e-4c8f-a789-8132b7d88ccf,,41230836000,41630436,10,cb759ab0-cd6c-4a97-8035-8052239e4551,000,470120000000425,,,47,тер. ДНП,2018-01-21,0000,,,2020-08-16,000,0000,000,0,397b1bd0-c7f5-4ef6-856e-58cf978dd528,0425,,0
1,009d6aad-f9b4-425f-875a-f84d765f1ae3,7fba00ab-7e1e-4c8f-a789-8132b7d88ccf,65,012,0,0,000,47012000000042500,0.0,2079-06-06,Солнечное,4725,4725,,,41230000091,41630436,20,cb759ab0-cd6c-4a97-8035-8052239e4551,000,470120000000425,,009d6aad-f9b4-425f-875a-f84d765f1ae3,47,тер. ДНП,2020-08-14,0000,,,2020-08-16,000,0000,000,1,,0425,,0
0,6e70738b-38cb-4057-9202-d55b8cbd91b5,6e70738b-38cb-4057-9202-d55b8cbd91b5,7,012,0,0,000,47012000000038900,0.0,2079-06-06,Дивная,4725,4725,f2d82121-8f3d-427b-9920-21449798d2b3,,41230836000,41630436,10,7eb67f56-5da9-46e3-92d1-edaa8bc7eb5b,000,470120000000389,,,47,ул,2017-11-09,0389,,,2020-08-16,000,0000,000,0,19730708-fa08-49f3-8c7f-cb1bee4b4951,0378,,0
1,6e70738b-38cb-4057-9202-d55b8cbd91b5,f2d82121-8f3d-427b-9920-21449798d2b3,7,012,0,0,000,47012000000038900,0.0,2079-06-06,Дивная,4725,4725,,,41230000096,41630436,20,7eb67f56-5da9-46e3-92d1-edaa8bc7eb5b,000,470120000000389,,6e70738b-38cb-4057-9202-d55b8cbd91b5,47,ул,2020-08-14,0389,,,2020-08-16,000,0000,000,1,,0378,,0
0,461c3d79-d592-44d7-899e-465687e083a3,461c3d79-d592-44d7-899e-465687e083a3,90,005,0,0,000,47005000000007051,51.0,2016-09-29,массив Капитолово-Лаврики Лаврики,4703,4703,1bf56030-e272-457f-82e4-3ed20f673494,,41212828000,41612428000,10,db8758d6-b8ea-453d-a75f-8f2d3ff49fb0,000,470050000000070,188661,,47,снт,2016-07-22,0000,,,2020-08-16,000,0000,000,0,3805110d-d949-4577-8d5a-d4a9439426b3,0000,,0
0,461c3d79-d592-44d7-899e-465687e083a3,1bf56030-e272-457f-82e4-3ed20f673494,65,005,0,0,000,47005000000007000,0.0,2079-06-06,массив Капитолово-Лаврики Лаврики,4703,4703,34cc86a2-3d33-46a8-a93e-fbc563bad8c0,,41212828000,41612428000,50,db8758d6-b8ea-453d-a75f-8f2d3ff49fb0,000,470050000000070,188661,461c3d79-d592-44d7-899e-465687e083a3,47,снт,2016-09-29,0000,,,2020-08-16,000,0000,000,0,,0070,,0
1,461c3d79-d592-44d7-899e-465687e083a3,34cc86a2-3d33-46a8-a93e-fbc563bad8c0,65,005,0,0,000,47005000000007000,0.0,2079-06-06,массив Капитолово-Лаврики Лаврики,4703,4703,,,41212000100,41612103,21,db8758d6-b8ea-453d-a75f-8f2d3ff49fb0,000,470050000000070,188661,1bf56030-e272-457f-82e4-3ed20f673494,47,снт,2020-08-12,0000,,,2020-08-16,000,0000,000,1,,0070,,0
0,77156631-5f57-4f20-bb65-1664bbdd470a,77156631-5f57-4f20-bb65-1664bbdd470a,7,005,0,0,000,47005000000069200,0.0,2079-06-06,Капральев,4703,4703,2bf0660a-1a52-45c9-88b9-605f6ced344a,,41212828000,41612428,10,e243ebd8-0078-4cf7-b711-287120edaa54,000,470050000000692,,,47,пр-д,2018-07-11,0692,,,2020-08-16,000,0000,000,0,75b0b93c-74af-4b19-8fc8-38b8b119de2e,0032,,0
1,77156631-5f57-4f20-bb65-1664bbdd470a,2bf0660a-1a52-45c9-88b9-605f6ced344a,7,005,0,0,000,47005000000069200,0.0,2079-06-06,Капральев,4703,4703,,,41212504000,41612103,21,e243ebd8-0078-4cf7-b711-287120edaa54,000,470050000000692,,77156631-5f57-4f20-bb65-1664bbdd470a,47,пр-д,2020-08-12,0692,,,2020-08-16,000,0000,000,1,,0032,,0
0,a551ba86-43cc-40e5-acb8-a4874ef2394b,a551ba86-43cc-40e5-acb8-a4874ef2394b,7,005,0,0,000,47005000000069300,0.0,2079-06-06,Южный,4703,4703,e0107f4a-ba7e-4da7-aaac-318a3fad6f78,,41212828000,41612428,10,e243ebd8-0078-4cf7-b711-287120edaa54,000,470050000000693,,,47,пр-д,2018-07-12,0693,,,2020-08-16,000,0000,000,0,75b0b93c-74af-4b19-8fc8-38b8b119de2e,0032,,0
1,a551ba86-43cc-40e5-acb8-a4874ef2394b,e0107f4a-ba7e-4da7-aaac-318a3fad6f78,7,005,0,0,000,47005000000069300,0.0,2079-06-06,Южный,4703,4703,,,41212504000,41612103,21,e243ebd8-0078-4cf7-b711-287120edaa54,000,470050000000693,,a551ba86-43cc-40e5-acb8-a4874ef2394b,47,пр-д,2020-08-12,0693,,,2020-08-16,000,0000,000,1,,0032,,0
0,4d3451e1-77dc-4a6a-9af7-74280e04edfe,4d3451e1-77dc-4a6a-9af7-74280e04edfe,65,012,0,0,000,47012000000031700,0.0,2079-06-06,Сельскохозяйственная зона 1,4725,4725,6937ac1d-fe4f-4d5a-b7bf-f81db53a4967,,41230836000,41630436,10,cb759ab0-cd6c-4a97-8035-8052239e4551,000,470120000000317,188523,,47,тер.,2017-04-19,0000,,,2020-08-16,000,0000,000,0,1ac6a62d-0b27-4cf6-9332-1688ec7b86b6,0317,,0
1,4d3451e1-77dc-4a6a-9af7-74280e04edfe,6937ac1d-fe4f-4d5a-b7bf-f81db53a4967,65,012,0,0,000,47012000000031700,0.0,2079-06-06,Сельскохозяйственная зона 1,4725,4725,,,41230000087,41630436,20,cb759ab0-cd6c-4a97-8035-8052239e4551,000,470120000000317,188523,4d3451e1-77dc-4a6a-9af7-74280e04edfe,47,тер.,2020-08-14,0000,,,2020-08-16,000,0000,000,1,,0317,,0
0,e135c869-013d-41b3-ba62-3f8be71cacad,e135c869-013d-41b3-ba62-3f8be71cacad,7,012,0,0,000,47012000000033401,1.0,2017-06-24,Кронштадтская,4725,4725,d10f45d6-01c1-4b72-b452-b7ea9e8cc920,,41230836000,41630436,10,0e2d203d-42fd-44e5-9aa3-92b4767043e6,000,470120000000334,188523,,47,ул,2017-06-23,0334,,,2020-08-16,000,0000,000,0,e86e5a36-2086-4abd-8c93-e709f41e7d2e,0329,,0
0,e135c869-013d-41b3-ba62-3f8be71cacad,d10f45d6-01c1-4b72-b452-b7ea9e8cc920,7,012,0,0,000,47012000000033402,2.0,2018-03-28,Кронштадтская,4725,4725,a9f723cb-dff0-433a-8f8b-ce461741a183,,41230836000,41630436,31,0e2d203d-42fd-44e5-9aa3-92b4767043e6,000,470120000000334,188523,e135c869-013d-41b3-ba62-3f8be71cacad,47,ул,2017-06-24,0334,,,2020-08-16,000,0000,000,0,,0329,,0
0,e135c869-013d-41b3-ba62-3f8be71cacad,a9f723cb-dff0-433a-8f8b-ce461741a183,7,012,0,0,000,47012000000033403,3.0,2079-06-06,Кронштадтская,4725,4725,0ccd015d-39af-4cde-abba-b781a4c8880f,,41230836000,41630436,70,0e2d203d-42fd-44e5-9aa3-92b4767043e6,000,470120000000334,188523,d10f45d6-01c1-4b72-b452-b7ea9e8cc920,47,ул,2018-03-28,0334,,,2020-08-16,000,0000,000,0,,0329,,0
0,e135c869-013d-41b3-ba62-3f8be71cacad,0ccd015d-39af-4cde-abba-b781a4c8880f,7,012,0,0,000,47012000000033400,0.0,2020-08-14,Кронштадтская,4725,4725,8ff5a3ee-ce5a-482f-8743-ce9662105d65,,41230836000,41630436,20,0e2d203d-42fd-44e5-9aa3-92b4767043e6,000,470120000000334,188523,a9f723cb-dff0-433a-8f8b-ce461741a183,47,ул,2018-03-29,0334,,,2020-08-16,000,0000,000,0,0a0ba016-4037-4cb7-9c28-425fad0fc8c9,0329,,0
1,e135c869-013d-41b3-ba62-3f8be71cacad,8ff5a3ee-ce5a-482f-8743-ce9662105d65,7,012,0,0,000,47012000000033400,0.0,2079-06-06,Кронштадтская,4725,4725,,,41230000092,41630436,20,0e2d203d-42fd-44e5-9aa3-92b4767043e6,000,470120000000334,188523,0ccd015d-39af-4cde-abba-b781a4c8880f,47,ул,2020-08-14,0334,,,2020-08-16,000,0000,000,1,,0329,,0
0,6c7e0664-f0a3-414c-9e13-78b9552ba127,6c7e0664-f0a3-414c-9e13-78b9552ba127,65,012,0,0,000,47012000000035100,0.0,2079-06-06,Сельскохозяйственная зона 2,4725,4725,2d136632-8ba7-4d2e-afc5-b191179d4845,,41230836000,41630436,10,cb759ab0-cd6c-4a97-8035-8052239e4551,000,470120000000351,188523,,47,тер.,2017-07-27,0000,,,2020-08-16,000,0000,000,0,417efb92-858d-4a59-9a12-99501e1e95b7,0351,,0
1,6c7e0664-f0a3-414c-9e13-78b9552ba127,2d136632-8ba7-4d2e-afc5-b191179d4845,65,012,0,0,000,47012000000035100,0.0,2079-06-06,Сельскохозяйственная зона 2,4725,4725,,,41230000086,41630436,20,cb759ab0-cd6c-4a97-8035-8052239e4551,000,470120000000351,188523,6c7e0664-f0a3-414c-9e13-78b9552ba127,47,тер.,2020-08-14,0000,,,2020-08-16,000,0000,000,1,,0351,,0
0,3660c4ca-bdaa-4dcd-993c-6f8716c1d26a,3660c4ca-bdaa-4dcd-993c-6f8716c1d26a,7,012,0,0,000,47012000000033201,1.0,2017-06-24,Петергофская,4725,4725,b5cb5bad-0701-464b-960f-bc03b6a450c2,,41230836000,41630436,10,0e2d203d-42fd-44e5-9aa3-92b4767043e6,000,470120000000332,188523,,47,ул,2017-06-23,0332,,,2020-08-16,000,0000,000,0,82033359-d35b-4747-82df-ee3150052f93,0329,,0
0,3660c4ca-bdaa-4dcd-993c-6f8716c1d26a,b5cb5bad-0701-464b-960f-bc03b6a450c2,7,012,0,0,000,47012000000033202,2.0,2018-03-28,Петергофская,4725,4725,60582fe2-854c-4a7d-92f7-6f99e9260e2b,,41230836000,41630436,31,0e2d203d-42fd-44e5-9aa3-92b4767043e6,000,470120000000332,188523,3660c4ca-bdaa-4dcd-993c-6f8716c1d26a,47,ул,2017-06-24,0332,,,2020-08-16,000,0000,000,0,,0329,,0
0,3660c4ca-bdaa-4dcd-993c-6f8716c1d26a,60582fe2-854c-4a7d-92f7-6f99e9260e2b,7,012,0,0,000,47012000000033203,3.0,2079-06-06,Петергофская,4725,4725,4849e3e0-fc8d-4b44-ba5b-1f55ab134de6,,41230836000,41630436,70,0e2d203d-42fd-44e5-9aa3-92b4767043e6,000,470120000000332,188523,b5cb5bad-0701-464b-960f-bc03b6a450c2,47,ул,2018-03-28,0332,,,2020-08-16,000,0000,000,0,,0329,,0
0,3660c4ca-bdaa-4dcd-993c-6f8716c1d26a,4849e3e0-fc8d-4b44-ba5b-1f55ab134de6,7,012,0,0,000,47012000000033200,0.0,2020-08-14,Петергофская,4725,4725,24c2da97-b16b-40e3-8a38-d80af3568ba7,,41230836000,41630436,20,0e2d203d-42fd-44e5-9aa3-92b4767043e6,000,470120000000332,188523,60582fe2-854c-4a7d-92f7-6f99e9260e2b,47,ул,2018-03-29,0332,,,2020-08-16,000,0000,000,0,0a0ba016-4037-4cb7-9c28-425fad0fc8c9,0329,,0
1,3660c4ca-bdaa-4dcd-993c-6f8716c1d26a,24c2da97-b16b-40e3-8a38-d80af3568ba7,7,012,0,0,000,47012000000033200,0.0,2079-06-06,Петергофская,4725,4725,,,41230000092,41630436,20,0e2d203d-42fd-44e5-9aa3-92b4767043e6,000,470120000000332,188523,4849e3e0-fc8d-4b44-ba5b-1f55ab134de6,47,ул,2020-08-14,0332,,,2020-08-16,000,0000,000,1,,0329,,0
0,3391baa4-e39e-4f3a-8063-874976cf0cf5,3391baa4-e39e-4f3a-8063-874976cf0cf5,7,012,0,0,000,47012000000039200,0.0,2079-06-06,Алёши Поповича,4725,4725,70a13f63-af08-4411-9bac-be6017b231b3,,41230836000,41630436,10,7eb67f56-5da9-46e3-92d1-edaa8bc7eb5b,000,470120000000392,,,47,ул,2017-11-09,0392,,,2020-08-16,000,0000,000,0,19730708-fa08-49f3-8c7f-cb1bee4b4951,0378,,0
1,3391baa4-e39e-4f3a-8063-874976cf0cf5,70a13f63-af08-4411-9bac-be6017b231b3,7,012,0,0,000,47012000000039200,0.0,2079-06-06,Алёши Поповича,4725,4725,,,41230000096,41630436,20,7eb67f56-5da9-46e3-92d1-edaa8bc7eb5b,000,470120000000392,,3391baa4-e39e-4f3a-8063-874976cf0cf5,47,ул,2020-08-14,0392,,,2020-08-16,000,0000,000,1,,0378,,0
0,cdcdc8a2-e2f4-4617-8eb8-779a2017d15b,cdcdc8a2-e2f4-4617-8eb8-779a2017d15b,4,007,0,0,032,4700703200099,99.0,2020-08-13,Здоровье,4705,4705,9e9f9a87-51b5-4242-8059-31a488b95d5b,,41218861000,41618461,10,2252f46b-5281-436a-9b02-5a22cc0b2d63,000,47007032000,188358,,47,массив,1995-02-21,0000,,,2020-08-16,000,0000,000,0,,0000,,0
1,cdcdc8a2-e2f4-4617-8eb8-779a2017d15b,9e9f9a87-51b5-4242-8059-31a488b95d5b,4,007,0,0,032,4700703200099,99.0,2079-06-06,Здоровье,4705,4705,,,41218861000,41618461,30,2252f46b-5281-436a-9b02-5a22cc0b2d63,000,47007032000,188358,cdcdc8a2-e2f4-4617-8eb8-779a2017d15b,47,массив,2020-08-13,0000,,,2020-08-16,000,0000,000,0,,0000,,0
0,db75eb2b-035c-44c8-88ed-8666d327c004,db75eb2b-035c-44c8-88ed-8666d327c004,7,012,0,0,000,47012000000038300,0.0,2079-06-06,Сказочная,4725,4725,f9c95467-7aaa-4e55-910b-d134d09edb2b,,41230836000,41630436,10,7eb67f56-5da9-46e3-92d1-edaa8bc7eb5b,000,470120000000383,188523,,47,ул,2017-11-09,0383,,,2020-08-16,000,0000,000,0,19730708-fa08-49f3-8c7f-cb1bee4b4951,0378,,0
1,db75eb2b-035c-44c8-88ed-8666d327c004,f9c95467-7aaa-4e55-910b-d134d09edb2b,7,012,0,0,000,47012000000038300,0.0,2079-06-06,Сказочная,4725,4725,,,41230000096,41630436,20,7eb67f56-5da9-46e3-92d1-edaa8bc7eb5b,000,470120000000383,188523,db75eb2b-035c-44c8-88ed-8666d327c004,47,ул,2020-08-14,0383,,,2020-08-16,000,0000,000,1,,0378,,0
0,319a26f2-e0bc-41ad-90b4-74223de23994,319a26f2-e0bc-41ad-90b4-74223de23994,65,012,0,0,000,47012000000206200,0.0,2079-06-06,Лопухинская Мыза,4725,4725,ebc82776-86e3-488c-9725-da3d74dcb575,,41230836000,41630436,10,cb759ab0-cd6c-4a97-8035-8052239e4551,000,470120000002062,188523,,47,тер. ДНП,2019-07-24,0000,,,2020-08-16,000,0000,000,0,4abea3f9-b150-4ec9-91f0-115539c3fb0a,2062,,0
1,319a26f2-e0bc-41ad-90b4-74223de23994,ebc82776-86e3-488c-9725-da3d74dcb575,65,012,0,0,000,47012000000206200,0.0,2079-06-06,Лопухинская Мыза,4725,4725,,,41230000089,41630436,20,cb759ab0-cd6c-4a97-8035-8052239e4551,000,470120000002062,188523,319a26f2-e0bc-41ad-90b4-74223de23994,47,тер. ДНП,2020-08-14,0000,,,2020-08-16,000,0000,000,1,,2062,,0
0,d88583d6-a6e2-4b4b-8463-d6287c764810,d88583d6-a6e2-4b4b-8463-d6287c764810,7,005,0,0,000,47005000000069100,0.0,2079-06-06,Лесная,4703,4703,ce7afa45-70e4-4f4d-9c04-b6ac437c200a,,41212828000,41612428,10,e243ebd8-0078-4cf7-b711-287120edaa54,000,470050000000691,,,47,ул,2018-07-11,0691,,,2020-08-16,000,0000,000,0,75b0b93c-74af-4b19-8fc8-38b8b119de2e,0032,,0
1,d88583d6-a6e2-4b4b-8463-d6287c764810,ce7afa45-70e4-4f4d-9c04-b6ac437c200a,7,005,0,0,000,47005000000069100,0.0,2079-06-06,Лесная,4703,4703,,,41212504000,41612103,21,e243ebd8-0078-4cf7-b711-287120edaa54,000,470050000000691,,d88583d6-a6e2-4b4b-8463-d6287c764810,47,ул,2020-08-12,0691,,,2020-08-16,000,0000,000,1,,0032,,0
1,7898cc4c-9e30-4178-bee0-527861eccfde,7898cc4c-9e30-4178-bee0-527861eccfde,65,007,0,0,000,47007000220012000,0.0,2079-06-06,Большие Тайцы,4705,4705,,,41218576000,41618176051,10,f5df5e44-db9c-449a-8f3f-c413c8c23bfc,220,470070002200120,188340,,47,тер. СНТ,2020-08-13,0000,,,2020-08-16,000,0000,000,1,,0120,,0
1,bc5436f0-bf02-4457-8e39-a5fadef03d15,bc5436f0-bf02-4457-8e39-a5fadef03d15,7,015,0,0,000,47015000000032700,0.0,2079-06-06,Центральная,4712,4712,,,41239000043,41639428,10,a9dfd815-1c23-49da-8621-1e280692d748,000,470150000000327,188765,,47,ул,2020-08-12,0327,,,2020-08-16,000,0000,000,1,,0285,,0
0,6d132e53-9ce8-4bee-936a-d014a2266153,6d132e53-9ce8-4bee-936a-d014a2266153,91,012,0,0,000,,,2016-09-29,Янтарная,4725,4725,8254a980-03de-4085-86ee-4704527fdceb,,41230836000,41630436,10,5358302d-4ef4-45ad-87af-3728672a77ca,000,,188523,,47,ул,2016-07-28,0000,,,2020-08-16,000,0000,000,0,53ab779a-d4c8-48cb-8b39-1b84499ce4df,0000,,0
0,6d132e53-9ce8-4bee-936a-d014a2266153,8254a980-03de-4085-86ee-4704527fdceb,7,012,0,0,000,47012000000016400,0.0,2079-06-06,Янтарная,4725,4725,cca58d1f-a8e8-4486-ba4e-09fc3cbb43c7,,41230836000,41630436,51,5358302d-4ef4-45ad-87af-3728672a77ca,000,470120000000164,188523,6d132e53-9ce8-4bee-936a-d014a2266153,47,ул,2016-09-29,0164,,,2020-08-16,000,0000,000,0,,0057,,0
1,6d132e53-9ce8-4bee-936a-d014a2266153,cca58d1f-a8e8-4486-ba4e-09fc3cbb43c7,7,012,0,0,000,47012000000016400,0.0,2079-06-06,Янтарная,4725,4725,,,41230000089,41630436,20,5358302d-4ef4-45ad-87af-3728672a77ca,000,470120000000164,188523,8254a980-03de-4085-86ee-4704527fdceb,47,ул,2020-08-14,0164,,,2020-08-16,000,0000,000,1,,0057,,0
0,0c749674-5c81-490f-9859-c73c85f93236,0c749674-5c81-490f-9859-c73c85f93236,65,012,0,0,000,47012000000098000,0.0,2079-06-06,Уютное,4725,4725,27a6ec9e-1f60-41ce-b05c-dd990d34a04f,,41230836000,41630436,10,cb759ab0-cd6c-4a97-8035-8052239e4551,000,470120000000980,,,47,тер. ДНП,2018-03-13,0000,,,2020-08-16,000,0000,000,0,337aa401-3bb6-423a-8229-fc161ce0ac8b,0980,,0
1,0c749674-5c81-490f-9859-c73c85f93236,27a6ec9e-1f60-41ce-b05c-dd990d34a04f,65,012,0,0,000,47012000000098000,0.0,2079-06-06,Уютное,4725,4725,,,41230000086,41630436,20,cb759ab0-cd6c-4a97-8035-8052239e4551,000,470120000000980,,0c749674-5c81-490f-9859-c73c85f93236,47,тер. ДНП,2020-08-14,0000,,,2020-08-16,000,0000,000,1,,0980,,0
0,b9a50b8c-b8fb-46ed-beb7-fa2ca54561ef,b9a50b8c-b8fb-46ed-beb7-fa2ca54561ef,7,005,0,0,000,47005000000069000,0.0,2079-06-06,Сквозной,4703,4703,4b87945f-fc6f-4c81-9841-66ba2233d86c,,41212828000,41612428,10,e243ebd8-0078-4cf7-b711-287120edaa54,000,470050000000690,,,47,пр-д,2018-07-10,0690,,,2020-08-16,000,0000,000,0,ae5c1adc-3ddf-4c5b-8c89-3d6a2f8ace74,0032,,0
1,b9a50b8c-b8fb-46ed-beb7-fa2ca54561ef,4b87945f-fc6f-4c81-9841-66ba2233d86c,7,005,0,0,000,47005000000069000,0.0,2079-06-06,Сквозной,4703,4703,,,41212504000,41612103,21,e243ebd8-0078-4cf7-b711-287120edaa54,000,470050000000690,,b9a50b8c-b8fb-46ed-beb7-fa2ca54561ef,47,пр-д,2020-08-12,0690,,,2020-08-16,000,0000,000,1,,0032,,0
0,c13ecb0e-46be-4717-811e-4843ac5189cc,c13ecb0e-46be-4717-811e-4843ac5189cc,7,012,0,0,000,47012000000038700,0.0,2079-06-06,Загадочная,4725,4725,7d4ae4a0-fb36-4d08-b401-34d455f9f154,,41230836000,41630436,10,7eb67f56-5da9-46e3-92d1-edaa8bc7eb5b,000,470120000000387,188523,,47,ул,2017-11-09,0387,,,2020-08-16,000,0000,000,0,19730708-fa08-49f3-8c7f-cb1bee4b4951,0378,,0
1,c13ecb0e-46be-4717-811e-4843ac5189cc,7d4ae4a0-fb36-4d08-b401-34d455f9f154,7,012,0,0,000,47012000000038700,0.0,2079-06-06,Загадочная,4725,4725,,,41230000096,41630436,20,7eb67f56-5da9-46e3-92d1-edaa8bc7eb5b,000,470120000000387,188523,c13ecb0e-46be-4717-811e-4843ac5189cc,47,ул,2020-08-14,0387,,,2020-08-16,000,0000,000,1,,0378,,0
0,b9186853-0dc3-4e35-bf6b-1cce97427a32,b9186853-0dc3-4e35-bf6b-1cce97427a32,7,012,0,0,000,47012000000037900,0.0,2079-06-06,Чудесная,4725,4725,a79af482-af4b-4439-a43e-21ad964bc86c,,41230836000,41630436,10,7eb67f56-5da9-46e3-92d1-edaa8bc7eb5b,000,470120000000379,188523,,47,ул,2017-11-09,0379,,,2020-08-16,000,0000,000,0,19730708-fa08-49f3-8c7f-cb1bee4b4951,0378,,0
1,b9186853-0dc3-4e35-bf6b-1cce97427a32,a79af482-af4b-4439-a43e-21ad964bc86c,7,012,0,0,000,47012000000037900,0.0,2079-06-06,Чудесная,4725,4725,,,41230000096,41630436,20,7eb67f56-5da9-46e3-92d1-edaa8bc7eb5b,000,470120000000379,188523,b9186853-0dc3-4e35-bf6b-1cce97427a32,47,ул,2020-08-14,0379,,,2020-08-16,000,0000,000,1,,0378,,0
0,2c3b5664-3c9a-4900-bbd6-0b3325075323,2c3b5664-3c9a-4900-bbd6-0b3325075323,65,012,0,0,000,47012000000034900,0.0,2079-06-06,Сельскохозяйственная зона 5,4725,4725,4e3bc038-b8b2-4f91-8adc-9a97f167bc71,,41230836000,41630436,10,cb759ab0-cd6c-4a97-8035-8052239e4551,000,470120000000349,188523,,47,тер.,2017-07-27,0000,,,2020-08-16,000,0000,000,0,417efb92-858d-4a59-9a12-99501e1e95b7,0349,,0
1,2c3b5664-3c9a-4900-bbd6-0b3325075323,4e3bc038-b8b2-4f91-8adc-9a97f167bc71,65,012,0,0,000,47012000000034900,0.0,2079-06-06,Сельскохозяйственная зона 5,4725,4725,,,41230000089,41630436,20,cb759ab0-cd6c-4a97-8035-8052239e4551,000,470120000000349,188523,2c3b5664-3c9a-4900-bbd6-0b3325075323,47,тер.,2020-08-14,0000,,,2020-08-16,000,0000,000,1,,0349,,0
0,054b89af-5fb7-4031-8ba6-7fb356b38625,054b89af-5fb7-4031-8ba6-7fb356b38625,7,012,0,0,000,47012000000033101,1.0,2017-06-24,Луговая,4725,4725,edc3a8bc-bc02-4e6a-af0f-69e9c0631c28,,41230836000,41630436,10,0e2d203d-42fd-44e5-9aa3-92b4767043e6,000,470120000000331,188523,,47,ул,2017-06-23,0331,,,2020-08-16,000,0000,000,0,695a0d09-d4ec-4b45-a0b9-f48c91196f02,0329,,0
0,054b89af-5fb7-4031-8ba6-7fb356b38625,edc3a8bc-bc02-4e6a-af0f-69e9c0631c28,7,012,0,0,000,47012000000033102,2.0,2018-03-28,Луговая,4725,4725,311877ea-0dce-42e2-bf0d-3127e5abb688,,41230836000,41630436,31,0e2d203d-42fd-44e5-9aa3-92b4767043e6,000,470120000000331,188523,054b89af-5fb7-4031-8ba6-7fb356b38625,47,ул,2017-06-24,0331,,,2020-08-16,000,0000,000,0,,0329,,0
0,054b89af-5fb7-4031-8ba6-7fb356b38625,311877ea-0dce-42e2-bf0d-3127e5abb688,7,012,0,0,000,47012000000033103,3.0,2079-06-06,Луговая,4725,4725,04daa4bd-3758-4035-91b0-309225b90e59,,41230836000,41630436,70,0e2d203d-42fd-44e5-9aa3-92b4767043e6,000,470120000000331,188523,edc3a8bc-bc02-4e6a-af0f-69e9c0631c28,47,ул,2018-03-28,0331,,,2020-08-16,000,0000,000,0,,0329,,0
0,054b89af-5fb7-4031-8ba6-7fb356b38625,04daa4bd-3758-4035-91b0-309225b90e59,7,012,0,0,000,47012000000033100,0.0,2020-08-14,Луговая,4725,4725,5ef79440-4459-4104-a284-1659b3d20639,,41230836000,41630436,20,0e2d203d-42fd-44e5-9aa3-92b4767043e6,000,470120000000331,188523,311877ea-0dce-42e2-bf0d-3127e5abb688,47,ул,2018-03-29,0331,,,2020-08-16,000,0000,000,0,f11b4efe-7311-49e4-92f9-33d66e40af01,0329,,0
1,054b89af-5fb7-4031-8ba6-7fb356b38625,5ef79440-4459-4104-a284-1659b3d20639,7,012,0,0,000,47012000000033100,0.0,2079-06-06,Луговая,4725,4725,,,41230000092,41630436,20,0e2d203d-42fd-44e5-9aa3-92b4767043e6,000,470120000000331,188523,04daa4bd-3758-4035-91b0-309225b90e59,47,ул,2020-08-14,0331,,,2020-08-16,000,0000,000,1,,0329,,0
0,3acf8004-ce28-4e37-b612-c7c263ef0a32,3acf8004-ce28-4e37-b612-c7c263ef0a32,91,012,0,0,000,,,2016-09-29,Жемчужная,4725,4725,ac662ee8-6795-4fc0-9de3-1dd84e1c2bac,,41230836000,41630436,10,5358302d-4ef4-45ad-87af-3728672a77ca,000,,188523,,47,ул,2016-07-28,0000,,,2020-08-16,000,0000,000,0,04ec1498-4b46-4e26-a26f-22e0db2bca35,0000,,0
0,3acf8004-ce28-4e37-b612-c7c263ef0a32,ac662ee8-6795-4fc0-9de3-1dd84e1c2bac,7,012,0,0,000,47012000000016300,0.0,2079-06-06,Жемчужная,4725,4725,a8151033-770c-47c6-96bc-556a0780f19a,,41230836000,41630436,51,5358302d-4ef4-45ad-87af-3728672a77ca,000,470120000000163,188523,3acf8004-ce28-4e37-b612-c7c263ef0a32,47,ул,2016-09-29,0163,,,2020-08-16,000,0000,000,0,,0057,,0
1,3acf8004-ce28-4e37-b612-c7c263ef0a32,a8151033-770c-47c6-96bc-556a0780f19a,7,012,0,0,000,47012000000016300,0.0,2079-06-06,Жемчужная,4725,4725,,,41230000089,41630436,20,5358302d-4ef4-45ad-87af-3728672a77ca,000,470120000000163,188523,ac662ee8-6795-4fc0-9de3-1dd84e1c2bac,47,ул,2020-08-14,0163,,,2020-08-16,000,0000,000,1,,0057,,0
1,d27f42a3-b506-4a5a-ab33-4feb8d53ed49,d27f42a3-b506-4a5a-ab33-4feb8d53ed49,7,015,0,0,000,47015000000032600,0.0,2079-06-06,Парковая,4712,4712,,,41239000043,41639428,10,a9dfd815-1c23-49da-8621-1e280692d748,000,470150000000326,188765,,47,ул,2020-08-12,0326,,,2020-08-16,000,0000,000,1,,0285,,0
1,4b8b7f29-0b24-4532-bb8d-0814fecb6902,4b8b7f29-0b24-4532-bb8d-0814fecb6902,7,015,0,0,000,47015000000032400,0.0,2079-06-06,Южная,4712,4712,,,41239000043,41639428,10,a9dfd815-1c23-49da-8621-1e280692d748,000,470150000000324,188765,,47,ул,2020-08-12,0324,,,2020-08-16,000,0000,000,1,,0285,,0
0,bebd3734-0086-472f-aad7-cb562f9ed458,bebd3734-0086-472f-aad7-cb562f9ed458,7,012,0,0,000,47012000000038600,0.0,2079-06-06,Ильи Муромца,4725,4725,ad7384ff-765a-4e86-ab4b-4b0e9195e178,,41230836000,41630436,10,7eb67f56-5da9-46e3-92d1-edaa8bc7eb5b,000,470120000000386,188523,,47,ул,2017-11-09,0386,,,2020-08-16,000,0000,000,0,19730708-fa08-49f3-8c7f-cb1bee4b4951,0378,,0
1,bebd3734-0086-472f-aad7-cb562f9ed458,ad7384ff-765a-4e86-ab4b-4b0e9195e178,7,012,0,0,000,47012000000038600,0.0,2079-06-06,Ильи Муромца,4725,4725,,,41230000096,41630436,20,7eb67f56-5da9-46e3-92d1-edaa8bc7eb5b,000,470120000000386,188523,bebd3734-0086-472f-aad7-cb562f9ed458,47,ул,2020-08-14,0386,,,2020-08-16,000,0000,000,1,,0378,,0
0,431e97a6-bedd-4ce2-8bbb-34692a370caf,431e97a6-bedd-4ce2-8bbb-34692a370caf,7,005,0,0,000,47005000000069600,0.0,2079-06-06,Круговой,4703,4703,aca03651-6836-4d2b-8f46-ae5a2d494f32,,41212828000,41612428,10,e243ebd8-0078-4cf7-b711-287120edaa54,000,470050000000696,,,47,пр-д,2018-07-12,0696,,,2020-08-16,000,0000,000,0,75b0b93c-74af-4b19-8fc8-38b8b119de2e,0032,,0
1,431e97a6-bedd-4ce2-8bbb-34692a370caf,aca03651-6836-4d2b-8f46-ae5a2d494f32,7,005,0,0,000,47005000000069600,0.0,2079-06-06,Круговой,4703,4703,,,41212504000,41612103,21,e243ebd8-0078-4cf7-b711-287120edaa54,000,470050000000696,,431e97a6-bedd-4ce2-8bbb-34692a370caf,47,пр-д,2020-08-12,0696,,,2020-08-16,000,0000,000,1,,0032,,0
1,7fe2aab7-fcff-47e5-8222-5cf07bc84d5c,7fe2aab7-fcff-47e5-8222-5cf07bc84d5c,7,015,0,0,000,47015000000032900,0.0,2079-06-06,Лесная,4712,4712,,,41239000043,41639428,10,a9dfd815-1c23-49da-8621-1e280692d748,000,470150000000329,188765,,47,ул,2020-08-12,0329,,,2020-08-16,000,0000,000,1,,0285,,0
0,36c54d0d-1cc6-402f-9936-a3edd8684fd6,36c54d0d-1cc6-402f-9936-a3edd8684fd6,65,012,0,0,000,47012000000035000,0.0,2079-06-06,Сельскохозяйственная зона 4,4725,4725,c2521021-ba7f-4dfa-b73b-32b0022f2b3a,,41230836000,41630436,10,cb759ab0-cd6c-4a97-8035-8052239e4551,000,470120000000350,188523,,47,тер.,2017-07-27,0000,,,2020-08-16,000,0000,000,0,417efb92-858d-4a59-9a12-99501e1e95b7,0350,,0
1,36c54d0d-1cc6-402f-9936-a3edd8684fd6,c2521021-ba7f-4dfa-b73b-32b0022f2b3a,65,012,0,0,000,47012000000035000,0.0,2079-06-06,Сельскохозяйственная зона 4,4725,4725,,,41230000096,41630436,20,cb759ab0-cd6c-4a97-8035-8052239e4551,000,470120000000350,188523,36c54d0d-1cc6-402f-9936-a3edd8684fd6,47,тер.,2020-08-14,0000,,,2020-08-16,000,0000,000,1,,0350,,0
0,cb98365c-3752-4a98-9324-721b264a46be,cb98365c-3752-4a98-9324-721b264a46be,91,005,0,0,000,,,2016-09-28,2а,4703,4703,e35a5836-5779-456b-bf38-5a5e27a01035,,41212000000,41000000,10,e243ebd8-0078-4cf7-b711-287120edaa54,000,,188662,,47,кв-л,2016-03-17,0000,,,2020-08-16,000,0000,000,0,d88ab274-4c6e-478a-b4a3-607e49183964,0000,,0
0,cb98365c-3752-4a98-9324-721b264a46be,e35a5836-5779-456b-bf38-5a5e27a01035,91,005,0,0,000,,,2020-08-12,2а,4703,4703,8e126f02-8c37-4dfc-bf5d-0ac50fb2f6e8,,41212828000,41612428000,21,e243ebd8-0078-4cf7-b711-287120edaa54,000,,188662,cb98365c-3752-4a98-9324-721b264a46be,47,кв-л,2016-06-30,0119,,,2020-08-16,000,0000,000,0,d88ab274-4c6e-478a-b4a3-607e49183964,0032,,0
0,cb98365c-3752-4a98-9324-721b264a46be,8e126f02-8c37-4dfc-bf5d-0ac50fb2f6e8,7,005,0,0,000,47005000000011900,0.0,2079-06-06,2а,4703,4703,dc2f2538-4e86-48f6-888a-26bbb8729d5e,,41212828000,41612428000,51,e243ebd8-0078-4cf7-b711-287120edaa54,000,470050000000119,,e35a5836-5779-456b-bf38-5a5e27a01035,47,кв-л,2016-09-28,0119,,,2020-08-16,000,0000,000,0,,0032,,0
1,cb98365c-3752-4a98-9324-721b264a46be,dc2f2538-4e86-48f6-888a-26bbb8729d5e,7,005,0,0,000,47005000000011900,0.0,2079-06-06,2а,4703,4703,,,41212504000,41612103,21,e243ebd8-0078-4cf7-b711-287120edaa54,000,470050000000119,,8e126f02-8c37-4dfc-bf5d-0ac50fb2f6e8,47,кв-л,2020-08-12,0119,,,2020-08-16,000,0000,000,1,,0032,,0
0,f964b580-ae42-45a4-9a24-46f6de6cbb38,f964b580-ae42-45a4-9a24-46f6de6cbb38,7,012,0,0,000,47012000000038500,0.0,2079-06-06,Медвежья,4725,4725,bd46ca26-2242-44a1-904b-732b71435ae1,,41230836000,41630436,10,7eb67f56-5da9-46e3-92d1-edaa8bc7eb5b,000,470120000000385,188523,,47,ул,2017-11-09,0385,,,2020-08-16,000,0000,000,0,19730708-fa08-49f3-8c7f-cb1bee4b4951,0378,,0
1,f964b580-ae42-45a4-9a24-46f6de6cbb38,bd46ca26-2242-44a1-904b-732b71435ae1,7,012,0,0,000,47012000000038500,0.0,2079-06-06,Медвежья,4725,4725,,,41230000096,41630436,20,7eb67f56-5da9-46e3-92d1-edaa8bc7eb5b,000,470120000000385,188523,f964b580-ae42-45a4-9a24-46f6de6cbb38,47,ул,2020-08-14,0385,,,2020-08-16,000,0000,000,1,,0378,,0
1,86383a73-176a-48f0-8c3b-79d1c7b60291,86383a73-176a-48f0-8c3b-79d1c7b60291,7,015,0,0,000,47015000000032800,0.0,2079-06-06,Садовая,4712,4712,,,41239000043,41639428,10,a9dfd815-1c23-49da-8621-1e280692d748,000,470150000000328,188765,,47,ул,2020-08-12,0328,,,2020-08-16,000,0000,000,1,,0285,,0
0,35fc2ddd-aafb-4bac-8481-118d85f411e9,35fc2ddd-aafb-4bac-8481-118d85f411e9,7,012,0,0,000,47012000000038800,0.0,2079-06-06,Волшебная,4725,4725,c0dd4e25-5c95-4bb6-af3b-c9e9f1208768,,41230836000,41630436,10,7eb67f56-5da9-46e3-92d1-edaa8bc7eb5b,000,470120000000388,188523,,47,ул,2017-11-09,0388,,,2020-08-16,000,0000,000,0,19730708-fa08-49f3-8c7f-cb1bee4b4951,0378,,0
1,35fc2ddd-aafb-4bac-8481-118d85f411e9,c0dd4e25-5c95-4bb6-af3b-c9e9f1208768,7,012,0,0,000,47012000000038800,0.0,2079-06-06,Волшебная,4725,4725,,,41230000096,41630436,20,7eb67f56-5da9-46e3-92d1-edaa8bc7eb5b,000,470120000000388,188523,35fc2ddd-aafb-4bac-8481-118d85f411e9,47,ул,2020-08-14,0388,,,2020-08-16,000,0000,000,1,,0378,,0
0,51b39ec9-8c8b-4fad-a4fc-29ca7047daa8,51b39ec9-8c8b-4fad-a4fc-29ca7047daa8,7,012,0,0,000,47012000000033301,1.0,2017-06-24,Гатчинская,4725,4725,0af92283-025e-49fc-8a6e-df428216d55d,,41230836000,41630436,10,0e2d203d-42fd-44e5-9aa3-92b4767043e6,000,470120000000333,188523,,47,ул,2017-06-23,0333,,,2020-08-16,000,0000,000,0,f87d81ad-eaad-407a-881d-31d81f8026a1,0329,,0
0,51b39ec9-8c8b-4fad-a4fc-29ca7047daa8,0af92283-025e-49fc-8a6e-df428216d55d,7,012,0,0,000,47012000000033302,2.0,2018-03-28,Гатчинская,4725,4725,e3e96c3a-9e89-4276-907f-aba67c7ef346,,41230836000,41630436,31,0e2d203d-42fd-44e5-9aa3-92b4767043e6,000,470120000000333,188523,51b39ec9-8c8b-4fad-a4fc-29ca7047daa8,47,ул,2017-06-24,0333,,,2020-08-16,000,0000,000,0,,0329,,0
0,51b39ec9-8c8b-4fad-a4fc-29ca7047daa8,e3e96c3a-9e89-4276-907f-aba67c7ef346,7,012,0,0,000,47012000000033303,3.0,2079-06-06,Гатчинская,4725,4725,94d4c872-3de8-4b28-9da3-739f61a9e1cc,,41230836000,41630436,70,0e2d203d-42fd-44e5-9aa3-92b4767043e6,000,470120000000333,188523,0af92283-025e-49fc-8a6e-df428216d55d,47,ул,2018-03-28,0333,,,2020-08-16,000,0000,000,0,,0329,,0
0,51b39ec9-8c8b-4fad-a4fc-29ca7047daa8,94d4c872-3de8-4b28-9da3-739f61a9e1cc,7,012,0,0,000,47012000000033300,0.0,2020-08-14,Гатчинская,4725,4725,084ebc16-8bf0-48be-b6ad-6d20711cdad1,,41230836000,41630436,20,0e2d203d-42fd-44e5-9aa3-92b4767043e6,000,470120000000333,188523,e3e96c3a-9e89-4276-907f-aba67c7ef346,47,ул,2018-03-29,0333,,,2020-08-16,000,0000,000,0,0a0ba016-4037-4cb7-9c28-425fad0fc8c9,0329,,0
1,51b39ec9-8c8b-4fad-a4fc-29ca7047daa8,084ebc16-8bf0-48be-b6ad-6d20711cdad1,7,012,0,0,000,47012000000033300,0.0,2079-06-06,Гатчинская,4725,4725,,,41230000092,41630436,20,0e2d203d-42fd-44e5-9aa3-92b4767043e6,000,470120000000333,188523,94d4c872-3de8-4b28-9da3-739f61a9e1cc,47,ул,2020-08-14,0333,,,2020-08-16,000,0000,000,1,,0329,,0
0,2226e653-b5d2-4cdd-bcd6-7f8878e1989e,2226e653-b5d2-4cdd-bcd6-7f8878e1989e,91,012,0,0,000,,,2016-09-29,Рубиновая,4725,4725,dc56934c-b569-4396-b71d-c2458d9fb530,,41230836000,41630436,10,5358302d-4ef4-45ad-87af-3728672a77ca,000,,188523,,47,ул,2016-07-28,0000,,,2020-08-16,000,0000,000,0,b976efb1-bce0-4491-88af-547b24abcdf5,0000,,0
0,2226e653-b5d2-4cdd-bcd6-7f8878e1989e,dc56934c-b569-4396-b71d-c2458d9fb530,7,012,0,0,000,47012000000016500,0.0,2079-06-06,Рубиновая,4725,4725,bf832eed-04f3-41de-8cfb-ea483cb5bf14,,41230836000,41630436,51,5358302d-4ef4-45ad-87af-3728672a77ca,000,470120000000165,188523,2226e653-b5d2-4cdd-bcd6-7f8878e1989e,47,ул,2016-09-29,0165,,,2020-08-16,000,0000,000,0,,0057,,0
1,2226e653-b5d2-4cdd-bcd6-7f8878e1989e,bf832eed-04f3-41de-8cfb-ea483cb5bf14,7,012,0,0,000,47012000000016500,0.0,2079-06-06,Рубиновая,4725,4725,,,41230000089,41630436,20,5358302d-4ef4-45ad-87af-3728672a77ca,000,470120000000165,188523,dc56934c-b569-4396-b71d-c2458d9fb530,47,ул,2020-08-14,0165,,,2020-08-16,000,0000,000,1,,0057,,0
0,9d1e3dcb-9b65-48c3-b407-8245d93be062,9d1e3dcb-9b65-48c3-b407-8245d93be062,91,012,0,0,000,,,2016-09-29,Малахитовая,4725,4725,479bf03f-c40b-45f6-8fa9-96f84f31a364,,41230836000,41630436,10,5358302d-4ef4-45ad-87af-3728672a77ca,000,,188523,,47,ул,2016-07-28,0000,,,2020-08-16,000,0000,000,0,3d569d27-671c-46df-8500-07f11cf223c2,0000,,0
0,9d1e3dcb-9b65-48c3-b407-8245d93be062,479bf03f-c40b-45f6-8fa9-96f84f31a364,7,012,0,0,000,47012000000016200,0.0,2079-06-06,Малахитовая,4725,4725,7feb7ead-3fb1-46e7-97a7-a039bf53f5ee,,41230836000,41630436,51,5358302d-4ef4-45ad-87af-3728672a77ca,000,470120000000162,188523,9d1e3dcb-9b65-48c3-b407-8245d93be062,47,ул,2016-09-29,0162,,,2020-08-16,000,0000,000,0,,0057,,0
1,9d1e3dcb-9b65-48c3-b407-8245d93be062,7feb7ead-3fb1-46e7-97a7-a039bf53f5ee,7,012,0,0,000,47012000000016200,0.0,2079-06-06,Малахитовая,4725,4725,,,41230000089,41630436,20,5358302d-4ef4-45ad-87af-3728672a77ca,000,470120000000162,188523,479bf03f-c40b-45f6-8fa9-96f84f31a364,47,ул,2020-08-14,0162,,,2020-08-16,000,0000,000,1,,0057,,0
0,821fc5bc-f180-41f7-a963-56dac28b57bf,821fc5bc-f180-41f7-a963-56dac28b57bf,91,012,0,0,000,,,2016-09-29,Изумрудная,4725,4725,5fbdd14f-211a-4deb-ab0e-53041902579f,,41230836000,41630436,10,5358302d-4ef4-45ad-87af-3728672a77ca,000,,188523,,47,ул,2016-07-28,0000,,,2020-08-16,000,0000,000,0,e1ce9fc9-5035-4a9f-aa98-97fea49ff848,0000,,0
0,821fc5bc-f180-41f7-a963-56dac28b57bf,5fbdd14f-211a-4deb-ab0e-53041902579f,7,012,0,0,000,47012000000016600,0.0,2079-06-06,Изумрудная,4725,4725,44410a10-9dc0-484f-a47f-9e89f8c50671,,41230836000,41630436,51,5358302d-4ef4-45ad-87af-3728672a77ca,000,470120000000166,188523,821fc5bc-f180-41f7-a963-56dac28b57bf,47,ул,2016-09-29,0166,,,2020-08-16,000,0000,000,0,,0057,,0
1,821fc5bc-f180-41f7-a963-56dac28b57bf,44410a10-9dc0-484f-a47f-9e89f8c50671,7,012,0,0,000,47012000000016600,0.0,2079-06-06,Изумрудная,4725,4725,,,41230000089,41630436,20,5358302d-4ef4-45ad-87af-3728672a77ca,000,470120000000166,188523,5fbdd14f-211a-4deb-ab0e-53041902579f,47,ул,2020-08-14,0166,,,2020-08-16,000,0000,000,1,,0057,,0
0,07e2a3b2-b469-465f-8c40-b48dd812c9d9,07e2a3b2-b469-465f-8c40-b48dd812c9d9,91,005,0,0,000,,,2016-09-28,8,4703,4703,10dcf0bf-08bb-4785-9ce6-0fcf09a34d0e,,41212828000,41612428000,10,e243ebd8-0078-4cf7-b711-287120edaa54,000,,,,47,кв-л,2016-07-22,0000,,,2020-08-16,000,0000,000,0,f3d6fcf6-80e8-4b42-a98b-291524e6cbc1,0000,,0
0,07e2a3b2-b469-465f-8c40-b48dd812c9d9,10dcf0bf-08bb-4785-9ce6-0fcf09a34d0e,7,005,0,0,000,47005000000012200,0.0,2079-06-06,8,4703,4703,e07ffb9f-db84-4f1d-8eff-00d3f948cbc3,,41212828000,41612428000,51,e243ebd8-0078-4cf7-b711-287120edaa54,000,470050000000122,188662,07e2a3b2-b469-465f-8c40-b48dd812c9d9,47,кв-л,2016-09-28,0122,,,2020-08-16,000,0000,000,0,,0032,,0
1,07e2a3b2-b469-465f-8c40-b48dd812c9d9,e07ffb9f-db84-4f1d-8eff-00d3f948cbc3,7,005,0,0,000,47005000000012200,0.0,2079-06-06,8,4703,4703,,,41212504000,41612103,21,e243ebd8-0078-4cf7-b711-287120edaa54,000,470050000000122,188662,10dcf0bf-08bb-4785-9ce6-0fcf09a34d0e,47,кв-л,2020-08-12,0122,,,2020-08-16,000,0000,000,1,,0032,,0
0,27fd4e19-2741-490b-a9a8-bd60b1e72b64,27fd4e19-2741-490b-a9a8-bd60b1e72b64,7,012,0,0,000,47012000000033601,1.0,2017-06-24,Выборгская,4725,4725,866377a1-cad7-409c-b469-ddf11d092d08,,41230836000,41630436,10,0e2d203d-42fd-44e5-9aa3-92b4767043e6,000,470120000000336,188523,,47,ул,2017-06-23,0336,,,2020-08-16,000,0000,000,0,ba110231-89b2-4afa-bcc5-ce41fb3cd36f,0329,,0
0,27fd4e19-2741-490b-a9a8-bd60b1e72b64,866377a1-cad7-409c-b469-ddf11d092d08,7,012,0,0,000,47012000000033602,2.0,2018-03-28,Выборгская,4725,4725,8462c3d1-ddd5-46ca-a1ac-c58f66f7d302,,41230836000,41630436,31,0e2d203d-42fd-44e5-9aa3-92b4767043e6,000,470120000000336,188523,27fd4e19-2741-490b-a9a8-bd60b1e72b64,47,ул,2017-06-24,0336,,,2020-08-16,000,0000,000,0,,0329,,0
0,27fd4e19-2741-490b-a9a8-bd60b1e72b64,8462c3d1-ddd5-46ca-a1ac-c58f66f7d302,7,012,0,0,000,47012000000033603,3.0,2079-06-06,Выборгская,4725,4725,3106771a-d285-4d5a-a87e-1ee5890ddf37,,41230836000,41630436,70,0e2d203d-42fd-44e5-9aa3-92b4767043e6,000,470120000000336,188523,866377a1-cad7-409c-b469-ddf11d092d08,47,ул,2018-03-28,0336,,,2020-08-16,000,0000,000,0,,0329,,0
0,27fd4e19-2741-490b-a9a8-bd60b1e72b64,3106771a-d285-4d5a-a87e-1ee5890ddf37,7,012,0,0,000,47012000000033600,0.0,2020-08-14,Выборгская,4725,4725,7ed02b48-1336-4f85-98d5-ed4018b2ada5,,41230836000,41630436,20,0e2d203d-42fd-44e5-9aa3-92b4767043e6,000,470120000000336,188523,8462c3d1-ddd5-46ca-a1ac-c58f66f7d302,47,ул,2018-03-29,0336,,,2020-08-16,000,0000,000,0,0a0ba016-4037-4cb7-9c28-425fad0fc8c9,0329,,0
1,27fd4e19-2741-490b-a9a8-bd60b1e72b64,7ed02b48-1336-4f85-98d5-ed4018b2ada5,7,012,0,0,000,47012000000033600,0.0,2079-06-06,Выборгская,4725,4725,,,41230000092,41630436,20,0e2d203d-42fd-44e5-9aa3-92b4767043e6,000,470120000000336,188523,3106771a-d285-4d5a-a87e-1ee5890ddf37,47,ул,2020-08-14,0336,,,2020-08-16,000,0000,000,1,,0329,,0
0,e243ebd8-0078-4cf7-b711-287120edaa54,e243ebd8-0078-4cf7-b711-287120edaa54,90,005,0,0,000,47005000000003201,1.0,2016-09-28,Производственная зона Мурино,4703,4703,965fac69-4fce-454b-b100-c326552f09ce,,41212000000,41000000,10,db8758d6-b8ea-453d-a75f-8f2d3ff49fb0,000,470050000000032,188662,,47,промзона,2016-02-11,0000,,,2020-08-16,000,0000,000,0,e7505f4a-baee-4833-9824-50c52d0de980,0000,,0
0,e243ebd8-0078-4cf7-b711-287120edaa54,965fac69-4fce-454b-b100-c326552f09ce,90,005,0,0,000,47005000000003251,51.0,2020-08-12,Производственная зона Мурино,4703,4703,c23f4ec2-b2d2-47a1-94dd-5b64c06d2150,,41212828000,41612428000,21,db8758d6-b8ea-453d-a75f-8f2d3ff49fb0,000,470050000000032,188662,e243ebd8-0078-4cf7-b711-287120edaa54,47,промзона,2016-06-30,0000,,,2020-08-16,000,0000,000,0,e7505f4a-baee-4833-9824-50c52d0de980,0032,,0
0,e243ebd8-0078-4cf7-b711-287120edaa54,c23f4ec2-b2d2-47a1-94dd-5b64c06d2150,65,005,0,0,000,47005000000003200,0.0,2079-06-06,Производственная зона Мурино,4703,4703,17b154c9-301e-4c4e-ab78-3c28dd624b48,,41212828000,41612428000,50,db8758d6-b8ea-453d-a75f-8f2d3ff49fb0,000,470050000000032,,965fac69-4fce-454b-b100-c326552f09ce,47,промзона,2016-09-28,0000,,,2020-08-16,000,0000,000,0,,0032,,0
1,e243ebd8-0078-4cf7-b711-287120edaa54,17b154c9-301e-4c4e-ab78-3c28dd624b48,65,005,0,0,000,47005000000003200,0.0,2079-06-06,Производственная зона Мурино,4703,4703,,,41212504000,41612103,21,db8758d6-b8ea-453d-a75f-8f2d3ff49fb0,000,470050000000032,,c23f4ec2-b2d2-47a1-94dd-5b64c06d2150,47,промзона,2020-08-12,0000,,,2020-08-16,000,0000,000,1,,0032,,0
0,7463a5bf-51fe-4272-9cb7-5badf1da71cb,7463a5bf-51fe-4272-9cb7-5badf1da71cb,7,005,0,0,000,47005000000069400,0.0,2079-06-06,Заводской,4703,4703,199d3106-977a-4925-92b8-e7baed5004ec,,41212828000,41612428,10,e243ebd8-0078-4cf7-b711-287120edaa54,000,470050000000694,,,47,пр-д,2018-07-12,0694,,,2020-08-16,000,0000,000,0,75b0b93c-74af-4b19-8fc8-38b8b119de2e,0032,,0
1,7463a5bf-51fe-4272-9cb7-5badf1da71cb,199d3106-977a-4925-92b8-e7baed5004ec,7,005,0,0,000,47005000000069400,0.0,2079-06-06,Заводской,4703,4703,,,41212504000,41612103,21,e243ebd8-0078-4cf7-b711-287120edaa54,000,470050000000694,,7463a5bf-51fe-4272-9cb7-5badf1da71cb,47,пр-д,2020-08-12,0694,,,2020-08-16,000,0000,000,1,,0032,,0
0,0d8cb99e-8ce6-4046-99f7-1f3b3c5d4d07,0d8cb99e-8ce6-4046-99f7-1f3b3c5d4d07,7,005,0,0,000,47005000000069700,0.0,2079-06-06,Северный,4703,4703,ba8844fe-27a0-4d38-b766-ff1e1730e8c5,,41212828000,41612428,10,e243ebd8-0078-4cf7-b711-287120edaa54,000,470050000000697,,,47,пр-д,2018-07-12,0697,,,2020-08-16,000,0000,000,0,75b0b93c-74af-4b19-8fc8-38b8b119de2e,0032,,0
1,0d8cb99e-8ce6-4046-99f7-1f3b3c5d4d07,ba8844fe-27a0-4d38-b766-ff1e1730e8c5,7,005,0,0,000,47005000000069700,0.0,2079-06-06,Северный,4703,4703,,,41212504000,41612103,21,e243ebd8-0078-4cf7-b711-287120edaa54,000,470050000000697,,0d8cb99e-8ce6-4046-99f7-1f3b3c5d4d07,47,пр-д,2020-08-12,0697,,,2020-08-16,000,0000,000,1,,0032,,0
1,7fb143b7-9431-4cce-89e1-30f721a65c1a,7fb143b7-9431-4cce-89e1-30f721a65c1a,7,012,0,0,000,47012000097000200,0.0,2079-06-06,Александра Чечётенко,4725,4725,,,41230000014,41630152161,10,53a6a3e9-8e97-469e-90fb-5613215c77c1,097,470120000970002,188505,,47,ул,2020-08-14,0002,,,2020-08-16,000,0000,000,1,,0000,,0
0,5242ccb9-ca51-4c39-a7dc-9c9bb1c01471,5242ccb9-ca51-4c39-a7dc-9c9bb1c01471,7,012,0,0,000,47012000000038400,0.0,2079-06-06,Райская,4725,4725,dd173b26-e692-4a4b-8264-76a55f492fb8,,41230836000,41630436,10,7eb67f56-5da9-46e3-92d1-edaa8bc7eb5b,000,470120000000384,188523,,47,ул,2017-11-09,0384,,,2020-08-16,000,0000,000,0,19730708-fa08-49f3-8c7f-cb1bee4b4951,0378,,0
1,5242ccb9-ca51-4c39-a7dc-9c9bb1c01471,dd173b26-e692-4a4b-8264-76a55f492fb8,7,012,0,0,000,47012000000038400,0.0,2079-06-06,Райская,4725,4725,,,41230000096,41630436,20,7eb67f56-5da9-46e3-92d1-edaa8bc7eb5b,000,470120000000384,188523,5242ccb9-ca51-4c39-a7dc-9c9bb1c01471,47,ул,2020-08-14,0384,,,2020-08-16,000,0000,000,1,,0378,,0
0,517326c7-a0d6-44be-9e4b-5f6a6f3e44f0,517326c7-a0d6-44be-9e4b-5f6a6f3e44f0,7,012,0,0,000,47012000000033801,1.0,2017-06-24,Павловская,4725,4725,2fc57bd1-580d-4095-bb0b-216500f8442a,,41230836000,41630436,10,0e2d203d-42fd-44e5-9aa3-92b4767043e6,000,470120000000338,188523,,47,ул,2017-06-23,0338,,,2020-08-16,000,0000,000,0,392dbe68-8722-444b-83ed-fddd73be18a4,0329,,0
0,517326c7-a0d6-44be-9e4b-5f6a6f3e44f0,2fc57bd1-580d-4095-bb0b-216500f8442a,7,012,0,0,000,47012000000033802,2.0,2018-03-28,Павловская,4725,4725,c1a7b569-9ed3-4732-9e4a-3c4935f56613,,41230836000,41630436,31,0e2d203d-42fd-44e5-9aa3-92b4767043e6,000,470120000000338,188523,517326c7-a0d6-44be-9e4b-5f6a6f3e44f0,47,ул,2017-06-24,0338,,,2020-08-16,000,0000,000,0,,0329,,0
0,517326c7-a0d6-44be-9e4b-5f6a6f3e44f0,c1a7b569-9ed3-4732-9e4a-3c4935f56613,7,012,0,0,000,47012000000033803,3.0,2079-06-06,Павловская,4725,4725,15309369-87e8-439d-9b1c-3cc873adf9ae,,41230836000,41630436,70,0e2d203d-42fd-44e5-9aa3-92b4767043e6,000,470120000000338,188523,2fc57bd1-580d-4095-bb0b-216500f8442a,47,ул,2018-03-28,0338,,,2020-08-16,000,0000,000,0,,0329,,0
0,517326c7-a0d6-44be-9e4b-5f6a6f3e44f0,15309369-87e8-439d-9b1c-3cc873adf9ae,7,012,0,0,000,47012000000033800,0.0,2020-08-14,Павловская,4725,4725,d7219155-22fa-4f47-966d-86bc04f0b30c,,41230836000,41630436,20,0e2d203d-42fd-44e5-9aa3-92b4767043e6,000,470120000000338,188523,c1a7b569-9ed3-4732-9e4a-3c4935f56613,47,ул,2018-03-29,0338,,,2020-08-16,000,0000,000,0,f11b4efe-7311-49e4-92f9-33d66e40af01,0329,,0
1,517326c7-a0d6-44be-9e4b-5f6a6f3e44f0,d7219155-22fa-4f47-966d-86bc04f0b30c,7,012,0,0,000,47012000000033800,0.0,2079-06-06,Павловская,4725,4725,,,41230000092,41630436,20,0e2d203d-42fd-44e5-9aa3-92b4767043e6,000,470120000000338,188523,15309369-87e8-439d-9b1c-3cc873adf9ae,47,ул,2020-08-14,0338,,,2020-08-16,000,0000,000,1,,0329,,0
0,108b1b0f-de4e-4492-ae2f-37c056df3578,108b1b0f-de4e-4492-ae2f-37c056df3578,7,012,0,0,000,47012000000033701,1.0,2017-06-24,Пушкинская,4725,4725,cded391e-315e-45f8-9c13-261e4a4ed145,,41230836000,41630436,10,0e2d203d-42fd-44e5-9aa3-92b4767043e6,000,470120000000337,188523,,47,ул,2017-06-23,0337,,,2020-08-16,000,0000,000,0,7fd2b443-4ecb-4a7f-bad1-598cde047cbb,0329,,0
0,108b1b0f-de4e-4492-ae2f-37c056df3578,cded391e-315e-45f8-9c13-261e4a4ed145,7,012,0,0,000,47012000000033702,2.0,2018-03-28,Пушкинская,4725,4725,f5813196-7774-4f46-b9c3-6f7a7436260d,,41230836000,41630436,31,0e2d203d-42fd-44e5-9aa3-92b4767043e6,000,470120000000337,188523,108b1b0f-de4e-4492-ae2f-37c056df3578,47,ул,2017-06-24,0337,,,2020-08-16,000,0000,000,0,,0329,,0
0,108b1b0f-de4e-4492-ae2f-37c056df3578,f5813196-7774-4f46-b9c3-6f7a7436260d,7,012,0,0,000,47012000000033703,3.0,2079-06-06,Пушкинская,4725,4725,490765dd-ffdc-42d6-8e29-f704a866550b,,41230836000,41630436,70,0e2d203d-42fd-44e5-9aa3-92b4767043e6,000,470120000000337,188523,cded391e-315e-45f8-9c13-261e4a4ed145,47,ул,2018-03-28,0337,,,2020-08-16,000,0000,000,0,,0329,,0
0,108b1b0f-de4e-4492-ae2f-37c056df3578,490765dd-ffdc-42d6-8e29-f704a866550b,7,012,0,0,000,47012000000033700,0.0,2020-08-14,Пушкинская,4725,4725,ada65c52-d461-43b0-9550-5c181ecf1c16,,41230836000,41630436,20,0e2d203d-42fd-44e5-9aa3-92b4767043e6,000,470120000000337,188523,f5813196-7774-4f46-b9c3-6f7a7436260d,47,ул,2018-03-29,0337,,,2020-08-16,000,0000,000,0,f11b4efe-7311-49e4-92f9-33d66e40af01,0329,,0
1,108b1b0f-de4e-4492-ae2f-37c056df3578,ada65c52-d461-43b0-9550-5c181ecf1c16,7,012,0,0,000,47012000000033700,0.0,2079-06-06,Пушкинская,4725,4725,,,41230000092,41630436,20,0e2d203d-42fd-44e5-9aa3-92b4767043e6,000,470120000000337,188523,490765dd-ffdc-42d6-8e29-f704a866550b,47,ул,2020-08-14,0337,,,2020-08-16,000,0000,000,1,,0329,,0
1,c6b68fc9-fc0f-4965-a19c-cbfad3610326,c6b68fc9-fc0f-4965-a19c-cbfad3610326,7,009,0,0,004,47009004000046600,0.0,2079-06-06,4-я линия,4727,4727,,,41224000058,41624423136,10,cb9d206a-97ee-4341-a3cf-9d7bd7c7e174,000,470090040000466,187100,,47,ул,2020-08-14,0466,,,2020-08-16,000,0000,000,1,,0282,,0
0,0a786add-1dae-4fba-b70e-569c84cdb6ad,0a786add-1dae-4fba-b70e-569c84cdb6ad,90,012,0,0,000,47012000000001801,1.0,2016-09-28,ТСН Лесная поляна,4725,4725,df0035e4-9720-4d63-9b62-76a8f9b796a2,,41230836000,41630436,10,cb759ab0-cd6c-4a97-8035-8052239e4551,000,470120000000018,188523,,47,днп,2016-02-18,0000,,,2020-08-16,000,0000,000,0,0a034027-7f25-48a2-bf50-645772cb68b5,0000,,0
0,0a786add-1dae-4fba-b70e-569c84cdb6ad,df0035e4-9720-4d63-9b62-76a8f9b796a2,90,012,0,0,000,47012000000001851,51.0,2020-08-14,ТСН Лесная поляна,4725,4725,04fb0a48-7fd3-4f59-adcc-7be09c850cd0,,41230836000,41630436146,21,cb759ab0-cd6c-4a97-8035-8052239e4551,000,470120000000018,188523,0a786add-1dae-4fba-b70e-569c84cdb6ad,47,днп,2016-03-02,0000,,,2020-08-16,000,0000,000,0,0a034027-7f25-48a2-bf50-645772cb68b5,0018,,0
0,0a786add-1dae-4fba-b70e-569c84cdb6ad,04fb0a48-7fd3-4f59-adcc-7be09c850cd0,65,012,0,0,000,47012000000001800,0.0,2079-06-06,ТСН Лесная поляна,4725,4725,f04fb991-3ba3-4b8c-8657-3ff2f54bd2f7,,41230836000,41630436146,50,cb759ab0-cd6c-4a97-8035-8052239e4551,000,470120000000018,,df0035e4-9720-4d63-9b62-76a8f9b796a2,47,днп,2016-09-28,0000,,,2020-08-16,000,0000,000,0,,0018,,0
1,0a786add-1dae-4fba-b70e-569c84cdb6ad,f04fb991-3ba3-4b8c-8657-3ff2f54bd2f7,65,012,0,0,000,47012000000001800,0.0,2079-06-06,ТСН Лесная поляна,4725,4725,,,41230000094,41630436,20,cb759ab0-cd6c-4a97-8035-8052239e4551,000,470120000000018,,04fb0a48-7fd3-4f59-adcc-7be09c850cd0,47,днп,2020-08-14,0000,,,2020-08-16,000,0000,000,1,,0018,,0
0,db97cd3f-77b8-4257-a1d4-90d6aceaac3c,db97cd3f-77b8-4257-a1d4-90d6aceaac3c,90,012,0,0,000,47012000000004151,51.0,2016-09-28,Поместье Алексеевское,4725,4725,8aab0702-f5ab-493c-a5d8-87c77c927187,,41230836000,41630436136,10,cb759ab0-cd6c-4a97-8035-8052239e4551,000,470120000000041,188530,,47,днп,2016-05-04,0000,,,2020-08-16,000,0000,000,0,8ea0601f-2ee0-46a0-bbd2-5ee6928fd3d3,0000,,0
0,db97cd3f-77b8-4257-a1d4-90d6aceaac3c,8aab0702-f5ab-493c-a5d8-87c77c927187,65,012,0,0,000,47012000000004100,0.0,2079-06-06,Поместье Алексеевское,4725,4725,3a829a0c-f4b2-4ada-b994-832ba6784328,,41230836000,41630436136,50,cb759ab0-cd6c-4a97-8035-8052239e4551,000,470120000000041,188523,db97cd3f-77b8-4257-a1d4-90d6aceaac3c,47,днп,2016-09-28,0000,,,2020-08-16,000,0000,000,0,,0041,,0
1,db97cd3f-77b8-4257-a1d4-90d6aceaac3c,3a829a0c-f4b2-4ada-b994-832ba6784328,65,012,0,0,000,47012000000004100,0.0,2079-06-06,Поместье Алексеевское,4725,4725,,,41230000092,41630436,20,cb759ab0-cd6c-4a97-8035-8052239e4551,000,470120000000041,188523,8aab0702-f5ab-493c-a5d8-87c77c927187,47,днп,2020-08-14,0000,,,2020-08-16,000,0000,000,1,,0041,,0
0,667b1c22-fec3-4fa9-9b71-faccfe66c845,667b1c22-fec3-4fa9-9b71-faccfe66c845,7,012,0,0,000,47012000000033901,1.0,2017-06-24,Ломоносовская,4725,4725,c8d64e5d-1d49-4d8a-a639-4100c33a2a32,,41230836000,41630436,10,0e2d203d-42fd-44e5-9aa3-92b4767043e6,000,470120000000339,188523,,47,ул,2017-06-23,0339,,,2020-08-16,000,0000,000,0,da04d710-0e18-424a-9c05-d11d6176566a,0329,,0
0,667b1c22-fec3-4fa9-9b71-faccfe66c845,c8d64e5d-1d49-4d8a-a639-4100c33a2a32,7,012,0,0,000,47012000000033902,2.0,2018-03-28,Ломоносовская,4725,4725,b1d930ab-f78b-43cb-a723-ba3ee3bc3f21,,41230836000,41630436,31,0e2d203d-42fd-44e5-9aa3-92b4767043e6,000,470120000000339,188523,667b1c22-fec3-4fa9-9b71-faccfe66c845,47,ул,2017-06-24,0339,,,2020-08-16,000,0000,000,0,,0329,,0
0,667b1c22-fec3-4fa9-9b71-faccfe66c845,b1d930ab-f78b-43cb-a723-ba3ee3bc3f21,7,012,0,0,000,47012000000033903,3.0,2079-06-06,Ломоносовская,4725,4725,a784f09f-754e-4a67-a59c-4f69fd94f748,,41230836000,41630436,70,0e2d203d-42fd-44e5-9aa3-92b4767043e6,000,470120000000339,188523,c8d64e5d-1d49-4d8a-a639-4100c33a2a32,47,ул,2018-03-28,0339,,,2020-08-16,000,0000,000,0,,0329,,0
0,667b1c22-fec3-4fa9-9b71-faccfe66c845,a784f09f-754e-4a67-a59c-4f69fd94f748,7,012,0,0,000,47012000000033900,0.0,2020-08-14,Ломоносовская,4725,4725,3518b58b-9718-4c7f-a3dd-10bd7f0aa6ea,,41230836000,41630436,20,0e2d203d-42fd-44e5-9aa3-92b4767043e6,000,470120000000339,188523,b1d930ab-f78b-43cb-a723-ba3ee3bc3f21,47,ул,2018-03-29,0339,,,2020-08-16,000,0000,000,0,f11b4efe-7311-49e4-92f9-33d66e40af01,0329,,0
1,667b1c22-fec3-4fa9-9b71-faccfe66c845,3518b58b-9718-4c7f-a3dd-10bd7f0aa6ea,7,012,0,0,000,47012000000033900,0.0,2079-06-06,Ломоносовская,4725,4725,,,41230000092,41630436,20,0e2d203d-42fd-44e5-9aa3-92b4767043e6,000,470120000000339,188523,a784f09f-754e-4a67-a59c-4f69fd94f748,47,ул,2020-08-14,0339,,,2020-08-16,000,0000,000,1,,0329,,0
1,83cd3adc-e600-4270-9685-b5cca5d4801d,83cd3adc-e600-4270-9685-b5cca5d4801d,65,012,0,0,000,47012000124000100,0.0,2079-06-06,Заозерное,4725,4725,,,41230000041,41630420116,10,ed0e6434-cb24-4333-9a0b-8a2f05daf38d,124,470120001240001,188538,,47,тер. СНТ,2020-08-14,0000,,,2020-08-16,000,0000,000,1,,0001,,0
0,615423c3-fbdf-4a49-8d11-cbfe8360d5d8,615423c3-fbdf-4a49-8d11-cbfe8360d5d8,91,005,0,0,000,,,2016-09-28,4а,4703,4703,f229a4ec-6d1d-4680-98b4-3cf56307ac7a,,41212828000,41612428000,10,e243ebd8-0078-4cf7-b711-287120edaa54,000,,188662,,47,кв-л,2016-06-20,0000,,,2020-08-16,000,0000,000,0,10ab15dc-5e0a-4833-a586-95f146dbf8ec,0000,,0
0,615423c3-fbdf-4a49-8d11-cbfe8360d5d8,f229a4ec-6d1d-4680-98b4-3cf56307ac7a,7,005,0,0,000,47005000000012100,0.0,2079-06-06,4а,4703,4703,ec89eb51-0bd2-4d8d-93c1-c90ae3026a91,,41212828000,41612428000,51,e243ebd8-0078-4cf7-b711-287120edaa54,000,470050000000121,188662,615423c3-fbdf-4a49-8d11-cbfe8360d5d8,47,кв-л,2016-09-28,0121,,,2020-08-16,000,0000,000,0,,0032,,0
1,615423c3-fbdf-4a49-8d11-cbfe8360d5d8,ec89eb51-0bd2-4d8d-93c1-c90ae3026a91,7,005,0,0,000,47005000000012100,0.0,2079-06-06,4а,4703,4703,,,41212504000,41612103,21,e243ebd8-0078-4cf7-b711-287120edaa54,000,470050000000121,188662,f229a4ec-6d1d-4680-98b4-3cf56307ac7a,47,кв-л,2020-08-12,0121,,,2020-08-16,000,0000,000,1,,0032,,0
0,a3c22eb2-1cca-4121-8deb-e80dc74c5174,a3c22eb2-1cca-4121-8deb-e80dc74c5174,7,012,0,0,000,47012000000033501,1.0,2017-06-24,Центральная,4725,4725,532b4c24-0217-41dd-bc32-cd9c0f9eeecd,,41230836000,41630436,10,0e2d203d-42fd-44e5-9aa3-92b4767043e6,000,470120000000335,188523,,47,ул,2017-06-23,0335,,,2020-08-16,000,0000,000,0,b4bce6f0-9aa0-4cce-86c0-eaaf8d26e30c,0329,,0
0,a3c22eb2-1cca-4121-8deb-e80dc74c5174,532b4c24-0217-41dd-bc32-cd9c0f9eeecd,7,012,0,0,000,47012000000033502,2.0,2018-03-28,Центральная,4725,4725,2df2492f-cdc7-4331-93ad-7a1fb9de659f,,41230836000,41630436,31,0e2d203d-42fd-44e5-9aa3-92b4767043e6,000,470120000000335,188523,a3c22eb2-1cca-4121-8deb-e80dc74c5174,47,ул,2017-06-24,0335,,,2020-08-16,000,0000,000,0,,0329,,0
0,a3c22eb2-1cca-4121-8deb-e80dc74c5174,2df2492f-cdc7-4331-93ad-7a1fb9de659f,7,012,0,0,000,47012000000033503,3.0,2079-06-06,Центральная,4725,4725,2383fd65-6805-4582-9edf-f0fb9f119b7b,,41230836000,41630436,70,0e2d203d-42fd-44e5-9aa3-92b4767043e6,000,470120000000335,188523,532b4c24-0217-41dd-bc32-cd9c0f9eeecd,47,ул,2018-03-28,0335,,,2020-08-16,000,0000,000,0,,0329,,0
0,a3c22eb2-1cca-4121-8deb-e80dc74c5174,2383fd65-6805-4582-9edf-f0fb9f119b7b,7,012,0,0,000,47012000000033500,0.0,2020-08-14,Центральная,4725,4725,32b408c7-1593-4d4f-bb57-190b689e53cc,,41230836000,41630436,20,0e2d203d-42fd-44e5-9aa3-92b4767043e6,000,470120000000335,188523,2df2492f-cdc7-4331-93ad-7a1fb9de659f,47,ул,2018-03-29,0335,,,2020-08-16,000,0000,000,0,0a0ba016-4037-4cb7-9c28-425fad0fc8c9,0329,,0
1,a3c22eb2-1cca-4121-8deb-e80dc74c5174,32b408c7-1593-4d4f-bb57-190b689e53cc,7,012,0,0,000,47012000000033500,0.0,2079-06-06,Центральная,4725,4725,,,41230000092,41630436,20,0e2d203d-42fd-44e5-9aa3-92b4767043e6,000,470120000000335,188523,2383fd65-6805-4582-9edf-f0fb9f119b7b,47,ул,2020-08-14,0335,,,2020-08-16,000,0000,000,1,,0329,,0
0,66801172-ff79-4d7c-9321-ce59363b645b,66801172-ff79-4d7c-9321-ce59363b645b,7,005,0,0,000,47005000000069500,0.0,2079-06-06,Институтский,4703,4703,e03e27d6-ac8a-4133-93f5-b7a7837c1571,,41212828000,41612428,10,e243ebd8-0078-4cf7-b711-287120edaa54,000,470050000000695,,,47,пр-д,2018-07-12,0695,,,2020-08-16,000,0000,000,0,75b0b93c-74af-4b19-8fc8-38b8b119de2e,0032,,0
1,66801172-ff79-4d7c-9321-ce59363b645b,e03e27d6-ac8a-4133-93f5-b7a7837c1571,7,005,0,0,000,47005000000069500,0.0,2079-06-06,Институтский,4703,4703,,,41212504000,41612103,21,e243ebd8-0078-4cf7-b711-287120edaa54,000,470050000000695,,66801172-ff79-4d7c-9321-ce59363b645b,47,пр-д,2020-08-12,0695,,,2020-08-16,000,0000,000,1,,0032,,0
0,5e4625c7-196d-4cd0-a8d7-2882c3ab286b,5e4625c7-196d-4cd0-a8d7-2882c3ab286b,7,012,0,0,000,47012000000038200,0.0,2079-06-06,Славная,4725,4725,84687d12-32b7-4be4-9f06-64ebfc35ee99,,41230836000,41630436,10,7eb67f56-5da9-46e3-92d1-edaa8bc7eb5b,000,470120000000382,188523,,47,ул,2017-11-09,0382,,,2020-08-16,000,0000,000,0,19730708-fa08-49f3-8c7f-cb1bee4b4951,0378,,0
1,5e4625c7-196d-4cd0-a8d7-2882c3ab286b,84687d12-32b7-4be4-9f06-64ebfc35ee99,7,012,0,0,000,47012000000038200,0.0,2079-06-06,Славная,4725,4725,,,41230000096,41630436,20,7eb67f56-5da9-46e3-92d1-edaa8bc7eb5b,000,470120000000382,188523,5e4625c7-196d-4cd0-a8d7-2882c3ab286b,47,ул,2020-08-14,0382,,,2020-08-16,000,0000,000,1,,0378,,0
0,fe3f1e28-2789-49c0-9126-61d750b1ccd8,fe3f1e28-2789-49c0-9126-61d750b1ccd8,7,012,0,0,000,47012000000038100,0.0,2079-06-06,Угловая,4725,4725,224c989e-0def-457b-a03c-c99129f3beeb,,41230836000,41630436,10,7eb67f56-5da9-46e3-92d1-edaa8bc7eb5b,000,470120000000381,188523,,47,ул,2017-11-09,0381,,,2020-08-16,000,0000,000,0,19730708-fa08-49f3-8c7f-cb1bee4b4951,0378,,0
1,fe3f1e28-2789-49c0-9126-61d750b1ccd8,224c989e-0def-457b-a03c-c99129f3beeb,7,012,0,0,000,47012000000038100,0.0,2079-06-06,Угловая,4725,4725,,,41230000096,41630436,20,7eb67f56-5da9-46e3-92d1-edaa8bc7eb5b,000,470120000000381,188523,fe3f1e28-2789-49c0-9126-61d750b1ccd8,47,ул,2020-08-14,0381,,,2020-08-16,000,0000,000,1,,0378,,0
1,da455758-781e-4b36-bbfa-abdc28e330fd,da455758-781e-4b36-bbfa-abdc28e330fd,7,015,0,0,000,47015000000032500,0.0,2079-06-06,Липовая,4712,4712,,,41239000043,41639428,10,a9dfd815-1c23-49da-8621-1e280692d748,000,470150000000325,188765,,47,ул,2020-08-12,0325,,,2020-08-16,000,0000,000,1,,0285,,0
1,6c850981-7a9f-4528-a9ec-8a4a14a998e6,6c850981-7a9f-4528-a9ec-8a4a14a998e6,65,015,0,0,000,47015000000033000,0.0,2079-06-06,Петровское,4712,4712,,,41239000052,41639440,10,b435ee4b-d67c-4fa9-b2e6-209edbb133f8,000,470150000000330,,,47,зона,2020-08-17,0000,,,2020-08-17,000,0000,000,1,,0330,,0
1,8665159e-696a-47d5-8819-e55d39dba3f9,8665159e-696a-47d5-8819-e55d39dba3f9,7,007,0,0,000,47007000204001300,0.0,2079-06-06,Лесная,4705,4705,,,41218000166,41618448206,10,c5716a3a-419b-4a49-a6c5-75e46c2687a2,204,470070002040013,188351,,47,ул,2020-08-17,0013,,,2020-08-17,000,0000,000,1,,0000,,0
1,1d9088c7-d33b-4a5f-bbaf-f2240a2d116e,1d9088c7-d33b-4a5f-bbaf-f2240a2d116e,7,018,0,0,000,47018000013009900,0.0,2079-06-06,3-я Удачная,4716,4716,,,41248567000,41648165051,10,ee598bbe-20c2-46f3-9e1a-13cfef927346,013,470180000130099,187021,,47,ул,2020-08-19,0099,,,2020-08-20,000,0000,000,1,,0000,,0
1,efd2ebe9-6168-45cc-bf4a-05c31f9b2452,efd2ebe9-6168-45cc-bf4a-05c31f9b2452,7,018,0,0,000,47018000013009700,0.0,2079-06-06,2-я Удачная,4716,4716,,,41248567000,41648165051,10,ee598bbe-20c2-46f3-9e1a-13cfef927346,013,470180000130097,187021,,47,ул,2020-08-19,0097,,,2020-08-20,000,0000,000,1,,0000,,0
1,076f36e7-82ff-4921-94b9-ef639575ed55,076f36e7-82ff-4921-94b9-ef639575ed55,7,018,0,0,000,47018000013009600,0.0,2079-06-06,Школьный,4716,4716,,,41248567000,41648165051,10,ee598bbe-20c2-46f3-9e1a-13cfef927346,013,470180000130096,187021,,47,пр-д,2020-08-18,0096,,,2020-08-20,000,0000,000,1,,0000,,0
0,2752293f-c375-4b5d-bc5d-ca25009d5845,2752293f-c375-4b5d-bc5d-ca25009d5845,6,007,0,0,010,4700701000151,51.0,2019-12-20,Новые Черницы,4705,4705,3c822453-1970-42c1-b0de-92ae0c9c801a,,41000000000,41618408,10,b982ed2d-c26c-47d0-a8d7-4ff397ebc28e,001,47007010001,188349,,47,снт,2001-10-25,0000,,,2020-08-20,000,0000,000,0,,0000,,0
0,2752293f-c375-4b5d-bc5d-ca25009d5845,3c822453-1970-42c1-b0de-92ae0c9c801a,65,007,0,0,000,47007000000020399,99.0,2020-08-19,Новые Черницы,4705,4705,3c2519df-b090-489a-b633-e19b5b3172e2,,41218808000,41618408,50,2252f46b-5281-436a-9b02-5a22cc0b2d63,000,470070000000203,188349,2752293f-c375-4b5d-bc5d-ca25009d5845,47,тер. СНТ,2019-12-20,0000,,,2020-08-20,000,0000,000,0,b64562fa-ea46-4e68-b661-28302af4542c,0203,,0
1,2752293f-c375-4b5d-bc5d-ca25009d5845,3c2519df-b090-489a-b633-e19b5b3172e2,65,007,0,0,000,47007000000020399,99.0,2079-06-06,Новые Черницы,4705,4705,,,41218808000,41618408,30,2252f46b-5281-436a-9b02-5a22cc0b2d63,000,470070000000203,188349,3c822453-1970-42c1-b0de-92ae0c9c801a,47,тер. СНТ,2020-08-19,0000,,,2020-08-20,000,0000,000,0,,0203,,0
0,bb50f0f9-e9e1-4d13-84b3-e3669c9fce9a,bb50f0f9-e9e1-4d13-84b3-e3669c9fce9a,6,007,0,0,014,4700701401501,1.0,2018-08-03,Дача,4705,4705,647bf60d-8ec4-4d7e-a68f-4f71a90ca886,,41218576000,41618416,10,a644ddd1-913c-41a7-88f2-98d7329ec923,015,47007014015,188354,,47,снт,1998-03-18,0000,,,2020-08-20,000,0000,000,0,,0000,,0
0,bb50f0f9-e9e1-4d13-84b3-e3669c9fce9a,647bf60d-8ec4-4d7e-a68f-4f71a90ca886,6,007,0,0,000,4700701401502,2.0,2018-08-03,Дача,4705,4705,4e7a3446-aba9-4400-bb05-f6916699676f,,41218576000,41618176,20,2252f46b-5281-436a-9b02-5a22cc0b2d63,000,47007014015,188340,bb50f0f9-e9e1-4d13-84b3-e3669c9fce9a,47,снт,1998-03-18,0000,,,2020-08-20,000,0000,000,0,,0093,,0
0,bb50f0f9-e9e1-4d13-84b3-e3669c9fce9a,4e7a3446-aba9-4400-bb05-f6916699676f,6,007,0,0,000,4700701401551,51.0,2020-06-29,Дача,4705,4705,e8d52be2-2737-4eb7-8694-984e97ff0d9a,,41218576000,41618176051,21,2252f46b-5281-436a-9b02-5a22cc0b2d63,000,47007014015,188340,647bf60d-8ec4-4d7e-a68f-4f71a90ca886,47,снт,2014-03-19,0000,,,2020-08-20,000,0000,000,0,,0093,,0
0,bb50f0f9-e9e1-4d13-84b3-e3669c9fce9a,e8d52be2-2737-4eb7-8694-984e97ff0d9a,65,007,0,0,000,47007000000009300,0.0,2079-06-06,Дача,4705,4705,7399a71d-864a-4652-a883-de742dc2e3a1,,41218576000,41618176051,50,2252f46b-5281-436a-9b02-5a22cc0b2d63,000,470070000000093,,4e7a3446-aba9-4400-bb05-f6916699676f,47,тер. СНТ,2018-08-03,0000,,,2020-08-20,000,0000,000,0,f95a32ee-0805-4ca0-b325-e2a6220f5f26,0093,,0
0,bb50f0f9-e9e1-4d13-84b3-e3669c9fce9a,7399a71d-864a-4652-a883-de742dc2e3a1,65,007,0,0,000,47007000000009300,0.0,2020-08-19,Дача,4705,4705,cac2c45f-580a-4bdd-9e20-2ece29b1fa23,,41218000036,41618416191,21,2252f46b-5281-436a-9b02-5a22cc0b2d63,000,470070000000093,,e8d52be2-2737-4eb7-8694-984e97ff0d9a,47,тер. СНТ,2020-06-29,0000,,,2020-08-20,000,0000,000,0,538a51a8-8999-4d4d-a926-337b136daa75,0093,,0
1,bb50f0f9-e9e1-4d13-84b3-e3669c9fce9a,cac2c45f-580a-4bdd-9e20-2ece29b1fa23,65,007,0,0,000,47007000000009300,0.0,2079-06-06,Дача,4705,4705,,,41218576000,41618176051,21,2252f46b-5281-436a-9b02-5a22cc0b2d63,000,470070000000093,,7399a71d-864a-4652-a883-de742dc2e3a1,47,тер. СНТ,2020-08-19,0000,,,2020-08-20,000,0000,000,1,,0093,,0
1,942f3103-2469-4e82-a9ee-e1a816f0009d,942f3103-2469-4e82-a9ee-e1a816f0009d,65,015,0,0,000,47015000568002300,0.0,2079-06-06,Красный треугольник,4712,4712,,,41239000049,41639440106,10,6bd08ca3-f92e-4ebe-9399-92f21baa5c6d,568,470150005680023,188732,,47,зона,2020-08-19,0000,,,2020-08-20,000,0000,000,1,,0023,,0
1,42e3f1bb-3a82-4f33-b97b-37056eb73d93,42e3f1bb-3a82-4f33-b97b-37056eb73d93,7,018,0,0,000,47018000013009800,0.0,2079-06-06,1-я Удачная,4716,4716,,,41248567000,41648165051,10,ee598bbe-20c2-46f3-9e1a-13cfef927346,013,470180000130098,187021,,47,ул,2020-08-19,0098,,,2020-08-20,000,0000,000,1,,0000,,0
1,1a69720a-b36d-4c0b-83cd-44fedea236cf,1a69720a-b36d-4c0b-83cd-44fedea236cf,7,018,0,0,000,47018000013010100,0.0,2079-06-06,5-я Удачная,4716,4716,,,41248567000,41648165051,10,ee598bbe-20c2-46f3-9e1a-13cfef927346,013,470180000130101,187021,,47,ул,2020-08-19,0101,,,2020-08-20,000,0000,000,1,,0000,,0
1,2b8a134a-9ec4-4d65-8f02-3ab71ce4ae51,2b8a134a-9ec4-4d65-8f02-3ab71ce4ae51,7,018,0,0,000,47018000013010000,0.0,2079-06-06,4-я Удачная,4716,4716,,,41248567000,41648165051,10,ee598bbe-20c2-46f3-9e1a-13cfef927346,013,470180000130100,187021,,47,ул,2020-08-19,0100,,,2020-08-20,000,0000,000,1,,0000,,0
1,a1871918-3215-4efe-ac4c-a2b9273cc2f5,a1871918-3215-4efe-ac4c-a2b9273cc2f5,7,007,0,0,000,47007000189002200,0.0,2079-06-06,Светлая,4705,4705,,,41218000183,41618452101,10,88f6c6e7-bff4-468d-adb0-00200e48e3a8,189,470070001890022,188356,,47,ул,2020-08-19,0022,,,2020-08-20,000,0000,000,1,,0021,,0
1,88f6c6e7-bff4-468d-adb0-00200e48e3a8,88f6c6e7-bff4-468d-adb0-00200e48e3a8,65,007,0,0,000,47007000189002100,0.0,2079-06-06,ДНП Рождествено,4705,4705,,,41218000183,41618452101,10,7a35988c-fc95-4d95-9d15-dad2b660b863,189,470070001890021,188356,,47,тер.,2020-08-19,0000,,,2020-08-20,000,0000,000,1,,0021,,0
1,123f992f-8e23-4297-9b5d-bf8b2adedb25,123f992f-8e23-4297-9b5d-bf8b2adedb25,7,012,0,0,000,47012000000228900,0.0,2079-06-06,8-й,4725,4725,,,41230000130,41630412,10,2d99f6f9-a732-492d-b4c9-aa1a23a79345,000,470120000002289,,,47,пр-д,2020-08-20,2289,,,2020-08-22,000,0000,000,1,,0437,,0
1,4f553f3d-9e55-404a-960c-4966fb1d4228,4f553f3d-9e55-404a-960c-4966fb1d4228,7,012,0,0,000,47012000000229100,0.0,2079-06-06,10-й,4725,4725,,,41230000130,41630412,10,2d99f6f9-a732-492d-b4c9-aa1a23a79345,000,470120000002291,,,47,пр-д,2020-08-20,2291,,,2020-08-22,000,0000,000,1,,0437,,0
1,fdf5d203-3ed6-49cb-b9a7-687e9eac9155,fdf5d203-3ed6-49cb-b9a7-687e9eac9155,7,012,0,0,000,47012000000229200,0.0,2079-06-06,Центральная,4725,4725,,,41230000130,41630412,10,2d99f6f9-a732-492d-b4c9-aa1a23a79345,000,470120000002292,,,47,ул,2020-08-20,2292,,,2020-08-22,000,0000,000,1,,0437,,0
1,3f203329-bc35-45c4-b73e-e6ca0d90793e,3f203329-bc35-45c4-b73e-e6ca0d90793e,7,012,0,0,000,47012000000228300,0.0,2079-06-06,2-й,4725,4725,,,41230000130,41630412,10,2d99f6f9-a732-492d-b4c9-aa1a23a79345,000,470120000002283,,,47,пр-д,2020-08-20,2283,,,2020-08-22,000,0000,000,1,,0437,,0
1,9311d777-6945-4656-9157-13e9cb1fbce7,9311d777-6945-4656-9157-13e9cb1fbce7,7,012,0,0,000,47012000000228400,0.0,2079-06-06,3-й,4725,4725,,,41230000130,41630412,10,2d99f6f9-a732-492d-b4c9-aa1a23a79345,000,470120000002284,,,47,пр-д,2020-08-20,2284,,,2020-08-22,000,0000,000,1,,0437,,0
1,46992f94-15ef-4777-946e-0b852e93e6fb,46992f94-15ef-4777-946e-0b852e93e6fb,7,012,0,0,000,47012000000228500,0.0,2079-06-06,4-й,4725,4725,,,41230000130,41630412,10,2d99f6f9-a732-492d-b4c9-aa1a23a79345,000,470120000002285,,,47,пр-д,2020-08-20,2285,,,2020-08-22,000,0000,000,1,,0437,,0
1,aba804f3-22e8-4f12-94fe-7cf559392b2a,aba804f3-22e8-4f12-94fe-7cf559392b2a,7,012,0,0,000,47012000000228600,0.0,2079-06-06,5-й,4725,4725,,,41230000130,41630412,10,2d99f6f9-a732-492d-b4c9-aa1a23a79345,000,470120000002286,,,47,пр-д,2020-08-20,2286,,,2020-08-22,000,0000,000,1,,0437,,0
1,0cc18531-bb6f-4c51-b5f4-7f984726b090,0cc18531-bb6f-4c51-b5f4-7f984726b090,7,012,0,0,000,47012000000228800,0.0,2079-06-06,7-й,4725,4725,,,41230000130,41630412,10,2d99f6f9-a732-492d-b4c9-aa1a23a79345,000,470120000002288,,,47,пр-д,2020-08-20,2288,,,2020-08-22,000,0000,000,1,,0437,,0
1,03723abc-096b-4f5c-8c9f-5627fce47a69,03723abc-096b-4f5c-8c9f-5627fce47a69,7,012,0,0,000,47012000000228700,0.0,2079-06-06,6-й,4725,4725,,,41230000130,41630412,10,2d99f6f9-a732-492d-b4c9-aa1a23a79345,000,470120000002287,,,47,пр-д,2020-08-20,2287,,,2020-08-22,000,0000,000,1,,0437,,0
1,347960da-44f6-46d4-9fbb-c1c9e443ae00,347960da-44f6-46d4-9fbb-c1c9e443ae00,7,012,0,0,000,47012000000229000,0.0,2079-06-06,9-й,4725,4725,,,41230000130,41630412,10,2d99f6f9-a732-492d-b4c9-aa1a23a79345,000,470120000002290,,,47,пр-д,2020-08-20,2290,,,2020-08-22,000,0000,000,1,,0437,,0
1,08c636bf-9ab5-4228-ad5e-96417503e5ab,08c636bf-9ab5-4228-ad5e-96417503e5ab,7,012,0,0,000,47012000000228200,0.0,2079-06-06,1-й,4725,4725,,,41230000130,41630412,10,2d99f6f9-a732-492d-b4c9-aa1a23a79345,000,470120000002282,,,47,пр-д,2020-08-20,2282,,,2020-08-22,000,0000,000,1,,0437,,0
0,e91e9d95-2537-4767-be77-cbb9f39b5d1c,e91e9d95-2537-4767-be77-cbb9f39b5d1c,7,012,0,0,000,47012000374000300,0.0,2079-06-06,Десантника Вадима Чугунова,4725,4725,73366b0e-3174-4818-8090-0020f11398b1,,41230559000,41630157000,10,d0433df5-fa04-4c32-8baa-52739c09f235,374,470120003740003,188508,,47,б-р,2020-02-11,0003,,,2020-08-27,000,0000,000,0,,0000,,0
0,e91e9d95-2537-4767-be77-cbb9f39b5d1c,73366b0e-3174-4818-8090-0020f11398b1,7,012,0,0,000,47012000374000300,0.0,2079-06-06,Десантника Вадима Чугунова,4725,4725,0e623cd0-1225-4f48-9526-322818638703,,41230559000,41630157000,21,d0433df5-fa04-4c32-8baa-52739c09f235,374,470120003740003,188508,e91e9d95-2537-4767-be77-cbb9f39b5d1c,47,б-р,2020-04-23,0003,,,2020-08-27,000,0000,000,0,,0000,,0
0,e91e9d95-2537-4767-be77-cbb9f39b5d1c,0e623cd0-1225-4f48-9526-322818638703,7,012,0,0,000,47012000374000300,0.0,2079-06-06,Десантника Вадима Чугунова,4725,4725,7d4b08e0-5b3a-4915-bc71-f9f7461f6acc,,41230000024,41630157000,21,d0433df5-fa04-4c32-8baa-52739c09f235,374,470120003740003,188508,73366b0e-3174-4818-8090-0020f11398b1,47,б-р,2020-06-26,0003,,,2020-08-27,000,0000,000,0,,0000,,0
1,e91e9d95-2537-4767-be77-cbb9f39b5d1c,7d4b08e0-5b3a-4915-bc71-f9f7461f6acc,7,012,0,0,000,47012000374000300,0.0,2079-06-06,Десантника Вадима Чугунова,4725,4725,,,41230000024,41630157141,21,d0433df5-fa04-4c32-8baa-52739c09f235,374,470120003740003,188508,0e623cd0-1225-4f48-9526-322818638703,47,б-р,2020-08-25,0003,,,2020-08-27,000,0000,000,1,,0000,,0
1,c1a7be47-9d8f-48e8-b170-47543868e770,c1a7be47-9d8f-48e8-b170-47543868e770,7,015,0,0,000,47015000603005900,0.0,2079-06-06,Веселая,4712,4712,,,41239000028,41639424111,10,8f9dd945-11e7-4cc6-95f4-d1813f13c387,603,470150006030059,188760,,47,ул,2020-08-26,0059,,,2020-08-27,000,0000,000,1,,0015,,0
0,445a1b93-405b-4136-9d14-b60d497338d2,fe62cc4b-908f-4eff-bdbb-68dc455989c9,7,000,0,0,004,47000004000000901,1.0,2079-06-06,Копорское,4725,4725,412648aa-b1f6-4b04-89d4-a84b6f454ca2,,41454000000,41754000,1,f4a4b31f-9f0a-4fdb-804c-d67661085eb4,000,470000040000009,188544,,47,ш,1900-01-01,0009,,,2020-08-27,000,0000,000,0,,0000,,0
0,445a1b93-405b-4136-9d14-b60d497338d2,412648aa-b1f6-4b04-89d4-a84b6f454ca2,7,000,0,0,004,47000004000000902,2.0,2012-04-11,Копорское,4726,4726,8fe4c837-bacc-45e3-89ce-ca3f845b98bb,,41454000000,41754000,21,f4a4b31f-9f0a-4fdb-804c-d67661085eb4,000,470000040000009,188544,fe62cc4b-908f-4eff-bdbb-68dc455989c9,47,ш,2012-04-11,0009,,,2020-08-27,000,0000,000,0,60223bfd-32e2-41eb-9644-6991020881a5,0000,,0
0,445a1b93-405b-4136-9d14-b60d497338d2,8fe4c837-bacc-45e3-89ce-ca3f845b98bb,7,000,0,0,004,47000004000000903,3.0,2013-01-01,Копорское,,,78a24979-f8ef-49cc-8298-cd29d7dacac1,,41454000000,41754000,20,f4a4b31f-9f0a-4fdb-804c-d67661085eb4,000,470000040000009,188541,412648aa-b1f6-4b04-89d4-a84b6f454ca2,47,ш,2012-04-11,0009,,,2020-08-27,000,0000,000,0,,0000,,0
0,445a1b93-405b-4136-9d14-b60d497338d2,78a24979-f8ef-49cc-8298-cd29d7dacac1,7,000,0,0,004,47000004000000900,0.0,2079-06-06,Копорское,,,f53036fa-4c8c-43f1-a294-509bc2da0830,,41454000000,41754000,20,f4a4b31f-9f0a-4fdb-804c-d67661085eb4,000,470000040000009,,8fe4c837-bacc-45e3-89ce-ca3f845b98bb,47,ш,2013-01-01,0009,,,2020-08-27,000,0000,000,0,15e7366e-ca53-4997-9458-8e8ffc57bb54,0000,,0
1,445a1b93-405b-4136-9d14-b60d497338d2,f53036fa-4c8c-43f1-a294-509bc2da0830,7,000,0,0,004,47000004000000900,0.0,2079-06-06,Копорское,4726,4726,,,41454000000,41754000,21,f4a4b31f-9f0a-4fdb-804c-d67661085eb4,000,470000040000009,,78a24979-f8ef-49cc-8298-cd29d7dacac1,47,ш,2020-08-25,0009,,,2020-08-27,000,0000,000,1,,0000,,0
1,e7ecb791-8502-4835-bb5f-a698a6db7977,e7ecb791-8502-4835-bb5f-a698a6db7977,7,015,0,0,000,47015000603005600,0.0,2079-06-06,Дружная,4712,4712,,,41239000028,41639424111,10,8f9dd945-11e7-4cc6-95f4-d1813f13c387,603,470150006030056,188760,,47,ул,2020-08-26,0056,,,2020-08-27,000,0000,000,1,,0015,,0
1,3df7d692-75b1-40a7-b618-a9404d859215,3df7d692-75b1-40a7-b618-a9404d859215,65,007,0,0,000,47007000020001100,0.0,2079-06-06,Промзона Большие Тайцы,4705,4705,,,41218000226,41618176116,10,3dcca684-c9e6-4d58-9982-2f5ccf461568,020,470070000200011,188340,,47,тер.,2020-08-24,0000,,,2020-08-27,000,0000,000,1,,0011,,0
1,32fb8a78-9dd9-43c8-979e-10005e59a719,32fb8a78-9dd9-43c8-979e-10005e59a719,7,015,0,0,000,47015000603005800,0.0,2079-06-06,Озерная,4712,4712,,,41239000028,41639424111,10,8f9dd945-11e7-4cc6-95f4-d1813f13c387,603,470150006030058,188760,,47,ул,2020-08-26,0058,,,2020-08-27,000,0000,000,1,,0015,,0
1,e823d88d-1d79-4d5f-bf61-3f47ce239541,e823d88d-1d79-4d5f-bf61-3f47ce239541,7,015,0,0,000,47015000603005700,0.0,2079-06-06,Центральная,4712,4712,,,41239000028,41639424111,10,8f9dd945-11e7-4cc6-95f4-d1813f13c387,603,470150006030057,188760,,47,ул,2020-08-26,0057,,,2020-08-27,000,0000,000,1,,0015,,0
1,a4e1c354-83d0-49b6-8607-2d298efbff14,a4e1c354-83d0-49b6-8607-2d298efbff14,7,012,0,0,000,47012000109000600,0.0,2079-06-06,Молодежная,4725,4725,,,41230000053,41630428141,10,b37fd38a-0a36-48eb-adc3-8f442af6a014,109,470120001090006,188538,,47,ул,2020-08-25,0006,,,2020-08-27,000,0000,000,1,,0000,,0
0,794549a8-4cb8-4340-b294-db50abfbe31f,794549a8-4cb8-4340-b294-db50abfbe31f,90,000,0,0,004,47000004000031901,1.0,2003-04-04,Ветеран,4726,4726,a026a87c-c842-4efc-9ed0-ed9427e5b898,,41454000000,41754000,10,f4a4b31f-9f0a-4fdb-804c-d67661085eb4,000,470000040000319,188480,,47,снт,2003-04-03,0000,,,2020-08-27,000,0000,000,0,,0000,,0
0,794549a8-4cb8-4340-b294-db50abfbe31f,a026a87c-c842-4efc-9ed0-ed9427e5b898,90,000,0,0,004,47000004000031951,51.0,2016-09-28,Ветеран,4726,4726,ebe3e55d-6ec4-4836-afd4-342e474e4df2,,41454000000,41754000,20,f4a4b31f-9f0a-4fdb-804c-d67661085eb4,000,470000040000319,188480,794549a8-4cb8-4340-b294-db50abfbe31f,47,тер,2003-04-04,0000,,,2020-08-27,000,0000,000,0,a295f860-aa59-4095-ae2e-7d5e0ac3e4af,0319,,0
0,794549a8-4cb8-4340-b294-db50abfbe31f,ebe3e55d-6ec4-4836-afd4-342e474e4df2,65,000,0,0,004,47000004000031902,2.0,2020-08-24,Ветеран,4726,4726,8d94bfc3-6679-47d3-9f79-3c19f713be75,,41454000000,41754000,50,f4a4b31f-9f0a-4fdb-804c-d67661085eb4,000,470000040000319,188480,a026a87c-c842-4efc-9ed0-ed9427e5b898,47,тер,2016-09-28,0000,,,2020-08-27,000,0000,000,0,,0319,,0
1,794549a8-4cb8-4340-b294-db50abfbe31f,8d94bfc3-6679-47d3-9f79-3c19f713be75,65,000,0,0,004,47000004000031900,0.0,2079-06-06,ДНТ Ветеран,4726,4726,,,41454000000,41754000001,20,f4a4b31f-9f0a-4fdb-804c-d67661085eb4,000,470000040000319,188480,ebe3e55d-6ec4-4836-afd4-342e474e4df2,47,тер,2020-08-24,0000,,,2020-08-27,000,0000,000,1,,0319,,0
0,9f49b14d-a76a-4c4b-b8a2-f31bf25ee0f8,9f49b14d-a76a-4c4b-b8a2-f31bf25ee0f8,90,000,0,0,004,47000004000033201,1.0,2011-04-19,Заозерное,4726,4726,fe718dc4-6497-4605-89d9-b6f42ffc514e,,41454000000,41754000,10,f4a4b31f-9f0a-4fdb-804c-d67661085eb4,000,470000040000332,188480,,47,снт,2011-04-18,0000,,,2020-08-27,000,0000,000,0,,0000,,0
0,9f49b14d-a76a-4c4b-b8a2-f31bf25ee0f8,fe718dc4-6497-4605-89d9-b6f42ffc514e,90,000,0,0,004,47000004000033251,51.0,2016-09-29,Заозерное,4726,4726,a8f38f61-f09f-4f78-9537-b17a4952aef8,,41454000000,41754000,20,f4a4b31f-9f0a-4fdb-804c-d67661085eb4,000,470000040000332,188480,9f49b14d-a76a-4c4b-b8a2-f31bf25ee0f8,47,тер,2011-04-19,0000,,,2020-08-27,000,0000,000,0,bd3fc515-9804-4a56-b834-f51b088bc23a,0332,,0
0,9f49b14d-a76a-4c4b-b8a2-f31bf25ee0f8,a8f38f61-f09f-4f78-9537-b17a4952aef8,65,000,0,0,004,47000004000033202,2.0,2020-08-24,Заозерное,4726,4726,6313623a-053f-49b2-95c0-fc92a3ef0651,,41454000000,41754000,50,f4a4b31f-9f0a-4fdb-804c-d67661085eb4,000,470000040000332,188480,fe718dc4-6497-4605-89d9-b6f42ffc514e,47,тер,2016-09-29,0000,,,2020-08-27,000,0000,000,0,,0332,,0
1,9f49b14d-a76a-4c4b-b8a2-f31bf25ee0f8,6313623a-053f-49b2-95c0-fc92a3ef0651,65,000,0,0,004,47000004000033200,0.0,2079-06-06,ДНТ Заозерное,4726,4726,,,41454000000,41754000001,20,f4a4b31f-9f0a-4fdb-804c-d67661085eb4,000,470000040000332,188480,a8f38f61-f09f-4f78-9537-b17a4952aef8,47,тер,2020-08-24,0000,,,2020-08-27,000,0000,000,1,,0332,,0
1,2e203123-98f4-4df4-bb69-ee0afe6270e3,2e203123-98f4-4df4-bb69-ee0afe6270e3,7,011,0,0,000,47011000506000800,0.0,2079-06-06,Песочный,4711,4711,,,41227000104,41627101111,10,707951a7-9cc6-4e68-8fac-ff77ff3ac590,506,470110005060008,187731,,47,пер,2020-08-25,0008,,,2020-08-27,000,0000,000,1,,0000,,0
0,36fa2916-b950-4ccf-a6e9-be8bb7747ffe,36fa2916-b950-4ccf-a6e9-be8bb7747ffe,90,000,0,0,004,47000004000032301,1.0,2009-01-22,Солнечное,4726,4726,1665bf77-1e87-4eca-9dfa-2a2f6cc7ce81,,41454000000,41754000,10,f4a4b31f-9f0a-4fdb-804c-d67661085eb4,000,470000040000323,188540,,47,снт,2009-01-21,0000,,,2020-08-27,000,0000,000,0,,0000,,0
0,36fa2916-b950-4ccf-a6e9-be8bb7747ffe,1665bf77-1e87-4eca-9dfa-2a2f6cc7ce81,90,000,0,0,004,47000004000032351,51.0,2016-09-28,Солнечное,4726,4726,9755643d-bda5-4871-a414-59978fa7e153,,41454000000,41754000,20,f4a4b31f-9f0a-4fdb-804c-d67661085eb4,000,470000040000323,188540,36fa2916-b950-4ccf-a6e9-be8bb7747ffe,47,тер,2009-01-22,0000,,,2020-08-27,000,0000,000,0,9280a28a-5a56-4a21-ad43-203f0de2e5e3,0323,,0
0,36fa2916-b950-4ccf-a6e9-be8bb7747ffe,9755643d-bda5-4871-a414-59978fa7e153,65,000,0,0,004,47000004000032302,2.0,2020-08-24,Солнечное,4726,4726,8d3f02ca-7b9c-45b6-a0d3-e3b581d9058e,,41454000000,41754000,50,f4a4b31f-9f0a-4fdb-804c-d67661085eb4,000,470000040000323,188540,1665bf77-1e87-4eca-9dfa-2a2f6cc7ce81,47,тер,2016-09-28,0000,,,2020-08-27,000,0000,000,0,,0323,,0
1,36fa2916-b950-4ccf-a6e9-be8bb7747ffe,8d3f02ca-7b9c-45b6-a0d3-e3b581d9058e,65,000,0,0,004,47000004000032300,0.0,2079-06-06,ДНТ Солнечное,4726,4726,,,41454000000,41754000001,20,f4a4b31f-9f0a-4fdb-804c-d67661085eb4,000,470000040000323,188540,9755643d-bda5-4871-a414-59978fa7e153,47,тер,2020-08-24,0000,,,2020-08-27,000,0000,000,1,,0323,,0
1,d0c0038c-ba60-40e9-955e-c7ddc29d7ecb,d0c0038c-ba60-40e9-955e-c7ddc29d7ecb,65,012,0,0,000,47012000000229300,0.0,2079-06-06,ССК Русское Оружие,4725,4725,,,41230559000,41630157,10,cb759ab0-cd6c-4a97-8035-8052239e4551,000,470120000002293,,,47,тер,2020-08-25,0000,,,2020-08-27,000,0000,000,1,,2293,,0
1,a32e3740-4de5-43c8-b600-0f85d582dee8,a32e3740-4de5-43c8-b600-0f85d582dee8,7,012,0,0,000,47012000007004000,0.0,2079-06-06,Сиреневая,4725,4725,,,41230000038,41630420101,10,5560a73c-3f13-4c34-b74e-a9e6cfac0663,007,470120000070040,188520,,47,ул,2020-08-24,0040,,,2020-08-27,000,0000,000,1,,0065,,0
1,f966214a-2626-4324-bba1-b71f35bebd92,f966214a-2626-4324-bba1-b71f35bebd92,7,015,0,0,000,47015000603006000,0.0,2079-06-06,Вишневая,4712,4712,,,41239000028,41639424111,10,8f9dd945-11e7-4cc6-95f4-d1813f13c387,603,470150006030060,188760,,47,ул,2020-08-26,0060,,,2020-08-27,000,0000,000,1,,0015,,0
0,4ba3a087-a8b2-4765-9dfa-8684dd4f5d58,4ba3a087-a8b2-4765-9dfa-8684dd4f5d58,7,012,0,0,000,47012000374000400,0.0,2079-06-06,Промышленная,4725,4725,56ee36be-84b5-4b93-a320-3421296c2e52,,41230559000,41630157000,10,d0433df5-fa04-4c32-8baa-52739c09f235,374,470120003740004,188508,,47,ул,2020-02-11,0004,,,2020-08-27,000,0000,000,0,,0000,,0
0,4ba3a087-a8b2-4765-9dfa-8684dd4f5d58,56ee36be-84b5-4b93-a320-3421296c2e52,7,012,0,0,000,47012000374000400,0.0,2079-06-06,Промышленная,4725,4725,e7c4fcd0-89f2-4ea9-ba66-e10143e2fc6c,,41230559000,41630157000,21,d0433df5-fa04-4c32-8baa-52739c09f235,374,470120003740004,188508,4ba3a087-a8b2-4765-9dfa-8684dd4f5d58,47,ул,2020-04-23,0004,,,2020-08-27,000,0000,000,0,,0000,,0
0,4ba3a087-a8b2-4765-9dfa-8684dd4f5d58,e7c4fcd0-89f2-4ea9-ba66-e10143e2fc6c,7,012,0,0,000,47012000374000400,0.0,2079-06-06,Промышленная,4725,4725,17fe72ad-a7cd-40ff-a87c-a3f270267fd1,,41230000024,41630157000,21,d0433df5-fa04-4c32-8baa-52739c09f235,374,470120003740004,188508,56ee36be-84b5-4b93-a320-3421296c2e52,47,ул,2020-06-26,0004,,,2020-08-27,000,0000,000,0,,0000,,0
1,4ba3a087-a8b2-4765-9dfa-8684dd4f5d58,17fe72ad-a7cd-40ff-a87c-a3f270267fd1,7,012,0,0,000,47012000374000400,0.0,2079-06-06,Промышленная,4725,4725,,,41230000024,41630157141,21,d0433df5-fa04-4c32-8baa-52739c09f235,374,470120003740004,188508,e7c4fcd0-89f2-4ea9-ba66-e10143e2fc6c,47,ул,2020-08-25,0004,,,2020-08-27,000,0000,000,1,,0000,,0
1,fb51a8f9-daae-41ca-b1d2-04630cc25c8d,fb51a8f9-daae-41ca-b1d2-04630cc25c8d,7,015,0,0,000,47015000575000700,0.0,2079-06-06,Ландышевая,4712,4712,,,41239000025,41639420121,10,592fb7d2-60a4-4423-8a8b-703ceea30d2f,575,470150005750007,,,47,ул,2020-08-24,0007,,,2020-08-27,000,0000,000,1,,0000,,0
