ACTSTATUS,AOGUID,AOID,AOLEVEL,AREACODE,AUTOCODE,CENTSTATUS,CITYCODE,CODE,CURRSTATUS,ENDDATE,FORMALNAME,IFNSFL,IFNSUL,NEXTID,OFFNAME,OKATO,OKTMO,OPERSTATUS,PARENTGUID,PLACECODE,PLAINCODE,POSTALCODE,PREVID,REGIONCODE,SHORTNAME,STARTDATE,STREETCODE,TERRIFNSFL,TERRIFNSUL,UPDATEDATE,CTARCODE,EXTRCODE,SEXTCODE,LIVESTATUS,NORMDOC,PLANCODE,CADNUM,DIVTYPE
1,b16520c7-3907-4992-a867-771a058be1ff,4824a6c5-3ad8-4615-83b1-1dc64d5717ba,7,000,0,0,016,51000016000000100,0.0,2079-06-06,60 лет СССР,5108,5108,,,47417000000,47717000001,21,defed7b3-d1f0-4dbb-baa8-03bdaffa2b18,000,510000160000001,184532,a8145b63-202d-4b34-89b6-eba1b570a9c1,51,ул,2020-04-24,0001,,,2020-09-03,000,0000,000,1,,0000,,0
0,b16520c7-3907-4992-a867-771a058be1ff,a8145b63-202d-4b34-89b6-eba1b570a9c1,7,000,0,0,016,51000016000000100,0.0,1900-01-01,60 лет СССР,5108,5108,,,47417000000,47717000,20,defed7b3-d1f0-4dbb-baa8-03bdaffa2b18,000,510000160000001,184532,c0e9466e-3033-4271-9ce7-e4dfa1aed150,51,ул,1900-01-01,0001,,,2020-09-03,000,0000,000,0,67b08dd6-3e69-40df-993a-d742353f7c35,0000,,0
0,b16520c7-3907-4992-a867-771a058be1ff,c0e9466e-3033-4271-9ce7-e4dfa1aed150,7,000,0,0,007,51000007000000151,51.0,1900-01-01,60 лет СССР,5108,5108,a8145b63-202d-4b34-89b6-eba1b570a9c1,,47417000000,47717000,1,c5fe1817-5163-4e3b-b06a-36d322c6bf57,000,510000070000001,184530,3c0de42e-b8d2-4960-9db0-180919be3c42,51,ул,1900-01-01,0001,,,2020-09-03,000,0000,000,0,,0000,,0
0,b16520c7-3907-4992-a867-771a058be1ff,3c0de42e-b8d2-4960-9db0-180919be3c42,7,000,0,0,007,51000007010000451,51.0,1900-01-01,60 лет СССР,5108,5108,c0e9466e-3033-4271-9ce7-e4dfa1aed150,,47417000000,47717000,1,a180282b-08c4-4b21-ae68-da4af02077bf,010,510000070100004,184538,acea2cb4-ea2f-4b6b-8e3c-1105229f281b,51,ул,1900-01-01,0004,,,2020-09-03,000,0000,000,0,,0000,,0
0,b16520c7-3907-4992-a867-771a058be1ff,acea2cb4-ea2f-4b6b-8e3c-1105229f281b,7,000,0,0,016,51000016000000101,1.0,2079-06-06,60 лет СССР,5108,5108,3c0de42e-b8d2-4960-9db0-180919be3c42,,47417000000,47717000,1,defed7b3-d1f0-4dbb-baa8-03bdaffa2b18,000,510000160000001,184532,,51,ул,1900-01-01,0001,,,2020-09-03,000,0000,000,0,,0000,,0
1,9a5ec6ad-2503-43cc-a981-e4b68ff34ef2,ce4a1ca8-9a89-4751-a3ac-20249784bf58,7,000,0,0,016,51000016000000200,0.0,2079-06-06,Ленинградская,5108,5108,,,47417000000,47717000001,21,defed7b3-d1f0-4dbb-baa8-03bdaffa2b18,000,510000160000002,184532,9b4a3c9f-f496-41e9-b3a7-cdb17e1cc519,51,ул,2020-04-24,0002,,,2020-09-03,000,0000,000,1,,0000,,0
0,9a5ec6ad-2503-43cc-a981-e4b68ff34ef2,9b4a3c9f-f496-41e9-b3a7-cdb17e1cc519,7,000,0,0,016,51000016000000200,0.0,1900-01-01,Ленинградская,5108,5108,,,47417000000,47717000,20,defed7b3-d1f0-4dbb-baa8-03bdaffa2b18,000,510000160000002,184532,da829009-4a87-4228-a1da-c06134315a5f,51,ул,1900-01-01,0002,,,2020-09-03,000,0000,000,0,67b08dd6-3e69-40df-993a-d742353f7c35,0000,,0
0,9a5ec6ad-2503-43cc-a981-e4b68ff34ef2,da829009-4a87-4228-a1da-c06134315a5f,7,000,0,0,007,51000007000002351,51.0,1900-01-01,Ленинградская,5108,5108,9b4a3c9f-f496-41e9-b3a7-cdb17e1cc519,,47417000000,47717000,1,c5fe1817-5163-4e3b-b06a-36d322c6bf57,000,510000070000023,184530,35bf55c0-3673-4094-b6da-4f10be989b4b,51,ул,1900-01-01,0023,,,2020-09-03,000,0000,000,0,,0000,,0
0,9a5ec6ad-2503-43cc-a981-e4b68ff34ef2,35bf55c0-3673-4094-b6da-4f10be989b4b,7,000,0,0,007,51000007010000251,51.0,1900-01-01,Ленинградская,5108,5108,da829009-4a87-4228-a1da-c06134315a5f,,47417000000,47717000,1,a180282b-08c4-4b21-ae68-da4af02077bf,010,510000070100002,184538,a83b7bcc-f821-4497-9504-1c84ac219d8b,51,ул,1900-01-01,0002,,,2020-09-03,000,0000,000,0,,0000,,0
0,9a5ec6ad-2503-43cc-a981-e4b68ff34ef2,a83b7bcc-f821-4497-9504-1c84ac219d8b,7,000,0,0,016,51000016000000201,1.0,2079-06-06,Ленинградская,5108,5108,35bf55c0-3673-4094-b6da-4f10be989b4b,,47417000000,47717000,1,defed7b3-d1f0-4dbb-baa8-03bdaffa2b18,000,510000160000002,184532,,51,ул,1900-01-01,0002,,,2020-09-03,000,0000,000,0,,0000,,0
1,5cd659e7-c68d-4a0a-872b-cde8b40e089b,5cd659e7-c68d-4a0a-872b-cde8b40e089b,65,000,0,0,007,51000007003000900,0.0,2079-06-06,Очистные сооружения,5108,5108,,,47417000004,47717000111,10,eb849f04-2b69-47b9-9e50-53b72998b34b,003,510000070030009,184538,,51,тер.,2020-09-02,0000,,,2020-09-03,000,0000,000,1,,0009,,0
1,caa84593-c64a-417b-aba9-2ec68e8ef101,575441a2-26ad-4b23-879f-771137ec4e0e,7,000,0,0,016,51000016000000400,0.0,2079-06-06,Туристов,5108,5108,,,47417000000,47717000001,21,defed7b3-d1f0-4dbb-baa8-03bdaffa2b18,000,510000160000004,184532,cd5a8ec8-f9d3-484f-bd91-da794af44a46,51,ул,2020-04-24,0004,,,2020-09-03,000,0000,000,1,,0000,,0
0,caa84593-c64a-417b-aba9-2ec68e8ef101,cd5a8ec8-f9d3-484f-bd91-da794af44a46,7,000,0,0,016,51000016000000400,0.0,1900-01-01,Туристов,5108,5108,,,47417000000,47717000,20,defed7b3-d1f0-4dbb-baa8-03bdaffa2b18,000,510000160000004,184532,4834d36d-6d4f-445a-884b-cc9dc244c817,51,ул,1900-01-01,0004,,,2020-09-03,000,0000,000,0,67b08dd6-3e69-40df-993a-d742353f7c35,0000,,0
0,caa84593-c64a-417b-aba9-2ec68e8ef101,4834d36d-6d4f-445a-884b-cc9dc244c817,7,000,0,0,007,51000007000005151,51.0,1900-01-01,Туристов,5108,5108,cd5a8ec8-f9d3-484f-bd91-da794af44a46,,47417000000,47717000,1,c5fe1817-5163-4e3b-b06a-36d322c6bf57,000,510000070000051,184532,2e0672b5-d62f-401b-806f-8d4d1de1ba38,51,ул,1900-01-01,0051,,,2020-09-03,000,0000,000,0,,0000,,0
0,caa84593-c64a-417b-aba9-2ec68e8ef101,2e0672b5-d62f-401b-806f-8d4d1de1ba38,7,000,0,0,007,51000007010000351,51.0,1900-01-01,Туристов,5108,5108,4834d36d-6d4f-445a-884b-cc9dc244c817,,47417000000,47717000,1,a180282b-08c4-4b21-ae68-da4af02077bf,010,510000070100003,184538,360b75e3-5524-4edc-ba7c-00f9b600184a,51,ул,1900-01-01,0003,,,2020-09-03,000,0000,000,0,,0000,,0
0,caa84593-c64a-417b-aba9-2ec68e8ef101,360b75e3-5524-4edc-ba7c-00f9b600184a,7,000,0,0,016,51000016000000401,1.0,2079-06-06,Туристов,5108,5108,2e0672b5-d62f-401b-806f-8d4d1de1ba38,,47417000000,47717000,1,defed7b3-d1f0-4dbb-baa8-03bdaffa2b18,000,510000160000004,184532,,51,ул,1900-01-01,0004,,,2020-09-03,000,0000,000,0,,0000,,0
1,939ba8db-3c36-456c-bd5c-816b0a5069b6,842c4630-cfe9-4a21-8ad5-504a1cb6ceb1,7,000,0,0,016,51000016000000300,0.0,2079-06-06,Октябрьская,5108,5108,,,47417000000,47717000001,21,defed7b3-d1f0-4dbb-baa8-03bdaffa2b18,000,510000160000003,184532,5b82268a-5bcc-4143-a85c-0237f20fdcf0,51,ул,2020-04-24,0003,,,2020-09-03,000,0000,000,1,,0000,,0
0,939ba8db-3c36-456c-bd5c-816b0a5069b6,5b82268a-5bcc-4143-a85c-0237f20fdcf0,7,000,0,0,016,51000016000000300,0.0,1900-01-01,Октябрьская,5108,5108,81d7dc70-5678-4f8f-8567-cb992f1fa97f,,47417000000,47717000,20,defed7b3-d1f0-4dbb-baa8-03bdaffa2b18,000,510000160000003,184532,81d7dc70-5678-4f8f-8567-cb992f1fa97f,51,ул,1900-01-01,0003,,,2020-09-03,000,0000,000,0,67b08dd6-3e69-40df-993a-d742353f7c35,0000,,0
0,939ba8db-3c36-456c-bd5c-816b0a5069b6,81d7dc70-5678-4f8f-8567-cb992f1fa97f,7,000,0,0,016,51000016000000301,1.0,1900-01-01,Октябрьская,5108,5108,5b82268a-5bcc-4143-a85c-0237f20fdcf0,,47417000000,47717000,1,defed7b3-d1f0-4dbb-baa8-03bdaffa2b18,000,510000160000003,184532,953e8eed-e0ec-4abb-962f-bbfa96b2b399,51,ул,1900-01-01,0003,,,2020-09-03,000,0000,000,0,,0000,,0
0,939ba8db-3c36-456c-bd5c-816b0a5069b6,953e8eed-e0ec-4abb-962f-bbfa96b2b399,7,000,0,0,007,51000007000005751,51.0,1900-01-01,Октябрьская,5108,5108,81d7dc70-5678-4f8f-8567-cb992f1fa97f,,47417000000,47717000,1,c5fe1817-5163-4e3b-b06a-36d322c6bf57,000,510000070000057,184530,78211396-95b6-43dc-b2ab-68e7a9e31221,51,ул,1900-01-01,0057,,,2020-09-03,000,0000,000,0,,0000,,0
0,939ba8db-3c36-456c-bd5c-816b0a5069b6,78211396-95b6-43dc-b2ab-68e7a9e31221,7,000,0,0,007,51000007003000551,51.0,1900-01-01,Октябрьская,5108,5108,953e8eed-e0ec-4abb-962f-bbfa96b2b399,,47417000004,47717000,1,eb849f04-2b69-47b9-9e50-53b72998b34b,003,510000070030005,184538,88021c58-e9a6-4ac8-bfea-46362ba9f246,51,ул,1900-01-01,0005,,,2020-09-03,000,0000,000,0,,0000,,0
0,939ba8db-3c36-456c-bd5c-816b0a5069b6,88021c58-e9a6-4ac8-bfea-46362ba9f246,7,000,0,0,007,51000007010000151,51.0,2079-06-06,Октябрьская,5108,5108,78211396-95b6-43dc-b2ab-68e7a9e31221,,47417000000,47717000,1,a180282b-08c4-4b21-ae68-da4af02077bf,010,510000070100001,184538,,51,ул,1900-01-01,0001,,,2020-09-03,000,0000,000,0,,0000,,0
1,39b4b77b-b3fc-4316-a711-e3d82238a18b,744d3333-5874-4589-9675-130a503e8ca4,7,001,0,0,000,51001000007000299,99.0,2079-06-06,Привокзальная,5102,5102,,,47202501000,47608101,31,7ea49ff5-7cf6-4952-ae19-78ca97f4647c,007,510010000070002,184042,6f423ffd-3208-4305-9bdc-517167de79eb,51,ул,2020-08-18,0002,,,2020-08-20,000,0000,000,0,,0000,,0
0,39b4b77b-b3fc-4316-a711-e3d82238a18b,6f423ffd-3208-4305-9bdc-517167de79eb,7,001,0,0,000,51001000007000299,99.0,2020-08-18,Привокзальная,5102,5102,744d3333-5874-4589-9675-130a503e8ca4,,47202501000,47608101,51,7ea49ff5-7cf6-4952-ae19-78ca97f4647c,007,510010000070002,184042,d7c2997e-3388-4941-bb05-d1ed6f49f24b,51,ул,2007-10-26,0002,,,2020-08-20,000,0000,000,0,cace6a96-60bb-409a-a701-5d526a204ea0,0000,,0
0,39b4b77b-b3fc-4316-a711-e3d82238a18b,d7c2997e-3388-4941-bb05-d1ed6f49f24b,7,001,0,0,001,51001001023000251,51.0,2007-10-26,Привокзальная,5102,5102,6f423ffd-3208-4305-9bdc-517167de79eb,,47202501000,47608101,51,7ea49ff5-7cf6-4952-ae19-78ca97f4647c,023,510010010230002,184042,d5c4b5dc-c334-4d8c-81d2-10e6cd48feeb,51,ул,2007-10-26,0002,,,2020-08-20,000,0000,000,0,bb758089-0a48-49a7-87d1-eb2c85e966ec,0000,,0
0,39b4b77b-b3fc-4316-a711-e3d82238a18b,d5c4b5dc-c334-4d8c-81d2-10e6cd48feeb,7,001,0,0,000,51000004026000151,51.0,2007-10-26,Привокзальная,5102,5102,d7c2997e-3388-4941-bb05-d1ed6f49f24b,,47202501000,47608101,21,7ea49ff5-7cf6-4952-ae19-78ca97f4647c,007,510000040260001,184042,81333593-f42a-4050-becd-eb3c9c07275a,51,ул,2007-10-26,0002,,,2020-08-20,000,0000,000,0,181e992f-7580-4ca0-b9d6-f28998e839e0,0000,,0
0,39b4b77b-b3fc-4316-a711-e3d82238a18b,81333593-f42a-4050-becd-eb3c9c07275a,7,001,0,0,000,51000004026000102,2.0,2007-10-26,Привокзальная,5102,5102,d5c4b5dc-c334-4d8c-81d2-10e6cd48feeb,,47202501000,47608101,21,7ea49ff5-7cf6-4952-ae19-78ca97f4647c,007,510000040260001,184048,0a490c73-5989-45d3-a0fc-a4fd6806a2bd,51,ул,2007-10-26,0002,,,2020-08-20,000,0000,000,0,181e992f-7580-4ca0-b9d6-f28998e839e0,0000,,0
0,39b4b77b-b3fc-4316-a711-e3d82238a18b,0a490c73-5989-45d3-a0fc-a4fd6806a2bd,7,000,0,0,004,51000004026000101,1.0,2020-08-18,Привокзальная,5102,5102,81333593-f42a-4050-becd-eb3c9c07275a,,47408000000,47608101,1,7ea49ff5-7cf6-4952-ae19-78ca97f4647c,026,510000040260001,184048,,51,ул,1900-01-01,0001,,,2020-08-20,000,0000,000,0,,0000,,0
1,2294566d-1e7d-4bef-938f-c1aeda5729d0,2294566d-1e7d-4bef-938f-c1aeda5729d0,65,000,0,0,007,51000007000002000,0.0,2079-06-06,ЖК Север,5108,5108,,,47417000000,47717000001,10,c5fe1817-5163-4e3b-b06a-36d322c6bf57,000,510000070000020,,,51,тер.,2020-08-18,0000,,,2020-08-20,000,0000,000,1,,0020,,0
1,23556856-810a-4b12-b9fb-4e22135c31f1,657de93e-1b9c-4fe6-9ae2-bccb52e8770d,7,001,0,0,000,51001000007000499,99.0,2079-06-06,Шоссейная,5102,5102,,,47202501000,47608101,31,7ea49ff5-7cf6-4952-ae19-78ca97f4647c,007,510010000070004,184042,ab51d05e-5719-41be-832f-43230e25e83e,51,ул,2020-08-18,0004,,,2020-08-20,000,0000,000,0,,0000,,0
0,23556856-810a-4b12-b9fb-4e22135c31f1,ab51d05e-5719-41be-832f-43230e25e83e,7,001,0,0,000,51001000007000499,99.0,2020-08-18,Шоссейная,5102,5102,657de93e-1b9c-4fe6-9ae2-bccb52e8770d,,47202501000,47608101,51,7ea49ff5-7cf6-4952-ae19-78ca97f4647c,007,510010000070004,184042,4ce27fac-3b74-4e56-801b-6ecc16ff63b9,51,ул,2007-10-26,0004,,,2020-08-20,000,0000,000,0,cace6a96-60bb-409a-a701-5d526a204ea0,0000,,0
0,23556856-810a-4b12-b9fb-4e22135c31f1,4ce27fac-3b74-4e56-801b-6ecc16ff63b9,7,001,0,0,001,51001001023000451,51.0,2007-10-26,Шоссейная,5102,5102,ab51d05e-5719-41be-832f-43230e25e83e,,47202501000,47608101,51,7ea49ff5-7cf6-4952-ae19-78ca97f4647c,023,510010010230004,184042,b948314d-5dfb-41a9-b436-c1ad09c99e0a,51,ул,2007-10-26,0004,,,2020-08-20,000,0000,000,0,bb758089-0a48-49a7-87d1-eb2c85e966ec,0000,,0
0,23556856-810a-4b12-b9fb-4e22135c31f1,b948314d-5dfb-41a9-b436-c1ad09c99e0a,7,001,0,0,000,51000004026000351,51.0,2007-10-26,Шоссейная,5102,5102,4ce27fac-3b74-4e56-801b-6ecc16ff63b9,,47202501000,47608101,21,7ea49ff5-7cf6-4952-ae19-78ca97f4647c,007,510000040260003,184042,42ca83b2-d4a4-48a8-9b06-da008ddb01a3,51,ул,2007-10-26,0004,,,2020-08-20,000,0000,000,0,181e992f-7580-4ca0-b9d6-f28998e839e0,0000,,0
0,23556856-810a-4b12-b9fb-4e22135c31f1,42ca83b2-d4a4-48a8-9b06-da008ddb01a3,7,001,0,0,000,51000004026000302,2.0,2007-10-26,Шоссейная,5102,5102,b948314d-5dfb-41a9-b436-c1ad09c99e0a,,47202501000,47608101,21,7ea49ff5-7cf6-4952-ae19-78ca97f4647c,007,510000040260003,184048,e1a1c965-d913-42ae-a68e-e4f7c981d637,51,ул,2007-10-26,0004,,,2020-08-20,000,0000,000,0,181e992f-7580-4ca0-b9d6-f28998e839e0,0000,,0
0,23556856-810a-4b12-b9fb-4e22135c31f1,e1a1c965-d913-42ae-a68e-e4f7c981d637,7,000,0,0,004,51000004026000301,1.0,2020-08-18,Шоссейная,5102,5102,42ca83b2-d4a4-48a8-9b06-da008ddb01a3,,47408000000,47608101,1,7ea49ff5-7cf6-4952-ae19-78ca97f4647c,026,510000040260003,184048,,51,ул,1900-01-01,0003,,,2020-08-20,000,0000,000,0,,0000,,0
1,7ea49ff5-7cf6-4952-ae19-78ca97f4647c,a2ccbc8f-9fb5-4f3c-9cab-c1b6e343046e,6,001,0,0,000,5100100000799,99.0,2079-06-06,Княжая,5102,5102,,,47202501000,47608101,30,3f26e2d0-a8ad-4b9c-8ed0-79f63ff019af,007,51001000007,184042,de4b808d-7640-4c50-b74c-55b78e114df7,51,ж/д_ст,2020-08-18,0000,,,2020-08-20,000,0000,000,0,,0000,,0
0,7ea49ff5-7cf6-4952-ae19-78ca97f4647c,de4b808d-7640-4c50-b74c-55b78e114df7,6,001,0,0,000,5100100000799,99.0,2020-08-18,Княжая,5102,5102,a2ccbc8f-9fb5-4f3c-9cab-c1b6e343046e,,47202501000,47608101,50,3f26e2d0-a8ad-4b9c-8ed0-79f63ff019af,007,51001000007,184042,75918e8c-6f5d-43e2-b4b8-ad9175931cdf,51,ж/д_ст,2007-10-26,0000,,,2020-08-20,000,0000,000,0,cace6a96-60bb-409a-a701-5d526a204ea0,0000,,0
0,7ea49ff5-7cf6-4952-ae19-78ca97f4647c,75918e8c-6f5d-43e2-b4b8-ad9175931cdf,6,001,0,0,001,5100100102351,51.0,2007-10-26,Княжая,5102,5102,de4b808d-7640-4c50-b74c-55b78e114df7,,47202501000,47608101,51,30fa6bcc-608e-40cb-b22a-b202967ff2a6,023,51001001023,184042,43d97e6d-2119-471a-b5de-108f860cd92b,51,ж/д_ст,2007-10-26,0000,,,2020-08-20,000,0000,000,0,bb758089-0a48-49a7-87d1-eb2c85e966ec,0000,,0
0,7ea49ff5-7cf6-4952-ae19-78ca97f4647c,43d97e6d-2119-471a-b5de-108f860cd92b,6,001,0,0,000,5100000402651,51.0,2007-10-26,Княжая,5102,5102,75918e8c-6f5d-43e2-b4b8-ad9175931cdf,,47202501000,47608101,21,3f26e2d0-a8ad-4b9c-8ed0-79f63ff019af,007,51000004026,184042,1c66821f-9457-4c76-a4e7-33bc3065c81f,51,ж/д_ст,2007-10-26,0000,,,2020-08-20,000,0000,000,0,181e992f-7580-4ca0-b9d6-f28998e839e0,0000,,0
0,7ea49ff5-7cf6-4952-ae19-78ca97f4647c,1c66821f-9457-4c76-a4e7-33bc3065c81f,6,001,0,0,000,5100000402602,2.0,2007-10-26,Княжая,5102,5102,43d97e6d-2119-471a-b5de-108f860cd92b,,47202501000,47608101,21,3f26e2d0-a8ad-4b9c-8ed0-79f63ff019af,007,51000004026,184048,d572238c-6712-46ef-a66f-6ce167924f0c,51,ж/д_ст,2007-10-26,0000,,,2020-08-20,000,0000,000,0,181e992f-7580-4ca0-b9d6-f28998e839e0,0000,,0
0,7ea49ff5-7cf6-4952-ae19-78ca97f4647c,d572238c-6712-46ef-a66f-6ce167924f0c,6,000,0,0,004,5100000402601,1.0,2020-08-18,Княжая,5102,5102,1c66821f-9457-4c76-a4e7-33bc3065c81f,,47408000000,47608101,1,30fa6bcc-608e-40cb-b22a-b202967ff2a6,026,51000004026,184040,,51,ж/д_ст,1900-01-01,0000,,,2020-08-20,000,0000,000,0,,0000,,0
1,872e2a21-faaf-4a26-bc06-f75568a065f5,45ac2171-7209-4ceb-b7e0-1be32958357b,7,001,0,0,000,51001000007000199,99.0,2079-06-06,Озеро Безымянное,5102,5102,,,47202501000,47608101,31,7ea49ff5-7cf6-4952-ae19-78ca97f4647c,007,510010000070001,184042,a405a009-8c02-40d5-8349-206b5c844a87,51,ул,2020-08-18,0001,,,2020-08-20,000,0000,000,0,,0000,,0
0,872e2a21-faaf-4a26-bc06-f75568a065f5,a405a009-8c02-40d5-8349-206b5c844a87,7,001,0,0,000,51001000007000199,99.0,2020-08-18,Озеро Безымянное,5102,5102,45ac2171-7209-4ceb-b7e0-1be32958357b,,47202501000,47608101,51,7ea49ff5-7cf6-4952-ae19-78ca97f4647c,007,510010000070001,184042,f3940eab-1456-4734-baba-7d9c893adfe0,51,ул,2007-10-26,0001,,,2020-08-20,000,0000,000,0,cace6a96-60bb-409a-a701-5d526a204ea0,0000,,0
0,872e2a21-faaf-4a26-bc06-f75568a065f5,f3940eab-1456-4734-baba-7d9c893adfe0,7,001,0,0,001,51001001023000151,51.0,2007-10-26,Озеро Безымянное,5102,5102,a405a009-8c02-40d5-8349-206b5c844a87,,47202501000,47608101,51,7ea49ff5-7cf6-4952-ae19-78ca97f4647c,023,510010010230001,184042,9f75a16a-1bc0-4578-914f-1dfca26f974a,51,ул,2007-10-26,0001,,,2020-08-20,000,0000,000,0,bb758089-0a48-49a7-87d1-eb2c85e966ec,0000,,0
0,872e2a21-faaf-4a26-bc06-f75568a065f5,9f75a16a-1bc0-4578-914f-1dfca26f974a,7,001,0,0,000,51000004026000451,51.0,2007-10-26,Озеро Безымянное,5102,5102,f3940eab-1456-4734-baba-7d9c893adfe0,,47202501000,47608101,21,7ea49ff5-7cf6-4952-ae19-78ca97f4647c,007,510000040260004,184042,7c828b26-21f6-4a43-9bbb-946cec91933a,51,ул,2007-10-26,0001,,,2020-08-20,000,0000,000,0,181e992f-7580-4ca0-b9d6-f28998e839e0,0000,,0
0,872e2a21-faaf-4a26-bc06-f75568a065f5,7c828b26-21f6-4a43-9bbb-946cec91933a,7,001,0,0,000,51000004026000402,2.0,2007-10-26,Озеро Безымянное,5102,5102,9f75a16a-1bc0-4578-914f-1dfca26f974a,,47202501000,47608101,21,7ea49ff5-7cf6-4952-ae19-78ca97f4647c,007,510000040260004,184048,44a7b2cb-b2c2-4e99-a669-7f2b73711fcf,51,ул,2007-10-26,0001,,,2020-08-20,000,0000,000,0,181e992f-7580-4ca0-b9d6-f28998e839e0,0000,,0
0,872e2a21-faaf-4a26-bc06-f75568a065f5,44a7b2cb-b2c2-4e99-a669-7f2b73711fcf,7,000,0,0,004,51000004026000401,1.0,2020-08-18,Озеро Безымянное,5102,5102,7c828b26-21f6-4a43-9bbb-946cec91933a,,47408000000,47608101,1,7ea49ff5-7cf6-4952-ae19-78ca97f4647c,026,510000040260004,184048,,51,ул,1900-01-01,0004,,,2020-08-20,000,0000,000,0,,0000,,0
1,f4640632-de94-4f98-a892-f7f956f24b1c,47facbcb-5066-4877-b353-445bd7abd0b6,7,001,0,0,000,51001000007000399,99.0,2079-06-06,Станционная,5102,5102,,,47202501000,47608101,31,7ea49ff5-7cf6-4952-ae19-78ca97f4647c,007,510010000070003,184042,4a4843a5-5785-4a61-a2fc-56d71f3bc5c8,51,ул,2020-08-18,0003,,,2020-08-20,000,0000,000,0,,0000,,0
0,f4640632-de94-4f98-a892-f7f956f24b1c,4a4843a5-5785-4a61-a2fc-56d71f3bc5c8,7,001,0,0,000,51001000007000399,99.0,2020-08-18,Станционная,5102,5102,47facbcb-5066-4877-b353-445bd7abd0b6,,47202501000,47608101,51,7ea49ff5-7cf6-4952-ae19-78ca97f4647c,007,510010000070003,184042,3c0169ad-b8ab-4b5a-b418-ab321d3e76f8,51,ул,2007-10-26,0003,,,2020-08-20,000,0000,000,0,cace6a96-60bb-409a-a701-5d526a204ea0,0000,,0
0,f4640632-de94-4f98-a892-f7f956f24b1c,3c0169ad-b8ab-4b5a-b418-ab321d3e76f8,7,001,0,0,001,51001001023000351,51.0,2007-10-26,Станционная,5102,5102,4a4843a5-5785-4a61-a2fc-56d71f3bc5c8,,47202501000,47608101,51,7ea49ff5-7cf6-4952-ae19-78ca97f4647c,023,510010010230003,184042,01f2ab80-e3ed-4ef9-ac1e-1c0a1e57fc17,51,ул,2007-10-26,0003,,,2020-08-20,000,0000,000,0,bb758089-0a48-49a7-87d1-eb2c85e966ec,0000,,0
0,f4640632-de94-4f98-a892-f7f956f24b1c,01f2ab80-e3ed-4ef9-ac1e-1c0a1e57fc17,7,001,0,0,000,51000004026000251,51.0,2007-10-26,Станционная,5102,5102,3c0169ad-b8ab-4b5a-b418-ab321d3e76f8,,47202501000,47608101,21,7ea49ff5-7cf6-4952-ae19-78ca97f4647c,007,510000040260002,184042,316db037-b099-4537-aeb2-eeabcdf88948,51,ул,2007-10-26,0003,,,2020-08-20,000,0000,000,0,181e992f-7580-4ca0-b9d6-f28998e839e0,0000,,0
0,f4640632-de94-4f98-a892-f7f956f24b1c,316db037-b099-4537-aeb2-eeabcdf88948,7,001,0,0,000,51000004026000202,2.0,2007-10-26,Станционная,5102,5102,01f2ab80-e3ed-4ef9-ac1e-1c0a1e57fc17,,47202501000,47608101,21,7ea49ff5-7cf6-4952-ae19-78ca97f4647c,007,510000040260002,184048,3e1222d0-a5ae-4cb7-9526-9e753181f3f3,51,ул,2007-10-26,0003,,,2020-08-20,000,0000,000,0,181e992f-7580-4ca0-b9d6-f28998e839e0,0000,,0
0,f4640632-de94-4f98-a892-f7f956f24b1c,3e1222d0-a5ae-4cb7-9526-9e753181f3f3,7,000,0,0,004,51000004026000201,1.0,2020-08-18,Станционная,5102,5102,316db037-b099-4537-aeb2-eeabcdf88948,,47408000000,47608101,1,7ea49ff5-7cf6-4952-ae19-78ca97f4647c,026,510000040260002,184048,,51,ул,1900-01-01,0002,,,2020-08-20,000,0000,000,0,,0000,,0
1,ed00e913-1a57-4f0e-a3b6-434634fe7b4e,ed00e913-1a57-4f0e-a3b6-434634fe7b4e,7,001,0,0,000,51001000005005800,0.0,2079-06-06,Озеро Безымянное,5102,5102,,,47202554000,47608158051,10,4f94d85d-4144-4ada-9ce2-e5719a9a5f61,005,510010000050058,,,51,ул,2020-08-14,0058,,,2020-08-16,000,0000,000,1,,0000,,0
1,e16ddac3-8032-4ab9-ae78-533519f7324d,e16ddac3-8032-4ab9-ae78-533519f7324d,65,000,0,0,009,51000009000000200,0.0,2079-06-06,реки Нива,5102,5102,,,47419000000,47719000,10,d70b2917-8cea-4555-a9fe-6d2c72d8d9cc,000,510000090000002,,,51,тер.,2020-08-12,0000,,,2020-08-16,000,0000,000,1,,0002,,0
1,c73b629a-40a3-44b8-ab2c-6f0c35ca8e3f,c73b629a-40a3-44b8-ab2c-6f0c35ca8e3f,7,001,0,0,000,51001000000000900,0.0,2079-06-06,1149-й,5102,5102,,,47202000000,47608101,10,eb9a6474-a46f-455e-b5e4-4bebfdb8fe27,000,510010000000009,,,51,км,2020-08-14,0009,,,2020-08-16,000,0000,000,1,,0008,,0
