ACTSTATUS,AOGUID,AOID,AOLEVEL,AREACODE,AUTOCODE,CENTSTATUS,CITYCODE,CODE,CURRSTATUS,ENDDATE,FORMALNAME,IFNSFL,IFNSUL,NEXTID,OFFNAME,OKATO,OKTMO,OPERSTATUS,PARENTGUID,PLACECODE,PLAINCODE,POSTALCODE,PREVID,REGIONCODE,SHORTNAME,STARTDATE,STREETCODE,TERRIFNSFL,TERRIFNSUL,UPDATEDATE,CTARCODE,EXTRCODE,SEXTCODE,LIVESTATUS,NORMDOC,PLANCODE,CADNUM,DIVTYPE
0,2646a905-ec5e-44dd-989d-b8983afdae0f,2646a905-ec5e-44dd-989d-b8983afdae0f,4,019,0,0,002,5401900200099,99.0,2020-08-27,Барлакский,5475,5475,76980c3f-844b-4a5f-9c42-3d52d40730d4,,50238804000,50638404,10,6c663cc6-2761-4102-927a-8252c5dc4fdc,000,54019002000,633120,,54,с/с,2000-01-01,0000,5432,5432,2020-08-30,000,0000,000,0,,0000,,0
1,2646a905-ec5e-44dd-989d-b8983afdae0f,76980c3f-844b-4a5f-9c42-3d52d40730d4,4,019,0,0,002,5401900200099,99.0,2079-06-06,Барлакский,5475,5475,,,50238804000,50638404,30,6c663cc6-2761-4102-927a-8252c5dc4fdc,000,54019002000,633120,2646a905-ec5e-44dd-989d-b8983afdae0f,54,с/с,2020-08-27,0000,5432,5432,2020-08-30,000,0000,000,0,,0000,,0
0,e6bc1de6-5d42-43bd-a3b9-54c85faaf411,e6bc1de6-5d42-43bd-a3b9-54c85faaf411,91,000,0,0,001,,,2016-09-29,Яблоневая,5405,5405,706bf148-12e1-42e1-b5ec-dd56431035a3,,50401379000,50701000,10,e92df4fa-1087-4ebc-98f6-ee7bd49eebf1,000,,630133,,54,ул,2000-01-01,0765,,,2020-08-30,000,0000,000,0,,2622,,0
0,e6bc1de6-5d42-43bd-a3b9-54c85faaf411,706bf148-12e1-42e1-b5ec-dd56431035a3,7,000,0,0,001,54000001000249401,1.0,2079-06-06,Яблоневая,5405,5405,9d44c94d-80ca-4603-b082-1c51a89ee943,,50401379000,50701000,51,9d9e292d-a575-41e7-bdf7-fe5d1a479f82,000,540000010002494,630133,e6bc1de6-5d42-43bd-a3b9-54c85faaf411,54,ул,2016-09-29,2494,,,2020-08-30,000,0000,000,0,,0197,,0
0,e6bc1de6-5d42-43bd-a3b9-54c85faaf411,9d44c94d-80ca-4603-b082-1c51a89ee943,7,000,0,0,001,54000001000249451,51.0,2020-08-21,Яблоневая,5405,5405,0e3168e4-2602-4934-af17-1996a95b6e2f,,50401379000,50701000001,21,e92df4fa-1087-4ebc-98f6-ee7bd49eebf1,000,540000010002494,630133,706bf148-12e1-42e1-b5ec-dd56431035a3,54,ул,2017-09-26,0765,,,2020-08-30,000,0000,000,0,057d2710-0e61-42ce-875d-9c0bab26a2c2,2622,,0
0,e6bc1de6-5d42-43bd-a3b9-54c85faaf411,0e3168e4-2602-4934-af17-1996a95b6e2f,7,000,0,0,001,54000001000076500,0.0,2079-06-06,Яблоневая,5405,5405,70e01bf3-21ef-4507-830a-6279e6d932bc,,50401379000,50701000001,41,e92df4fa-1087-4ebc-98f6-ee7bd49eebf1,000,540000010000765,630133,9d44c94d-80ca-4603-b082-1c51a89ee943,54,ул,2020-08-21,0765,,,2020-08-30,000,0000,000,0,,2622,,0
0,e6bc1de6-5d42-43bd-a3b9-54c85faaf411,70e01bf3-21ef-4507-830a-6279e6d932bc,7,000,0,0,001,54000001000076500,0.0,2079-06-06,Яблоневая,5473,5405,9b49581a-326d-411e-8600-054c3eec9933,,50401379000,50701000001,21,e92df4fa-1087-4ebc-98f6-ee7bd49eebf1,000,540000010000765,630133,0e3168e4-2602-4934-af17-1996a95b6e2f,54,ул,2020-08-24,0765,,,2020-08-30,000,0000,000,0,,2622,,0
0,e6bc1de6-5d42-43bd-a3b9-54c85faaf411,9b49581a-326d-411e-8600-054c3eec9933,7,000,0,0,001,54000001000076500,0.0,2079-06-06,Яблоневая,5473,5473,ffde80ff-31db-4086-8aee-dc3b747498f0,,50401379000,50701000001,21,e92df4fa-1087-4ebc-98f6-ee7bd49eebf1,000,540000010000765,630133,70e01bf3-21ef-4507-830a-6279e6d932bc,54,ул,2020-08-25,0765,,,2020-08-30,000,0000,000,0,,2622,,0
0,e6bc1de6-5d42-43bd-a3b9-54c85faaf411,ffde80ff-31db-4086-8aee-dc3b747498f0,7,000,0,0,001,54000001000076500,0.0,2079-06-06,Яблоневая,5473,5473,9378e9b7-d81d-41a0-a6ae-ef6ee359387c,,50401379000,50701000001,21,e92df4fa-1087-4ebc-98f6-ee7bd49eebf1,000,540000010000765,630133,9b49581a-326d-411e-8600-054c3eec9933,54,ул,2020-08-26,0765,5409,5409,2020-08-30,000,0000,000,0,,2622,,0
1,e6bc1de6-5d42-43bd-a3b9-54c85faaf411,9378e9b7-d81d-41a0-a6ae-ef6ee359387c,7,000,0,0,001,54000001000076500,0.0,2079-06-06,Яблоневая,5473,5473,,,50401379000,50701000001,21,e92df4fa-1087-4ebc-98f6-ee7bd49eebf1,000,540000010000765,630133,ffde80ff-31db-4086-8aee-dc3b747498f0,54,ул,2020-08-27,0765,5409,5409,2020-08-30,000,0000,000,1,,2622,,0
0,86a587a4-e530-4505-87b5-f3117204c312,86a587a4-e530-4505-87b5-f3117204c312,91,000,0,0,001,,,2016-09-29,Тихая,5405,5405,491adbf1-ac2b-455c-9f87-7c72180fe9e0,,50401379000,50701000,10,e92df4fa-1087-4ebc-98f6-ee7bd49eebf1,000,,630133,,54,ул,2015-11-19,0843,,,2020-08-30,000,0000,000,0,46a88433-dfde-43a7-a154-de2ffd151e23,2622,,0
0,86a587a4-e530-4505-87b5-f3117204c312,491adbf1-ac2b-455c-9f87-7c72180fe9e0,7,000,0,0,001,54000001000249801,1.0,2079-06-06,Тихая,5410,5410,12d700a4-d40e-45a8-9d49-14b7c30c8a4c,,50401373000,50701000,51,9d9e292d-a575-41e7-bdf7-fe5d1a479f82,000,540000010002498,630901,86a587a4-e530-4505-87b5-f3117204c312,54,ул,2016-09-29,2498,,,2020-08-30,000,0000,000,0,,0197,,0
0,86a587a4-e530-4505-87b5-f3117204c312,12d700a4-d40e-45a8-9d49-14b7c30c8a4c,7,000,0,0,001,54000001000249851,51.0,2020-08-21,Тихая,5410,5410,81a8dd12-83f3-46dc-adfb-359bed5003e8,,50401373000,50701000001,21,e92df4fa-1087-4ebc-98f6-ee7bd49eebf1,000,540000010002498,630901,491adbf1-ac2b-455c-9f87-7c72180fe9e0,54,ул,2017-09-26,0843,,,2020-08-30,000,0000,000,0,057d2710-0e61-42ce-875d-9c0bab26a2c2,2622,,0
0,86a587a4-e530-4505-87b5-f3117204c312,81a8dd12-83f3-46dc-adfb-359bed5003e8,7,000,0,0,001,54000001000084300,0.0,2079-06-06,Тихая,5410,5410,64329fd8-f98f-4b35-89a2-85daa8eaef6f,,50401373000,50701000001,41,e92df4fa-1087-4ebc-98f6-ee7bd49eebf1,000,540000010000843,630901,12d700a4-d40e-45a8-9d49-14b7c30c8a4c,54,ул,2020-08-21,0843,,,2020-08-30,000,0000,000,0,,2622,,0
0,86a587a4-e530-4505-87b5-f3117204c312,64329fd8-f98f-4b35-89a2-85daa8eaef6f,7,000,0,0,001,54000001000084300,0.0,2079-06-06,Тихая,5473,5410,938e4ef6-c62b-4afe-a413-22bb87aae8fa,,50401373000,50701000001,21,e92df4fa-1087-4ebc-98f6-ee7bd49eebf1,000,540000010000843,630901,81a8dd12-83f3-46dc-adfb-359bed5003e8,54,ул,2020-08-24,0843,,,2020-08-30,000,0000,000,0,,2622,,0
0,86a587a4-e530-4505-87b5-f3117204c312,938e4ef6-c62b-4afe-a413-22bb87aae8fa,7,000,0,0,001,54000001000084300,0.0,2079-06-06,Тихая,5473,5473,ff61d5dd-6fde-4332-b631-7d2e249a4729,,50401373000,50701000001,21,e92df4fa-1087-4ebc-98f6-ee7bd49eebf1,000,540000010000843,630901,64329fd8-f98f-4b35-89a2-85daa8eaef6f,54,ул,2020-08-25,0843,,,2020-08-30,000,0000,000,0,,2622,,0
0,86a587a4-e530-4505-87b5-f3117204c312,ff61d5dd-6fde-4332-b631-7d2e249a4729,7,000,0,0,001,54000001000084300,0.0,2079-06-06,Тихая,5473,5473,f2556de2-b904-4818-b95d-198f1b86023e,,50401373000,50701000001,21,e92df4fa-1087-4ebc-98f6-ee7bd49eebf1,000,540000010000843,630901,938e4ef6-c62b-4afe-a413-22bb87aae8fa,54,ул,2020-08-26,0843,5409,5409,2020-08-30,000,0000,000,0,,2622,,0
1,86a587a4-e530-4505-87b5-f3117204c312,f2556de2-b904-4818-b95d-198f1b86023e,7,000,0,0,001,54000001000084300,0.0,2079-06-06,Тихая,5473,5473,,,50401373000,50701000001,21,e92df4fa-1087-4ebc-98f6-ee7bd49eebf1,000,540000010000843,630901,ff61d5dd-6fde-4332-b631-7d2e249a4729,54,ул,2020-08-27,0843,5409,5409,2020-08-30,000,0000,000,1,,2622,,0
0,14fb4d5a-7d17-4e84-82cf-cec43259ea14,14fb4d5a-7d17-4e84-82cf-cec43259ea14,91,000,0,0,001,,,2016-09-29,Березовая,5405,5405,0ef33973-f7db-470b-99f8-b50a08407cca,,50401379000,50701000,10,e92df4fa-1087-4ebc-98f6-ee7bd49eebf1,000,,630133,,54,ул,2000-01-01,0766,,,2020-08-30,000,0000,000,0,,2622,,0
0,14fb4d5a-7d17-4e84-82cf-cec43259ea14,0ef33973-f7db-470b-99f8-b50a08407cca,7,000,0,0,001,54000001000249501,1.0,2079-06-06,Березовая,5405,5405,1c617160-6db1-4eae-a977-1ba62a0dcb59,,50401379000,50701000,51,9d9e292d-a575-41e7-bdf7-fe5d1a479f82,000,540000010002495,630133,14fb4d5a-7d17-4e84-82cf-cec43259ea14,54,ул,2016-09-29,2495,,,2020-08-30,000,0000,000,0,,0197,,0
0,14fb4d5a-7d17-4e84-82cf-cec43259ea14,1c617160-6db1-4eae-a977-1ba62a0dcb59,7,000,0,0,001,54000001000249551,51.0,2020-08-21,Березовая,5405,5405,18e7882a-4dfd-4a93-97c8-6aa0065e4ee6,,50401379000,50701000001,21,e92df4fa-1087-4ebc-98f6-ee7bd49eebf1,000,540000010002495,630133,0ef33973-f7db-470b-99f8-b50a08407cca,54,ул,2017-09-26,0766,,,2020-08-30,000,0000,000,0,057d2710-0e61-42ce-875d-9c0bab26a2c2,2622,,0
0,14fb4d5a-7d17-4e84-82cf-cec43259ea14,18e7882a-4dfd-4a93-97c8-6aa0065e4ee6,7,000,0,0,001,54000001000076600,0.0,2079-06-06,Березовая,5405,5405,390fd891-9509-4fba-a74f-ee37e73b6513,,50401379000,50701000001,41,e92df4fa-1087-4ebc-98f6-ee7bd49eebf1,000,540000010000766,630133,1c617160-6db1-4eae-a977-1ba62a0dcb59,54,ул,2020-08-21,0766,,,2020-08-30,000,0000,000,0,,2622,,0
0,14fb4d5a-7d17-4e84-82cf-cec43259ea14,390fd891-9509-4fba-a74f-ee37e73b6513,7,000,0,0,001,54000001000076600,0.0,2079-06-06,Березовая,5473,5405,eeb2e477-4703-4911-a15c-5b10379706a3,,50401379000,50701000001,21,e92df4fa-1087-4ebc-98f6-ee7bd49eebf1,000,540000010000766,630133,18e7882a-4dfd-4a93-97c8-6aa0065e4ee6,54,ул,2020-08-24,0766,,,2020-08-30,000,0000,000,0,,2622,,0
0,14fb4d5a-7d17-4e84-82cf-cec43259ea14,eeb2e477-4703-4911-a15c-5b10379706a3,7,000,0,0,001,54000001000076600,0.0,2079-06-06,Березовая,5473,5473,1e6d6186-05e0-45f8-9bcc-39b062028235,,50401379000,50701000001,21,e92df4fa-1087-4ebc-98f6-ee7bd49eebf1,000,540000010000766,630133,390fd891-9509-4fba-a74f-ee37e73b6513,54,ул,2020-08-25,0766,,,2020-08-30,000,0000,000,0,,2622,,0
0,14fb4d5a-7d17-4e84-82cf-cec43259ea14,1e6d6186-05e0-45f8-9bcc-39b062028235,7,000,0,0,001,54000001000076600,0.0,2079-06-06,Березовая,5473,5473,7e9e6ec0-2bce-4793-88c2-a37f599d7b41,,50401379000,50701000001,21,e92df4fa-1087-4ebc-98f6-ee7bd49eebf1,000,540000010000766,630133,eeb2e477-4703-4911-a15c-5b10379706a3,54,ул,2020-08-26,0766,5409,5409,2020-08-30,000,0000,000,0,,2622,,0
1,14fb4d5a-7d17-4e84-82cf-cec43259ea14,7e9e6ec0-2bce-4793-88c2-a37f599d7b41,7,000,0,0,001,54000001000076600,0.0,2079-06-06,Березовая,5473,5473,,,50401379000,50701000001,21,e92df4fa-1087-4ebc-98f6-ee7bd49eebf1,000,540000010000766,630133,1e6d6186-05e0-45f8-9bcc-39b062028235,54,ул,2020-08-27,0766,5409,5409,2020-08-30,000,0000,000,1,,2622,,0
0,c0dd5177-acbd-4f95-b8f5-978dc496c94d,c0dd5177-acbd-4f95-b8f5-978dc496c94d,91,000,0,0,001,,,2016-09-29,Веселая,5405,5405,c8b69f50-60e5-454f-9dfc-827bfed2ad4c,,50401379000,50701000,10,e92df4fa-1087-4ebc-98f6-ee7bd49eebf1,000,,630133,,54,ул,2000-01-01,0784,,,2020-08-30,000,0000,000,0,,2622,,0
0,c0dd5177-acbd-4f95-b8f5-978dc496c94d,c8b69f50-60e5-454f-9dfc-827bfed2ad4c,7,000,0,0,001,54000001000249701,1.0,2079-06-06,Веселая,5405,5405,215b9211-adca-49bf-9132-9543d39b8e93,,50401379000,50701000,51,9d9e292d-a575-41e7-bdf7-fe5d1a479f82,000,540000010002497,630133,c0dd5177-acbd-4f95-b8f5-978dc496c94d,54,ул,2016-09-29,2497,,,2020-08-30,000,0000,000,0,,0197,,0
0,c0dd5177-acbd-4f95-b8f5-978dc496c94d,215b9211-adca-49bf-9132-9543d39b8e93,7,000,0,0,001,54000001000249751,51.0,2020-08-21,Веселая,5405,5405,5f1d50cf-1be5-4248-96e5-37eda221e0cc,,50401379000,50701000001,21,e92df4fa-1087-4ebc-98f6-ee7bd49eebf1,000,540000010002497,630133,c8b69f50-60e5-454f-9dfc-827bfed2ad4c,54,ул,2017-09-26,0784,,,2020-08-30,000,0000,000,0,057d2710-0e61-42ce-875d-9c0bab26a2c2,2622,,0
0,c0dd5177-acbd-4f95-b8f5-978dc496c94d,5f1d50cf-1be5-4248-96e5-37eda221e0cc,7,000,0,0,001,54000001000078400,0.0,2079-06-06,Веселая,5405,5405,cba46517-66a6-42c1-ad6c-6b43e6598f8e,,50401379000,50701000001,41,e92df4fa-1087-4ebc-98f6-ee7bd49eebf1,000,540000010000784,630133,215b9211-adca-49bf-9132-9543d39b8e93,54,ул,2020-08-21,0784,,,2020-08-30,000,0000,000,0,,2622,,0
0,c0dd5177-acbd-4f95-b8f5-978dc496c94d,cba46517-66a6-42c1-ad6c-6b43e6598f8e,7,000,0,0,001,54000001000078400,0.0,2079-06-06,Веселая,5473,5405,03255168-a47e-4b1b-a509-54b2ae3767fa,,50401379000,50701000001,21,e92df4fa-1087-4ebc-98f6-ee7bd49eebf1,000,540000010000784,630133,5f1d50cf-1be5-4248-96e5-37eda221e0cc,54,ул,2020-08-24,0784,,,2020-08-30,000,0000,000,0,,2622,,0
0,c0dd5177-acbd-4f95-b8f5-978dc496c94d,03255168-a47e-4b1b-a509-54b2ae3767fa,7,000,0,0,001,54000001000078400,0.0,2079-06-06,Веселая,5473,5473,34df062b-1096-4a97-97e8-a45e6f0259d0,,50401379000,50701000001,21,e92df4fa-1087-4ebc-98f6-ee7bd49eebf1,000,540000010000784,630133,cba46517-66a6-42c1-ad6c-6b43e6598f8e,54,ул,2020-08-25,0784,,,2020-08-30,000,0000,000,0,,2622,,0
0,c0dd5177-acbd-4f95-b8f5-978dc496c94d,34df062b-1096-4a97-97e8-a45e6f0259d0,7,000,0,0,001,54000001000078400,0.0,2079-06-06,Веселая,5473,5473,a81c9c48-10d5-47bc-97f7-f85cc5235240,,50401379000,50701000001,21,e92df4fa-1087-4ebc-98f6-ee7bd49eebf1,000,540000010000784,630133,03255168-a47e-4b1b-a509-54b2ae3767fa,54,ул,2020-08-26,0784,5409,5409,2020-08-30,000,0000,000,0,,2622,,0
1,c0dd5177-acbd-4f95-b8f5-978dc496c94d,a81c9c48-10d5-47bc-97f7-f85cc5235240,7,000,0,0,001,54000001000078400,0.0,2079-06-06,Веселая,5473,5473,,,50401379000,50701000001,21,e92df4fa-1087-4ebc-98f6-ee7bd49eebf1,000,540000010000784,630133,34df062b-1096-4a97-97e8-a45e6f0259d0,54,ул,2020-08-27,0784,5409,5409,2020-08-30,000,0000,000,1,,2622,,0
0,1ad2006d-4a86-4ba5-b4c9-a3cda0bf0911,1ad2006d-4a86-4ba5-b4c9-a3cda0bf0911,91,000,0,0,001,,,2016-09-29,Рябиновая,5405,5405,5d0a22e2-f9fe-4ed5-a676-145e3cc1dd33,,50401379000,50701000,10,e92df4fa-1087-4ebc-98f6-ee7bd49eebf1,000,,630133,,54,ул,2000-01-01,0767,,,2020-08-30,000,0000,000,0,,2622,,0
0,1ad2006d-4a86-4ba5-b4c9-a3cda0bf0911,5d0a22e2-f9fe-4ed5-a676-145e3cc1dd33,7,000,0,0,001,54000001000249601,1.0,2079-06-06,Рябиновая,5405,5405,0372adc4-c0ad-4152-93f9-792ba139b2cb,,50401379000,50701000,51,9d9e292d-a575-41e7-bdf7-fe5d1a479f82,000,540000010002496,630133,1ad2006d-4a86-4ba5-b4c9-a3cda0bf0911,54,ул,2016-09-29,2496,,,2020-08-30,000,0000,000,0,,0197,,0
0,1ad2006d-4a86-4ba5-b4c9-a3cda0bf0911,0372adc4-c0ad-4152-93f9-792ba139b2cb,7,000,0,0,001,54000001000249651,51.0,2020-08-21,Рябиновая,5405,5405,b7260141-5250-434c-9a2d-b32459d7fcb5,,50401379000,50701000001,21,e92df4fa-1087-4ebc-98f6-ee7bd49eebf1,000,540000010002496,,5d0a22e2-f9fe-4ed5-a676-145e3cc1dd33,54,ул,2017-09-26,0767,,,2020-08-30,000,0000,000,0,057d2710-0e61-42ce-875d-9c0bab26a2c2,2622,,0
0,1ad2006d-4a86-4ba5-b4c9-a3cda0bf0911,b7260141-5250-434c-9a2d-b32459d7fcb5,7,000,0,0,001,54000001000076700,0.0,2079-06-06,Рябиновая,5405,5405,c7870d4c-584c-4ad9-8898-b4917ce04607,,50401379000,50701000001,41,e92df4fa-1087-4ebc-98f6-ee7bd49eebf1,000,540000010000767,,0372adc4-c0ad-4152-93f9-792ba139b2cb,54,ул,2020-08-21,0767,,,2020-08-30,000,0000,000,0,,2622,,0
0,1ad2006d-4a86-4ba5-b4c9-a3cda0bf0911,c7870d4c-584c-4ad9-8898-b4917ce04607,7,000,0,0,001,54000001000076700,0.0,2079-06-06,Рябиновая,5473,5405,11d4af8b-0088-49e1-b030-325000b58c69,,50401379000,50701000001,21,e92df4fa-1087-4ebc-98f6-ee7bd49eebf1,000,540000010000767,,b7260141-5250-434c-9a2d-b32459d7fcb5,54,ул,2020-08-24,0767,,,2020-08-30,000,0000,000,0,,2622,,0
0,1ad2006d-4a86-4ba5-b4c9-a3cda0bf0911,11d4af8b-0088-49e1-b030-325000b58c69,7,000,0,0,001,54000001000076700,0.0,2079-06-06,Рябиновая,5473,5473,395d4cdf-48cc-4a44-9ba6-a46547c3b95d,,50401379000,50701000001,21,e92df4fa-1087-4ebc-98f6-ee7bd49eebf1,000,540000010000767,,c7870d4c-584c-4ad9-8898-b4917ce04607,54,ул,2020-08-25,0767,,,2020-08-30,000,0000,000,0,,2622,,0
0,1ad2006d-4a86-4ba5-b4c9-a3cda0bf0911,395d4cdf-48cc-4a44-9ba6-a46547c3b95d,7,000,0,0,001,54000001000076700,0.0,2079-06-06,Рябиновая,5473,5473,60a9db84-f0a7-459c-bb57-e39fc4787474,,50401379000,50701000001,21,e92df4fa-1087-4ebc-98f6-ee7bd49eebf1,000,540000010000767,,11d4af8b-0088-49e1-b030-325000b58c69,54,ул,2020-08-26,0767,5409,5409,2020-08-30,000,0000,000,0,,2622,,0
1,1ad2006d-4a86-4ba5-b4c9-a3cda0bf0911,60a9db84-f0a7-459c-bb57-e39fc4787474,7,000,0,0,001,54000001000076700,0.0,2079-06-06,Рябиновая,5473,5473,,,50401379000,50701000001,21,e92df4fa-1087-4ebc-98f6-ee7bd49eebf1,000,540000010000767,,395d4cdf-48cc-4a44-9ba6-a46547c3b95d,54,ул,2020-08-27,0767,5409,5409,2020-08-30,000,0000,000,1,,2622,,0
1,57e8db83-c966-429d-a466-96f82ee14e6b,57e8db83-c966-429d-a466-96f82ee14e6b,7,008,0,0,000,54008000000020300,0.0,2079-06-06,4-я,5483,5483,,,50215837000,50615437,10,76981abc-440f-43b1-a0de-f0311a2096db,000,540080000000203,633227,,54,ул,2020-09-02,0203,5443,5443,2020-09-03,000,0000,000,1,,0108,,0
0,1543ea12-02e4-419a-8e65-8b814859abed,9e5a9a4b-4ebc-4d91-ad93-85b5d26c59fb,7,008,0,0,000,54008000069000101,1.0,2079-06-06,Заречная,5483,5483,3bedf17c-2b55-4b5c-8e3e-3241a0d72b97,,50215816004,50615416,1,93c517ec-6b18-4c6f-8d5d-43d4963a9754,069,540080000690001,633224,,54,ул,1900-01-01,0001,5443,5443,2020-09-03,000,0000,000,0,,0000,,0
0,1543ea12-02e4-419a-8e65-8b814859abed,3bedf17c-2b55-4b5c-8e3e-3241a0d72b97,7,008,0,0,000,54008000069000102,2.0,2014-12-05,Заречная,5483,5483,021dc138-65b8-4834-8825-cd394a0c1774,,50215816004,50615416116,21,93c517ec-6b18-4c6f-8d5d-43d4963a9754,069,540080000690001,633224,9e5a9a4b-4ebc-4d91-ad93-85b5d26c59fb,54,ул,2014-01-10,0001,5443,5443,2020-09-03,000,0000,000,0,,0000,,0
0,1543ea12-02e4-419a-8e65-8b814859abed,021dc138-65b8-4834-8825-cd394a0c1774,7,008,0,0,000,54008000069000103,3.0,2020-09-02,Заречная,5483,5483,2d1e7c70-9214-4664-a0cd-dac269fee2c0,,50215816000,50615416,21,93c517ec-6b18-4c6f-8d5d-43d4963a9754,069,540080000690001,633222,3bedf17c-2b55-4b5c-8e3e-3241a0d72b97,54,ул,2014-12-05,0001,5443,5443,2020-09-03,000,0000,000,0,,0000,,0
0,1543ea12-02e4-419a-8e65-8b814859abed,2d1e7c70-9214-4664-a0cd-dac269fee2c0,7,008,0,0,000,54008000069000100,0.0,2079-06-06,Заречная,5483,5483,9020bda8-49a3-4480-b304-2e8c7d4e9a81,,50215816000,50615416116,21,93c517ec-6b18-4c6f-8d5d-43d4963a9754,069,540080000690001,633222,021dc138-65b8-4834-8825-cd394a0c1774,54,ул,2017-02-21,0001,5443,5443,2020-09-03,000,0000,000,0,997a3e01-49b9-45cb-b574-8553636f6972,0000,,0
1,1543ea12-02e4-419a-8e65-8b814859abed,9020bda8-49a3-4480-b304-2e8c7d4e9a81,7,008,0,0,000,54008000069000100,0.0,2079-06-06,Заречная,5483,5483,,,50215816004,50615416116,21,93c517ec-6b18-4c6f-8d5d-43d4963a9754,069,540080000690001,633222,2d1e7c70-9214-4664-a0cd-dac269fee2c0,54,ул,2020-09-02,0001,5443,5443,2020-09-03,000,0000,000,1,,0000,,0
1,5fe24464-3996-441d-b04c-ee132a621497,5fe24464-3996-441d-b04c-ee132a621497,7,008,0,0,000,54008000000020400,0.0,2079-06-06,Яблочная,5483,5483,,,50215837000,50615437,10,8ae9f89a-ab9f-49bf-b42c-af1493c9f0f7,000,540080000000204,633227,,54,ул,2020-09-02,0204,5443,5443,2020-09-03,000,0000,000,1,,0110,,0
1,d215ae75-e584-414d-8675-553c65c9cb30,d215ae75-e584-414d-8675-553c65c9cb30,7,000,0,0,002,54000002000030000,0.0,2079-06-06,3-я,5483,5483,,,50408000000,50708000001,10,cd91c03f-f8b4-4cae-809c-66039eaac5ce,000,540000020000300,633000,,54,ул,2020-09-02,0300,5445,5445,2020-09-03,000,0000,000,1,,0636,,0
0,01aefdc1-4c26-4b96-9275-e7d063324fe8,e87ac235-9d96-4f37-8b7a-a5732d8c0455,7,000,0,0,002,54000002000034401,1.0,2020-09-01,СНТ Дружба (Зеленая ул),5445,5445,ecb9bb22-b379-4fc1-ac6f-edb19d7aac4b,,50408000000,50708000,1,fd0191f4-4687-42d9-be64-4ebc7824bd08,000,540000020000344,633009,,54,тер,1900-01-01,0344,,,2020-09-03,000,0000,000,0,,0000,,0
0,01aefdc1-4c26-4b96-9275-e7d063324fe8,ecb9bb22-b379-4fc1-ac6f-edb19d7aac4b,7,000,0,0,002,54000002000034402,2.0,2012-06-09,СНТ Дружба (Зеленая ул),5483,5483,44b1f006-c07d-431a-9030-6beb715eb586,,50408000000,50708000,21,fd0191f4-4687-42d9-be64-4ebc7824bd08,000,540000020000344,633009,e87ac235-9d96-4f37-8b7a-a5732d8c0455,54,тер,2012-01-01,0344,,,2020-09-03,000,0000,000,0,ec218dd7-319c-4869-b709-72680c3c9b16,0000,,0
0,01aefdc1-4c26-4b96-9275-e7d063324fe8,44b1f006-c07d-431a-9030-6beb715eb586,7,000,0,0,002,54000002000034403,3.0,2017-03-14,СНТ Дружба (Зеленая ул),5483,5483,905ef59b-9847-45e5-a458-225d5979b25e,,50408000000,50708000,21,fd0191f4-4687-42d9-be64-4ebc7824bd08,000,540000020000344,633009,ecb9bb22-b379-4fc1-ac6f-edb19d7aac4b,54,тер,2012-06-09,0344,5445,5445,2020-09-03,000,0000,000,0,da6aa0ed-12d7-42a2-a7a0-1e18c9562f47,0000,,0
0,01aefdc1-4c26-4b96-9275-e7d063324fe8,905ef59b-9847-45e5-a458-225d5979b25e,7,000,0,0,002,54000002000034499,99.0,2079-06-06,СНТ Дружба (Зеленая ул),5483,5483,93e0f87c-9287-449e-8cf6-4ebc10a2c447,,50408000000,50708000001,21,fd0191f4-4687-42d9-be64-4ebc7824bd08,000,540000020000344,633009,44b1f006-c07d-431a-9030-6beb715eb586,54,тер,2017-03-14,0344,5445,5445,2020-09-03,000,0000,000,0,bbf4de55-d6f9-4d61-b05d-7c9a8112f638,0000,,0
1,01aefdc1-4c26-4b96-9275-e7d063324fe8,93e0f87c-9287-449e-8cf6-4ebc10a2c447,7,000,0,0,002,54000002000034499,99.0,2079-06-06,СНТ Дружба (Зеленая ул),5483,5483,,,50408000000,50708000001,30,fd0191f4-4687-42d9-be64-4ebc7824bd08,000,540000020000344,633009,905ef59b-9847-45e5-a458-225d5979b25e,54,тер,2020-09-01,0344,5445,5445,2020-09-03,000,0000,000,0,,0000,,0
1,941b7efc-18e3-434f-99e1-bfdb79a49656,941b7efc-18e3-434f-99e1-bfdb79a49656,7,000,0,0,002,54000002000071200,0.0,2079-06-06,16-я,5483,5483,,,50408000000,50708000001,10,cd91c03f-f8b4-4cae-809c-66039eaac5ce,000,540000020000712,633000,,54,ул,2020-09-02,0712,5445,5445,2020-09-03,000,0000,000,1,,0636,,0
1,f6260e6e-1716-4446-b557-f15434be03eb,f6260e6e-1716-4446-b557-f15434be03eb,7,000,0,0,002,54000002000043600,0.0,2079-06-06,8-я,5483,5483,,,50408000000,50708000001,10,cd91c03f-f8b4-4cae-809c-66039eaac5ce,000,540000020000436,633000,,54,ул,2020-09-02,0436,5445,5445,2020-09-03,000,0000,000,1,,0636,,0
1,2c865bd5-7f92-4e4b-aa0f-bd772d6e438a,2c865bd5-7f92-4e4b-aa0f-bd772d6e438a,7,000,0,0,002,54000002000071400,0.0,2079-06-06,18-я,5483,5483,,,50408000000,50708000001,10,cd91c03f-f8b4-4cae-809c-66039eaac5ce,000,540000020000714,633000,,54,ул,2020-09-02,0714,5445,5445,2020-09-03,000,0000,000,1,,0636,,0
1,bcda3d8a-89bc-4c71-9cea-fa897ea5e72e,bcda3d8a-89bc-4c71-9cea-fa897ea5e72e,7,000,0,0,002,54000002000044400,0.0,2079-06-06,13-я,5483,5483,,,50408000000,50708000001,10,cd91c03f-f8b4-4cae-809c-66039eaac5ce,000,540000020000444,633000,,54,ул,2020-09-02,0444,5445,5445,2020-09-03,000,0000,000,1,,0636,,0
1,e5bcd86f-56fb-4c2c-83d8-63734839ad76,e5bcd86f-56fb-4c2c-83d8-63734839ad76,7,000,0,0,002,54000002000043000,0.0,2079-06-06,5-я,5483,5483,,,50408000000,50708000001,10,cd91c03f-f8b4-4cae-809c-66039eaac5ce,000,540000020000430,633000,,54,ул,2020-09-02,0430,5445,5445,2020-09-03,000,0000,000,1,,0636,,0
1,b1596b7d-59eb-47da-9cd0-47dedeb5b5c8,b1596b7d-59eb-47da-9cd0-47dedeb5b5c8,7,000,0,0,002,54000002000030700,0.0,2079-06-06,4-я,5483,5483,,,50408000000,50708000001,10,cd91c03f-f8b4-4cae-809c-66039eaac5ce,000,540000020000307,633000,,54,ул,2020-09-02,0307,5445,5445,2020-09-03,000,0000,000,1,,0636,,0
1,4c2fe613-d4bf-4ff9-ae54-2cda0e7045e5,4c2fe613-d4bf-4ff9-ae54-2cda0e7045e5,7,000,0,0,002,54000002000022500,0.0,2079-06-06,2-я,5483,5483,,,50408000000,50708000001,10,cd91c03f-f8b4-4cae-809c-66039eaac5ce,000,540000020000225,633000,,54,ул,2020-09-02,0225,5445,5445,2020-09-03,000,0000,000,1,,0636,,0
0,2ce195fb-fc4a-4a3a-9492-8be5da769cd6,82bc42c3-6c88-49bb-bac6-79eee3cde892,7,000,0,0,001,54000001000066501,1.0,2079-06-06,Красноярская,,,1033e364-dc95-4b4e-9094-d7f41761970e,,,50701000001,1,8dea00e3-9aab-4d8e-887c-ef2aaa546456,000,540000010000665,630132,,54,ул,1900-01-01,0665,,,2020-09-03,000,0000,000,0,,0000,,0
0,2ce195fb-fc4a-4a3a-9492-8be5da769cd6,1033e364-dc95-4b4e-9094-d7f41761970e,7,000,0,0,001,54000001000066502,2.0,2019-10-31,Красноярская,,5407,28b48ba9-f934-4f87-b516-ad633b67912a,,,50701000001,21,8dea00e3-9aab-4d8e-887c-ef2aaa546456,000,540000010000665,630132,82bc42c3-6c88-49bb-bac6-79eee3cde892,54,ул,2019-10-31,0665,,,2020-09-03,000,0000,000,0,13422b3e-d904-4725-8ebc-c3cd0ca58662,0000,,0
0,2ce195fb-fc4a-4a3a-9492-8be5da769cd6,28b48ba9-f934-4f87-b516-ad633b67912a,7,000,0,0,001,54000001000066500,0.0,2079-06-06,Красноярская,5407,5407,27d1f265-9396-40cf-a149-bf78ca38d4a5,,,50701000001,21,8dea00e3-9aab-4d8e-887c-ef2aaa546456,000,540000010000665,630132,1033e364-dc95-4b4e-9094-d7f41761970e,54,ул,2019-10-31,0665,,,2020-09-03,000,0000,000,0,13422b3e-d904-4725-8ebc-c3cd0ca58662,0000,,0
1,2ce195fb-fc4a-4a3a-9492-8be5da769cd6,27d1f265-9396-40cf-a149-bf78ca38d4a5,7,000,0,0,001,54000001000066500,0.0,2079-06-06,Красноярская,5407,5407,,,50401368000,50701000001,21,8dea00e3-9aab-4d8e-887c-ef2aaa546456,000,540000010000665,630132,28b48ba9-f934-4f87-b516-ad633b67912a,54,ул,2020-09-02,0665,,,2020-09-03,000,0000,000,1,,0000,,0
1,0febaad5-4e6b-4b67-8bfb-a2daabd0cfb9,0febaad5-4e6b-4b67-8bfb-a2daabd0cfb9,7,000,0,0,002,54000002000043800,0.0,2079-06-06,11-я,5483,5483,,,50408000000,50708000001,10,cd91c03f-f8b4-4cae-809c-66039eaac5ce,000,540000020000438,633000,,54,ул,2020-09-02,0438,5445,5445,2020-09-03,000,0000,000,1,,0636,,0
0,e3ed3893-2e9f-4859-b1b6-636aa88b5186,318bdd7c-04cb-43dd-8490-c8644ebd413b,7,000,0,0,001,54000001000198851,51.0,2014-12-01,Золотая Горка СНТ(пр-кт Дзержинского),5401,5401,6e2bc45a-8e0c-486e-9855-e666088a19d5,,50401364000,50701000,1,8dea00e3-9aab-4d8e-887c-ef2aaa546456,000,540000010001988,630010,,54,тер,1900-01-01,1988,,,2020-09-03,000,0000,000,0,,0000,,0
0,e3ed3893-2e9f-4859-b1b6-636aa88b5186,6e2bc45a-8e0c-486e-9855-e666088a19d5,90,000,0,0,001,54000001000198801,1.0,2016-09-08,Золотая Горка СНТ(пр-кт Дзержинского),5401,5401,4f6a6b17-93e0-4adb-8275-335d72f2b487,,50401364000,50701000,20,8dea00e3-9aab-4d8e-887c-ef2aaa546456,000,540000010001988,630010,318bdd7c-04cb-43dd-8490-c8644ebd413b,54,снт,2014-12-01,0000,,,2020-09-03,000,0000,000,0,,0000,,0
0,e3ed3893-2e9f-4859-b1b6-636aa88b5186,4f6a6b17-93e0-4adb-8275-335d72f2b487,90,000,0,0,001,54000001000198851,51.0,2016-09-28,Золотая Горка СНТ,5401,5401,387d40a5-5603-4b28-b7af-f43268a78cdf,,50401364000,50701000,20,8dea00e3-9aab-4d8e-887c-ef2aaa546456,000,540000010001988,630051,6e2bc45a-8e0c-486e-9855-e666088a19d5,54,снт,2016-09-08,0000,,,2020-09-03,000,0000,000,0,e6930e2d-e6d5-4f11-b1a8-410746971ec8,1988,,2
0,e3ed3893-2e9f-4859-b1b6-636aa88b5186,387d40a5-5603-4b28-b7af-f43268a78cdf,65,000,0,0,001,54000001000198802,2.0,2020-09-01,Золотая Горка СНТ,5401,5401,3db2656d-d2f3-406a-bda5-ccb864e348ae,,50401364000,50701000,50,8dea00e3-9aab-4d8e-887c-ef2aaa546456,000,540000010001988,,4f6a6b17-93e0-4adb-8275-335d72f2b487,54,снт,2016-09-28,0000,,,2020-09-03,000,0000,000,0,,1988,,0
0,e3ed3893-2e9f-4859-b1b6-636aa88b5186,3db2656d-d2f3-406a-bda5-ccb864e348ae,65,000,0,0,001,54000001000198803,3.0,2020-09-01,Золотая Горка СНТ,5401,5401,e98b3ca6-03bb-4271-8386-39346996c469,,50401364000,50701000001,21,8dea00e3-9aab-4d8e-887c-ef2aaa546456,000,540000010001988,,387d40a5-5603-4b28-b7af-f43268a78cdf,54,снт,2017-09-26,0000,,,2020-09-03,000,0000,000,0,057d2710-0e61-42ce-875d-9c0bab26a2c2,1988,,0
0,e3ed3893-2e9f-4859-b1b6-636aa88b5186,e98b3ca6-03bb-4271-8386-39346996c469,65,000,0,0,001,54000001000198803,3.0,2079-06-06,Золотая Горка СНТ,5401,5401,1ff8a2bf-0b08-457e-9d29-e06b737414eb,,50401364000,50701000001,21,8dea00e3-9aab-4d8e-887c-ef2aaa546456,000,540000010001988,,3db2656d-d2f3-406a-bda5-ccb864e348ae,54,снт,2020-07-13,0000,,,2020-09-03,000,0000,000,0,,1988,,0
1,e3ed3893-2e9f-4859-b1b6-636aa88b5186,1ff8a2bf-0b08-457e-9d29-e06b737414eb,65,000,0,0,001,54000001000198800,0.0,2079-06-06,Золотая Горка,5401,5401,,,50401364000,50701000001,20,8dea00e3-9aab-4d8e-887c-ef2aaa546456,000,540000010001988,,e98b3ca6-03bb-4271-8386-39346996c469,54,тер. СНТ,2020-09-01,0000,,,2020-09-03,000,0000,000,1,,1988,,0
1,980362ea-f286-47dc-bb49-2e2054e84d7c,980362ea-f286-47dc-bb49-2e2054e84d7c,7,001,0,0,000,54001000000160000,0.0,2079-06-06,Цветочная,5475,5475,,,50240819000,50640419,10,30816283-8724-481c-af71-7383b47a9b6b,000,540010000001600,,,54,ул,2020-08-31,1600,5433,5433,2020-09-03,000,0000,000,1,,1161,,0
1,53dc8c2e-92bc-4853-8f28-081cd7ec5774,53dc8c2e-92bc-4853-8f28-081cd7ec5774,7,000,0,0,002,54000002000043300,0.0,2079-06-06,7-я,5483,5483,,,50408000000,50708000001,10,cd91c03f-f8b4-4cae-809c-66039eaac5ce,000,540000020000433,633000,,54,ул,2020-09-02,0433,5445,5445,2020-09-03,000,0000,000,1,,0636,,0
1,76482f65-6c74-420d-bdfa-3e6c4fd5e81a,76482f65-6c74-420d-bdfa-3e6c4fd5e81a,7,000,0,0,002,54000002000071900,0.0,2079-06-06,23-я,5483,5483,,,50408000000,50708000001,10,cd91c03f-f8b4-4cae-809c-66039eaac5ce,000,540000020000719,633000,,54,ул,2020-09-02,0719,5445,5445,2020-09-03,000,0000,000,1,,0636,,0
1,0370f47a-af32-41c0-b487-019cbab277a1,0370f47a-af32-41c0-b487-019cbab277a1,7,000,0,0,002,54000002000071300,0.0,2079-06-06,17-я,5483,5483,,,50408000000,50708000001,10,cd91c03f-f8b4-4cae-809c-66039eaac5ce,000,540000020000713,633000,,54,ул,2020-09-02,0713,5445,5445,2020-09-03,000,0000,000,1,,0636,,0
0,274ed638-ccd0-4a53-b03a-961ebb628137,2749b132-b829-4f0c-b215-d13baaa66612,7,008,0,0,000,54008000069000201,1.0,2079-06-06,Школьная,5483,5483,afc1a08c-722c-4687-a34a-30f01cb29bc6,,50215816004,50615416,1,93c517ec-6b18-4c6f-8d5d-43d4963a9754,069,540080000690002,633224,,54,ул,1900-01-01,0002,5443,5443,2020-09-03,000,0000,000,0,,0000,,0
0,274ed638-ccd0-4a53-b03a-961ebb628137,afc1a08c-722c-4687-a34a-30f01cb29bc6,7,008,0,0,000,54008000069000202,2.0,2014-12-05,Школьная,5483,5483,b2611a53-200d-4719-a15f-0a96fa70a291,,50215816004,50615416116,21,93c517ec-6b18-4c6f-8d5d-43d4963a9754,069,540080000690002,633224,2749b132-b829-4f0c-b215-d13baaa66612,54,ул,2014-01-10,0002,5443,5443,2020-09-03,000,0000,000,0,,0000,,0
0,274ed638-ccd0-4a53-b03a-961ebb628137,b2611a53-200d-4719-a15f-0a96fa70a291,7,008,0,0,000,54008000069000203,3.0,2020-09-02,Школьная,5483,5483,dc328b1f-2c94-468a-9577-2fb71b520c8b,,50215816000,50615416,21,93c517ec-6b18-4c6f-8d5d-43d4963a9754,069,540080000690002,633222,afc1a08c-722c-4687-a34a-30f01cb29bc6,54,ул,2014-12-05,0002,5443,5443,2020-09-03,000,0000,000,0,,0000,,0
0,274ed638-ccd0-4a53-b03a-961ebb628137,dc328b1f-2c94-468a-9577-2fb71b520c8b,7,008,0,0,000,54008000069000200,0.0,2079-06-06,Школьная,5483,5483,46a0512d-f3ad-46db-a690-a065b3fb64ae,,50215816000,50615416116,21,93c517ec-6b18-4c6f-8d5d-43d4963a9754,069,540080000690002,633222,b2611a53-200d-4719-a15f-0a96fa70a291,54,ул,2017-02-21,0002,5443,5443,2020-09-03,000,0000,000,0,997a3e01-49b9-45cb-b574-8553636f6972,0000,,0
1,274ed638-ccd0-4a53-b03a-961ebb628137,46a0512d-f3ad-46db-a690-a065b3fb64ae,7,008,0,0,000,54008000069000200,0.0,2079-06-06,Школьная,5483,5483,,,50215816004,50615416116,21,93c517ec-6b18-4c6f-8d5d-43d4963a9754,069,540080000690002,633222,dc328b1f-2c94-468a-9577-2fb71b520c8b,54,ул,2020-09-02,0002,5443,5443,2020-09-03,000,0000,000,1,,0000,,0
1,017a83cc-ae5e-41ce-8f81-524cda35ba4b,017a83cc-ae5e-41ce-8f81-524cda35ba4b,7,000,0,0,008,54000008000009000,0.0,2079-06-06,Виноградная,5475,5475,,,50240552000,50740000051,10,4c7887bc-ce8f-438a-b41c-67fd4ff442fd,000,540000080000090,,,54,ул,2020-08-31,0090,5433,5433,2020-09-03,000,0000,000,1,,0000,,0
1,55843455-e07f-4f04-b435-db21ac961ecd,55843455-e07f-4f04-b435-db21ac961ecd,7,000,0,0,002,54000002000071000,0.0,2079-06-06,14-я,5483,5483,,,50408000000,50708000001,10,cd91c03f-f8b4-4cae-809c-66039eaac5ce,000,540000020000710,633000,,54,ул,2020-09-02,0710,5445,5445,2020-09-03,000,0000,000,1,,0636,,0
1,aaa5a804-b8a4-40c3-b4a2-a2089d6102c3,aaa5a804-b8a4-40c3-b4a2-a2089d6102c3,65,019,0,0,000,54019000000002300,0.0,2079-06-06,ДНТ Индия,5475,5475,,,50238804000,50638404,10,6c663cc6-2761-4102-927a-8252c5dc4fdc,000,540190000000023,,,54,тер.,2020-09-01,0000,5432,5432,2020-09-03,000,0000,000,1,,0023,,0
1,e0578699-1393-4bc0-9824-b6ae59bb99da,e0578699-1393-4bc0-9824-b6ae59bb99da,7,000,0,0,002,54000002000044200,0.0,2079-06-06,12-я,5483,5483,,,50408000000,50708000001,10,cd91c03f-f8b4-4cae-809c-66039eaac5ce,000,540000020000442,633000,,54,ул,2020-09-02,0442,5445,5445,2020-09-03,000,0000,000,1,,0636,,0
1,f7c1422f-e22e-4b70-bfd3-218b00fae3a4,f7c1422f-e22e-4b70-bfd3-218b00fae3a4,7,000,0,0,002,54000002000072000,0.0,2079-06-06,9-я,5483,5483,,,50408000000,50708000001,10,cd91c03f-f8b4-4cae-809c-66039eaac5ce,000,540000020000720,633000,,54,ул,2020-09-02,0720,5445,5445,2020-09-03,000,0000,000,1,,0636,,0
1,8d4d03a0-98d4-451a-977a-a4b733bdc9d7,8d4d03a0-98d4-451a-977a-a4b733bdc9d7,7,000,0,0,002,54000002000071700,0.0,2079-06-06,21-я,5483,5483,,,50408000000,50708000001,10,cd91c03f-f8b4-4cae-809c-66039eaac5ce,000,540000020000717,633000,,54,ул,2020-09-02,0717,5445,5445,2020-09-03,000,0000,000,1,,0636,,0
1,eda51584-82bf-496d-a872-996259d25e14,eda51584-82bf-496d-a872-996259d25e14,7,000,0,0,002,54000002000022400,0.0,2079-06-06,1-я,5483,5483,,,50408000000,50708000001,10,cd91c03f-f8b4-4cae-809c-66039eaac5ce,000,540000020000224,633000,,54,ул,2020-09-02,0224,5445,5445,2020-09-03,000,0000,000,1,,0636,,0
0,a73d5ad0-eb3b-4931-8a89-704569b7b620,fe5cef50-56d2-4497-bf84-00f65054151c,6,001,0,0,000,5400100002401,1.0,2020-09-01,Издревая,5475,5475,c4b173c1-805a-47c7-9eb9-e650db466dfd,,50240802003,50640402,1,16932400-c8e3-4a17-8c57-d96f30a183ce,024,54001000024,630554,,54,ст,1900-01-01,0000,5433,5433,2020-09-03,000,0000,000,0,,0000,,0
0,a73d5ad0-eb3b-4931-8a89-704569b7b620,c4b173c1-805a-47c7-9eb9-e650db466dfd,6,001,0,0,000,5400100002402,2.0,2020-09-01,Издревая,5475,5475,f64d05a4-982a-4746-91b8-23d063ecfcd9,,50240802003,50640402136,21,16932400-c8e3-4a17-8c57-d96f30a183ce,024,54001000024,630554,fe5cef50-56d2-4497-bf84-00f65054151c,54,ст,2014-01-10,0000,5433,5433,2020-09-03,000,0000,000,0,,0000,,0
1,a73d5ad0-eb3b-4931-8a89-704569b7b620,f64d05a4-982a-4746-91b8-23d063ecfcd9,6,001,0,0,000,5400100002400,0.0,2079-06-06,Издревая,5475,5475,,,50240802003,50640402136,20,16932400-c8e3-4a17-8c57-d96f30a183ce,024,54001000024,630554,c4b173c1-805a-47c7-9eb9-e650db466dfd,54,ж/д_ст,2020-09-01,0000,5433,5433,2020-09-03,000,0000,000,1,,0000,,0
1,18426550-5600-4fda-92be-07de287f3223,18426550-5600-4fda-92be-07de287f3223,7,000,0,0,002,54000002000071100,0.0,2079-06-06,15-я,5483,5483,,,50408000000,50708000001,10,cd91c03f-f8b4-4cae-809c-66039eaac5ce,000,540000020000711,633000,,54,ул,2020-09-02,0711,5445,5445,2020-09-03,000,0000,000,1,,0636,,0
1,df7319e5-a2e9-4d1b-ae65-a9a6a352a001,df7319e5-a2e9-4d1b-ae65-a9a6a352a001,7,000,0,0,002,54000002000043700,0.0,2079-06-06,10-я,5483,5483,,,50408000000,50708000001,10,cd91c03f-f8b4-4cae-809c-66039eaac5ce,000,540000020000437,633000,,54,ул,2020-09-02,0437,5445,5445,2020-09-03,000,0000,000,1,,0636,,0
1,9cf838fe-ec34-461f-bb45-bcfd610b370b,9cf838fe-ec34-461f-bb45-bcfd610b370b,7,000,0,0,002,54000002000043200,0.0,2079-06-06,6-я,5483,5483,,,50408000000,50708000001,10,cd91c03f-f8b4-4cae-809c-66039eaac5ce,000,540000020000432,633000,,54,ул,2020-09-02,0432,5445,5445,2020-09-03,000,0000,000,1,,0636,,0
1,834e8309-45cd-47af-97d0-abe104b8ed27,834e8309-45cd-47af-97d0-abe104b8ed27,7,000,0,0,002,54000002000071500,0.0,2079-06-06,19-я,5483,5483,,,50408000000,50708000001,10,cd91c03f-f8b4-4cae-809c-66039eaac5ce,000,540000020000715,633000,,54,ул,2020-09-02,0715,5445,5445,2020-09-03,000,0000,000,1,,0636,,0
1,e48b5682-eaa2-4abf-8a37-d30b2519c889,e48b5682-eaa2-4abf-8a37-d30b2519c889,7,000,0,0,002,54000002000071800,0.0,2079-06-06,22-я,5483,5483,,,50408000000,50708000001,10,cd91c03f-f8b4-4cae-809c-66039eaac5ce,000,540000020000718,633000,,54,ул,2020-09-02,0718,5445,5445,2020-09-03,000,0000,000,1,,0636,,0
1,776909f7-13e2-4b6f-bf5c-b1e868f647be,776909f7-13e2-4b6f-bf5c-b1e868f647be,7,000,0,0,002,54000002000071600,0.0,2079-06-06,20-я,5483,5483,,,50408000000,50708000001,10,cd91c03f-f8b4-4cae-809c-66039eaac5ce,000,540000020000716,633000,,54,ул,2020-09-02,0716,5445,5445,2020-09-03,000,0000,000,1,,0636,,0
0,93c517ec-6b18-4c6f-8d5d-43d4963a9754,0a742103-9cb5-4d0f-8168-9245fcea5acf,6,008,0,0,000,5400800006901,1.0,2079-06-06,Старососедово,5483,5483,81d68c80-cc4a-4785-9119-bf3a3b63b067,,50215816004,50615416,1,9e297e5e-63de-47da-a2e0-0049ef8ef37b,069,54008000069,633224,,54,д,1900-01-01,0000,5443,5443,2020-09-03,000,0000,000,0,,0000,,0
0,93c517ec-6b18-4c6f-8d5d-43d4963a9754,81d68c80-cc4a-4785-9119-bf3a3b63b067,6,008,0,0,000,5400800006902,2.0,2014-12-05,Старососедово,5483,5483,01b8a113-bf01-45ce-b7e2-d44445878da6,,50215816004,50615416116,21,9e297e5e-63de-47da-a2e0-0049ef8ef37b,069,54008000069,633224,0a742103-9cb5-4d0f-8168-9245fcea5acf,54,д,2014-01-10,0000,5443,5443,2020-09-03,000,0000,000,0,,0000,,0
0,93c517ec-6b18-4c6f-8d5d-43d4963a9754,01b8a113-bf01-45ce-b7e2-d44445878da6,6,008,0,0,000,5400800006903,3.0,2020-09-02,Старососедово,5483,5483,7afbb4fc-ce63-4586-8a34-acff10de489b,,50215816000,50615416,21,9e297e5e-63de-47da-a2e0-0049ef8ef37b,069,54008000069,633222,81d68c80-cc4a-4785-9119-bf3a3b63b067,54,д,2014-12-05,0000,5443,5443,2020-09-03,000,0000,000,0,,0000,,0
0,93c517ec-6b18-4c6f-8d5d-43d4963a9754,7afbb4fc-ce63-4586-8a34-acff10de489b,6,008,0,0,000,5400800006900,0.0,2079-06-06,Старососедово,5483,5483,f07ab215-46ad-40bb-9d73-1f1cf90ffd8b,,50215816000,50615416116,21,9e297e5e-63de-47da-a2e0-0049ef8ef37b,069,54008000069,633222,01b8a113-bf01-45ce-b7e2-d44445878da6,54,д,2017-02-21,0000,5443,5443,2020-09-03,000,0000,000,0,997a3e01-49b9-45cb-b574-8553636f6972,0000,,0
1,93c517ec-6b18-4c6f-8d5d-43d4963a9754,f07ab215-46ad-40bb-9d73-1f1cf90ffd8b,6,008,0,0,000,5400800006900,0.0,2079-06-06,Старососедово,5483,5483,,,50215816004,50615416116,21,9e297e5e-63de-47da-a2e0-0049ef8ef37b,069,54008000069,633222,7afbb4fc-ce63-4586-8a34-acff10de489b,54,д,2020-09-02,0000,5443,5443,2020-09-03,000,0000,000,1,,0000,,0
0,e461bd5a-33fe-49c5-9e5d-6c59546bfffb,e461bd5a-33fe-49c5-9e5d-6c59546bfffb,90,000,0,0,001,54000001000236751,51.0,2016-09-29,Трудовые резервы,5404,5404,3d1fe51a-9a5b-449e-91e7-876d507e5e19,,50401377000,50701000,10,8dea00e3-9aab-4d8e-887c-ef2aaa546456,000,540000010002367,630052,,54,снт,2010-01-01,0000,,,2020-09-03,000,0000,000,0,,0000,,0
0,e461bd5a-33fe-49c5-9e5d-6c59546bfffb,3d1fe51a-9a5b-449e-91e7-876d507e5e19,65,000,0,0,001,54000001000236701,1.0,2020-09-01,Трудовые резервы,5404,5404,454e8369-ee24-4043-b786-c347ea1a921f,,50401377000,50701000,50,8dea00e3-9aab-4d8e-887c-ef2aaa546456,000,540000010002367,630052,e461bd5a-33fe-49c5-9e5d-6c59546bfffb,54,снт,2016-09-29,0000,,,2020-09-03,000,0000,000,0,,2367,,0
0,e461bd5a-33fe-49c5-9e5d-6c59546bfffb,454e8369-ee24-4043-b786-c347ea1a921f,65,000,0,0,001,54000001000236700,0.0,2020-09-01,Трудовые резервы,5404,5404,cef947b6-7e8c-4c0f-872f-60f3a065cb04,,50401377000,50701000001,21,8dea00e3-9aab-4d8e-887c-ef2aaa546456,000,540000010002367,630052,3d1fe51a-9a5b-449e-91e7-876d507e5e19,54,снт,2017-09-26,0000,,,2020-09-03,000,0000,000,0,057d2710-0e61-42ce-875d-9c0bab26a2c2,2367,,0
1,e461bd5a-33fe-49c5-9e5d-6c59546bfffb,cef947b6-7e8c-4c0f-872f-60f3a065cb04,65,000,0,0,001,54000001000236700,0.0,2079-06-06,Трудовые резервы,5404,5404,,,50401377000,50701000001,40,8dea00e3-9aab-4d8e-887c-ef2aaa546456,000,540000010002367,630052,454e8369-ee24-4043-b786-c347ea1a921f,54,тер. СНТ,2020-09-01,0000,,,2020-09-03,000,0000,000,1,,2367,,0
1,6af8cdc5-a5dd-402d-9171-b534e6ef2d7e,6af8cdc5-a5dd-402d-9171-b534e6ef2d7e,7,012,0,0,000,54012000000035500,0.0,2079-06-06,Сиреневая,5456,5456,,,50223822000,50623422,10,5399bfed-0628-48b2-8649-0f71b421a23d,000,540120000000355,632660,,54,ул,2020-08-13,0355,5425,5425,2020-08-16,000,0000,000,1,,0004,,0
1,e1a1d4d1-e3e4-44fe-ad67-9bb27aa9d9ce,e1a1d4d1-e3e4-44fe-ad67-9bb27aa9d9ce,65,023,0,0,000,54023000000000100,0.0,2079-06-06,автотрасса Байкал,5474,5474,,,50250831000,50650431,10,fd31a50b-9717-4c77-99fd-d58a27a9ebe4,000,540230000000001,,,54,тер.,2020-08-14,0000,5453,5453,2020-08-16,000,0000,000,1,,0001,,0
1,9dc7adab-2305-470e-86a6-06a5f44466ad,9dc7adab-2305-470e-86a6-06a5f44466ad,7,012,0,0,000,54012000000035300,0.0,2079-06-06,Майская,5456,5456,,,50223822000,50623422,10,5399bfed-0628-48b2-8649-0f71b421a23d,000,540120000000353,632660,,54,ул,2020-08-13,0353,5425,5425,2020-08-16,000,0000,000,1,,0004,,0
1,2845cb0a-13ea-407f-86cb-67c34d21c33e,2845cb0a-13ea-407f-86cb-67c34d21c33e,7,012,0,0,000,54012000000034900,0.0,2079-06-06,Дачная,5456,5456,,,50223822000,50623422,10,5399bfed-0628-48b2-8649-0f71b421a23d,000,540120000000349,632660,,54,ул,2020-08-13,0349,5425,5425,2020-08-16,000,0000,000,1,,0004,,0
1,253eaa2d-0c4d-46c9-92e1-c94afeae0a67,253eaa2d-0c4d-46c9-92e1-c94afeae0a67,7,012,0,0,000,54012000000035100,0.0,2079-06-06,Луговая,5456,5456,,,50223822000,50623422,10,5399bfed-0628-48b2-8649-0f71b421a23d,000,540120000000351,632660,,54,ул,2020-08-13,0351,5425,5425,2020-08-16,000,0000,000,1,,0004,,0
1,a0b57657-1ea2-45f8-9331-c099049b6a27,a0b57657-1ea2-45f8-9331-c099049b6a27,7,012,0,0,000,54012000000035000,0.0,2079-06-06,Березовая,5456,5456,,,50223822000,50623422,10,5399bfed-0628-48b2-8649-0f71b421a23d,000,540120000000350,632660,,54,ул,2020-08-13,0350,5425,5425,2020-08-16,000,0000,000,1,,0004,,0
1,1e017f6c-7588-4d05-97a0-64a3b313e12a,1e017f6c-7588-4d05-97a0-64a3b313e12a,7,012,0,0,000,54012000000035400,0.0,2079-06-06,Солнечная,5456,5456,,,50223822000,50623422,10,5399bfed-0628-48b2-8649-0f71b421a23d,000,540120000000354,632660,,54,ул,2020-08-13,0354,5425,5425,2020-08-16,000,0000,000,1,,0004,,0
0,8a22bdab-d113-4e55-b61b-978ea1fafc1a,8a22bdab-d113-4e55-b61b-978ea1fafc1a,90,000,0,0,005,54000005000022851,51.0,2016-09-29,Дружба,5483,5483,cafb3782-7e96-4af7-95bd-d092f56848d6,,50412000000,50712000,10,6965fcac-b7e4-4cab-ab35-a591ed65edf5,000,540000050000228,633000,,54,снт,1970-01-01,0000,5446,5446,2020-08-16,000,0000,000,0,,0000,,0
0,8a22bdab-d113-4e55-b61b-978ea1fafc1a,cafb3782-7e96-4af7-95bd-d092f56848d6,65,000,0,0,005,54000005000022801,1.0,2020-08-14,Дружба,5483,5483,e6b5d680-51bf-41ba-a8d5-3fba9521243e,,50412000000,50712000,50,6965fcac-b7e4-4cab-ab35-a591ed65edf5,000,540000050000228,633000,8a22bdab-d113-4e55-b61b-978ea1fafc1a,54,снт,2016-09-29,0000,5446,5446,2020-08-16,000,0000,000,0,,0228,,0
0,8a22bdab-d113-4e55-b61b-978ea1fafc1a,e6b5d680-51bf-41ba-a8d5-3fba9521243e,65,000,0,0,005,54000005000022802,2.0,2020-08-14,Дружба,5483,5483,6aa84118-926a-4faf-873f-90d41c7b6536,,50412000000,50712000001,21,6965fcac-b7e4-4cab-ab35-a591ed65edf5,000,540000050000228,633000,cafb3782-7e96-4af7-95bd-d092f56848d6,54,снт,2017-09-26,0000,5446,5446,2020-08-16,000,0000,000,0,057d2710-0e61-42ce-875d-9c0bab26a2c2,0228,,0
1,8a22bdab-d113-4e55-b61b-978ea1fafc1a,6aa84118-926a-4faf-873f-90d41c7b6536,65,000,0,0,005,54000005000022800,0.0,2079-06-06,Дружба,5483,5483,,,50412000000,50712000001,20,6965fcac-b7e4-4cab-ab35-a591ed65edf5,000,540000050000228,633000,e6b5d680-51bf-41ba-a8d5-3fba9521243e,54,тер. СНТ,2020-08-14,0000,5446,5446,2020-08-16,000,0000,000,1,,0228,,0
1,448de73f-fb6d-4625-94eb-fc2b1d496dc5,448de73f-fb6d-4625-94eb-fc2b1d496dc5,7,012,0,0,000,54012000000035200,0.0,2079-06-06,Малиновая,5456,5456,,,50223822000,50623422,10,5399bfed-0628-48b2-8649-0f71b421a23d,000,540120000000352,632660,,54,ул,2020-08-13,0352,5425,5425,2020-08-16,000,0000,000,1,,0004,,0
1,d8a1f26f-bcf0-4db4-a799-3c0eb7255b30,d8a1f26f-bcf0-4db4-a799-3c0eb7255b30,7,012,0,0,000,54012000000034800,0.0,2079-06-06,Заречная,5456,5456,,,50223822000,50623422,10,5399bfed-0628-48b2-8649-0f71b421a23d,000,540120000000348,632660,,54,ул,2020-08-13,0348,5425,5425,2020-08-16,000,0000,000,1,,0004,,0
0,6f12095f-ad51-4155-ae95-4c0d87092d12,955eba91-ba63-4b51-87ea-aa848f0c23cd,7,000,0,0,003,54000003000001201,1.0,2079-06-06,Геодезическая,5475,5475,59c38ce2-757d-4384-9d08-8c03c1139c17,,50417000000,50717000,1,8571e389-8c43-4c36-afae-b532d078c928,000,540000030000012,633102,,54,ул,1900-01-01,0012,5448,5448,2020-08-20,000,0000,000,0,,0000,,0
0,6f12095f-ad51-4155-ae95-4c0d87092d12,59c38ce2-757d-4384-9d08-8c03c1139c17,7,000,0,0,003,54000003000001200,0.0,2079-06-06,Геодезическая,5475,5475,4585e7d5-61a0-4d24-ba83-1cf8d3a5711f,,50417000000,50717000001,21,8571e389-8c43-4c36-afae-b532d078c928,000,540000030000012,,955eba91-ba63-4b51-87ea-aa848f0c23cd,54,ул,2017-09-26,0012,,,2020-08-20,000,0000,000,0,057d2710-0e61-42ce-875d-9c0bab26a2c2,0000,,0
0,6f12095f-ad51-4155-ae95-4c0d87092d12,4585e7d5-61a0-4d24-ba83-1cf8d3a5711f,7,000,0,0,003,54000003000001200,0.0,2079-06-06,Геодезическая,5475,5475,1556f089-634f-44cb-ab1a-bbd3da83846b,,50417000000,50717000001,21,8571e389-8c43-4c36-afae-b532d078c928,000,540000030000012,,59c38ce2-757d-4384-9d08-8c03c1139c17,54,ул,2020-08-17,0012,5448,5448,2020-08-20,000,0000,000,0,,0000,,0
1,6f12095f-ad51-4155-ae95-4c0d87092d12,1556f089-634f-44cb-ab1a-bbd3da83846b,7,000,0,0,003,54000003000001200,0.0,2079-06-06,Геодезическая,5475,5475,,,50417000000,50717000001,21,8571e389-8c43-4c36-afae-b532d078c928,000,540000030000012,,4585e7d5-61a0-4d24-ba83-1cf8d3a5711f,54,ул,2020-08-18,0012,5448,5448,2020-08-20,000,0000,000,1,,0000,,0
1,e6c297a6-86aa-4d56-b9b7-2302de53e5f9,e6c297a6-86aa-4d56-b9b7-2302de53e5f9,7,012,0,0,000,54012000000035800,0.0,2079-06-06,Садовая,5456,5456,,,50223837000,50623437,10,415c6ce9-afb8-4a3c-9716-87cf37278365,000,540120000000358,,,54,ул,2020-08-19,0358,5425,5425,2020-08-20,000,0000,000,1,,0318,,0
1,d546c7fa-1a27-475e-8105-5b39d7be67c4,d546c7fa-1a27-475e-8105-5b39d7be67c4,65,012,0,0,000,54012000000035700,0.0,2079-06-06,Тюльпан,5456,5456,,,50223837000,50623437,10,a0d8802b-5dbb-40ab-87b4-e72d3dc15808,000,540120000000357,,,54,тер. СНТ,2020-08-19,0000,5425,5425,2020-08-20,000,0000,000,1,,0357,,0
0,8c805af0-8ba8-43e4-8f68-8ead5af3271c,caa1a1b6-8062-43ee-b9ba-05e306bdc262,6,000,0,0,001,5400000101001,1.0,1900-01-01,СНТ Звездочка (Первомайский р-н),5473,5473,39a143e7-845c-452a-9ecb-fbc4edb33a35,,50401382000,50701000,1,8dea00e3-9aab-4d8e-887c-ef2aaa546456,010,54000001010,630069,,54,тер,1900-01-01,0000,5409,5409,2020-08-20,000,0000,000,0,,0000,,0
0,8c805af0-8ba8-43e4-8f68-8ead5af3271c,39a143e7-845c-452a-9ecb-fbc4edb33a35,6,000,0,0,001,5400000101051,51.0,2000-01-01,Звездочка СНТ (Первомайский р-н),5473,5473,3ea0a556-165a-4c29-80f0-f98ab9bf9337,,50401382000,50701000,1,8dea00e3-9aab-4d8e-887c-ef2aaa546456,000,54000001010,630069,caa1a1b6-8062-43ee-b9ba-05e306bdc262,54,тер,1900-01-01,0000,5409,5409,2020-08-20,000,0000,000,0,,2314,,0
0,8c805af0-8ba8-43e4-8f68-8ead5af3271c,3ea0a556-165a-4c29-80f0-f98ab9bf9337,90,000,0,0,001,54000001000231451,51.0,2016-09-28,Звездочка (Первомайский р-н),5473,5473,e2577541-c196-458e-889b-876dc7beda46,,50401382000,50701000,20,8dea00e3-9aab-4d8e-887c-ef2aaa546456,000,540000010002314,630069,39a143e7-845c-452a-9ecb-fbc4edb33a35,54,снт,2000-01-01,0000,5409,5409,2020-08-20,000,0000,000,0,,0000,,0
0,8c805af0-8ba8-43e4-8f68-8ead5af3271c,e2577541-c196-458e-889b-876dc7beda46,65,000,0,0,001,54000001000231402,2.0,2020-08-19,Звездочка (Первомайский р-н),5473,5473,2a8f8e61-189e-4283-977d-313d2a7b264b,,50401382000,50701000,50,8dea00e3-9aab-4d8e-887c-ef2aaa546456,000,540000010002314,630069,3ea0a556-165a-4c29-80f0-f98ab9bf9337,54,снт,2016-09-28,0000,5409,5409,2020-08-20,000,0000,000,0,,2314,,0
0,8c805af0-8ba8-43e4-8f68-8ead5af3271c,2a8f8e61-189e-4283-977d-313d2a7b264b,65,000,0,0,001,54000001000231403,3.0,2018-11-21,Звездочка (Первомайский р-н),5473,5473,1b34bc06-a883-4b3d-a72d-fbb90ac0d068,,50401382000,50701000001,21,8dea00e3-9aab-4d8e-887c-ef2aaa546456,000,540000010002314,630069,e2577541-c196-458e-889b-876dc7beda46,54,снт,2017-09-26,0000,5409,5409,2020-08-20,000,0000,000,0,057d2710-0e61-42ce-875d-9c0bab26a2c2,2314,,0
0,8c805af0-8ba8-43e4-8f68-8ead5af3271c,1b34bc06-a883-4b3d-a72d-fbb90ac0d068,65,000,0,0,001,54000001000231404,4.0,2020-08-19,Звездочка (Первомайский р-н),5473,5473,8dbe1d4a-1a4c-40ce-9eb1-13b343e391a1,,50401382000,50701000001,21,8dea00e3-9aab-4d8e-887c-ef2aaa546456,000,540000010002314,630060,2a8f8e61-189e-4283-977d-313d2a7b264b,54,снт,2018-11-21,0000,5409,5409,2020-08-20,000,0000,000,0,17070235-67ed-48e0-9884-a87f18c5eecf,2314,,0
1,8c805af0-8ba8-43e4-8f68-8ead5af3271c,8dbe1d4a-1a4c-40ce-9eb1-13b343e391a1,65,000,0,0,001,54000001000231400,0.0,2079-06-06,Звездочка,5473,5473,,,50401382000,50701000001,20,8dea00e3-9aab-4d8e-887c-ef2aaa546456,000,540000010002314,630060,1b34bc06-a883-4b3d-a72d-fbb90ac0d068,54,тер. СНТ,2020-08-19,0000,5409,5409,2020-08-20,000,0000,000,1,,2314,,0
0,23168dbe-443f-4422-adb4-a7adab61b4cf,3a5d8543-98f1-41cb-a058-c27f84411343,6,000,0,0,001,5400000104101,1.0,2018-04-05,Инской узел СНТ (Первомайский р-н),5473,5473,492c0250-4bc1-4da6-baef-53427030ac69,,50401000000,50701000,1,8dea00e3-9aab-4d8e-887c-ef2aaa546456,041,54000001041,630000,,54,тер,1900-01-01,0000,5409,5409,2020-08-20,000,0000,000,0,,0000,,0
0,23168dbe-443f-4422-adb4-a7adab61b4cf,492c0250-4bc1-4da6-baef-53427030ac69,6,000,0,0,001,5400000104151,51.0,2018-04-05,Инской узел СНТ (Первомайский р-н),5473,5473,989af257-5b15-4266-b29f-011366b4df24,,50401000000,50701000001,21,8dea00e3-9aab-4d8e-887c-ef2aaa546456,000,54000001041,630000,3a5d8543-98f1-41cb-a058-c27f84411343,54,тер,2017-09-26,0000,5409,5409,2020-08-20,000,0000,000,0,057d2710-0e61-42ce-875d-9c0bab26a2c2,2529,,0
0,23168dbe-443f-4422-adb4-a7adab61b4cf,989af257-5b15-4266-b29f-011366b4df24,65,000,0,0,001,54000001000252900,0.0,2079-06-06,Инской узел,5473,5473,d5b85b1a-9b6e-401c-b533-995ba14c96c5,,50401382000,50701000001,50,8dea00e3-9aab-4d8e-887c-ef2aaa546456,000,540000010002529,,492c0250-4bc1-4da6-baef-53427030ac69,54,тер. СНТ,2018-04-05,0000,5409,5409,2020-08-20,000,0000,000,0,dc0605a4-0540-4423-8e64-56b759ad47a6,2529,,0
1,23168dbe-443f-4422-adb4-a7adab61b4cf,d5b85b1a-9b6e-401c-b533-995ba14c96c5,65,000,0,0,001,54000001000252900,0.0,2079-06-06,Инской узел,5473,5473,,,50401382000,50701000001,20,8dea00e3-9aab-4d8e-887c-ef2aaa546456,000,540000010002529,630025,989af257-5b15-4266-b29f-011366b4df24,54,тер. СНТ,2020-08-19,0000,5409,5409,2020-08-20,000,0000,000,1,,2529,,0
0,269a3170-b287-4cc4-a05c-c59daaae1c70,e0d9464c-adcf-43ea-be37-961371a82f77,7,000,0,0,003,54000003000009201,1.0,2079-06-06,Молодежная,5475,5475,5f8602f2-3199-43a4-82d1-0368b91ee547,,50417000000,50717000,1,8571e389-8c43-4c36-afae-b532d078c928,000,540000030000092,633102,,54,ул,1900-01-01,0092,5448,5448,2020-08-20,000,0000,000,0,,0000,,0
0,269a3170-b287-4cc4-a05c-c59daaae1c70,5f8602f2-3199-43a4-82d1-0368b91ee547,7,000,0,0,003,54000003000009200,0.0,2079-06-06,Молодежная,5475,5475,ef11e0b5-733c-4d7e-9d6b-1b2497132df7,,50417000000,50717000001,21,8571e389-8c43-4c36-afae-b532d078c928,000,540000030000092,633102,e0d9464c-adcf-43ea-be37-961371a82f77,54,ул,2017-09-26,0092,,,2020-08-20,000,0000,000,0,057d2710-0e61-42ce-875d-9c0bab26a2c2,0000,,0
0,269a3170-b287-4cc4-a05c-c59daaae1c70,ef11e0b5-733c-4d7e-9d6b-1b2497132df7,7,000,0,0,003,54000003000009200,0.0,2079-06-06,Молодежная,5475,5475,a10c0ea0-87d4-42aa-bf33-af0018676769,,50417000000,50717000001,21,8571e389-8c43-4c36-afae-b532d078c928,000,540000030000092,633102,5f8602f2-3199-43a4-82d1-0368b91ee547,54,ул,2020-08-17,0092,5448,5448,2020-08-20,000,0000,000,0,,0000,,0
1,269a3170-b287-4cc4-a05c-c59daaae1c70,a10c0ea0-87d4-42aa-bf33-af0018676769,7,000,0,0,003,54000003000009200,0.0,2079-06-06,Молодежная,5475,5475,,,50417000000,50717000001,21,8571e389-8c43-4c36-afae-b532d078c928,000,540000030000092,633102,ef11e0b5-733c-4d7e-9d6b-1b2497132df7,54,ул,2020-08-18,0092,5448,5448,2020-08-20,000,0000,000,1,,0000,,0
0,8571e389-8c43-4c36-afae-b532d078c928,5787f317-2677-4d13-b8f6-84b5978f4731,4,000,0,0,003,5400000300001,1.0,2079-06-06,Обь,5475,5475,aaf9adf9-1ced-40df-b641-d411594daedf,,50417000000,50717000,1,1ac46b49-3209-4814-b7bf-a509ea1aecd9,000,54000003000,,,54,г,1900-01-01,0000,5448,5448,2020-08-20,000,0000,000,0,,0000,,0
0,8571e389-8c43-4c36-afae-b532d078c928,aaf9adf9-1ced-40df-b641-d411594daedf,4,000,0,0,003,5400000300000,0.0,2079-06-06,Обь,5475,5475,efe21d82-0dfe-438f-88c1-52cd511a7ab4,,50417000000,50717000001,21,1ac46b49-3209-4814-b7bf-a509ea1aecd9,000,54000003000,,5787f317-2677-4d13-b8f6-84b5978f4731,54,г,2017-09-26,0000,,,2020-08-20,000,0000,000,0,057d2710-0e61-42ce-875d-9c0bab26a2c2,0000,,0
0,8571e389-8c43-4c36-afae-b532d078c928,efe21d82-0dfe-438f-88c1-52cd511a7ab4,4,000,0,0,003,5400000300000,0.0,2079-06-06,Обь,5475,5475,c6c3c560-21ca-4354-84ac-bdec76a9133f,,50417000000,50717000001,21,1ac46b49-3209-4814-b7bf-a509ea1aecd9,000,54000003000,,aaf9adf9-1ced-40df-b641-d411594daedf,54,г,2020-08-17,0000,5448,5448,2020-08-20,000,0000,000,0,,0000,,0
1,8571e389-8c43-4c36-afae-b532d078c928,c6c3c560-21ca-4354-84ac-bdec76a9133f,4,000,0,0,003,5400000300000,0.0,2079-06-06,Обь,5475,5475,,,50417000000,50717000001,21,1ac46b49-3209-4814-b7bf-a509ea1aecd9,000,54000003000,,efe21d82-0dfe-438f-88c1-52cd511a7ab4,54,г,2020-08-18,0000,5448,5448,2020-08-20,000,0000,000,1,,0000,,0
0,0f3b5de4-2370-43bf-a957-dbcb108c3055,3aa7bb8a-be9f-44e0-acd2-72f1e0647ac5,7,000,0,0,003,54000003000009401,1.0,2079-06-06,Рубиновая,5475,5475,dc7436e2-557e-41be-a6d6-a0cee5c23275,,50417000000,50717000,1,8571e389-8c43-4c36-afae-b532d078c928,000,540000030000094,633102,,54,ул,1900-01-01,0094,5448,5448,2020-08-20,000,0000,000,0,,0000,,0
0,0f3b5de4-2370-43bf-a957-dbcb108c3055,dc7436e2-557e-41be-a6d6-a0cee5c23275,7,000,0,0,003,54000003000009400,0.0,2079-06-06,Рубиновая,5475,5475,eb43e274-d1e0-4b05-9cb2-2b2948bdb730,,50417000000,50717000001,21,8571e389-8c43-4c36-afae-b532d078c928,000,540000030000094,633102,3aa7bb8a-be9f-44e0-acd2-72f1e0647ac5,54,ул,2017-09-26,0094,,,2020-08-20,000,0000,000,0,057d2710-0e61-42ce-875d-9c0bab26a2c2,0000,,0
0,0f3b5de4-2370-43bf-a957-dbcb108c3055,eb43e274-d1e0-4b05-9cb2-2b2948bdb730,7,000,0,0,003,54000003000009400,0.0,2079-06-06,Рубиновая,5475,5475,c91111a9-5803-4701-b833-4146a79c224f,,50417000000,50717000001,21,8571e389-8c43-4c36-afae-b532d078c928,000,540000030000094,633102,dc7436e2-557e-41be-a6d6-a0cee5c23275,54,ул,2020-08-17,0094,5448,5448,2020-08-20,000,0000,000,0,,0000,,0
1,0f3b5de4-2370-43bf-a957-dbcb108c3055,c91111a9-5803-4701-b833-4146a79c224f,7,000,0,0,003,54000003000009400,0.0,2079-06-06,Рубиновая,5475,5475,,,50417000000,50717000001,21,8571e389-8c43-4c36-afae-b532d078c928,000,540000030000094,633102,eb43e274-d1e0-4b05-9cb2-2b2948bdb730,54,ул,2020-08-18,0094,5448,5448,2020-08-20,000,0000,000,1,,0000,,0
0,c811f7fc-dcd6-4a4c-92b8-c578f1ee1628,7317a340-1abe-4cf5-806f-022e84922833,7,000,0,0,003,54000003000000201,1.0,2079-06-06,Армейский,5475,5475,ea94116f-85f5-412d-84d6-834994ce5795,,50417000000,50717000,1,8571e389-8c43-4c36-afae-b532d078c928,000,540000030000002,633102,,54,пер,1900-01-01,0002,5448,5448,2020-08-20,000,0000,000,0,,0000,,0
0,c811f7fc-dcd6-4a4c-92b8-c578f1ee1628,ea94116f-85f5-412d-84d6-834994ce5795,7,000,0,0,003,54000003000000200,0.0,2079-06-06,Армейский,5475,5475,f4762f72-b100-4afc-8508-472f1c97addd,,50417000000,50717000001,21,8571e389-8c43-4c36-afae-b532d078c928,000,540000030000002,633102,7317a340-1abe-4cf5-806f-022e84922833,54,пер,2017-09-26,0002,,,2020-08-20,000,0000,000,0,057d2710-0e61-42ce-875d-9c0bab26a2c2,0000,,0
0,c811f7fc-dcd6-4a4c-92b8-c578f1ee1628,f4762f72-b100-4afc-8508-472f1c97addd,7,000,0,0,003,54000003000000200,0.0,2079-06-06,Армейский,5475,5475,6cf63ae6-0bb2-4e80-96c5-d4d3109999f8,,50417000000,50717000001,21,8571e389-8c43-4c36-afae-b532d078c928,000,540000030000002,633102,ea94116f-85f5-412d-84d6-834994ce5795,54,пер,2020-08-17,0002,5448,5448,2020-08-20,000,0000,000,0,,0000,,0
1,c811f7fc-dcd6-4a4c-92b8-c578f1ee1628,6cf63ae6-0bb2-4e80-96c5-d4d3109999f8,7,000,0,0,003,54000003000000200,0.0,2079-06-06,Армейский,5475,5475,,,50417000000,50717000001,21,8571e389-8c43-4c36-afae-b532d078c928,000,540000030000002,633102,f4762f72-b100-4afc-8508-472f1c97addd,54,пер,2020-08-18,0002,5448,5448,2020-08-20,000,0000,000,1,,0000,,0
0,1c5f389d-c1d4-4727-ba7e-fad9452407f2,da971b5f-fec1-47b0-a833-40c818da947c,7,000,0,0,003,54000003000006201,1.0,2079-06-06,Чкалова,5475,5475,3367fac6-d906-4d5a-9701-38efb2ed6419,,50417000000,50717000,1,8571e389-8c43-4c36-afae-b532d078c928,000,540000030000062,633102,,54,ул,1900-01-01,0062,5448,5448,2020-08-20,000,0000,000,0,,0000,,0
0,1c5f389d-c1d4-4727-ba7e-fad9452407f2,3367fac6-d906-4d5a-9701-38efb2ed6419,7,000,0,0,003,54000003000006200,0.0,2079-06-06,Чкалова,5475,5475,2d45c2d1-0d12-48f5-b46b-0561ac45b90d,,50417000000,50717000001,21,8571e389-8c43-4c36-afae-b532d078c928,000,540000030000062,633102,da971b5f-fec1-47b0-a833-40c818da947c,54,ул,2017-09-26,0062,,,2020-08-20,000,0000,000,0,057d2710-0e61-42ce-875d-9c0bab26a2c2,0000,,0
0,1c5f389d-c1d4-4727-ba7e-fad9452407f2,2d45c2d1-0d12-48f5-b46b-0561ac45b90d,7,000,0,0,003,54000003000006200,0.0,2079-06-06,Чкалова,5475,5475,f2771f9d-f3c7-400b-80c1-16ccd2feda81,,50417000000,50717000001,21,8571e389-8c43-4c36-afae-b532d078c928,000,540000030000062,633102,3367fac6-d906-4d5a-9701-38efb2ed6419,54,ул,2020-08-17,0062,5448,5448,2020-08-20,000,0000,000,0,,0000,,0
1,1c5f389d-c1d4-4727-ba7e-fad9452407f2,f2771f9d-f3c7-400b-80c1-16ccd2feda81,7,000,0,0,003,54000003000006200,0.0,2079-06-06,Чкалова,5475,5475,,,50417000000,50717000001,21,8571e389-8c43-4c36-afae-b532d078c928,000,540000030000062,633102,2d45c2d1-0d12-48f5-b46b-0561ac45b90d,54,ул,2020-08-18,0062,5448,5448,2020-08-20,000,0000,000,1,,0000,,0
0,ea3afa2b-d2db-467c-b7f3-e0ca4bf26c2d,7405afae-2169-4e18-950c-fdf60678ea50,6,000,0,0,001,5400000105701,1.0,2018-04-06,Кооператор СНТ (Первомайский р-н),5473,5473,93daaed9-34fc-458e-a966-d98c603ee7dc,,50401000000,50701000,1,8dea00e3-9aab-4d8e-887c-ef2aaa546456,057,54000001057,630000,,54,тер,1900-01-01,0000,5409,5409,2020-08-20,000,0000,000,0,,0000,,0
0,ea3afa2b-d2db-467c-b7f3-e0ca4bf26c2d,93daaed9-34fc-458e-a966-d98c603ee7dc,6,000,0,0,001,5400000105751,51.0,2018-04-06,Кооператор СНТ (Первомайский р-н),5473,5473,5a34a68b-204e-4f98-aae9-12da5ee5c24a,,50401000000,50701000001,21,8dea00e3-9aab-4d8e-887c-ef2aaa546456,000,54000001057,630000,7405afae-2169-4e18-950c-fdf60678ea50,54,тер,2017-09-26,0000,5409,5409,2020-08-20,000,0000,000,0,057d2710-0e61-42ce-875d-9c0bab26a2c2,2589,,0
0,ea3afa2b-d2db-467c-b7f3-e0ca4bf26c2d,5a34a68b-204e-4f98-aae9-12da5ee5c24a,65,000,0,0,001,54000001000258900,0.0,2079-06-06,Кооператор,5473,5473,25108635-0a20-42db-b94e-43ffd4d1e29d,,50401382000,50701000001,50,8dea00e3-9aab-4d8e-887c-ef2aaa546456,000,540000010002589,,93daaed9-34fc-458e-a966-d98c603ee7dc,54,тер. СНТ,2018-04-06,0000,5409,5409,2020-08-20,000,0000,000,0,dc0605a4-0540-4423-8e64-56b759ad47a6,2589,,0
1,ea3afa2b-d2db-467c-b7f3-e0ca4bf26c2d,25108635-0a20-42db-b94e-43ffd4d1e29d,65,000,0,0,001,54000001000258900,0.0,2079-06-06,Кооператор,5473,5473,,,50401382000,50701000001,20,8dea00e3-9aab-4d8e-887c-ef2aaa546456,000,540000010002589,630059,5a34a68b-204e-4f98-aae9-12da5ee5c24a,54,тер. СНТ,2020-08-19,0000,5409,5409,2020-08-20,000,0000,000,1,,2589,,0
0,6e4827a4-a52b-4b59-a70f-acd49c1e2aad,6b8c4ae1-24f6-48d6-b97b-de379842aa3e,7,000,0,0,003,54000003000004301,1.0,2079-06-06,Пригородный,5475,5475,4128f80e-073f-4cdb-9428-04caf886bfa6,,50417000000,50717000,1,8571e389-8c43-4c36-afae-b532d078c928,000,540000030000043,633102,,54,пер,1900-01-01,0043,5448,5448,2020-08-20,000,0000,000,0,,0000,,0
0,6e4827a4-a52b-4b59-a70f-acd49c1e2aad,4128f80e-073f-4cdb-9428-04caf886bfa6,7,000,0,0,003,54000003000004300,0.0,2079-06-06,Пригородный,5475,5475,60018ac8-3e7d-47ca-8d1f-01265bd0d002,,50417000000,50717000001,21,8571e389-8c43-4c36-afae-b532d078c928,000,540000030000043,633102,6b8c4ae1-24f6-48d6-b97b-de379842aa3e,54,пер,2017-09-26,0043,,,2020-08-20,000,0000,000,0,057d2710-0e61-42ce-875d-9c0bab26a2c2,0000,,0
0,6e4827a4-a52b-4b59-a70f-acd49c1e2aad,60018ac8-3e7d-47ca-8d1f-01265bd0d002,7,000,0,0,003,54000003000004300,0.0,2079-06-06,Пригородный,5475,5475,ad8354d7-4955-4967-bca3-601fbf968613,,50417000000,50717000001,21,8571e389-8c43-4c36-afae-b532d078c928,000,540000030000043,633102,4128f80e-073f-4cdb-9428-04caf886bfa6,54,пер,2020-08-17,0043,5448,5448,2020-08-20,000,0000,000,0,,0000,,0
1,6e4827a4-a52b-4b59-a70f-acd49c1e2aad,ad8354d7-4955-4967-bca3-601fbf968613,7,000,0,0,003,54000003000004300,0.0,2079-06-06,Пригородный,5475,5475,,,50417000000,50717000001,21,8571e389-8c43-4c36-afae-b532d078c928,000,540000030000043,633102,60018ac8-3e7d-47ca-8d1f-01265bd0d002,54,пер,2020-08-18,0043,5448,5448,2020-08-20,000,0000,000,1,,0000,,0
1,66088a35-1e20-4ee0-a1db-a4796351d256,66088a35-1e20-4ee0-a1db-a4796351d256,7,000,0,0,005,54000005000033000,0.0,2079-06-06,Бердская,5483,5483,,,50412000000,50712000001,10,8a22bdab-d113-4e55-b61b-978ea1fafc1a,000,540000050000330,633000,,54,ул,2020-08-19,0330,5446,5446,2020-08-20,000,0000,000,1,,0228,,0
1,27018fda-4e77-44ad-8d4d-1d7f35956ac8,27018fda-4e77-44ad-8d4d-1d7f35956ac8,7,000,0,0,005,54000005000033100,0.0,2079-06-06,Остров,5483,5483,,,50412000000,50712000001,10,8a22bdab-d113-4e55-b61b-978ea1fafc1a,000,540000050000331,633000,,54,ул,2020-08-19,0331,5446,5446,2020-08-20,000,0000,000,1,,0228,,0
0,fb5d42c0-0f2a-480b-98f7-49afa78f3547,fb5d42c0-0f2a-480b-98f7-49afa78f3547,65,000,0,0,001,54000001000259100,0.0,2079-06-06,Держава,5473,5473,45bc86c4-d784-4a94-aa6c-653588ed1858,,50401382000,50701000001,10,8dea00e3-9aab-4d8e-887c-ef2aaa546456,000,540000010002591,,,54,тер. СНТ,2018-04-04,0000,5409,5409,2020-08-20,000,0000,000,0,164f76ea-0de1-410a-abf5-8f1cbcc74faa,2591,,0
1,fb5d42c0-0f2a-480b-98f7-49afa78f3547,45bc86c4-d784-4a94-aa6c-653588ed1858,65,000,0,0,001,54000001000259100,0.0,2079-06-06,Держава,5473,5473,,,50401382000,50701000001,20,8dea00e3-9aab-4d8e-887c-ef2aaa546456,000,540000010002591,630059,fb5d42c0-0f2a-480b-98f7-49afa78f3547,54,тер. СНТ,2020-08-19,0000,5409,5409,2020-08-20,000,0000,000,1,,2591,,0
0,5e0a213c-6afb-4bef-b976-26965c250179,31b48675-627a-49fd-afe7-83649905c079,6,000,0,0,001,5400000105901,1.0,2018-04-05,Кедр СНТ (Первомайский р-н),5473,5473,d77badad-09bf-4dfd-8c9b-889e5a13b1ae,,50401000000,50701000,1,8dea00e3-9aab-4d8e-887c-ef2aaa546456,059,54000001059,630000,,54,тер,1900-01-01,0000,5409,5409,2020-08-20,000,0000,000,0,,0000,,0
0,5e0a213c-6afb-4bef-b976-26965c250179,d77badad-09bf-4dfd-8c9b-889e5a13b1ae,6,000,0,0,001,5400000105951,51.0,2018-04-05,Кедр СНТ (Первомайский р-н),5473,5473,713a4edb-acb4-4909-9e4a-d931c1738bd1,,50401382000,50701000001,21,8dea00e3-9aab-4d8e-887c-ef2aaa546456,000,54000001059,630000,31b48675-627a-49fd-afe7-83649905c079,54,тер,2017-09-26,0000,5409,5409,2020-08-20,000,0000,000,0,057d2710-0e61-42ce-875d-9c0bab26a2c2,2528,,0
0,5e0a213c-6afb-4bef-b976-26965c250179,713a4edb-acb4-4909-9e4a-d931c1738bd1,65,000,0,0,001,54000001000252800,0.0,2079-06-06,Кедр,5473,5473,6b39a05b-c137-41a2-bc27-2f73947ce1aa,,50401382000,50701000001,50,8dea00e3-9aab-4d8e-887c-ef2aaa546456,000,540000010002528,,d77badad-09bf-4dfd-8c9b-889e5a13b1ae,54,тер. СНТ,2018-04-05,0000,5409,5409,2020-08-20,000,0000,000,0,dc0605a4-0540-4423-8e64-56b759ad47a6,2528,,0
1,5e0a213c-6afb-4bef-b976-26965c250179,6b39a05b-c137-41a2-bc27-2f73947ce1aa,65,000,0,0,001,54000001000252800,0.0,2079-06-06,Кедр,5473,5473,,,50401382000,50701000001,20,8dea00e3-9aab-4d8e-887c-ef2aaa546456,000,540000010002528,630068,713a4edb-acb4-4909-9e4a-d931c1738bd1,54,тер. СНТ,2020-08-19,0000,5409,5409,2020-08-20,000,0000,000,1,,2528,,0
0,c753d94f-55a6-417e-95cd-a5e3c73955bc,c753d94f-55a6-417e-95cd-a5e3c73955bc,90,000,0,0,001,54000001000063351,51.0,2016-09-28,Летнее озеро,5473,5473,a34c80b7-47cc-450d-b17b-ddb4468cdbcd,,50401382000,50701000,10,8dea00e3-9aab-4d8e-887c-ef2aaa546456,000,540000010000633,630000,,54,снт,2000-01-01,0000,5409,5409,2020-08-20,000,0000,000,0,,0000,,0
0,c753d94f-55a6-417e-95cd-a5e3c73955bc,a34c80b7-47cc-450d-b17b-ddb4468cdbcd,65,000,0,0,001,54000001000063301,1.0,2020-08-19,Летнее озеро,5473,5473,e4fc14b0-04c8-406d-9781-168d424826cb,,50401382000,50701000,50,8dea00e3-9aab-4d8e-887c-ef2aaa546456,000,540000010000633,630000,c753d94f-55a6-417e-95cd-a5e3c73955bc,54,снт,2016-09-28,0000,5409,5409,2020-08-20,000,0000,000,0,,0633,,0
0,c753d94f-55a6-417e-95cd-a5e3c73955bc,e4fc14b0-04c8-406d-9781-168d424826cb,65,000,0,0,001,54000001000063302,2.0,2020-08-19,Летнее озеро,5473,5473,7c92275c-0808-454d-aaf3-8709d9c8b781,,50401382000,50701000001,21,8dea00e3-9aab-4d8e-887c-ef2aaa546456,000,540000010000633,630000,a34c80b7-47cc-450d-b17b-ddb4468cdbcd,54,снт,2017-09-26,0000,5409,5409,2020-08-20,000,0000,000,0,057d2710-0e61-42ce-875d-9c0bab26a2c2,0633,,0
1,c753d94f-55a6-417e-95cd-a5e3c73955bc,7c92275c-0808-454d-aaf3-8709d9c8b781,65,000,0,0,001,54000001000063300,0.0,2079-06-06,Летнее озеро,5473,5473,,,50401382000,50701000001,20,8dea00e3-9aab-4d8e-887c-ef2aaa546456,000,540000010000633,630000,e4fc14b0-04c8-406d-9781-168d424826cb,54,тер. СНТ,2020-08-19,0000,5409,5409,2020-08-20,000,0000,000,1,,0633,,0
0,dedda4c4-0066-49b4-8319-54e182d12fca,07b638dc-7659-493c-8139-427a5f672d4f,7,000,0,0,003,54000003000004101,1.0,2079-06-06,Портовый,5475,5475,7e2d7b0d-9479-4aa5-82bd-d67f7cb000e4,,50417000000,50717000,1,8571e389-8c43-4c36-afae-b532d078c928,000,540000030000041,633102,,54,пер,1900-01-01,0041,5448,5448,2020-08-20,000,0000,000,0,,0000,,0
0,dedda4c4-0066-49b4-8319-54e182d12fca,7e2d7b0d-9479-4aa5-82bd-d67f7cb000e4,7,000,0,0,003,54000003000004100,0.0,2079-06-06,Портовый,5475,5475,c898a410-b7fb-4dae-8a00-95d89609d866,,50417000000,50717000001,21,8571e389-8c43-4c36-afae-b532d078c928,000,540000030000041,633102,07b638dc-7659-493c-8139-427a5f672d4f,54,пер,2017-09-26,0041,,,2020-08-20,000,0000,000,0,057d2710-0e61-42ce-875d-9c0bab26a2c2,0000,,0
0,dedda4c4-0066-49b4-8319-54e182d12fca,c898a410-b7fb-4dae-8a00-95d89609d866,7,000,0,0,003,54000003000004100,0.0,2079-06-06,Портовый,5475,5475,9bffb2de-dbd1-4a18-b826-20d052e1e03a,,50417000000,50717000001,21,8571e389-8c43-4c36-afae-b532d078c928,000,540000030000041,633102,7e2d7b0d-9479-4aa5-82bd-d67f7cb000e4,54,пер,2020-08-17,0041,5448,5448,2020-08-20,000,0000,000,0,,0000,,0
1,dedda4c4-0066-49b4-8319-54e182d12fca,9bffb2de-dbd1-4a18-b826-20d052e1e03a,7,000,0,0,003,54000003000004100,0.0,2079-06-06,Портовый,5475,5475,,,50417000000,50717000001,21,8571e389-8c43-4c36-afae-b532d078c928,000,540000030000041,633102,c898a410-b7fb-4dae-8a00-95d89609d866,54,пер,2020-08-18,0041,5448,5448,2020-08-20,000,0000,000,1,,0000,,0
0,08e0031e-8a85-4b7a-842d-dc9eb3c44bee,a7c188b0-82ee-49e4-8d71-c3a880076d3c,6,000,0,0,001,5400000105301,1.0,2018-04-05,Геофизик СНТ (Первомайский р-н),5473,5473,fc67cd6b-f429-48d6-b6cc-3879f1648eba,,50401000000,50701000,1,8dea00e3-9aab-4d8e-887c-ef2aaa546456,053,54000001053,630000,,54,тер,1900-01-01,0000,5409,5409,2020-08-20,000,0000,000,0,,0000,,0
0,08e0031e-8a85-4b7a-842d-dc9eb3c44bee,fc67cd6b-f429-48d6-b6cc-3879f1648eba,6,000,0,0,001,5400000105351,51.0,2018-04-05,Геофизик СНТ (Первомайский р-н),5473,5473,b7e4b22c-9981-4960-8fc2-810139b7129d,,50401000000,50701000001,21,8dea00e3-9aab-4d8e-887c-ef2aaa546456,000,54000001053,630000,a7c188b0-82ee-49e4-8d71-c3a880076d3c,54,тер,2017-09-26,0000,5409,5409,2020-08-20,000,0000,000,0,057d2710-0e61-42ce-875d-9c0bab26a2c2,2559,,0
0,08e0031e-8a85-4b7a-842d-dc9eb3c44bee,b7e4b22c-9981-4960-8fc2-810139b7129d,65,000,0,0,001,54000001000255900,0.0,2079-06-06,Геофизик,5473,5473,5ffa57e1-09d5-4bf0-b2d7-3bb201c19683,,50401382000,50701000001,50,8dea00e3-9aab-4d8e-887c-ef2aaa546456,000,540000010002559,,fc67cd6b-f429-48d6-b6cc-3879f1648eba,54,тер. СНТ,2018-04-05,0000,5409,5409,2020-08-20,000,0000,000,0,dc0605a4-0540-4423-8e64-56b759ad47a6,2559,,0
1,08e0031e-8a85-4b7a-842d-dc9eb3c44bee,5ffa57e1-09d5-4bf0-b2d7-3bb201c19683,65,000,0,0,001,54000001000255900,0.0,2079-06-06,Геофизик,5473,5473,,,50401382000,50701000001,20,8dea00e3-9aab-4d8e-887c-ef2aaa546456,000,540000010002559,630059,b7e4b22c-9981-4960-8fc2-810139b7129d,54,тер. СНТ,2020-08-19,0000,5409,5409,2020-08-20,000,0000,000,1,,2559,,0
0,295f5ee7-bd05-49ca-ac4a-718b0f7bf035,47d50a20-166b-48cb-847c-61ffbddd8257,7,000,0,0,003,54000003000009601,1.0,2079-06-06,Южная,5475,5475,acbfe1de-72d8-43d6-a6d7-4ac9c7a9114d,,50417000000,50717000,1,8571e389-8c43-4c36-afae-b532d078c928,000,540000030000096,633102,,54,ул,1900-01-01,0096,5448,5448,2020-08-20,000,0000,000,0,,0000,,0
0,295f5ee7-bd05-49ca-ac4a-718b0f7bf035,acbfe1de-72d8-43d6-a6d7-4ac9c7a9114d,7,000,0,0,003,54000003000009600,0.0,2079-06-06,Южная,5475,5475,5c19710f-70c5-4dac-a041-2d65181cf19e,,50417000000,50717000001,21,8571e389-8c43-4c36-afae-b532d078c928,000,540000030000096,633102,47d50a20-166b-48cb-847c-61ffbddd8257,54,ул,2017-09-26,0096,,,2020-08-20,000,0000,000,0,057d2710-0e61-42ce-875d-9c0bab26a2c2,0000,,0
0,295f5ee7-bd05-49ca-ac4a-718b0f7bf035,5c19710f-70c5-4dac-a041-2d65181cf19e,7,000,0,0,003,54000003000009600,0.0,2079-06-06,Южная,5475,5475,57e1d06c-3402-48e3-bb1d-7162b2edb512,,50417000000,50717000001,21,8571e389-8c43-4c36-afae-b532d078c928,000,540000030000096,633102,acbfe1de-72d8-43d6-a6d7-4ac9c7a9114d,54,ул,2020-08-17,0096,5448,5448,2020-08-20,000,0000,000,0,,0000,,0
1,295f5ee7-bd05-49ca-ac4a-718b0f7bf035,57e1d06c-3402-48e3-bb1d-7162b2edb512,7,000,0,0,003,54000003000009600,0.0,2079-06-06,Южная,5475,5475,,,50417000000,50717000001,21,8571e389-8c43-4c36-afae-b532d078c928,000,540000030000096,633102,5c19710f-70c5-4dac-a041-2d65181cf19e,54,ул,2020-08-18,0096,5448,5448,2020-08-20,000,0000,000,1,,0000,,0
0,f620cc34-69ea-4ba5-8c16-786d440b9076,b817706d-c2b1-4b90-99eb-d451e8d76129,7,000,0,0,003,54000003000007901,1.0,2017-04-05,Омский тракт,5475,5475,e5b47f47-2fa4-4878-b89c-3f6026e11b70,,50417000000,50717000,1,8571e389-8c43-4c36-afae-b532d078c928,000,540000030000079,633102,,54,ш,1900-01-01,0079,5448,5448,2020-08-20,000,0000,000,0,,0000,,0
0,f620cc34-69ea-4ba5-8c16-786d440b9076,e5b47f47-2fa4-4878-b89c-3f6026e11b70,7,000,0,0,003,54000003000007902,2.0,2079-06-06,Омский,5475,5475,793a3d32-2da3-4ad7-85ae-1f3a46aac15b,,50417000000,50717000,20,8571e389-8c43-4c36-afae-b532d078c928,000,540000030000079,,b817706d-c2b1-4b90-99eb-d451e8d76129,54,тракт,2017-04-05,0079,5448,5448,2020-08-20,000,0000,000,0,39a50e60-60b9-41ef-872c-f91bed1e25ff,0000,,0
0,f620cc34-69ea-4ba5-8c16-786d440b9076,793a3d32-2da3-4ad7-85ae-1f3a46aac15b,7,000,0,0,003,54000003000007900,0.0,2079-06-06,Омский,5475,5475,ebd6dd71-e110-4bc2-b68b-47e0e98e0f07,,50417000000,50717000001,21,8571e389-8c43-4c36-afae-b532d078c928,000,540000030000079,,e5b47f47-2fa4-4878-b89c-3f6026e11b70,54,тракт,2017-09-26,0079,,,2020-08-20,000,0000,000,0,057d2710-0e61-42ce-875d-9c0bab26a2c2,0000,,0
0,f620cc34-69ea-4ba5-8c16-786d440b9076,ebd6dd71-e110-4bc2-b68b-47e0e98e0f07,7,000,0,0,003,54000003000007900,0.0,2079-06-06,Омский,5475,5475,743c9a9d-faa4-4237-9955-0f9e864a87b6,,50417000000,50717000001,21,8571e389-8c43-4c36-afae-b532d078c928,000,540000030000079,,793a3d32-2da3-4ad7-85ae-1f3a46aac15b,54,тракт,2020-08-17,0079,5448,5448,2020-08-20,000,0000,000,0,,0000,,0
1,f620cc34-69ea-4ba5-8c16-786d440b9076,743c9a9d-faa4-4237-9955-0f9e864a87b6,7,000,0,0,003,54000003000007900,0.0,2079-06-06,Омский,5475,5475,,,50417000000,50717000001,21,8571e389-8c43-4c36-afae-b532d078c928,000,540000030000079,,ebd6dd71-e110-4bc2-b68b-47e0e98e0f07,54,тракт,2020-08-18,0079,5448,5448,2020-08-20,000,0000,000,1,,0000,,0
1,3aa48fbc-616f-491f-8332-cc8941b59ed2,3aa48fbc-616f-491f-8332-cc8941b59ed2,7,000,0,0,005,54000005000032900,0.0,2079-06-06,Искитимская,5483,5483,,,50412000000,50712000001,10,8a22bdab-d113-4e55-b61b-978ea1fafc1a,000,540000050000329,633000,,54,ул,2020-08-19,0329,5446,5446,2020-08-20,000,0000,000,1,,0228,,0
1,09d78185-4ed7-400b-b7cc-29274e9bec93,09d78185-4ed7-400b-b7cc-29274e9bec93,65,012,0,0,000,54012000000035600,0.0,2079-06-06,Жилищник некоммерческого садоводческого товарищества,5456,5456,,,50223837000,50623437,10,a0d8802b-5dbb-40ab-87b4-e72d3dc15808,000,540120000000356,,,54,тер.,2020-08-19,0000,5425,5425,2020-08-20,000,0000,000,1,,0356,,0
0,86165193-a4c5-489e-b508-0c786c959c50,b6627f8c-4a43-4875-aa38-bebb651c6aea,6,000,0,0,001,5400000116201,1.0,2014-11-19,Березовая роща СНТ (пр-т Дзержинского),5401,5401,edee5611-486a-406c-b9e9-8e624e462672,,50401000000,50701000,1,8dea00e3-9aab-4d8e-887c-ef2aaa546456,162,54000001162,630000,,54,тер,1900-01-01,0000,,,2020-08-20,000,0000,000,0,,0000,,0
0,86165193-a4c5-489e-b508-0c786c959c50,edee5611-486a-406c-b9e9-8e624e462672,6,000,0,0,001,5400000116251,51.0,2016-09-29,Березовая роща СНТ (пр-т Дзержинского),5401,5401,e54e89c5-7f66-4349-ad08-564b280a00cc,,50401000000,50701000,20,8dea00e3-9aab-4d8e-887c-ef2aaa546456,000,54000001162,630051,b6627f8c-4a43-4875-aa38-bebb651c6aea,54,тер,2014-11-18,0000,,,2020-08-20,000,0000,000,0,,2387,,0
0,86165193-a4c5-489e-b508-0c786c959c50,e54e89c5-7f66-4349-ad08-564b280a00cc,90,000,0,0,001,54000001000238702,2.0,2016-09-09,Березовая роща СНТ (пр-т Дзержинского),5401,5401,81d223b5-a935-40d9-90a8-0ad32a5453ca,,50401000000,50701000,20,8dea00e3-9aab-4d8e-887c-ef2aaa546456,000,540000010002387,630051,edee5611-486a-406c-b9e9-8e624e462672,54,снт,2014-11-19,0000,,,2020-08-20,000,0000,000,0,,0000,,0
0,86165193-a4c5-489e-b508-0c786c959c50,81d223b5-a935-40d9-90a8-0ad32a5453ca,90,000,0,0,001,54000001000238751,51.0,2016-09-29,Березовая роща СНТ,5401,5401,6e9f1199-fc3a-4218-8953-9a11e4af8c28,,50401000000,50701000,20,8dea00e3-9aab-4d8e-887c-ef2aaa546456,000,540000010002387,630051,e54e89c5-7f66-4349-ad08-564b280a00cc,54,снт,2016-09-09,0000,,,2020-08-20,000,0000,000,0,7d9dc773-fba9-4b99-b410-15e6803824ce,2387,,2
0,86165193-a4c5-489e-b508-0c786c959c50,6e9f1199-fc3a-4218-8953-9a11e4af8c28,65,000,0,0,001,54000001000238703,3.0,2018-04-20,Березовая роща СНТ,5401,5401,c714ebbe-88c3-46fd-8c0d-df4b0833bc8f,,50401000000,50701000001,50,8dea00e3-9aab-4d8e-887c-ef2aaa546456,000,540000010002387,,81d223b5-a935-40d9-90a8-0ad32a5453ca,54,снт,2016-09-29,0000,,,2020-08-20,000,0000,000,0,,2387,,2
0,86165193-a4c5-489e-b508-0c786c959c50,c714ebbe-88c3-46fd-8c0d-df4b0833bc8f,65,000,0,0,001,54000001000238704,4.0,2079-06-06,Березовая роща,5401,5401,6af353d6-fe36-45eb-8dae-5bed9081092a,,50401000000,50701000001,20,8dea00e3-9aab-4d8e-887c-ef2aaa546456,000,540000010002387,,6e9f1199-fc3a-4218-8953-9a11e4af8c28,54,тер. СНТ,2018-04-20,0000,,,2020-08-20,000,0000,000,0,875f5fc6-150b-49e5-a838-da169b8d7960,2387,,0
0,86165193-a4c5-489e-b508-0c786c959c50,6af353d6-fe36-45eb-8dae-5bed9081092a,65,000,0,0,001,54000001000238700,0.0,2079-06-06,Березовая роща,5401,5401,c71f61b6-6e69-45b2-952a-7174274d1648,,50401364000,50701000001,21,8dea00e3-9aab-4d8e-887c-ef2aaa546456,000,540000010002387,,c714ebbe-88c3-46fd-8c0d-df4b0833bc8f,54,тер. СНТ,2019-09-06,0000,,,2020-08-20,000,0000,000,0,b08ed6a2-857d-4fb4-856d-7cd14cdf0b0b,2387,,0
1,86165193-a4c5-489e-b508-0c786c959c50,c71f61b6-6e69-45b2-952a-7174274d1648,65,000,0,0,001,54000001000238700,0.0,2079-06-06,Березовая роща,5401,5401,,,50401364000,50701000001,20,8dea00e3-9aab-4d8e-887c-ef2aaa546456,000,540000010002387,630051,6af353d6-fe36-45eb-8dae-5bed9081092a,54,тер. СНТ,2020-08-19,0000,,,2020-08-20,000,0000,000,1,,2387,,0
0,d125fdd6-d801-498f-89a9-1f90ab4958cc,b091e589-b93a-41df-98d1-7ad821b68a80,7,019,0,0,000,54019000024001101,1.0,2079-06-06,Луговая,5475,5475,589969ae-4afa-483a-b055-ba2150238cc3,,50238804001,50638404,1,9fb1532b-b12e-48a2-9a4a-41445d446a9a,024,540190000240011,633137,,54,ул,1900-01-01,0011,5432,5432,2020-08-22,000,0000,000,0,,0000,,0
0,d125fdd6-d801-498f-89a9-1f90ab4958cc,589969ae-4afa-483a-b055-ba2150238cc3,7,019,0,0,000,54019000024001100,0.0,2079-06-06,Луговая,5475,5475,b2da2a68-6e42-45dd-bac1-292d895e7f3f,,50238804001,50638404,21,9fb1532b-b12e-48a2-9a4a-41445d446a9a,024,540190000240011,,b091e589-b93a-41df-98d1-7ad821b68a80,54,ул,2014-01-10,0011,5432,5432,2020-08-22,000,0000,000,0,,0000,,0
1,d125fdd6-d801-498f-89a9-1f90ab4958cc,b2da2a68-6e42-45dd-bac1-292d895e7f3f,7,019,0,0,000,54019000024001100,0.0,2079-06-06,Луговая,5475,5475,,,50238804001,50638404101,21,9fb1532b-b12e-48a2-9a4a-41445d446a9a,024,540190000240011,,589969ae-4afa-483a-b055-ba2150238cc3,54,ул,2020-08-20,0011,5432,5432,2020-08-22,000,0000,000,1,f6e6a29d-20f3-4d6a-9462-37f7baafa731,0000,,0
0,bf99f67e-f860-4b89-8df2-9dde6f9b8157,d8d987e9-1c81-4a47-b16f-4096996dd2c7,6,000,0,0,001,5400000107001,1.0,2018-04-10,Химик СТ (Первомайский р-н),5473,5473,091ce557-0c44-449d-9513-d26b17e8227a,,50401000000,50701000,1,8dea00e3-9aab-4d8e-887c-ef2aaa546456,070,54000001070,630000,,54,тер,1900-01-01,0000,5409,5409,2020-08-22,000,0000,000,0,,0000,,0
0,bf99f67e-f860-4b89-8df2-9dde6f9b8157,091ce557-0c44-449d-9513-d26b17e8227a,6,000,0,0,001,5400000107051,51.0,2018-04-10,Химик СТ (Первомайский р-н),5473,5473,dfffd746-e034-4587-9d96-b2c63e1b4a12,,50401000000,50701000001,21,8dea00e3-9aab-4d8e-887c-ef2aaa546456,000,54000001070,630000,d8d987e9-1c81-4a47-b16f-4096996dd2c7,54,тер,2017-09-26,0000,5409,5409,2020-08-22,000,0000,000,0,057d2710-0e61-42ce-875d-9c0bab26a2c2,2610,,0
0,bf99f67e-f860-4b89-8df2-9dde6f9b8157,dfffd746-e034-4587-9d96-b2c63e1b4a12,65,000,0,0,001,54000001000261000,0.0,2079-06-06,Химик,5473,5473,9e16c4ff-871a-4ad5-a562-4183455b2ea6,,50401382000,50701000001,50,8dea00e3-9aab-4d8e-887c-ef2aaa546456,000,540000010002610,,091ce557-0c44-449d-9513-d26b17e8227a,54,тер. СНТ,2018-04-10,0000,5409,5409,2020-08-22,000,0000,000,0,dc0605a4-0540-4423-8e64-56b759ad47a6,2610,,0
1,bf99f67e-f860-4b89-8df2-9dde6f9b8157,9e16c4ff-871a-4ad5-a562-4183455b2ea6,65,000,0,0,001,54000001000261000,0.0,2079-06-06,Химик,5473,5473,,,50401382000,50701000001,20,8dea00e3-9aab-4d8e-887c-ef2aaa546456,000,540000010002610,630068,dfffd746-e034-4587-9d96-b2c63e1b4a12,54,тер. СНТ,2020-08-21,0000,5409,5409,2020-08-22,000,0000,000,1,,2610,,0
0,e92df4fa-1087-4ebc-98f6-ee7bd49eebf1,dcb59064-87ff-436f-8be5-4e0522ece261,6,000,0,0,001,5400000106101,1.0,2018-04-10,Сибиряк СНТ (Первомайский р-н),5473,5473,7fa5ec4e-a1bb-452c-a637-7da251ffccec,,50401000000,50701000,1,8dea00e3-9aab-4d8e-887c-ef2aaa546456,061,54000001061,630000,,54,тер,1900-01-01,0000,5409,5409,2020-08-22,000,0000,000,0,,0000,,0
0,e92df4fa-1087-4ebc-98f6-ee7bd49eebf1,7fa5ec4e-a1bb-452c-a637-7da251ffccec,6,000,0,0,001,5400000106151,51.0,2018-04-10,Сибиряк СНТ (Первомайский р-н),5473,5473,ee436d01-cc42-4cd4-ab1a-61a5d61c8947,,50401000000,50701000001,21,8dea00e3-9aab-4d8e-887c-ef2aaa546456,000,54000001061,630000,dcb59064-87ff-436f-8be5-4e0522ece261,54,тер,2017-09-26,0000,5409,5409,2020-08-22,000,0000,000,0,057d2710-0e61-42ce-875d-9c0bab26a2c2,2622,,0
0,e92df4fa-1087-4ebc-98f6-ee7bd49eebf1,ee436d01-cc42-4cd4-ab1a-61a5d61c8947,65,000,0,0,001,54000001000262200,0.0,2020-08-21,Сибиряк,5473,5473,b52891e4-8dee-4085-bdd7-5f4523d5d74a,,50401382000,50701000001,50,8dea00e3-9aab-4d8e-887c-ef2aaa546456,000,540000010002622,,7fa5ec4e-a1bb-452c-a637-7da251ffccec,54,тер. СНТ,2018-04-10,0000,5409,5409,2020-08-22,000,0000,000,0,dc0605a4-0540-4423-8e64-56b759ad47a6,2622,,0
1,e92df4fa-1087-4ebc-98f6-ee7bd49eebf1,b52891e4-8dee-4085-bdd7-5f4523d5d74a,65,000,0,0,001,54000001000262200,0.0,2079-06-06,Сибиряк,5473,5473,,,50401382000,50701000001,40,8dea00e3-9aab-4d8e-887c-ef2aaa546456,000,540000010002622,,ee436d01-cc42-4cd4-ab1a-61a5d61c8947,54,тер. СНТ,2020-08-21,0000,5409,5409,2020-08-22,000,0000,000,1,,2622,,0
0,858ad204-ded9-49d8-a84a-9fde72392aa4,858ad204-ded9-49d8-a84a-9fde72392aa4,90,000,0,0,001,54000001000236051,51.0,2016-09-29,Северный садовод (Заельцовский),5402,5402,e977442d-a1f0-404e-b125-c0dc21311bd4,,50401372000,50701000,10,8dea00e3-9aab-4d8e-887c-ef2aaa546456,000,540000010002360,630123,,54,снт,1999-01-31,0000,,,2020-08-22,000,0000,000,0,,0000,,0
0,858ad204-ded9-49d8-a84a-9fde72392aa4,e977442d-a1f0-404e-b125-c0dc21311bd4,65,000,0,0,001,54000001000236001,1.0,2020-08-21,Северный садовод (Заельцовский),5402,5402,4d5b9e3c-78ff-4e80-bd80-16d8a5780a6c,,50401372000,50701000,50,8dea00e3-9aab-4d8e-887c-ef2aaa546456,000,540000010002360,,858ad204-ded9-49d8-a84a-9fde72392aa4,54,снт,2016-09-29,0000,,,2020-08-22,000,0000,000,0,,2360,,0
0,858ad204-ded9-49d8-a84a-9fde72392aa4,4d5b9e3c-78ff-4e80-bd80-16d8a5780a6c,65,000,0,0,001,54000001000236000,0.0,2020-08-21,Северный садовод (Заельцовский),5402,5402,4ede4281-ef1e-4991-a59f-1d23af2dc1c0,,50401372000,50701000001,21,8dea00e3-9aab-4d8e-887c-ef2aaa546456,000,540000010002360,,e977442d-a1f0-404e-b125-c0dc21311bd4,54,снт,2017-09-26,0000,,,2020-08-22,000,0000,000,0,057d2710-0e61-42ce-875d-9c0bab26a2c2,2360,,0
1,858ad204-ded9-49d8-a84a-9fde72392aa4,4ede4281-ef1e-4991-a59f-1d23af2dc1c0,65,000,0,0,001,54000001000236000,0.0,2079-06-06,Северный садовод,5402,5402,,,50401372000,50701000001,40,8dea00e3-9aab-4d8e-887c-ef2aaa546456,000,540000010002360,630040,4d5b9e3c-78ff-4e80-bd80-16d8a5780a6c,54,тер. СНТ,2020-08-21,0000,,,2020-08-22,000,0000,000,1,,2360,,0
0,4caa1681-cfc7-4e9a-8ade-e7ee709614f9,4caa1681-cfc7-4e9a-8ade-e7ee709614f9,7,019,0,0,000,54019000024004001,1.0,2079-06-06,3,5475,5475,25aa213a-866e-4bf0-a7ff-458500a5759e,,50238804001,50638404,10,9fb1532b-b12e-48a2-9a4a-41445d446a9a,024,540190000240040,633137,,54,кв-л,2013-07-08,0040,5432,5432,2020-08-22,000,0000,000,0,,0000,,0
0,4caa1681-cfc7-4e9a-8ade-e7ee709614f9,25aa213a-866e-4bf0-a7ff-458500a5759e,7,019,0,0,000,54019000024004000,0.0,2079-06-06,3,5475,5475,0ee747ee-0d66-49b2-a1e6-635294e30ddb,,50238804001,50638404,21,9fb1532b-b12e-48a2-9a4a-41445d446a9a,024,540190000240040,,4caa1681-cfc7-4e9a-8ade-e7ee709614f9,54,кв-л,2014-01-10,0040,5432,5432,2020-08-22,000,0000,000,0,,0000,,0
1,4caa1681-cfc7-4e9a-8ade-e7ee709614f9,0ee747ee-0d66-49b2-a1e6-635294e30ddb,7,019,0,0,000,54019000024004000,0.0,2079-06-06,3,5475,5475,,,50238804001,50638404101,21,9fb1532b-b12e-48a2-9a4a-41445d446a9a,024,540190000240040,,25aa213a-866e-4bf0-a7ff-458500a5759e,54,кв-л,2020-08-20,0040,5432,5432,2020-08-22,000,0000,000,1,f6e6a29d-20f3-4d6a-9462-37f7baafa731,0000,,0
0,00915549-b38a-43b5-a9f9-45fa38da9c2f,355a9f8b-2469-40c7-8217-4e6711a968dc,6,000,0,0,001,5400000116701,1.0,2014-11-19,Пищевик СНТ (ул.Пойменная),5401,5401,5082078c-d88b-4cf4-8b17-5060be40a1b5,,50401000000,50701000,1,8dea00e3-9aab-4d8e-887c-ef2aaa546456,167,54000001167,630000,,54,тер,1900-01-01,0000,,,2020-08-22,000,0000,000,0,,0000,,0
0,00915549-b38a-43b5-a9f9-45fa38da9c2f,5082078c-d88b-4cf4-8b17-5060be40a1b5,6,000,0,0,001,5400000116751,51.0,2014-11-19,Пищевик СНТ (ул.Пойменная),5401,5401,afffa1a8-7839-4c29-971b-b4f16757c3f9,,50401000000,50701000,20,8dea00e3-9aab-4d8e-887c-ef2aaa546456,000,54000001167,630051,355a9f8b-2469-40c7-8217-4e6711a968dc,54,тер,2014-11-18,0000,,,2020-08-22,000,0000,000,0,,2391,,0
0,00915549-b38a-43b5-a9f9-45fa38da9c2f,afffa1a8-7839-4c29-971b-b4f16757c3f9,90,000,0,0,001,54000001000239102,2.0,2016-09-09,Пищевик СНТ (ул.Пойменная),5401,5401,bda77e33-cc39-47cb-a4d5-f17e63ad615d,,50401000000,50701000,20,8dea00e3-9aab-4d8e-887c-ef2aaa546456,000,540000010002391,630051,5082078c-d88b-4cf4-8b17-5060be40a1b5,54,снт,2014-11-19,0000,,,2020-08-22,000,0000,000,0,,0000,,0
0,00915549-b38a-43b5-a9f9-45fa38da9c2f,bda77e33-cc39-47cb-a4d5-f17e63ad615d,90,000,0,0,001,54000001000239151,51.0,2016-09-29,Пищевик СНТ,5401,5401,27692905-15db-4f1e-9cc8-35a5bd2ca36d,,50401000000,50701000,20,8dea00e3-9aab-4d8e-887c-ef2aaa546456,000,540000010002391,630051,afffa1a8-7839-4c29-971b-b4f16757c3f9,54,снт,2016-09-09,0000,,,2020-08-22,000,0000,000,0,590d64ef-6eec-4c79-9802-00b5353bd6a0,2391,,1
0,00915549-b38a-43b5-a9f9-45fa38da9c2f,27692905-15db-4f1e-9cc8-35a5bd2ca36d,65,000,0,0,001,54000001000239103,3.0,2020-08-21,Пищевик СНТ,5401,5401,1ed41ecb-ac73-4db5-a091-c7614e3957e4,,50401000000,50701000001,50,8dea00e3-9aab-4d8e-887c-ef2aaa546456,000,540000010002391,630051,bda77e33-cc39-47cb-a4d5-f17e63ad615d,54,снт,2016-09-29,0000,,,2020-08-22,000,0000,000,0,,2391,,0
0,00915549-b38a-43b5-a9f9-45fa38da9c2f,1ed41ecb-ac73-4db5-a091-c7614e3957e4,65,000,0,0,001,54000001000239104,4.0,2020-08-21,Пищевик СНТ,5401,5401,f588f08c-2565-4caa-9b74-c25603c9b065,,50401364000,50701000001,21,8dea00e3-9aab-4d8e-887c-ef2aaa546456,000,540000010002391,630051,27692905-15db-4f1e-9cc8-35a5bd2ca36d,54,снт,2019-09-06,0000,,,2020-08-22,000,0000,000,0,386d4854-d41d-439c-8fe1-c31ef9d21780,2391,,0
1,00915549-b38a-43b5-a9f9-45fa38da9c2f,f588f08c-2565-4caa-9b74-c25603c9b065,65,000,0,0,001,54000001000239100,0.0,2079-06-06,Пищевик,5401,5401,,,50401364000,50701000001,20,8dea00e3-9aab-4d8e-887c-ef2aaa546456,000,540000010002391,630051,1ed41ecb-ac73-4db5-a091-c7614e3957e4,54,тер. СНТ,2020-08-21,0000,,,2020-08-22,000,0000,000,1,,2391,,0
0,c9d078ab-d7e1-41d1-a97b-45d0c0e7bb78,a715b928-6164-4f21-a431-8cd60f4e22ba,6,000,0,0,001,5400000105601,1.0,2018-04-06,Метростроитель СНТ (Первомайский р-н),5473,5473,81156738-0aec-4cc7-b6f1-7fd4d6a27ec0,,50401000000,50701000,1,8dea00e3-9aab-4d8e-887c-ef2aaa546456,056,54000001056,630000,,54,тер,1900-01-01,0000,5409,5409,2020-08-22,000,0000,000,0,,0000,,0
0,c9d078ab-d7e1-41d1-a97b-45d0c0e7bb78,81156738-0aec-4cc7-b6f1-7fd4d6a27ec0,6,000,0,0,001,5400000105651,51.0,2018-04-06,Метростроитель СНТ (Первомайский р-н),5473,5473,984e3eb2-ef84-4f6a-8558-804adcac6851,,50401000000,50701000001,21,8dea00e3-9aab-4d8e-887c-ef2aaa546456,000,54000001056,630000,a715b928-6164-4f21-a431-8cd60f4e22ba,54,тер,2017-09-26,0000,5409,5409,2020-08-22,000,0000,000,0,057d2710-0e61-42ce-875d-9c0bab26a2c2,2581,,0
0,c9d078ab-d7e1-41d1-a97b-45d0c0e7bb78,984e3eb2-ef84-4f6a-8558-804adcac6851,65,000,0,0,001,54000001000258100,0.0,2079-06-06,Метростроитель,5473,5473,d53d420a-f058-4619-bc40-436599e03691,,50401382000,50701000001,50,8dea00e3-9aab-4d8e-887c-ef2aaa546456,000,540000010002581,630000,81156738-0aec-4cc7-b6f1-7fd4d6a27ec0,54,тер. СНТ,2018-04-06,0000,5409,5409,2020-08-22,000,0000,000,0,dc0605a4-0540-4423-8e64-56b759ad47a6,2581,,0
1,c9d078ab-d7e1-41d1-a97b-45d0c0e7bb78,d53d420a-f058-4619-bc40-436599e03691,65,000,0,0,001,54000001000258100,0.0,2079-06-06,Метростроитель,5473,5473,,,50401382000,50701000001,20,8dea00e3-9aab-4d8e-887c-ef2aaa546456,000,540000010002581,630068,984e3eb2-ef84-4f6a-8558-804adcac6851,54,тер. СНТ,2020-08-21,0000,5409,5409,2020-08-22,000,0000,000,1,,2581,,0
0,c063895a-716b-4d97-9244-eca7746f1bff,c063895a-716b-4d97-9244-eca7746f1bff,7,019,0,0,000,54019000024003601,1.0,2079-06-06,Весенняя,5475,5475,0ca3cc78-38f3-4a97-acfc-9243a11c6361,,50238804001,50638404,10,9fb1532b-b12e-48a2-9a4a-41445d446a9a,024,540190000240036,633137,,54,ул,2012-09-20,0036,5432,5432,2020-08-22,000,0000,000,0,,0000,,0
0,c063895a-716b-4d97-9244-eca7746f1bff,0ca3cc78-38f3-4a97-acfc-9243a11c6361,7,019,0,0,000,54019000024003600,0.0,2079-06-06,Весенняя,5475,5475,30298cae-0c57-4eaa-b397-af6e14251739,,50238804001,50638404,21,9fb1532b-b12e-48a2-9a4a-41445d446a9a,024,540190000240036,,c063895a-716b-4d97-9244-eca7746f1bff,54,ул,2014-01-10,0036,5432,5432,2020-08-22,000,0000,000,0,,0000,,0
1,c063895a-716b-4d97-9244-eca7746f1bff,30298cae-0c57-4eaa-b397-af6e14251739,7,019,0,0,000,54019000024003600,0.0,2079-06-06,Весенняя,5475,5475,,,50238804001,50638404101,21,9fb1532b-b12e-48a2-9a4a-41445d446a9a,024,540190000240036,,0ca3cc78-38f3-4a97-acfc-9243a11c6361,54,ул,2020-08-20,0036,5432,5432,2020-08-22,000,0000,000,1,f6e6a29d-20f3-4d6a-9462-37f7baafa731,0000,,0
0,cb3e3ac4-c400-4918-9f23-8ce2085f80c1,cb3e3ac4-c400-4918-9f23-8ce2085f80c1,7,019,0,0,000,54019000024004401,1.0,2079-06-06,7,5475,5475,11fabbd7-c541-4b49-b756-54905d923508,,50238804001,50638404,10,9fb1532b-b12e-48a2-9a4a-41445d446a9a,024,540190000240044,633142,,54,кв-л,2013-07-08,0044,5432,5432,2020-08-22,000,0000,000,0,,0000,,0
0,cb3e3ac4-c400-4918-9f23-8ce2085f80c1,11fabbd7-c541-4b49-b756-54905d923508,7,019,0,0,000,54019000024004400,0.0,2079-06-06,7,5475,5475,0eaebb8f-eaa9-4c72-9423-21d28168e516,,50238804001,50638404,21,9fb1532b-b12e-48a2-9a4a-41445d446a9a,024,540190000240044,,cb3e3ac4-c400-4918-9f23-8ce2085f80c1,54,кв-л,2014-01-10,0044,5432,5432,2020-08-22,000,0000,000,0,,0000,,0
1,cb3e3ac4-c400-4918-9f23-8ce2085f80c1,0eaebb8f-eaa9-4c72-9423-21d28168e516,7,019,0,0,000,54019000024004400,0.0,2079-06-06,7,5475,5475,,,50238804001,50638404101,21,9fb1532b-b12e-48a2-9a4a-41445d446a9a,024,540190000240044,,11fabbd7-c541-4b49-b756-54905d923508,54,кв-л,2020-08-20,0044,5432,5432,2020-08-22,000,0000,000,1,f6e6a29d-20f3-4d6a-9462-37f7baafa731,0000,,0
0,f7af4a80-a36a-4414-b84f-7528f726b8be,e3f847ee-6bc0-4c9f-9046-0cb529c40152,7,019,0,0,000,54019000024000901,1.0,2079-06-06,Дачная,5475,5475,824f3b2b-6049-4fac-ab68-69a91c62e5b9,,50238804001,50638404,1,9fb1532b-b12e-48a2-9a4a-41445d446a9a,024,540190000240009,633137,,54,ул,1900-01-01,0009,5432,5432,2020-08-22,000,0000,000,0,,0000,,0
0,f7af4a80-a36a-4414-b84f-7528f726b8be,824f3b2b-6049-4fac-ab68-69a91c62e5b9,7,019,0,0,000,54019000024000900,0.0,2079-06-06,Дачная,5475,5475,324fe51b-a954-4643-acf4-37e746a14d3f,,50238804001,50638404,21,9fb1532b-b12e-48a2-9a4a-41445d446a9a,024,540190000240009,633137,e3f847ee-6bc0-4c9f-9046-0cb529c40152,54,ул,2014-01-10,0009,5432,5432,2020-08-22,000,0000,000,0,,0000,,0
1,f7af4a80-a36a-4414-b84f-7528f726b8be,324fe51b-a954-4643-acf4-37e746a14d3f,7,019,0,0,000,54019000024000900,0.0,2079-06-06,Дачная,5475,5475,,,50238804001,50638404101,21,9fb1532b-b12e-48a2-9a4a-41445d446a9a,024,540190000240009,633137,824f3b2b-6049-4fac-ab68-69a91c62e5b9,54,ул,2020-08-20,0009,5432,5432,2020-08-22,000,0000,000,1,f6e6a29d-20f3-4d6a-9462-37f7baafa731,0000,,0
0,88eb26df-dd6c-4032-a48e-469c44061d07,2549935d-6013-4f3b-a942-e513f396d4bc,6,000,0,0,001,5400000104401,1.0,2018-04-10,Рябинка СНТ (Первомайский р-н),5473,5473,b6c15509-4c44-4d09-af2b-f9b65605c6bc,,50401000000,50701000,1,8dea00e3-9aab-4d8e-887c-ef2aaa546456,044,54000001044,630000,,54,тер,1900-01-01,0000,5409,5409,2020-08-22,000,0000,000,0,,0000,,0
0,88eb26df-dd6c-4032-a48e-469c44061d07,b6c15509-4c44-4d09-af2b-f9b65605c6bc,6,000,0,0,001,5400000104451,51.0,2018-04-10,Рябинка СНТ (Первомайский р-н),5473,5473,5c83af85-a842-4840-8311-1b0038d74ac9,,50401382000,50701000001,21,8dea00e3-9aab-4d8e-887c-ef2aaa546456,000,54000001044,630000,2549935d-6013-4f3b-a942-e513f396d4bc,54,тер,2017-09-26,0000,5409,5409,2020-08-22,000,0000,000,0,057d2710-0e61-42ce-875d-9c0bab26a2c2,2594,,0
0,88eb26df-dd6c-4032-a48e-469c44061d07,5c83af85-a842-4840-8311-1b0038d74ac9,65,000,0,0,001,54000001000259400,0.0,2079-06-06,Рябинка,5473,5473,26371d8e-cf15-41c6-8dd5-c4253e2c69b4,,50401382000,50701000001,50,8dea00e3-9aab-4d8e-887c-ef2aaa546456,000,540000010002594,630000,b6c15509-4c44-4d09-af2b-f9b65605c6bc,54,тер. СНТ,2018-04-10,0000,5409,5409,2020-08-22,000,0000,000,0,dc0605a4-0540-4423-8e64-56b759ad47a6,2594,,0
1,88eb26df-dd6c-4032-a48e-469c44061d07,26371d8e-cf15-41c6-8dd5-c4253e2c69b4,65,000,0,0,001,54000001000259400,0.0,2079-06-06,Рябинка,5473,5473,,,50401382000,50701000001,20,8dea00e3-9aab-4d8e-887c-ef2aaa546456,000,540000010002594,,5c83af85-a842-4840-8311-1b0038d74ac9,54,тер. СНТ,2018-04-10,0000,5409,5409,2020-08-22,000,0000,000,1,,2594,,0
0,65f6a087-65b5-4032-b8b9-c09efd87a693,94108d97-0d4d-4499-8f36-a88dfe53911e,6,000,0,0,001,5400000105101,1.0,2018-04-06,Молодость СНТ (Первомайский р-н),5473,5473,1afa80c0-707c-4449-bc16-8494e02f1b86,,50401000000,50701000,1,8dea00e3-9aab-4d8e-887c-ef2aaa546456,051,54000001051,630000,,54,тер,1900-01-01,0000,5409,5409,2020-08-22,000,0000,000,0,,0000,,0
0,65f6a087-65b5-4032-b8b9-c09efd87a693,1afa80c0-707c-4449-bc16-8494e02f1b86,6,000,0,0,001,5400000105151,51.0,2018-04-06,Молодость СНТ (Первомайский р-н),5473,5473,0c3ad842-4628-4891-8d19-685b8eec88d7,,50401000000,50701000001,21,8dea00e3-9aab-4d8e-887c-ef2aaa546456,000,54000001051,630000,94108d97-0d4d-4499-8f36-a88dfe53911e,54,тер,2017-09-26,0000,5409,5409,2020-08-22,000,0000,000,0,057d2710-0e61-42ce-875d-9c0bab26a2c2,2579,,0
0,65f6a087-65b5-4032-b8b9-c09efd87a693,0c3ad842-4628-4891-8d19-685b8eec88d7,65,000,0,0,001,54000001000257900,0.0,2079-06-06,Молодость,5473,5473,9608b433-c64f-4ff0-865d-5a279487f769,,50401000000,50701000001,50,8dea00e3-9aab-4d8e-887c-ef2aaa546456,000,540000010002579,,1afa80c0-707c-4449-bc16-8494e02f1b86,54,тер. СНТ,2018-04-06,0000,5409,5409,2020-08-22,000,0000,000,0,dc0605a4-0540-4423-8e64-56b759ad47a6,2579,,0
0,65f6a087-65b5-4032-b8b9-c09efd87a693,9608b433-c64f-4ff0-865d-5a279487f769,65,000,0,0,001,54000001000257900,0.0,2079-06-06,Молодость,5473,5473,b8174bf5-c1fe-40d3-bad4-1fb099cfef5e,,50401382000,50701000001,21,8dea00e3-9aab-4d8e-887c-ef2aaa546456,000,540000010002579,,0c3ad842-4628-4891-8d19-685b8eec88d7,54,тер. СНТ,2020-07-10,0000,5409,5409,2020-08-22,000,0000,000,0,,2579,,0
1,65f6a087-65b5-4032-b8b9-c09efd87a693,b8174bf5-c1fe-40d3-bad4-1fb099cfef5e,65,000,0,0,001,54000001000257900,0.0,2079-06-06,Молодость,5473,5473,,,50401382000,50701000001,20,8dea00e3-9aab-4d8e-887c-ef2aaa546456,000,540000010002579,630059,9608b433-c64f-4ff0-865d-5a279487f769,54,тер. СНТ,2020-08-21,0000,5409,5409,2020-08-22,000,0000,000,1,,2579,,0
0,cc496353-3ddd-4b6a-a303-dd0f8b846659,7127a0d7-135e-4276-ab29-fac679edd7f9,6,000,0,0,001,5400000106701,1.0,2018-04-10,Текстильщик СНТ (Первомайский р-н),5473,5473,dbd4b02b-aa36-46ef-8408-1bd06762cd4a,,50401000000,50701000,1,8dea00e3-9aab-4d8e-887c-ef2aaa546456,067,54000001067,630000,,54,тер,1900-01-01,0000,5409,5409,2020-08-22,000,0000,000,0,,0000,,0
0,cc496353-3ddd-4b6a-a303-dd0f8b846659,dbd4b02b-aa36-46ef-8408-1bd06762cd4a,6,000,0,0,001,5400000106751,51.0,2018-04-10,Текстильщик СНТ (Первомайский р-н),5473,5473,0360398a-69e3-41a1-87ce-f2f6fd119a25,,50401000000,50701000001,21,8dea00e3-9aab-4d8e-887c-ef2aaa546456,000,54000001067,630000,7127a0d7-135e-4276-ab29-fac679edd7f9,54,тер,2017-09-26,0000,5409,5409,2020-08-22,000,0000,000,0,057d2710-0e61-42ce-875d-9c0bab26a2c2,2614,,0
0,cc496353-3ddd-4b6a-a303-dd0f8b846659,0360398a-69e3-41a1-87ce-f2f6fd119a25,65,000,0,0,001,54000001000261400,0.0,2079-06-06,Текстильщик,5473,5473,04c5c59f-d231-4e4c-8bad-05af99814f17,,50401382000,50701000001,50,8dea00e3-9aab-4d8e-887c-ef2aaa546456,000,540000010002614,,dbd4b02b-aa36-46ef-8408-1bd06762cd4a,54,тер. СНТ,2018-04-10,0000,5409,5409,2020-08-22,000,0000,000,0,dc0605a4-0540-4423-8e64-56b759ad47a6,2614,,0
1,cc496353-3ddd-4b6a-a303-dd0f8b846659,04c5c59f-d231-4e4c-8bad-05af99814f17,65,000,0,0,001,54000001000261400,0.0,2079-06-06,Текстильщик,5473,5473,,,50401382000,50701000001,20,8dea00e3-9aab-4d8e-887c-ef2aaa546456,000,540000010002614,630068,0360398a-69e3-41a1-87ce-f2f6fd119a25,54,тер. СНТ,2020-08-21,0000,5409,5409,2020-08-22,000,0000,000,1,,2614,,0
1,41e14465-98ac-4db1-8156-b871c52a0c8f,41e14465-98ac-4db1-8156-b871c52a0c8f,65,000,0,0,001,54000001000076400,0.0,2079-06-06,Листвянка,5473,5473,,,50401382000,50701000001,10,8dea00e3-9aab-4d8e-887c-ef2aaa546456,000,540000010000764,,,54,тер. СНТ,2020-08-21,0000,5409,5409,2020-08-22,000,0000,000,1,,0764,,0
0,bfd13184-3ee5-4061-805e-2777006b4954,bfd13184-3ee5-4061-805e-2777006b4954,90,000,0,0,001,54000001000231101,1.0,2016-09-09,Ракета (Дзержинский район),5401,5401,6ff2012f-c0b0-4bcd-ba00-4e6fb3196b1a,,50401364000,50701000,10,8dea00e3-9aab-4d8e-887c-ef2aaa546456,000,540000010002311,630010,,54,снт,2000-01-01,0000,,,2020-08-22,000,0000,000,0,,0000,,0
0,bfd13184-3ee5-4061-805e-2777006b4954,6ff2012f-c0b0-4bcd-ba00-4e6fb3196b1a,90,000,0,0,001,54000001000231151,51.0,2016-09-28,Ракета СНТ,5401,5401,87fb59c2-5f2d-4188-a6e4-b6ad5e1d723f,,50401364000,50701000,20,8dea00e3-9aab-4d8e-887c-ef2aaa546456,000,540000010002311,630010,bfd13184-3ee5-4061-805e-2777006b4954,54,снт,2016-09-09,0000,,,2020-08-22,000,0000,000,0,87cd84fc-3abf-45ff-a559-0413c366736a,2311,,2
0,bfd13184-3ee5-4061-805e-2777006b4954,87fb59c2-5f2d-4188-a6e4-b6ad5e1d723f,65,000,0,0,001,54000001000231102,2.0,2020-08-21,Ракета СНТ,5401,5401,35aa5ed2-906c-44dd-a3cb-a163c875400a,,50401364000,50701000,50,8dea00e3-9aab-4d8e-887c-ef2aaa546456,000,540000010002311,630010,6ff2012f-c0b0-4bcd-ba00-4e6fb3196b1a,54,снт,2016-09-28,0000,,,2020-08-22,000,0000,000,0,,2311,,2
0,bfd13184-3ee5-4061-805e-2777006b4954,35aa5ed2-906c-44dd-a3cb-a163c875400a,65,000,0,0,001,54000001000231103,3.0,2020-08-21,Ракета СНТ,5401,5401,b255aa00-e1bf-4164-a905-72bc000dc3d6,,50401364000,50701000001,21,8dea00e3-9aab-4d8e-887c-ef2aaa546456,000,540000010002311,630010,87fb59c2-5f2d-4188-a6e4-b6ad5e1d723f,54,снт,2017-09-26,0000,,,2020-08-22,000,0000,000,0,057d2710-0e61-42ce-875d-9c0bab26a2c2,2311,,2
1,bfd13184-3ee5-4061-805e-2777006b4954,b255aa00-e1bf-4164-a905-72bc000dc3d6,65,000,0,0,001,54000001000231100,0.0,2079-06-06,Ракета,5401,5401,,,50401364000,50701000001,20,8dea00e3-9aab-4d8e-887c-ef2aaa546456,000,540000010002311,630010,35aa5ed2-906c-44dd-a3cb-a163c875400a,54,тер. СНТ,2020-08-21,0000,,,2020-08-22,000,0000,000,1,,2311,,2
0,ce53db09-787a-4557-9142-3912827a44ef,53a0e679-bd54-4c40-9568-8b41757913d1,6,000,0,0,001,5400000106501,1.0,2018-04-06,Монтажник НСТ (Первомайский р-н),5473,5473,16d44a4a-c049-4397-bb14-9fafafee802d,,50401000000,50701000,1,8dea00e3-9aab-4d8e-887c-ef2aaa546456,065,54000001065,630000,,54,тер,1900-01-01,0000,5409,5409,2020-08-22,000,0000,000,0,,0000,,0
0,ce53db09-787a-4557-9142-3912827a44ef,16d44a4a-c049-4397-bb14-9fafafee802d,6,000,0,0,001,5400000106551,51.0,2018-04-06,Монтажник НСТ (Первомайский р-н),5473,5473,65d98165-3f01-4b45-ae1a-763bbaccb61b,,50401000000,50701000001,21,8dea00e3-9aab-4d8e-887c-ef2aaa546456,000,54000001065,630000,53a0e679-bd54-4c40-9568-8b41757913d1,54,тер,2017-09-26,0000,5409,5409,2020-08-22,000,0000,000,0,057d2710-0e61-42ce-875d-9c0bab26a2c2,2578,,0
0,ce53db09-787a-4557-9142-3912827a44ef,65d98165-3f01-4b45-ae1a-763bbaccb61b,65,000,0,0,001,54000001000257800,0.0,2079-06-06,Монтажник,5473,5473,de184056-fec7-4caf-9090-e2e67ecf9792,,50401382000,50701000001,50,8dea00e3-9aab-4d8e-887c-ef2aaa546456,000,540000010002578,630000,16d44a4a-c049-4397-bb14-9fafafee802d,54,тер. СНТ,2018-04-06,0000,5409,5409,2020-08-22,000,0000,000,0,dc0605a4-0540-4423-8e64-56b759ad47a6,2578,,0
1,ce53db09-787a-4557-9142-3912827a44ef,de184056-fec7-4caf-9090-e2e67ecf9792,65,000,0,0,001,54000001000257800,0.0,2079-06-06,Монтажник,5473,5473,,,50401382000,50701000001,20,8dea00e3-9aab-4d8e-887c-ef2aaa546456,000,540000010002578,630097,65d98165-3f01-4b45-ae1a-763bbaccb61b,54,тер. СНТ,2020-08-21,0000,5409,5409,2020-08-22,000,0000,000,1,,2578,,0
1,15f8759a-906c-450a-90c5-7e8990dc0619,15f8759a-906c-450a-90c5-7e8990dc0619,7,001,0,0,000,54001000000159800,0.0,2079-06-06,Клубничная,5475,5475,,,50240819000,50640419,10,7105073f-772c-46ed-b50f-8e7f85901831,000,540010000001598,630511,,54,ул,2020-08-21,1598,5433,5433,2020-08-22,000,0000,000,1,,0383,,0
0,7fa7a26b-8096-4026-9e94-5bdc66b58b62,7fa7a26b-8096-4026-9e94-5bdc66b58b62,90,019,0,0,000,54019000003001751,51.0,2016-09-29,Раздолье,5475,5475,545bff47-751a-4243-af12-3ec8cb57cba8,,50238804000,50638404,10,6c663cc6-2761-4102-927a-8252c5dc4fdc,000,540190000030017,633137,,54,снт,2002-01-01,0000,5432,5432,2020-08-22,000,0000,000,0,,0013,,0
0,7fa7a26b-8096-4026-9e94-5bdc66b58b62,545bff47-751a-4243-af12-3ec8cb57cba8,65,019,0,0,000,54019000003001701,1.0,2020-08-20,Раздолье,5475,5475,dcb89648-dbfc-4948-8c72-dd29d3167158,,50238804000,50638404,50,6c663cc6-2761-4102-927a-8252c5dc4fdc,000,540190000030017,633137,7fa7a26b-8096-4026-9e94-5bdc66b58b62,54,снт,2016-09-29,0000,5432,5432,2020-08-22,000,0000,000,0,,0013,,0
0,7fa7a26b-8096-4026-9e94-5bdc66b58b62,dcb89648-dbfc-4948-8c72-dd29d3167158,65,019,0,0,000,54019000003001751,51.0,2020-08-20,Раздолье,5475,5475,459420d0-d53c-4536-9d36-7f64b295b825,,50238804000,50638404111,21,6c663cc6-2761-4102-927a-8252c5dc4fdc,000,540190000030017,633137,545bff47-751a-4243-af12-3ec8cb57cba8,54,снт,2016-12-05,0000,5432,5432,2020-08-22,000,0000,000,0,,0013,,0
1,7fa7a26b-8096-4026-9e94-5bdc66b58b62,459420d0-d53c-4536-9d36-7f64b295b825,65,019,0,0,000,54019000000001300,0.0,2079-06-06,Раздолье,5475,5475,,,50238804000,50638404,50,6c663cc6-2761-4102-927a-8252c5dc4fdc,000,540190000000013,633137,dcb89648-dbfc-4948-8c72-dd29d3167158,54,тер. СНТ,2020-08-20,0000,5432,5432,2020-08-22,000,0000,000,1,,0013,,0
0,df2422d7-9efc-4a21-8961-eddba2ed4e6d,f7244581-e5de-4d7e-ae0b-dac680c422f8,7,019,0,0,000,54019000024000101,1.0,2079-06-06,Строительная,5475,5475,e47222a4-f6b2-47ba-a664-812da8649012,,50238804001,50638404,1,9fb1532b-b12e-48a2-9a4a-41445d446a9a,024,540190000240001,633137,,54,ул,1900-01-01,0001,5432,5432,2020-08-22,000,0000,000,0,,0000,,0
0,df2422d7-9efc-4a21-8961-eddba2ed4e6d,e47222a4-f6b2-47ba-a664-812da8649012,7,019,0,0,000,54019000024000100,0.0,2079-06-06,Строительная,5475,5475,1dca949e-ec17-4553-8d04-979524a2fe76,,50238804001,50638404,21,9fb1532b-b12e-48a2-9a4a-41445d446a9a,024,540190000240001,633137,f7244581-e5de-4d7e-ae0b-dac680c422f8,54,ул,2014-01-10,0001,5432,5432,2020-08-22,000,0000,000,0,,0000,,0
1,df2422d7-9efc-4a21-8961-eddba2ed4e6d,1dca949e-ec17-4553-8d04-979524a2fe76,7,019,0,0,000,54019000024000100,0.0,2079-06-06,Строительная,5475,5475,,,50238804001,50638404101,21,9fb1532b-b12e-48a2-9a4a-41445d446a9a,024,540190000240001,633137,e47222a4-f6b2-47ba-a664-812da8649012,54,ул,2020-08-20,0001,5432,5432,2020-08-22,000,0000,000,1,f6e6a29d-20f3-4d6a-9462-37f7baafa731,0000,,0
0,0b0016d7-303d-4a10-af86-c1daeb319292,5d73dbb0-e69b-42ac-9960-83dbb83f41a9,6,000,0,0,001,5400000100801,1.0,1900-01-01,СНТ Надежда (Первомайский р-н),5473,5473,eed0f141-e5ac-4a46-98b1-68307f57969b,,50401382000,50701000,1,8dea00e3-9aab-4d8e-887c-ef2aaa546456,008,54000001008,630025,,54,тер,1900-01-01,0000,5409,5409,2020-08-22,000,0000,000,0,,0000,,0
0,0b0016d7-303d-4a10-af86-c1daeb319292,eed0f141-e5ac-4a46-98b1-68307f57969b,6,000,0,0,001,5400000100851,51.0,2000-01-01,Надежда СНТ (Первомайский р-н),5473,5473,117ac3dd-0257-4451-93e0-2c192bdd7e60,,50401382000,50701000,1,8dea00e3-9aab-4d8e-887c-ef2aaa546456,000,54000001008,630025,5d73dbb0-e69b-42ac-9960-83dbb83f41a9,54,тер,1900-01-01,0000,5409,5409,2020-08-22,000,0000,000,0,,2313,,0
0,0b0016d7-303d-4a10-af86-c1daeb319292,117ac3dd-0257-4451-93e0-2c192bdd7e60,90,000,0,0,001,54000001000231351,51.0,2016-09-29,Надежда (Первомайский р-н),5473,5473,8c35a5ba-fef5-4ff4-9fcc-9b027efe412c,,50401382000,50701000,20,8dea00e3-9aab-4d8e-887c-ef2aaa546456,000,540000010002313,630025,eed0f141-e5ac-4a46-98b1-68307f57969b,54,снт,2000-01-01,0000,5409,5409,2020-08-22,000,0000,000,0,,0000,,0
0,0b0016d7-303d-4a10-af86-c1daeb319292,8c35a5ba-fef5-4ff4-9fcc-9b027efe412c,65,000,0,0,001,54000001000231302,2.0,2020-08-21,Надежда (Первомайский р-н),5473,5473,e56b8e20-5c3a-49b8-b456-d3a1ac63c5af,,50401382000,50701000,50,8dea00e3-9aab-4d8e-887c-ef2aaa546456,000,540000010002313,630025,117ac3dd-0257-4451-93e0-2c192bdd7e60,54,снт,2016-09-29,0000,5409,5409,2020-08-22,000,0000,000,0,,2313,,0
0,0b0016d7-303d-4a10-af86-c1daeb319292,e56b8e20-5c3a-49b8-b456-d3a1ac63c5af,65,000,0,0,001,54000001000231303,3.0,2020-08-21,Надежда (Первомайский р-н),5473,5473,4dc28dcb-f3e3-4d17-967d-80fc5b06ba28,,50401382000,50701000001,21,8dea00e3-9aab-4d8e-887c-ef2aaa546456,000,540000010002313,630025,8c35a5ba-fef5-4ff4-9fcc-9b027efe412c,54,снт,2017-09-26,0000,5409,5409,2020-08-22,000,0000,000,0,057d2710-0e61-42ce-875d-9c0bab26a2c2,2313,,0
1,0b0016d7-303d-4a10-af86-c1daeb319292,4dc28dcb-f3e3-4d17-967d-80fc5b06ba28,65,000,0,0,001,54000001000231300,0.0,2079-06-06,Надежда,5473,5473,,,50401382000,50701000001,20,8dea00e3-9aab-4d8e-887c-ef2aaa546456,000,540000010002313,630025,e56b8e20-5c3a-49b8-b456-d3a1ac63c5af,54,тер. СНТ,2020-08-21,0000,5409,5409,2020-08-22,000,0000,000,1,,2313,,0
0,9753706b-5a08-4e9b-8b2f-d553d2310f8f,3854c59f-4ed4-4d5c-8014-4d57465e950c,6,000,0,0,001,5400000100501,1.0,1900-01-01,СНТ Строитель (Первомайский р-н),5473,5473,2376c1ac-4181-4134-b408-33189c365f93,,50401382000,50701000,1,8dea00e3-9aab-4d8e-887c-ef2aaa546456,005,54000001005,630025,,54,тер,1900-01-01,0000,5409,5409,2020-08-22,000,0000,000,0,,0000,,0
0,9753706b-5a08-4e9b-8b2f-d553d2310f8f,2376c1ac-4181-4134-b408-33189c365f93,6,000,0,0,001,5400000100551,51.0,2000-01-01,Строитель СНТ (Первомайский р-н),5473,5473,66bdeac2-ce1c-45e6-91b9-bd18c5372083,,50401382000,50701000,1,8dea00e3-9aab-4d8e-887c-ef2aaa546456,000,54000001005,630025,3854c59f-4ed4-4d5c-8014-4d57465e950c,54,тер,1900-01-01,0000,5409,5409,2020-08-22,000,0000,000,0,,2305,,0
0,9753706b-5a08-4e9b-8b2f-d553d2310f8f,66bdeac2-ce1c-45e6-91b9-bd18c5372083,90,000,0,0,001,54000001000230551,51.0,2016-09-28,Строитель (Первомайский р-н),5473,5473,2414ebb1-1575-4757-83b5-bfb8aba04bd7,,50401382000,50701000,20,8dea00e3-9aab-4d8e-887c-ef2aaa546456,000,540000010002305,630025,2376c1ac-4181-4134-b408-33189c365f93,54,снт,2000-01-01,0000,5409,5409,2020-08-22,000,0000,000,0,,0000,,0
0,9753706b-5a08-4e9b-8b2f-d553d2310f8f,2414ebb1-1575-4757-83b5-bfb8aba04bd7,65,000,0,0,001,54000001000230502,2.0,2020-08-21,Строитель (Первомайский р-н),5473,5473,382e8520-60ea-40dd-86ea-55e0b30f51b0,,50401382000,50701000,50,8dea00e3-9aab-4d8e-887c-ef2aaa546456,000,540000010002305,630025,66bdeac2-ce1c-45e6-91b9-bd18c5372083,54,снт,2016-09-28,0000,5409,5409,2020-08-22,000,0000,000,0,,2305,,0
0,9753706b-5a08-4e9b-8b2f-d553d2310f8f,382e8520-60ea-40dd-86ea-55e0b30f51b0,65,000,0,0,001,54000001000230503,3.0,2020-08-21,Строитель (Первомайский р-н),5473,5473,1104c6c9-f277-4646-bd34-87f2fe3e449f,,50401382000,50701000001,21,8dea00e3-9aab-4d8e-887c-ef2aaa546456,000,540000010002305,630025,2414ebb1-1575-4757-83b5-bfb8aba04bd7,54,снт,2017-09-26,0000,5409,5409,2020-08-22,000,0000,000,0,057d2710-0e61-42ce-875d-9c0bab26a2c2,2305,,0
1,9753706b-5a08-4e9b-8b2f-d553d2310f8f,1104c6c9-f277-4646-bd34-87f2fe3e449f,65,000,0,0,001,54000001000230500,0.0,2079-06-06,Строитель,5473,5473,,,50401382000,50701000001,20,8dea00e3-9aab-4d8e-887c-ef2aaa546456,000,540000010002305,630025,382e8520-60ea-40dd-86ea-55e0b30f51b0,54,тер. СНТ,2020-08-21,0000,5409,5409,2020-08-22,000,0000,000,1,,2305,,0
0,a0175de3-61ec-43f1-9f9b-cd4799617137,a0175de3-61ec-43f1-9f9b-cd4799617137,7,019,0,0,000,54019000024004201,1.0,2079-06-06,5,5475,5475,ceac6af5-204a-4ecf-8e37-9051a0d9417f,,50238804001,50638404,10,9fb1532b-b12e-48a2-9a4a-41445d446a9a,024,540190000240042,633137,,54,кв-л,2013-07-08,0042,5432,5432,2020-08-22,000,0000,000,0,,0000,,0
0,a0175de3-61ec-43f1-9f9b-cd4799617137,ceac6af5-204a-4ecf-8e37-9051a0d9417f,7,019,0,0,000,54019000024004200,0.0,2079-06-06,5,5475,5475,73944fac-aa47-48c5-a203-243ddd8b83f7,,50238804001,50638404,21,9fb1532b-b12e-48a2-9a4a-41445d446a9a,024,540190000240042,,a0175de3-61ec-43f1-9f9b-cd4799617137,54,кв-л,2014-01-10,0042,5432,5432,2020-08-22,000,0000,000,0,,0000,,0
1,a0175de3-61ec-43f1-9f9b-cd4799617137,73944fac-aa47-48c5-a203-243ddd8b83f7,7,019,0,0,000,54019000024004200,0.0,2079-06-06,5,5475,5475,,,50238804001,50638404101,21,9fb1532b-b12e-48a2-9a4a-41445d446a9a,024,540190000240042,,ceac6af5-204a-4ecf-8e37-9051a0d9417f,54,кв-л,2020-08-20,0042,5432,5432,2020-08-22,000,0000,000,1,f6e6a29d-20f3-4d6a-9462-37f7baafa731,0000,,0
0,61456bdc-25d2-41be-b011-1ea0a605ea7f,61456bdc-25d2-41be-b011-1ea0a605ea7f,7,001,0,0,002,54001002004006551,51.0,2079-06-06,Светлая,5475,5475,52c1c030-8147-4cc9-b43c-89629ed6809d,,50240831001,50640431101,10,708a2fc3-ada7-4ea4-8711-b014f7515b96,004,540010020040065,630534,,54,ул,2017-12-20,0065,5433,5433,2020-08-27,000,0000,000,0,d740152b-3093-4b21-8b14-4abe0865e68f,0007,,0
0,61456bdc-25d2-41be-b011-1ea0a605ea7f,52c1c030-8147-4cc9-b43c-89629ed6809d,7,001,0,0,000,54001000113004751,51.0,2018-09-26,Светлая,5475,5475,60f07a23-c6d4-49ad-aa99-a4dc417f145c,,50240831001,50640431101,51,708a2fc3-ada7-4ea4-8711-b014f7515b96,113,540010001130047,630534,61456bdc-25d2-41be-b011-1ea0a605ea7f,54,ул,2018-03-29,0047,5433,5433,2020-08-27,000,0000,000,0,7ea417c5-bb4a-4cd2-b50e-071c2e9bbc74,0040,,0
0,61456bdc-25d2-41be-b011-1ea0a605ea7f,60f07a23-c6d4-49ad-aa99-a4dc417f145c,7,001,0,0,000,54001000000063300,0.0,2079-06-06,Светлая,5475,5475,903493c8-b2e8-4c53-a981-8c91eb6155d8,,50240831001,50640431101,51,708a2fc3-ada7-4ea4-8711-b014f7515b96,000,540010000000633,630534,52c1c030-8147-4cc9-b43c-89629ed6809d,54,ул,2018-09-26,0633,5433,5433,2020-08-27,000,0000,000,0,10af34d8-082b-4757-8446-8a50f583eca8,0626,,0
1,61456bdc-25d2-41be-b011-1ea0a605ea7f,903493c8-b2e8-4c53-a981-8c91eb6155d8,7,001,0,0,000,54001000000063300,0.0,2079-06-06,Светлая,5475,5475,,,50240831000,50640431101,21,708a2fc3-ada7-4ea4-8711-b014f7515b96,000,540010000000633,630534,60f07a23-c6d4-49ad-aa99-a4dc417f145c,54,ул,2020-08-24,0633,5433,5433,2020-08-27,000,0000,000,1,,0626,,0
0,f9d93a22-7b6b-40b8-9aff-51ae1bb21278,f9d93a22-7b6b-40b8-9aff-51ae1bb21278,90,019,0,0,000,54019000003002851,51.0,2016-09-28,Кадр-2,5475,5475,9271f077-9819-4846-8268-09f44b72d2eb,,50238804000,50638404,10,6c663cc6-2761-4102-927a-8252c5dc4fdc,000,540190000030028,633138,,54,снт,2002-01-01,0000,5432,5432,2020-08-27,000,0000,000,0,,0022,,0
0,f9d93a22-7b6b-40b8-9aff-51ae1bb21278,9271f077-9819-4846-8268-09f44b72d2eb,90,019,0,0,000,54019002000000151,51.0,2016-09-28,Кадр-2,5475,5475,16ef40e8-eeaf-4c9a-91a8-7b395e3cfaa5,,50238804000,50638404,50,6c663cc6-2761-4102-927a-8252c5dc4fdc,000,540190020000001,633120,f9d93a22-7b6b-40b8-9aff-51ae1bb21278,54,снт,2002-01-01,0000,5432,5432,2020-08-27,000,0000,000,0,9a3738c6-4365-4a5a-bee6-d43a3463ea25,0022,,0
0,f9d93a22-7b6b-40b8-9aff-51ae1bb21278,16ef40e8-eeaf-4c9a-91a8-7b395e3cfaa5,65,019,0,0,000,54019002000000151,51.0,2020-08-26,Кадр-2,5475,5475,4e43d473-a9e0-4f55-ae0b-56fb382d10f2,,50238804000,50638404111,50,6c663cc6-2761-4102-927a-8252c5dc4fdc,000,540190020000001,633120,9271f077-9819-4846-8268-09f44b72d2eb,54,снт,2016-09-28,0000,5432,5432,2020-08-27,000,0000,000,0,,0022,,0
1,f9d93a22-7b6b-40b8-9aff-51ae1bb21278,4e43d473-a9e0-4f55-ae0b-56fb382d10f2,65,019,0,0,000,54019000000002200,0.0,2079-06-06,Кадр-2,5475,5475,,,50238804000,50638404,50,6c663cc6-2761-4102-927a-8252c5dc4fdc,000,540190000000022,633120,16ef40e8-eeaf-4c9a-91a8-7b395e3cfaa5,54,тер. СНТ,2020-08-26,0000,5432,5432,2020-08-27,000,0000,000,1,,0022,,0
1,9e696867-fa2d-43bc-b844-b2e19880175b,9e696867-fa2d-43bc-b844-b2e19880175b,7,001,0,0,000,54001000113009200,0.0,2079-06-06,Шоссейная,5475,5475,,,50240831001,50640431101,10,46d6dd80-96d4-412d-8561-02fde7c77750,113,540010001130092,630534,,54,ул,2020-08-24,0092,5433,5433,2020-08-27,000,0000,000,1,,0078,,0
0,e1760003-0189-43fe-ab82-fe2bca749691,e1760003-0189-43fe-ab82-fe2bca749691,7,019,0,0,000,54019000024004301,1.0,2079-06-06,6,5475,5475,14461dbe-0eec-4156-b903-f77fba48403c,,50238804001,50638404,10,9fb1532b-b12e-48a2-9a4a-41445d446a9a,024,540190000240043,633137,,54,кв-л,2013-07-08,0043,5432,5432,2020-08-27,000,0000,000,0,,0000,,0
0,e1760003-0189-43fe-ab82-fe2bca749691,14461dbe-0eec-4156-b903-f77fba48403c,7,019,0,0,000,54019000024004300,0.0,2079-06-06,6,5475,5475,ef42aa4d-d96d-4cca-9aec-d0e5dcb2d51f,,50238804001,50638404101,21,9fb1532b-b12e-48a2-9a4a-41445d446a9a,024,540190000240043,,e1760003-0189-43fe-ab82-fe2bca749691,54,кв-л,2014-01-10,0043,,,2020-08-27,000,0000,000,0,,0000,,0
0,e1760003-0189-43fe-ab82-fe2bca749691,ef42aa4d-d96d-4cca-9aec-d0e5dcb2d51f,7,019,0,0,000,54019000024004300,0.0,2079-06-06,6,5475,5475,256b3951-9a30-4ab9-af0f-e4707830d1a2,,50238804001,50638404101,21,9fb1532b-b12e-48a2-9a4a-41445d446a9a,024,540190000240043,,14461dbe-0eec-4156-b903-f77fba48403c,54,кв-л,2020-08-21,0043,5432,5432,2020-08-27,000,0000,000,0,,0000,,0
1,e1760003-0189-43fe-ab82-fe2bca749691,256b3951-9a30-4ab9-af0f-e4707830d1a2,7,019,0,0,000,54019000024004300,0.0,2079-06-06,6,5475,5475,,,50238804001,50638404101,21,9fb1532b-b12e-48a2-9a4a-41445d446a9a,024,540190000240043,,ef42aa4d-d96d-4cca-9aec-d0e5dcb2d51f,54,кв-л,2020-08-24,0043,5432,5432,2020-08-27,000,0000,000,1,,0000,,0
0,0b01a023-e644-4b83-96b8-516feee98cd8,0b01a023-e644-4b83-96b8-516feee98cd8,90,001,0,0,000,54001000057005401,1.0,2016-09-28,Ратник,5475,5475,6de2c809-83f7-4326-9418-27e7750b453b,,50240840001,50640440,10,78fc1768-001e-48ad-a451-6482e0b9018e,057,540010000570054,630534,,54,снт,2000-01-01,0000,5433,5433,2020-08-27,000,0000,000,0,,0000,,0
0,0b01a023-e644-4b83-96b8-516feee98cd8,6de2c809-83f7-4326-9418-27e7750b453b,90,001,0,0,000,54001000057005451,51.0,2016-09-28,Ратник,5475,5475,14bc4bc7-d3f1-4e0f-9613-a1f4b9e6fe4f,,50240840001,50640440,21,16932400-c8e3-4a17-8c57-d96f30a183ce,000,540010000570054,630535,0b01a023-e644-4b83-96b8-516feee98cd8,54,снт,2014-07-02,0000,5433,5433,2020-08-27,000,0000,000,0,,1027,,0
0,0b01a023-e644-4b83-96b8-516feee98cd8,14bc4bc7-d3f1-4e0f-9613-a1f4b9e6fe4f,65,001,0,0,000,54001000057005402,2.0,2019-01-24,Ратник,5475,5475,63d113ca-25dc-464e-bd18-702e8a55a337,,50240840001,50640440,50,78fc1768-001e-48ad-a451-6482e0b9018e,057,540010000570054,630535,6de2c809-83f7-4326-9418-27e7750b453b,54,снт,2016-09-28,0000,5433,5433,2020-08-27,000,0000,000,0,,0054,,0
0,0b01a023-e644-4b83-96b8-516feee98cd8,63d113ca-25dc-464e-bd18-702e8a55a337,65,001,0,0,000,54001000057005451,51.0,2020-08-26,Ратник,5475,5475,6e9edb75-fa37-47d8-a0aa-0d63cc55607b,,50240840001,50640440101,21,16932400-c8e3-4a17-8c57-d96f30a183ce,000,540010000570054,630535,14bc4bc7-d3f1-4e0f-9613-a1f4b9e6fe4f,54,снт,2016-12-05,0000,5433,5433,2020-08-27,000,0000,000,0,,1027,,0
0,0b01a023-e644-4b83-96b8-516feee98cd8,6e9edb75-fa37-47d8-a0aa-0d63cc55607b,65,001,0,0,000,54001000000102701,1.0,2020-08-26,Ратник,5475,5475,583f1bf8-343a-4381-bd3a-9626a4721f7a,,50240840001,50640440101,50,16932400-c8e3-4a17-8c57-d96f30a183ce,000,540010000001027,630535,63d113ca-25dc-464e-bd18-702e8a55a337,54,тер. ДНТ,2019-01-24,0000,5433,5433,2020-08-27,000,0000,000,0,c058e9d3-cb32-414e-8194-cac9e06da455,1027,,0
1,0b01a023-e644-4b83-96b8-516feee98cd8,583f1bf8-343a-4381-bd3a-9626a4721f7a,65,001,0,0,000,54001000000102700,0.0,2079-06-06,Ратник,5475,5475,,,50240840000,50640440,20,16932400-c8e3-4a17-8c57-d96f30a183ce,000,540010000001027,630535,6e9edb75-fa37-47d8-a0aa-0d63cc55607b,54,тер. ТСН,2020-08-26,0000,5433,5433,2020-08-27,000,0000,000,1,,1027,,0
0,9fb1532b-b12e-48a2-9a4a-41445d446a9a,9b11f33b-f392-4c0c-a356-54f3462c5709,6,019,0,0,000,5401900002401,1.0,2079-06-06,Октябрьский,5475,5475,5ccbddff-444d-41b2-83e0-5e1f22495c65,,50238804001,50638404,1,6c663cc6-2761-4102-927a-8252c5dc4fdc,024,54019000024,633137,,54,п,1900-01-01,0000,5432,5432,2020-08-27,000,0000,000,0,,0000,,0
0,9fb1532b-b12e-48a2-9a4a-41445d446a9a,5ccbddff-444d-41b2-83e0-5e1f22495c65,6,019,0,0,000,5401900002400,0.0,2079-06-06,Октябрьский,5475,5475,b380cbb5-654d-498e-967f-71e8f6664a8a,,50238804001,50638404,21,6c663cc6-2761-4102-927a-8252c5dc4fdc,024,54019000024,,9b11f33b-f392-4c0c-a356-54f3462c5709,54,п,2014-01-10,0000,,,2020-08-27,000,0000,000,0,,0000,,0
0,9fb1532b-b12e-48a2-9a4a-41445d446a9a,b380cbb5-654d-498e-967f-71e8f6664a8a,6,019,0,0,000,5401900002400,0.0,2079-06-06,Октябрьский,5475,5475,9281d54f-e632-4abf-9d2e-63d50d337cb4,,50238804001,50638404101,21,6c663cc6-2761-4102-927a-8252c5dc4fdc,024,54019000024,,5ccbddff-444d-41b2-83e0-5e1f22495c65,54,п,2020-08-20,0000,,,2020-08-27,000,0000,000,0,f6e6a29d-20f3-4d6a-9462-37f7baafa731,0000,,0
0,9fb1532b-b12e-48a2-9a4a-41445d446a9a,9281d54f-e632-4abf-9d2e-63d50d337cb4,6,019,0,0,000,5401900002400,0.0,2079-06-06,Октябрьский,5475,5475,fbd06426-e013-439d-b7ba-f36324539dc0,,50238804001,50638404101,21,6c663cc6-2761-4102-927a-8252c5dc4fdc,024,54019000024,,b380cbb5-654d-498e-967f-71e8f6664a8a,54,п,2020-08-21,0000,5432,5432,2020-08-27,000,0000,000,0,,0000,,0
1,9fb1532b-b12e-48a2-9a4a-41445d446a9a,fbd06426-e013-439d-b7ba-f36324539dc0,6,019,0,0,000,5401900002400,0.0,2079-06-06,Октябрьский,5475,5475,,,50238804001,50638404101,21,6c663cc6-2761-4102-927a-8252c5dc4fdc,024,54019000024,,9281d54f-e632-4abf-9d2e-63d50d337cb4,54,п,2020-08-24,0000,5432,5432,2020-08-27,000,0000,000,1,,0000,,0
0,692a1b21-4cf1-4614-95e3-ac3f6a3030cf,692a1b21-4cf1-4614-95e3-ac3f6a3030cf,7,001,0,0,002,54001002004006451,51.0,2079-06-06,Солнечная,5475,5475,ccf805e7-8680-44c1-8c7a-85a8a20ad508,,50240831000,50640431101,10,708a2fc3-ada7-4ea4-8711-b014f7515b96,004,540010020040064,630534,,54,ул,2017-12-20,0064,5433,5433,2020-08-27,000,0000,000,0,d740152b-3093-4b21-8b14-4abe0865e68f,0007,,0
0,692a1b21-4cf1-4614-95e3-ac3f6a3030cf,ccf805e7-8680-44c1-8c7a-85a8a20ad508,7,001,0,0,000,54001000113004651,51.0,2018-09-26,Солнечная,5475,5475,b525939e-ca08-4d45-bd3e-fa98890c28e9,,50240831000,50640431101,51,708a2fc3-ada7-4ea4-8711-b014f7515b96,113,540010001130046,630534,692a1b21-4cf1-4614-95e3-ac3f6a3030cf,54,ул,2018-03-29,0046,5433,5433,2020-08-27,000,0000,000,0,7ea417c5-bb4a-4cd2-b50e-071c2e9bbc74,0040,,0
0,692a1b21-4cf1-4614-95e3-ac3f6a3030cf,b525939e-ca08-4d45-bd3e-fa98890c28e9,7,001,0,0,000,54001000000063200,0.0,2079-06-06,Солнечная,5475,5475,b9edf394-c2b2-4fc0-984a-778f0b9ad953,,50240831000,50640431101,51,708a2fc3-ada7-4ea4-8711-b014f7515b96,000,540010000000632,630534,ccf805e7-8680-44c1-8c7a-85a8a20ad508,54,ул,2018-09-26,0632,5433,5433,2020-08-27,000,0000,000,0,10af34d8-082b-4757-8446-8a50f583eca8,0626,,0
0,692a1b21-4cf1-4614-95e3-ac3f6a3030cf,b9edf394-c2b2-4fc0-984a-778f0b9ad953,7,001,0,0,000,54001000000063200,0.0,2020-08-24,Солнечная,5475,5475,0f794731-bc53-4985-bf4a-0c866044916a,,50240831001,50640431101,21,708a2fc3-ada7-4ea4-8711-b014f7515b96,000,540010000000632,630534,b525939e-ca08-4d45-bd3e-fa98890c28e9,54,ул,2020-07-15,0632,5433,5433,2020-08-27,000,0000,000,0,,0626,,0
1,692a1b21-4cf1-4614-95e3-ac3f6a3030cf,0f794731-bc53-4985-bf4a-0c866044916a,7,001,0,0,000,54001000000063200,0.0,2079-06-06,Солнечная,5475,5475,,,50240831000,50640431101,21,708a2fc3-ada7-4ea4-8711-b014f7515b96,000,540010000000632,630534,b9edf394-c2b2-4fc0-984a-778f0b9ad953,54,ул,2020-08-24,0632,5433,5433,2020-08-27,000,0000,000,1,,0626,,0
0,708a2fc3-ada7-4ea4-8711-b014f7515b96,708a2fc3-ada7-4ea4-8711-b014f7515b96,90,001,0,0,000,54001000056001051,51.0,2016-09-28,Ивушка-2,5475,5475,74b4f26f-4c75-4fc0-a33a-8b268fb4655f,,50240831000,50640431,10,a4e75dca-0ca3-426f-9c3e-1d367ae57e72,056,540010000560010,630534,,54,снт,2002-01-01,0000,5433,5433,2020-08-27,000,0000,000,0,,0000,,0
0,708a2fc3-ada7-4ea4-8711-b014f7515b96,74b4f26f-4c75-4fc0-a33a-8b268fb4655f,90,001,0,0,000,54001000091001351,51.0,2016-09-28,Ивушка-2,5475,5475,06703bfb-e6d1-4c7c-ae1e-0e2cf6f7f9aa,,50240831000,50640431,41,08bf257a-0683-4d03-9992-6fa75fa42d75,091,540010000910013,630534,708a2fc3-ada7-4ea4-8711-b014f7515b96,54,снт,2014-01-10,0000,5433,5433,2020-08-27,000,0000,000,0,,0000,,0
0,708a2fc3-ada7-4ea4-8711-b014f7515b96,06703bfb-e6d1-4c7c-ae1e-0e2cf6f7f9aa,90,001,0,0,002,54001002004000751,51.0,2018-03-29,Ивушка-2,5475,5475,e28e9ad8-6229-4469-b014-22c95bf1f004,,50240831000,50640431,51,08bf257a-0683-4d03-9992-6fa75fa42d75,004,540010020040007,630534,74b4f26f-4c75-4fc0-a33a-8b268fb4655f,54,снт,2015-11-10,0000,5433,5433,2020-08-27,000,0000,000,0,a5daed36-f002-4277-9cce-2ae5f6ec2393,0000,,0
0,708a2fc3-ada7-4ea4-8711-b014f7515b96,e28e9ad8-6229-4469-b014-22c95bf1f004,65,001,0,0,002,54001002004000751,51.0,2018-09-26,Ивушка-2,5475,5475,92a9cf79-a069-4a7c-bb8d-667cdf695260,,50240831000,50640431101,50,08bf257a-0683-4d03-9992-6fa75fa42d75,004,540010020040007,,06703bfb-e6d1-4c7c-ae1e-0e2cf6f7f9aa,54,снт,2016-09-28,0000,5433,5433,2020-08-27,000,0000,000,0,,0007,,0
0,708a2fc3-ada7-4ea4-8711-b014f7515b96,92a9cf79-a069-4a7c-bb8d-667cdf695260,65,001,0,0,000,54001000113004051,51.0,2018-09-26,Ивушка-2,5475,5475,9bc9e4d1-bc56-4b04-aed3-d7515f167b5b,,50240831000,50640431101,51,08bf257a-0683-4d03-9992-6fa75fa42d75,113,540010001130040,,e28e9ad8-6229-4469-b014-22c95bf1f004,54,снт,2018-03-29,0000,5433,5433,2020-08-27,000,0000,000,0,7ea417c5-bb4a-4cd2-b50e-071c2e9bbc74,0040,,0
0,708a2fc3-ada7-4ea4-8711-b014f7515b96,9bc9e4d1-bc56-4b04-aed3-d7515f167b5b,65,001,0,0,000,54001000000062600,0.0,2079-06-06,Ивушка-2,5475,5475,2df5d534-e0b5-40ac-a4a6-674e2d252a8d,,50240831000,50640431101,50,16932400-c8e3-4a17-8c57-d96f30a183ce,000,540010000000626,,92a9cf79-a069-4a7c-bb8d-667cdf695260,54,тер. СНТ,2018-09-26,0000,5433,5433,2020-08-27,000,0000,000,0,10af34d8-082b-4757-8446-8a50f583eca8,0626,,0
0,708a2fc3-ada7-4ea4-8711-b014f7515b96,2df5d534-e0b5-40ac-a4a6-674e2d252a8d,65,001,0,0,000,54001000000062600,0.0,2020-08-24,Ивушка-2,5475,5475,0b758207-e2c4-4c04-8f2f-84f62ab7f2d1,,50240831001,50640431101,21,16932400-c8e3-4a17-8c57-d96f30a183ce,000,540010000000626,,9bc9e4d1-bc56-4b04-aed3-d7515f167b5b,54,тер. СНТ,2020-07-15,0000,5433,5433,2020-08-27,000,0000,000,0,,0626,,0
1,708a2fc3-ada7-4ea4-8711-b014f7515b96,0b758207-e2c4-4c04-8f2f-84f62ab7f2d1,65,001,0,0,000,54001000000062600,0.0,2079-06-06,Ивушка-2,5475,5475,,,50240831000,50640431101,21,16932400-c8e3-4a17-8c57-d96f30a183ce,000,540010000000626,,2df5d534-e0b5-40ac-a4a6-674e2d252a8d,54,тер. СНТ,2020-08-24,0000,5433,5433,2020-08-27,000,0000,000,1,,0626,,0
1,4b498e4d-87c5-4969-bde7-10e78ec21296,4b498e4d-87c5-4969-bde7-10e78ec21296,7,019,0,0,000,54019000000002000,0.0,2079-06-06,Ромашковая,5475,5475,,,50238804000,50638404,10,7fa7a26b-8096-4026-9e94-5bdc66b58b62,000,540190000000020,633137,,54,ул,2020-08-24,0020,5432,5432,2020-08-27,000,0000,000,1,,0013,,0
1,73aa4ae3-58df-4b1f-b820-c71b24f828cb,73aa4ae3-58df-4b1f-b820-c71b24f828cb,7,019,0,0,000,54019000000001900,0.0,2079-06-06,Радужная,5475,5475,,,50238804000,50638404,10,7fa7a26b-8096-4026-9e94-5bdc66b58b62,000,540190000000019,633137,,54,ул,2020-08-24,0019,5432,5432,2020-08-27,000,0000,000,1,,0013,,0
1,c7441760-ce6f-4463-b8b9-b64f6d34ae39,c7441760-ce6f-4463-b8b9-b64f6d34ae39,7,019,0,0,000,54019000000001800,0.0,2079-06-06,Солнечная,5475,5475,,,50238804000,50638404,10,7fa7a26b-8096-4026-9e94-5bdc66b58b62,000,540190000000018,633137,,54,ул,2020-08-24,0018,5432,5432,2020-08-27,000,0000,000,1,,0013,,0
1,73644bbd-7cbf-4dd7-96b9-0b092e50a15b,73644bbd-7cbf-4dd7-96b9-0b092e50a15b,7,019,0,0,000,54019000000002100,0.0,2079-06-06,Васильковый,5475,5475,,,50238804000,50638404,10,7fa7a26b-8096-4026-9e94-5bdc66b58b62,000,540190000000021,633137,,54,пер,2020-08-24,0021,5432,5432,2020-08-27,000,0000,000,1,,0013,,0
0,0dee3696-a1fc-4c7a-aaf2-35b86e910867,0dee3696-a1fc-4c7a-aaf2-35b86e910867,7,019,0,0,000,54019000024005800,0.0,2079-06-06,Французский квартал,5475,5475,7685b1b6-c328-40ed-9189-6d138ec95170,,50238804001,50638404101,10,9fb1532b-b12e-48a2-9a4a-41445d446a9a,024,540190000240058,,,54,ул,2020-04-01,0058,5433,5433,2020-08-27,000,0000,000,0,,0000,,0
0,0dee3696-a1fc-4c7a-aaf2-35b86e910867,7685b1b6-c328-40ed-9189-6d138ec95170,7,019,0,0,000,54019000024005800,0.0,2079-06-06,Французский квартал,5475,5475,5fe974c1-c422-4721-83a8-1c8dbc7cfc26,,50238804001,50638404101,21,9fb1532b-b12e-48a2-9a4a-41445d446a9a,024,540190000240058,,0dee3696-a1fc-4c7a-aaf2-35b86e910867,54,ул,2020-08-21,0058,5432,5432,2020-08-27,000,0000,000,0,,0000,,0
1,0dee3696-a1fc-4c7a-aaf2-35b86e910867,5fe974c1-c422-4721-83a8-1c8dbc7cfc26,7,019,0,0,000,54019000024005800,0.0,2079-06-06,Французский квартал,5475,5475,,,50238804001,50638404101,21,9fb1532b-b12e-48a2-9a4a-41445d446a9a,024,540190000240058,,7685b1b6-c328-40ed-9189-6d138ec95170,54,ул,2020-08-24,0058,5432,5432,2020-08-27,000,0000,000,1,,0000,,0
1,f95bbecb-27f7-451a-b77a-a8b7ae22861d,f95bbecb-27f7-451a-b77a-a8b7ae22861d,7,019,0,0,000,54019000000001600,0.0,2079-06-06,Цветочная,5475,5475,,,50238804000,50638404,10,7fa7a26b-8096-4026-9e94-5bdc66b58b62,000,540190000000016,633137,,54,ул,2020-08-24,0016,5432,5432,2020-08-27,000,0000,000,1,,0013,,0
1,c54f77ca-887b-4653-958d-7cb12cf94d96,c54f77ca-887b-4653-958d-7cb12cf94d96,7,019,0,0,000,54019000000001700,0.0,2079-06-06,Озерная,5475,5475,,,50238804000,50638404,10,7fa7a26b-8096-4026-9e94-5bdc66b58b62,000,540190000000017,633137,,54,ул,2020-08-24,0017,5432,5432,2020-08-27,000,0000,000,1,,0013,,0
0,1c6bf63f-8f4d-412c-9762-3afbe138880c,1c6bf63f-8f4d-412c-9762-3afbe138880c,7,001,0,0,002,54001002004006351,51.0,2079-06-06,Садовая,5475,5475,460a377e-c77b-4ed8-8883-b56bb6105ef0,,50240831000,50640431101,10,708a2fc3-ada7-4ea4-8711-b014f7515b96,004,540010020040063,630535,,54,ул,2017-12-20,0063,5433,5433,2020-08-27,000,0000,000,0,d740152b-3093-4b21-8b14-4abe0865e68f,0007,,0
0,1c6bf63f-8f4d-412c-9762-3afbe138880c,460a377e-c77b-4ed8-8883-b56bb6105ef0,7,001,0,0,000,54001000113004551,51.0,2018-09-26,Садовая,5475,5475,275156c7-b812-4c84-9c3a-418af3892b08,,50240831000,50640431101,51,708a2fc3-ada7-4ea4-8711-b014f7515b96,113,540010001130045,630535,1c6bf63f-8f4d-412c-9762-3afbe138880c,54,ул,2018-03-29,0045,5433,5433,2020-08-27,000,0000,000,0,7ea417c5-bb4a-4cd2-b50e-071c2e9bbc74,0040,,0
0,1c6bf63f-8f4d-412c-9762-3afbe138880c,275156c7-b812-4c84-9c3a-418af3892b08,7,001,0,0,000,54001000000063100,0.0,2079-06-06,Садовая,5475,5475,36435246-b95e-4632-8b0a-09c0da10b186,,50240831000,50640431101,51,708a2fc3-ada7-4ea4-8711-b014f7515b96,000,540010000000631,630535,460a377e-c77b-4ed8-8883-b56bb6105ef0,54,ул,2018-09-26,0631,5433,5433,2020-08-27,000,0000,000,0,10af34d8-082b-4757-8446-8a50f583eca8,0626,,0
0,1c6bf63f-8f4d-412c-9762-3afbe138880c,36435246-b95e-4632-8b0a-09c0da10b186,7,001,0,0,000,54001000000063100,0.0,2020-08-24,Садовая,5475,5475,c5fcec6c-4412-476b-8d90-26c1ffe13184,,50240831001,50640431101,21,708a2fc3-ada7-4ea4-8711-b014f7515b96,000,540010000000631,630535,275156c7-b812-4c84-9c3a-418af3892b08,54,ул,2020-07-15,0631,5433,5433,2020-08-27,000,0000,000,0,,0626,,0
1,1c6bf63f-8f4d-412c-9762-3afbe138880c,c5fcec6c-4412-476b-8d90-26c1ffe13184,7,001,0,0,000,54001000000063100,0.0,2079-06-06,Садовая,5475,5475,,,50240831000,50640431101,21,708a2fc3-ada7-4ea4-8711-b014f7515b96,000,540010000000631,630535,36435246-b95e-4632-8b0a-09c0da10b186,54,ул,2020-08-24,0631,5433,5433,2020-08-27,000,0000,000,1,,0626,,0
1,a8aafc32-914c-409a-820a-93d20d88ab53,a8aafc32-914c-409a-820a-93d20d88ab53,7,001,0,0,000,54001000000159900,0.0,2079-06-06,Луговая,5475,5475,,,50240819000,50640419,10,9e5143db-f6d7-46fc-a14a-57ee7846c59a,000,540010000001599,630511,,54,ул,2020-08-26,1599,5433,5433,2020-08-27,000,0000,000,1,,0377,,0
0,b02bd637-c537-479d-b408-2f7a659af51e,b02bd637-c537-479d-b408-2f7a659af51e,90,001,0,0,000,54001000056004551,51.0,2016-09-28,Луч-2,5475,5475,1c8acc27-4e7b-4d1a-a575-cc667be0e4bb,,50240831000,50640431,10,a4e75dca-0ca3-426f-9c3e-1d367ae57e72,056,540010000560045,630534,,54,снт,2002-01-01,0000,5433,5433,2020-08-27,000,0000,000,0,,0000,,0
0,b02bd637-c537-479d-b408-2f7a659af51e,1c8acc27-4e7b-4d1a-a575-cc667be0e4bb,90,001,0,0,000,54001000091001751,51.0,2016-09-28,Луч-2,5475,5475,c163d46f-cc72-4da7-b7b0-69e4a1ad57fb,,50240831000,50640431,41,08bf257a-0683-4d03-9992-6fa75fa42d75,091,540010000910017,630534,b02bd637-c537-479d-b408-2f7a659af51e,54,снт,2014-01-10,0000,5433,5433,2020-08-27,000,0000,000,0,,0000,,0
0,b02bd637-c537-479d-b408-2f7a659af51e,c163d46f-cc72-4da7-b7b0-69e4a1ad57fb,90,001,0,0,002,54001002004000951,51.0,2018-03-29,Луч-2,5475,5475,29777b95-0d0b-4388-accb-98186ea52f3e,,50240831000,50640431,51,08bf257a-0683-4d03-9992-6fa75fa42d75,004,540010020040009,630534,1c8acc27-4e7b-4d1a-a575-cc667be0e4bb,54,снт,2015-11-10,0000,5433,5433,2020-08-27,000,0000,000,0,a5daed36-f002-4277-9cce-2ae5f6ec2393,0000,,0
0,b02bd637-c537-479d-b408-2f7a659af51e,29777b95-0d0b-4388-accb-98186ea52f3e,65,001,0,0,002,54001002004000951,51.0,2018-09-26,Луч-2,5475,5475,f16ebf37-ce43-4224-a68e-680fbb426a73,,50240831000,50640431101,50,08bf257a-0683-4d03-9992-6fa75fa42d75,004,540010020040009,,c163d46f-cc72-4da7-b7b0-69e4a1ad57fb,54,снт,2016-09-28,0000,5433,5433,2020-08-27,000,0000,000,0,,0009,,0
0,b02bd637-c537-479d-b408-2f7a659af51e,f16ebf37-ce43-4224-a68e-680fbb426a73,65,001,0,0,000,54001000113003551,51.0,2018-09-26,Луч-2,5475,5475,27d8ce27-5c0b-4afe-ab2c-877dbc035378,,50240831000,50640431101,51,08bf257a-0683-4d03-9992-6fa75fa42d75,113,540010001130035,,29777b95-0d0b-4388-accb-98186ea52f3e,54,снт,2018-03-29,0000,5433,5433,2020-08-27,000,0000,000,0,7ea417c5-bb4a-4cd2-b50e-071c2e9bbc74,0035,,0
0,b02bd637-c537-479d-b408-2f7a659af51e,27d8ce27-5c0b-4afe-ab2c-877dbc035378,65,001,0,0,000,54001000000062100,0.0,2079-06-06,Луч-2,5475,5475,7663a87c-a33a-4065-bb3b-5ad65e5bfe15,,50240831000,50640431101,50,16932400-c8e3-4a17-8c57-d96f30a183ce,000,540010000000621,,f16ebf37-ce43-4224-a68e-680fbb426a73,54,тер. СНТ,2018-09-26,0000,5433,5433,2020-08-27,000,0000,000,0,10af34d8-082b-4757-8446-8a50f583eca8,0621,,0
0,b02bd637-c537-479d-b408-2f7a659af51e,7663a87c-a33a-4065-bb3b-5ad65e5bfe15,65,001,0,0,000,54001000000062100,0.0,2020-08-24,Луч-2,5475,5475,e0bdd97b-cea1-4b87-bd53-05ffa789d922,,50240831001,50640431101,21,16932400-c8e3-4a17-8c57-d96f30a183ce,000,540010000000621,,27d8ce27-5c0b-4afe-ab2c-877dbc035378,54,тер. СНТ,2020-07-15,0000,5433,5433,2020-08-27,000,0000,000,0,,0621,,0
1,b02bd637-c537-479d-b408-2f7a659af51e,e0bdd97b-cea1-4b87-bd53-05ffa789d922,65,001,0,0,000,54001000000062100,0.0,2079-06-06,Луч-2,5475,5475,,,50240831000,50640431101,21,16932400-c8e3-4a17-8c57-d96f30a183ce,000,540010000000621,,7663a87c-a33a-4065-bb3b-5ad65e5bfe15,54,тер. СНТ,2020-08-24,0000,5433,5433,2020-08-27,000,0000,000,1,,0621,,0
0,ccc804eb-3521-416a-bf1c-3cf26752b078,ccc804eb-3521-416a-bf1c-3cf26752b078,7,001,0,0,002,54001002004005651,51.0,2079-06-06,Береговая,5475,5475,0199c938-8ae2-443b-ba5c-f1f00cc57b6f,,50240831001,50640431101,10,b02bd637-c537-479d-b408-2f7a659af51e,004,540010020040056,,,54,ул,2017-12-20,0056,5433,5433,2020-08-27,000,0000,000,0,d740152b-3093-4b21-8b14-4abe0865e68f,0009,,0
0,ccc804eb-3521-416a-bf1c-3cf26752b078,0199c938-8ae2-443b-ba5c-f1f00cc57b6f,7,001,0,0,000,54001000113003851,51.0,2018-09-26,Береговая,5475,5475,c9895372-bbe3-4001-b8db-ab20538e6e8a,,50240831001,50640431101,51,b02bd637-c537-479d-b408-2f7a659af51e,113,540010001130038,,ccc804eb-3521-416a-bf1c-3cf26752b078,54,ул,2018-03-29,0038,5433,5433,2020-08-27,000,0000,000,0,7ea417c5-bb4a-4cd2-b50e-071c2e9bbc74,0035,,0
0,ccc804eb-3521-416a-bf1c-3cf26752b078,c9895372-bbe3-4001-b8db-ab20538e6e8a,7,001,0,0,000,54001000000062400,0.0,2079-06-06,Береговая,5475,5475,268afd62-b556-4550-bc1e-d500aeedb1fc,,50240831001,50640431101,51,b02bd637-c537-479d-b408-2f7a659af51e,000,540010000000624,,0199c938-8ae2-443b-ba5c-f1f00cc57b6f,54,ул,2018-09-26,0624,5433,5433,2020-08-27,000,0000,000,0,10af34d8-082b-4757-8446-8a50f583eca8,0621,,0
1,ccc804eb-3521-416a-bf1c-3cf26752b078,268afd62-b556-4550-bc1e-d500aeedb1fc,7,001,0,0,000,54001000000062400,0.0,2079-06-06,Береговая,5475,5475,,,50240831000,50640431101,21,b02bd637-c537-479d-b408-2f7a659af51e,000,540010000000624,,c9895372-bbe3-4001-b8db-ab20538e6e8a,54,ул,2020-08-24,0624,5433,5433,2020-08-27,000,0000,000,1,,0621,,0
1,9f74f444-6bf8-4997-baab-0c7671be5138,9f74f444-6bf8-4997-baab-0c7671be5138,7,019,0,0,000,54019000000001400,0.0,2079-06-06,Березовая,5475,5475,,,50238804000,50638404,10,7fa7a26b-8096-4026-9e94-5bdc66b58b62,000,540190000000014,633137,,54,ул,2020-08-24,0014,5432,5432,2020-08-27,000,0000,000,1,,0013,,0
