ACTSTATUS,AOGUID,AOID,AOLEVEL,AREACODE,AUTOCODE,CENTSTATUS,CITYCODE,CODE,CURRSTATUS,ENDDATE,FORMALNAME,IFNSFL,IFNSUL,NEXTID,OFFNAME,OKATO,OKTMO,OPERSTATUS,PARENTGUID,PLACECODE,PLAINCODE,POSTALCODE,PREVID,REGIONCODE,SHORTNAME,STARTDATE,STREETCODE,TERRIFNSFL,TERRIFNSUL,UPDATEDATE,CTARCODE,EXTRCODE,SEXTCODE,LIVESTATUS,NORMDOC,PLANCODE,CADNUM,DIVTYPE
1,79e2d550-fc99-4002-a347-f1cff169719e,79e2d550-fc99-4002-a347-f1cff169719e,7,027,0,0,000,61027000123002300,0.0,2079-06-06,Колхозная,6171,6171,,,60236836002,60636436141,10,e7f3547e-a078-48a3-a0d2-6353cd0fb4f3,123,610270001230023,,,61,ул,2020-08-27,0023,6123,6123,2020-08-30,000,0000,000,1,,0000,,0
1,437573c9-ca14-48ec-bd87-cd92d3db0db9,437573c9-ca14-48ec-bd87-cd92d3db0db9,7,029,0,0,000,61029000035000400,0.0,2079-06-06,Степная,6182,6182,,,60241827001,60641427101,10,2c470caa-f058-41da-8937-75a5d5f74528,035,610290000350004,346488,,61,ул,2020-08-28,0004,6125,6125,2020-08-30,000,0000,000,1,,0000,,0
0,eb1224f0-bf97-4661-a8d7-8f130c4b4835,28f13325-1dde-490f-801b-7430117229c1,7,000,0,0,001,61000001000296501,1.0,2008-05-30,Атаманский 7-й,6193,6193,c463dfd9-f6e0-41b3-a1dd-e41937496b8d,,60401362000,60701000,1,c1cfe4b9-f7c2-423c-abfa-6ed1c05a15c5,000,610000010002965,344000,,61,пер,1900-01-01,2965,6161,6161,2020-09-03,000,0000,000,0,,0000,,0
0,eb1224f0-bf97-4661-a8d7-8f130c4b4835,c463dfd9-f6e0-41b3-a1dd-e41937496b8d,7,000,0,0,001,61000001000296502,2.0,2079-06-06,7-й Атаманский,6193,6193,76ce7cc2-b231-4673-a196-3887ba2f5f69,,60401362000,60701000,20,c1cfe4b9-f7c2-423c-abfa-6ed1c05a15c5,000,610000010002965,344000,28f13325-1dde-490f-801b-7430117229c1,61,пер,2008-05-30,2965,6161,6161,2020-09-03,000,0000,000,0,3eb3125a-2922-486d-9b88-991357b54777,0000,,0
0,eb1224f0-bf97-4661-a8d7-8f130c4b4835,76ce7cc2-b231-4673-a196-3887ba2f5f69,7,000,0,0,001,61000001000296503,3.0,2015-05-14,7-й Атаманский,6193,6193,b75fbcf1-245f-4415-9e7a-0a4527b71121,,60401362000,60701000,21,c1cfe4b9-f7c2-423c-abfa-6ed1c05a15c5,000,610000010002965,344065,c463dfd9-f6e0-41b3-a1dd-e41937496b8d,61,пер,2013-06-11,2965,6161,6161,2020-09-03,000,0000,000,0,8ec5ac88-7578-474d-acf9-d668efe32328,0000,,0
0,eb1224f0-bf97-4661-a8d7-8f130c4b4835,b75fbcf1-245f-4415-9e7a-0a4527b71121,7,000,0,0,001,61000001000296504,4.0,2017-09-28,7-й Атаманский,6193,6193,32366945-fc77-41a3-9b0c-d1621729e074,,60401000000,60701000,21,c1cfe4b9-f7c2-423c-abfa-6ed1c05a15c5,000,610000010002965,344065,76ce7cc2-b231-4673-a196-3887ba2f5f69,61,пер,2015-05-14,2965,6161,6161,2020-09-03,000,0000,000,0,,0000,,0
0,eb1224f0-bf97-4661-a8d7-8f130c4b4835,32366945-fc77-41a3-9b0c-d1621729e074,7,000,0,0,001,61000001000296500,0.0,2079-06-06,7-й Атаманский,6193,6193,e9b16cce-0c77-415d-9dab-7bf69270c435,,60401000000,60701000,21,c1cfe4b9-f7c2-423c-abfa-6ed1c05a15c5,000,610000010002965,344065,b75fbcf1-245f-4415-9e7a-0a4527b71121,61,пер,2017-09-28,2965,6161,6161,2020-09-03,000,0000,000,0,6b10644c-476c-4187-82dc-bac1fe8d4f25,0000,,0
1,eb1224f0-bf97-4661-a8d7-8f130c4b4835,e9b16cce-0c77-415d-9dab-7bf69270c435,7,000,0,0,001,61000001000296500,0.0,2079-06-06,7-й Атаманский,6193,6193,,,60401000000,60701000001,21,c1cfe4b9-f7c2-423c-abfa-6ed1c05a15c5,000,610000010002965,344065,32366945-fc77-41a3-9b0c-d1621729e074,61,пер,2020-09-01,2965,6161,6161,2020-09-03,000,0000,000,1,,0000,,0
0,657168de-ec38-4a92-a0fe-7c48abaae50b,eadc58fe-3db7-44a2-8ac2-d2cff9542341,7,000,0,0,001,61000001000295001,1.0,2016-06-03,Дружный 7-й,6165,6165,86cc5ca6-43ab-4fa1-8a30-2f8143047f73,,60401374000,60701000,1,c1cfe4b9-f7c2-423c-abfa-6ed1c05a15c5,000,610000010002950,344029,,61,пер,1900-01-01,2950,,,2020-09-03,000,0000,000,0,,0000,,0
0,657168de-ec38-4a92-a0fe-7c48abaae50b,86cc5ca6-43ab-4fa1-8a30-2f8143047f73,7,000,0,0,001,61000001000295002,2.0,2016-06-03,Дружный 7-й,6165,6165,da6d442c-50d7-4ca7-bcfc-98d36385de9a,,60401000000,60701000,21,c1cfe4b9-f7c2-423c-abfa-6ed1c05a15c5,000,610000010002950,344029,eadc58fe-3db7-44a2-8ac2-d2cff9542341,61,пер,2015-05-21,2950,,,2020-09-03,000,0000,000,0,,0000,,0
0,657168de-ec38-4a92-a0fe-7c48abaae50b,da6d442c-50d7-4ca7-bcfc-98d36385de9a,7,000,0,0,001,61000001000295003,3.0,2079-06-06,7-й Дружный,6165,6165,24fa11e3-6126-4c2f-b873-827bb4839a07,,60401000000,60701000,20,c1cfe4b9-f7c2-423c-abfa-6ed1c05a15c5,000,610000010002950,344029,86cc5ca6-43ab-4fa1-8a30-2f8143047f73,61,пер,2016-06-03,2950,,,2020-09-03,000,0000,000,0,84f9daf0-3688-44de-b8f8-05bcd810b316,0000,,0
0,657168de-ec38-4a92-a0fe-7c48abaae50b,24fa11e3-6126-4c2f-b873-827bb4839a07,7,000,0,0,001,61000001000295000,0.0,2079-06-06,7-й Дружный,6165,6165,ef121c57-75db-4ab3-9142-4485a565f528,,60401000000,60701000,21,c1cfe4b9-f7c2-423c-abfa-6ed1c05a15c5,000,610000010002950,344029,da6d442c-50d7-4ca7-bcfc-98d36385de9a,61,пер,2017-09-28,2950,,,2020-09-03,000,0000,000,0,6b10644c-476c-4187-82dc-bac1fe8d4f25,0000,,0
1,657168de-ec38-4a92-a0fe-7c48abaae50b,ef121c57-75db-4ab3-9142-4485a565f528,7,000,0,0,001,61000001000295000,0.0,2079-06-06,7-й Дружный,6165,6165,,,60401000000,60701000001,21,c1cfe4b9-f7c2-423c-abfa-6ed1c05a15c5,000,610000010002950,344029,24fa11e3-6126-4c2f-b873-827bb4839a07,61,пер,2020-09-01,2950,,,2020-09-03,000,0000,000,1,,0000,,0
1,3d899fd0-e06c-4ec3-9b06-597641747aa9,3d899fd0-e06c-4ec3-9b06-597641747aa9,7,003,0,0,000,61003000505011500,0.0,2079-06-06,Рижский,6181,6181,,,60202867010,60602436136,10,c85e3add-6317-4d2b-98b3-7ab54db80fcc,505,610030005050115,,,61,пр-д,2020-08-13,0115,6102,6102,2020-08-16,000,0000,000,1,,0000,,0
0,c03f4fde-e070-4569-b9cb-e9946c621615,35d6301a-9dc7-4975-b95b-09ae00afc625,7,037,0,0,000,61037000021000401,1.0,2079-06-06,Петровская,6178,6178,4dcd86b6-4d75-4485-bb65-e67cfcade2cc,,60252826002,60652426,1,75edd7ec-50de-4409-9e79-d693215e3cab,021,610370000210004,347180,,61,ул,1900-01-01,0004,6131,6131,2020-08-17,000,0000,000,0,,0000,,0
0,c03f4fde-e070-4569-b9cb-e9946c621615,4dcd86b6-4d75-4485-bb65-e67cfcade2cc,7,037,0,0,000,61037000021000402,2.0,2020-08-17,Петровская,6192,6192,24290740-cb2d-4c55-8ab8-2ef301b145c5,,60252826001,60652426,21,75edd7ec-50de-4409-9e79-d693215e3cab,021,610370000210004,347180,35d6301a-9dc7-4975-b95b-09ae00afc625,61,ул,2012-01-01,0004,6131,6131,2020-08-17,000,0000,000,0,ed5f0774-2236-4e4c-9ad3-a5bd320fe97f,0000,,0
0,c03f4fde-e070-4569-b9cb-e9946c621615,24290740-cb2d-4c55-8ab8-2ef301b145c5,7,037,0,0,000,61037000021000400,0.0,2079-06-06,Петровская,6192,6192,8cbb7194-25ac-47c7-9e61-754a4b26a118,,60252826001,60652426101,21,75edd7ec-50de-4409-9e79-d693215e3cab,021,610370000210004,347180,4dcd86b6-4d75-4485-bb65-e67cfcade2cc,61,ул,2014-01-05,0004,6131,6131,2020-08-17,000,0000,000,0,ed5f0774-2236-4e4c-9ad3-a5bd320fe97f,0000,,0
1,c03f4fde-e070-4569-b9cb-e9946c621615,8cbb7194-25ac-47c7-9e61-754a4b26a118,7,037,0,0,000,61037000021000400,0.0,2079-06-06,Петровская,6192,6192,,,60252826002,60652426101,21,75edd7ec-50de-4409-9e79-d693215e3cab,021,610370000210004,347180,24290740-cb2d-4c55-8ab8-2ef301b145c5,61,ул,2020-08-17,0004,6131,6131,2020-08-17,000,0000,000,1,,0000,,0
0,9529d637-0f56-4596-b9f9-da2d4d5db588,cef6023f-4de8-487f-b2ed-8b8229d6509c,7,037,0,0,000,61037000018000101,1.0,2079-06-06,Молодежная,6178,6178,2a3772fd-5914-4839-a8de-6d2918194453,,60252826003,60652426,1,b205af43-bcde-4a1f-a5e5-cc1ca068e58f,018,610370000180001,347180,,61,ул,1900-01-01,0001,6131,6131,2020-08-17,000,0000,000,0,,0000,,0
0,9529d637-0f56-4596-b9f9-da2d4d5db588,2a3772fd-5914-4839-a8de-6d2918194453,7,037,0,0,000,61037000018000102,2.0,2014-01-05,Молодежная,6192,6192,365ba5ba-2a4b-442c-8d60-64d6b9cfb289,,60252826002,60652426,21,b205af43-bcde-4a1f-a5e5-cc1ca068e58f,018,610370000180001,347180,cef6023f-4de8-487f-b2ed-8b8229d6509c,61,ул,2012-01-01,0001,6131,6131,2020-08-17,000,0000,000,0,ed5f0774-2236-4e4c-9ad3-a5bd320fe97f,0000,,0
0,9529d637-0f56-4596-b9f9-da2d4d5db588,365ba5ba-2a4b-442c-8d60-64d6b9cfb289,7,037,0,0,000,61037000018000100,0.0,2079-06-06,Молодежная,6192,6192,1a9f5edd-9ad7-4a49-aa43-093fb972062d,,60252826002,60652426126,21,b205af43-bcde-4a1f-a5e5-cc1ca068e58f,018,610370000180001,347180,2a3772fd-5914-4839-a8de-6d2918194453,61,ул,2014-01-05,0001,6131,6131,2020-08-17,000,0000,000,0,ed5f0774-2236-4e4c-9ad3-a5bd320fe97f,0000,,0
1,9529d637-0f56-4596-b9f9-da2d4d5db588,1a9f5edd-9ad7-4a49-aa43-093fb972062d,7,037,0,0,000,61037000018000100,0.0,2079-06-06,Молодежная,6192,6192,,,60252826003,60652426126,21,b205af43-bcde-4a1f-a5e5-cc1ca068e58f,018,610370000180001,347180,365ba5ba-2a4b-442c-8d60-64d6b9cfb289,61,ул,2020-08-17,0001,6131,6131,2020-08-17,000,0000,000,1,,0000,,0
0,ba10cf71-0095-4a81-9be4-b7b4427d3532,dd10d0c2-a404-4770-89e7-8007c495aff7,7,037,0,0,000,61037000028000401,1.0,2079-06-06,Речной,6178,6178,e3eb8383-948e-4193-ae5d-f5fe6d8e7270,,60252826008,60652426,1,21bbcc91-28b9-4273-898f-532b4d24366f,028,610370000280004,347182,,61,пер,1900-01-01,0004,6131,6131,2020-08-17,000,0000,000,0,,0000,,0
0,ba10cf71-0095-4a81-9be4-b7b4427d3532,e3eb8383-948e-4193-ae5d-f5fe6d8e7270,7,037,0,0,000,61037000028000402,2.0,2020-08-17,Речной,6192,6192,0f829fdc-1aca-45c2-afd4-0327fda6e3c8,,60252826002,60652426,21,21bbcc91-28b9-4273-898f-532b4d24366f,028,610370000280004,347180,dd10d0c2-a404-4770-89e7-8007c495aff7,61,пер,2012-01-01,0004,6131,6131,2020-08-17,000,0000,000,0,ed5f0774-2236-4e4c-9ad3-a5bd320fe97f,0000,,0
0,ba10cf71-0095-4a81-9be4-b7b4427d3532,0f829fdc-1aca-45c2-afd4-0327fda6e3c8,7,037,0,0,000,61037000028000400,0.0,2079-06-06,Речной,6192,6192,79468b06-136a-47e4-8f4d-eea1cef41ebf,,60252826002,60652426126,21,21bbcc91-28b9-4273-898f-532b4d24366f,028,610370000280004,347182,e3eb8383-948e-4193-ae5d-f5fe6d8e7270,61,пер,2014-01-05,0004,6131,6131,2020-08-17,000,0000,000,0,ed5f0774-2236-4e4c-9ad3-a5bd320fe97f,0000,,0
1,ba10cf71-0095-4a81-9be4-b7b4427d3532,79468b06-136a-47e4-8f4d-eea1cef41ebf,7,037,0,0,000,61037000028000400,0.0,2079-06-06,Речной,6192,6192,,,60252826008,60652426126,21,21bbcc91-28b9-4273-898f-532b4d24366f,028,610370000280004,347182,0f829fdc-1aca-45c2-afd4-0327fda6e3c8,61,пер,2020-08-17,0004,6131,6131,2020-08-17,000,0000,000,1,,0000,,0
0,3fbf1de0-8129-4f3e-a74c-ae8b290793b8,8941d41f-1427-420d-9530-4b215a37c797,7,037,0,0,000,61037000028000601,1.0,2079-06-06,Гагарина,6178,6178,faa734c7-af8b-41ef-8887-3fe8ad9d3b71,,60252826008,60652426,1,21bbcc91-28b9-4273-898f-532b4d24366f,028,610370000280006,347182,,61,ул,1900-01-01,0006,6131,6131,2020-08-17,000,0000,000,0,,0000,,0
0,3fbf1de0-8129-4f3e-a74c-ae8b290793b8,faa734c7-af8b-41ef-8887-3fe8ad9d3b71,7,037,0,0,000,61037000028000602,2.0,2018-06-01,Гагарина,6192,6192,1d712f21-05a4-40fe-a2cc-d5e1a34f543b,,60252826002,60652426,21,21bbcc91-28b9-4273-898f-532b4d24366f,028,610370000280006,347180,8941d41f-1427-420d-9530-4b215a37c797,61,ул,2012-01-01,0006,6131,6131,2020-08-17,000,0000,000,0,ed5f0774-2236-4e4c-9ad3-a5bd320fe97f,0000,,0
0,3fbf1de0-8129-4f3e-a74c-ae8b290793b8,1d712f21-05a4-40fe-a2cc-d5e1a34f543b,7,037,0,0,000,61037000028000651,51.0,2018-06-01,Гагарина,6192,6192,b1478fd3-f6f6-4274-a84b-1e3dcc28673a,,60252826002,60652426126,21,21bbcc91-28b9-4273-898f-532b4d24366f,028,610370000280006,,faa734c7-af8b-41ef-8887-3fe8ad9d3b71,61,ул,2014-01-05,0006,6131,6131,2020-08-17,000,0000,000,0,ed5f0774-2236-4e4c-9ad3-a5bd320fe97f,0000,,0
0,3fbf1de0-8129-4f3e-a74c-ae8b290793b8,b1478fd3-f6f6-4274-a84b-1e3dcc28673a,7,037,0,0,000,61037000028000600,0.0,2079-06-06,Гагарина,6192,6192,f6412a92-ae98-430d-b2bb-19b19b699096,,60252826002,60652426126,40,21bbcc91-28b9-4273-898f-532b4d24366f,028,610370000280006,347182,1d712f21-05a4-40fe-a2cc-d5e1a34f543b,61,ул,2018-06-01,0006,6131,6131,2020-08-17,000,0000,000,0,e5126dae-72fa-4216-bfba-4f8d5208cfcb,0000,,0
1,3fbf1de0-8129-4f3e-a74c-ae8b290793b8,f6412a92-ae98-430d-b2bb-19b19b699096,7,037,0,0,000,61037000028000600,0.0,2079-06-06,Гагарина,6192,6192,,,60252826008,60652426126,21,21bbcc91-28b9-4273-898f-532b4d24366f,028,610370000280006,347182,b1478fd3-f6f6-4274-a84b-1e3dcc28673a,61,ул,2020-08-17,0006,6131,6131,2020-08-17,000,0000,000,1,,0000,,0
0,8a187492-92a3-4b18-9afb-09266460be2a,1a2a75bf-3c40-4963-9718-4968b531679f,7,037,0,0,000,61037000020000501,1.0,2079-06-06,Е.Пугачева,6178,6178,73a73ffe-f0ca-4ee8-9933-bc7503f44753,,60252826006,60652426,1,5aed7926-9e6a-488d-955a-ae141750c0f2,020,610370000200005,347182,,61,ул,1900-01-01,0005,6131,6131,2020-08-17,000,0000,000,0,,0000,,0
0,8a187492-92a3-4b18-9afb-09266460be2a,73a73ffe-f0ca-4ee8-9933-bc7503f44753,7,037,0,0,000,61037000020000502,2.0,2020-08-17,Е.Пугачева,6192,6192,54c3a39e-df8f-4e78-8995-49c9dd466da1,,60252826002,60652426,21,5aed7926-9e6a-488d-955a-ae141750c0f2,020,610370000200005,347180,1a2a75bf-3c40-4963-9718-4968b531679f,61,ул,2012-01-01,0005,6131,6131,2020-08-17,000,0000,000,0,ed5f0774-2236-4e4c-9ad3-a5bd320fe97f,0000,,0
0,8a187492-92a3-4b18-9afb-09266460be2a,54c3a39e-df8f-4e78-8995-49c9dd466da1,7,037,0,0,000,61037000020000500,0.0,2079-06-06,Е.Пугачева,6192,6192,def487ab-1ad3-4712-9cf3-4eae3525d947,,60252826002,60652426126,21,5aed7926-9e6a-488d-955a-ae141750c0f2,020,610370000200005,347182,73a73ffe-f0ca-4ee8-9933-bc7503f44753,61,ул,2014-01-05,0005,6131,6131,2020-08-17,000,0000,000,0,ed5f0774-2236-4e4c-9ad3-a5bd320fe97f,0000,,0
1,8a187492-92a3-4b18-9afb-09266460be2a,def487ab-1ad3-4712-9cf3-4eae3525d947,7,037,0,0,000,61037000020000500,0.0,2079-06-06,Е.Пугачева,6192,6192,,,60252826006,60652426126,21,5aed7926-9e6a-488d-955a-ae141750c0f2,020,610370000200005,347182,54c3a39e-df8f-4e78-8995-49c9dd466da1,61,ул,2020-08-17,0005,6131,6131,2020-08-17,000,0000,000,1,,0000,,0
0,c003d130-1999-4e6c-bbb0-f97248db5ad8,ceac0fa0-f616-46a1-9913-4816f8ffc192,7,037,0,0,000,61037000015000201,1.0,2079-06-06,Береговая,6178,6178,a0a9429c-c38a-4d92-b288-89353a4d3531,,60252826005,60652426,1,ce988145-4eb6-4000-b0e8-2be367acc6d3,015,610370000150002,347182,,61,ул,1900-01-01,0002,6131,6131,2020-08-17,000,0000,000,0,,0000,,0
0,c003d130-1999-4e6c-bbb0-f97248db5ad8,a0a9429c-c38a-4d92-b288-89353a4d3531,7,037,0,0,000,61037000015000202,2.0,2018-06-01,Береговая,6192,6192,c00a2393-1d33-4cf7-be97-6aace95135ea,,60252826002,60652426,21,ce988145-4eb6-4000-b0e8-2be367acc6d3,015,610370000150002,347180,ceac0fa0-f616-46a1-9913-4816f8ffc192,61,ул,2012-01-01,0002,6131,6131,2020-08-17,000,0000,000,0,ed5f0774-2236-4e4c-9ad3-a5bd320fe97f,0000,,0
0,c003d130-1999-4e6c-bbb0-f97248db5ad8,c00a2393-1d33-4cf7-be97-6aace95135ea,7,037,0,0,000,61037000015000251,51.0,2018-06-01,Береговая,6192,6192,27260ad9-934a-45a0-9a27-956b64d127b7,,60252826002,60652426126,21,ce988145-4eb6-4000-b0e8-2be367acc6d3,015,610370000150002,347182,a0a9429c-c38a-4d92-b288-89353a4d3531,61,ул,2014-01-05,0002,6131,6131,2020-08-17,000,0000,000,0,ed5f0774-2236-4e4c-9ad3-a5bd320fe97f,0000,,0
0,c003d130-1999-4e6c-bbb0-f97248db5ad8,27260ad9-934a-45a0-9a27-956b64d127b7,7,037,0,0,000,61037000015000200,0.0,2079-06-06,Береговая,6192,6192,a3181104-d016-457b-9623-f11a996096e9,,60252826002,60652426126,40,ce988145-4eb6-4000-b0e8-2be367acc6d3,015,610370000150002,347182,c00a2393-1d33-4cf7-be97-6aace95135ea,61,ул,2018-06-01,0002,6131,6131,2020-08-17,000,0000,000,0,60b1c1dc-09be-4035-9eca-bdaea0b883f0,0000,,0
1,c003d130-1999-4e6c-bbb0-f97248db5ad8,a3181104-d016-457b-9623-f11a996096e9,7,037,0,0,000,61037000015000200,0.0,2079-06-06,Береговая,6192,6192,,,60252826005,60652426126,21,ce988145-4eb6-4000-b0e8-2be367acc6d3,015,610370000150002,347182,27260ad9-934a-45a0-9a27-956b64d127b7,61,ул,2020-08-17,0002,6131,6131,2020-08-17,000,0000,000,1,,0000,,0
0,c933c54e-0d51-40bb-b91e-0320ee65b3ef,6b9168a4-fcc0-46eb-96cb-9fa3bb26b683,7,037,0,0,000,61037000021000101,1.0,2079-06-06,Чирская,6178,6178,6faa3b98-f714-43fd-b6ff-5f586008d299,,60252826002,60652426,1,75edd7ec-50de-4409-9e79-d693215e3cab,021,610370000210001,347180,,61,ул,1900-01-01,0001,6131,6131,2020-08-17,000,0000,000,0,,0000,,0
0,c933c54e-0d51-40bb-b91e-0320ee65b3ef,6faa3b98-f714-43fd-b6ff-5f586008d299,7,037,0,0,000,61037000021000102,2.0,2020-08-17,Чирская,6192,6192,266baa2c-4f71-47d1-86fb-7dff178236d6,,60252826001,60652426,21,75edd7ec-50de-4409-9e79-d693215e3cab,021,610370000210001,347180,6b9168a4-fcc0-46eb-96cb-9fa3bb26b683,61,ул,2012-01-01,0001,6131,6131,2020-08-17,000,0000,000,0,ed5f0774-2236-4e4c-9ad3-a5bd320fe97f,0000,,0
0,c933c54e-0d51-40bb-b91e-0320ee65b3ef,266baa2c-4f71-47d1-86fb-7dff178236d6,7,037,0,0,000,61037000021000100,0.0,2079-06-06,Чирская,6192,6192,debdd09f-6885-477e-8e2f-013127aa0771,,60252826001,60652426101,21,75edd7ec-50de-4409-9e79-d693215e3cab,021,610370000210001,347180,6faa3b98-f714-43fd-b6ff-5f586008d299,61,ул,2014-01-05,0001,6131,6131,2020-08-17,000,0000,000,0,ed5f0774-2236-4e4c-9ad3-a5bd320fe97f,0000,,0
1,c933c54e-0d51-40bb-b91e-0320ee65b3ef,debdd09f-6885-477e-8e2f-013127aa0771,7,037,0,0,000,61037000021000100,0.0,2079-06-06,Чирская,6192,6192,,,60252826002,60652426101,21,75edd7ec-50de-4409-9e79-d693215e3cab,021,610370000210001,347180,266baa2c-4f71-47d1-86fb-7dff178236d6,61,ул,2020-08-17,0001,6131,6131,2020-08-17,000,0000,000,1,,0000,,0
0,d5e8057b-bc36-4eb2-aea4-3038a7ead9be,812284a2-20de-444f-bff6-9233485efd89,7,037,0,0,000,61037000018000201,1.0,2079-06-06,Заречная,6178,6178,d285fc4f-0a5b-46d8-90c3-c5516db175fb,,60252826003,60652426,1,b205af43-bcde-4a1f-a5e5-cc1ca068e58f,018,610370000180002,347180,,61,ул,1900-01-01,0002,6131,6131,2020-08-17,000,0000,000,0,,0000,,0
0,d5e8057b-bc36-4eb2-aea4-3038a7ead9be,d285fc4f-0a5b-46d8-90c3-c5516db175fb,7,037,0,0,000,61037000018000202,2.0,2014-01-05,Заречная,6192,6192,d61d1cdf-a426-45ee-a558-596e190ac410,,60252826002,60652426,21,b205af43-bcde-4a1f-a5e5-cc1ca068e58f,018,610370000180002,347180,812284a2-20de-444f-bff6-9233485efd89,61,ул,2012-01-01,0002,6131,6131,2020-08-17,000,0000,000,0,ed5f0774-2236-4e4c-9ad3-a5bd320fe97f,0000,,0
0,d5e8057b-bc36-4eb2-aea4-3038a7ead9be,d61d1cdf-a426-45ee-a558-596e190ac410,7,037,0,0,000,61037000018000200,0.0,2079-06-06,Заречная,6192,6192,1556c2eb-a579-44cc-a819-6dfe22455e2f,,60252826002,60652426,21,b205af43-bcde-4a1f-a5e5-cc1ca068e58f,018,610370000180002,347180,d285fc4f-0a5b-46d8-90c3-c5516db175fb,61,ул,2014-01-05,0002,6131,6131,2020-08-17,000,0000,000,0,ed5f0774-2236-4e4c-9ad3-a5bd320fe97f,0000,,0
1,d5e8057b-bc36-4eb2-aea4-3038a7ead9be,1556c2eb-a579-44cc-a819-6dfe22455e2f,7,037,0,0,000,61037000018000200,0.0,2079-06-06,Заречная,6192,6192,,,60252826003,60652426,21,b205af43-bcde-4a1f-a5e5-cc1ca068e58f,018,610370000180002,347180,d61d1cdf-a426-45ee-a558-596e190ac410,61,ул,2020-08-17,0002,6131,6131,2020-08-17,000,0000,000,1,,0000,,0
0,6414eca7-e5fe-49a7-a473-009efbeab823,111a87e5-d4ef-4d2d-bb4e-f0401759b98c,7,037,0,0,000,61037000028000101,1.0,2079-06-06,Комсомольская,6178,6178,2773800d-924d-4a0f-8c6d-3e546815fd8c,,60252826008,60652426,1,21bbcc91-28b9-4273-898f-532b4d24366f,028,610370000280001,347182,,61,ул,1900-01-01,0001,6131,6131,2020-08-17,000,0000,000,0,,0000,,0
0,6414eca7-e5fe-49a7-a473-009efbeab823,2773800d-924d-4a0f-8c6d-3e546815fd8c,7,037,0,0,000,61037000028000102,2.0,2020-08-17,Комсомольская,6192,6192,ec697cec-1738-4070-b2a8-c92553172826,,60252826002,60652426,21,21bbcc91-28b9-4273-898f-532b4d24366f,028,610370000280001,347180,111a87e5-d4ef-4d2d-bb4e-f0401759b98c,61,ул,2012-01-01,0001,6131,6131,2020-08-17,000,0000,000,0,ed5f0774-2236-4e4c-9ad3-a5bd320fe97f,0000,,0
0,6414eca7-e5fe-49a7-a473-009efbeab823,ec697cec-1738-4070-b2a8-c92553172826,7,037,0,0,000,61037000028000100,0.0,2079-06-06,Комсомольская,6192,6192,c5993e06-ccfa-4c03-ab44-d4eb34a34ae5,,60252826002,60652426126,21,21bbcc91-28b9-4273-898f-532b4d24366f,028,610370000280001,347182,2773800d-924d-4a0f-8c6d-3e546815fd8c,61,ул,2014-01-05,0001,6131,6131,2020-08-17,000,0000,000,0,ed5f0774-2236-4e4c-9ad3-a5bd320fe97f,0000,,0
1,6414eca7-e5fe-49a7-a473-009efbeab823,c5993e06-ccfa-4c03-ab44-d4eb34a34ae5,7,037,0,0,000,61037000028000100,0.0,2079-06-06,Комсомольская,6192,6192,,,60252826008,60652426126,21,21bbcc91-28b9-4273-898f-532b4d24366f,028,610370000280001,347182,ec697cec-1738-4070-b2a8-c92553172826,61,ул,2020-08-17,0001,6131,6131,2020-08-17,000,0000,000,1,,0000,,0
0,f1395909-d4a0-4883-b8e5-b27fc8d40805,5b1f21eb-360c-4775-933f-e91db3895364,7,037,0,0,000,61037000018000301,1.0,2079-06-06,Весенняя,6178,6178,264dd537-0919-464c-bdb7-230b0caba949,,60252826003,60652426,1,b205af43-bcde-4a1f-a5e5-cc1ca068e58f,018,610370000180003,347180,,61,ул,1900-01-01,0003,6131,6131,2020-08-17,000,0000,000,0,,0000,,0
0,f1395909-d4a0-4883-b8e5-b27fc8d40805,264dd537-0919-464c-bdb7-230b0caba949,7,037,0,0,000,61037000018000302,2.0,2020-08-17,Весенняя,6192,6192,3a81d873-dc28-4ee0-9306-eecb8bad07e9,,60252826002,60652426,21,b205af43-bcde-4a1f-a5e5-cc1ca068e58f,018,610370000180003,347180,5b1f21eb-360c-4775-933f-e91db3895364,61,ул,2012-01-01,0003,6131,6131,2020-08-17,000,0000,000,0,ed5f0774-2236-4e4c-9ad3-a5bd320fe97f,0000,,0
0,f1395909-d4a0-4883-b8e5-b27fc8d40805,3a81d873-dc28-4ee0-9306-eecb8bad07e9,7,037,0,0,000,61037000018000300,0.0,2079-06-06,Весенняя,6192,6192,7b35fbdb-e809-4ccf-af78-d1c3357f9031,,60252826002,60652426126,21,b205af43-bcde-4a1f-a5e5-cc1ca068e58f,018,610370000180003,347180,264dd537-0919-464c-bdb7-230b0caba949,61,ул,2014-01-05,0003,6131,6131,2020-08-17,000,0000,000,0,ed5f0774-2236-4e4c-9ad3-a5bd320fe97f,0000,,0
1,f1395909-d4a0-4883-b8e5-b27fc8d40805,7b35fbdb-e809-4ccf-af78-d1c3357f9031,7,037,0,0,000,61037000018000300,0.0,2079-06-06,Весенняя,6192,6192,,,60252826003,60652426126,21,b205af43-bcde-4a1f-a5e5-cc1ca068e58f,018,610370000180003,347180,3a81d873-dc28-4ee0-9306-eecb8bad07e9,61,ул,2020-08-17,0003,6131,6131,2020-08-17,000,0000,000,1,,0000,,0
0,20af4f99-51ad-486c-ad50-266a121b32b7,86a081a2-b74e-4722-8611-fd2bdbfaed3b,7,037,0,0,000,61037000028000501,1.0,2079-06-06,Западная,6178,6178,6cfc852f-59fb-43e3-98ab-6c0a83b4a8b5,,60252826008,60652426,1,21bbcc91-28b9-4273-898f-532b4d24366f,028,610370000280005,347182,,61,ул,1900-01-01,0005,6131,6131,2020-08-17,000,0000,000,0,,0000,,0
0,20af4f99-51ad-486c-ad50-266a121b32b7,6cfc852f-59fb-43e3-98ab-6c0a83b4a8b5,7,037,0,0,000,61037000028000502,2.0,2020-08-17,Западная,6192,6192,cb628b90-a671-4e8d-a1a5-e0ffe86ce8e6,,60252826002,60652426,21,21bbcc91-28b9-4273-898f-532b4d24366f,028,610370000280005,347180,86a081a2-b74e-4722-8611-fd2bdbfaed3b,61,ул,2012-01-01,0005,6131,6131,2020-08-17,000,0000,000,0,ed5f0774-2236-4e4c-9ad3-a5bd320fe97f,0000,,0
0,20af4f99-51ad-486c-ad50-266a121b32b7,cb628b90-a671-4e8d-a1a5-e0ffe86ce8e6,7,037,0,0,000,61037000028000500,0.0,2079-06-06,Западная,6192,6192,8a0ed499-0742-458b-b770-3ce4bb019247,,60252826002,60652426126,21,21bbcc91-28b9-4273-898f-532b4d24366f,028,610370000280005,347182,6cfc852f-59fb-43e3-98ab-6c0a83b4a8b5,61,ул,2014-01-05,0005,6131,6131,2020-08-17,000,0000,000,0,ed5f0774-2236-4e4c-9ad3-a5bd320fe97f,0000,,0
1,20af4f99-51ad-486c-ad50-266a121b32b7,8a0ed499-0742-458b-b770-3ce4bb019247,7,037,0,0,000,61037000028000500,0.0,2079-06-06,Западная,6192,6192,,,60252826008,60652426126,21,21bbcc91-28b9-4273-898f-532b4d24366f,028,610370000280005,347182,cb628b90-a671-4e8d-a1a5-e0ffe86ce8e6,61,ул,2020-08-17,0005,6131,6131,2020-08-17,000,0000,000,1,,0000,,0
0,cdbb4ed0-662c-419d-8cd3-49b0723327e8,5cb7c22a-2e4c-4ce7-a474-1cc6204cee2d,7,037,0,0,000,61037000018000401,1.0,2079-06-06,Школьная,6178,6178,d069c265-a796-4302-9870-2804f7f37568,,60252826003,60652426,1,b205af43-bcde-4a1f-a5e5-cc1ca068e58f,018,610370000180004,347180,,61,ул,1900-01-01,0004,6131,6131,2020-08-17,000,0000,000,0,,0000,,0
0,cdbb4ed0-662c-419d-8cd3-49b0723327e8,d069c265-a796-4302-9870-2804f7f37568,7,037,0,0,000,61037000018000402,2.0,2020-08-17,Школьная,6192,6192,58f946b8-a829-4fb1-b0fb-d71e8b66dbdf,,60252826002,60652426,21,b205af43-bcde-4a1f-a5e5-cc1ca068e58f,018,610370000180004,347180,5cb7c22a-2e4c-4ce7-a474-1cc6204cee2d,61,ул,2012-01-01,0004,6131,6131,2020-08-17,000,0000,000,0,ed5f0774-2236-4e4c-9ad3-a5bd320fe97f,0000,,0
0,cdbb4ed0-662c-419d-8cd3-49b0723327e8,58f946b8-a829-4fb1-b0fb-d71e8b66dbdf,7,037,0,0,000,61037000018000400,0.0,2079-06-06,Школьная,6192,6192,01540b31-25dc-4a34-a910-18ac72d0b01d,,60252826002,60652426126,21,b205af43-bcde-4a1f-a5e5-cc1ca068e58f,018,610370000180004,347180,d069c265-a796-4302-9870-2804f7f37568,61,ул,2014-01-05,0004,6131,6131,2020-08-17,000,0000,000,0,ed5f0774-2236-4e4c-9ad3-a5bd320fe97f,0000,,0
1,cdbb4ed0-662c-419d-8cd3-49b0723327e8,01540b31-25dc-4a34-a910-18ac72d0b01d,7,037,0,0,000,61037000018000400,0.0,2079-06-06,Школьная,6192,6192,,,60252826003,60652426126,21,b205af43-bcde-4a1f-a5e5-cc1ca068e58f,018,610370000180004,347180,58f946b8-a829-4fb1-b0fb-d71e8b66dbdf,61,ул,2020-08-17,0004,6131,6131,2020-08-17,000,0000,000,1,,0000,,0
0,8d2fd68f-2e27-4687-a9eb-86a29027121e,8d2fd68f-2e27-4687-a9eb-86a29027121e,7,037,0,0,000,61037000028001151,51.0,2079-06-06,Степная,6192,6192,0506a9f7-1c2a-4a2a-a9e0-559a4555a2cc,,60252826008,60652426136,10,21bbcc91-28b9-4273-898f-532b4d24366f,028,610370000280011,347182,,61,ул,2015-11-12,0011,6131,6131,2020-08-17,000,0000,000,0,44f35824-37a6-40f3-bf9d-e04d22ae3c54,0000,,0
0,8d2fd68f-2e27-4687-a9eb-86a29027121e,0506a9f7-1c2a-4a2a-a9e0-559a4555a2cc,7,037,0,0,000,61037000028001100,0.0,2079-06-06,Степная,6192,6192,6bc8f6fe-75f6-46f9-a0f6-071ebb58b09a,,60252826008,60652426136,40,21bbcc91-28b9-4273-898f-532b4d24366f,028,610370000280011,347182,8d2fd68f-2e27-4687-a9eb-86a29027121e,61,ул,2018-05-28,0011,6131,6131,2020-08-17,000,0000,000,0,e5126dae-72fa-4216-bfba-4f8d5208cfcb,0000,,0
1,8d2fd68f-2e27-4687-a9eb-86a29027121e,6bc8f6fe-75f6-46f9-a0f6-071ebb58b09a,7,037,0,0,000,61037000028001100,0.0,2079-06-06,Степная,6192,6192,,,60252826008,60652426136,21,21bbcc91-28b9-4273-898f-532b4d24366f,028,610370000280011,347182,0506a9f7-1c2a-4a2a-a9e0-559a4555a2cc,61,ул,2020-08-17,0011,6131,6131,2020-08-17,000,0000,000,1,,0000,,0
0,dc8ccc05-6c13-4de3-bcc6-674e1d60cf09,dc8ccc05-6c13-4de3-bcc6-674e1d60cf09,7,037,0,0,000,61037000023000451,51.0,2079-06-06,Центральная,6192,6192,a2acc73c-1b3b-45bd-b845-43afb6658380,,60252826007,60652426131,10,84d71354-f85a-4d3e-b715-74ac7c579eed,023,610370000230004,347182,,61,ул,2015-11-17,0004,6131,6131,2020-08-17,000,0000,000,0,fc78ea0c-a78b-4f5a-b5a0-3ebd8b08a60a,0000,,0
0,dc8ccc05-6c13-4de3-bcc6-674e1d60cf09,a2acc73c-1b3b-45bd-b845-43afb6658380,7,037,0,0,000,61037000023000400,0.0,2079-06-06,Центральная,6192,6192,35535b43-ec3e-4f20-b008-940970ca5e75,,60252826007,60652426131,40,84d71354-f85a-4d3e-b715-74ac7c579eed,023,610370000230004,347182,dc8ccc05-6c13-4de3-bcc6-674e1d60cf09,61,ул,2018-06-01,0004,6131,6131,2020-08-17,000,0000,000,0,60b1c1dc-09be-4035-9eca-bdaea0b883f0,0000,,0
1,dc8ccc05-6c13-4de3-bcc6-674e1d60cf09,35535b43-ec3e-4f20-b008-940970ca5e75,7,037,0,0,000,61037000023000400,0.0,2079-06-06,Центральная,6192,6192,,,60252826007,60652426131,21,84d71354-f85a-4d3e-b715-74ac7c579eed,023,610370000230004,347182,a2acc73c-1b3b-45bd-b845-43afb6658380,61,ул,2020-08-17,0004,6131,6131,2020-08-17,000,0000,000,1,,0000,,0
0,c24e3e30-9007-47d1-8032-3cc17cb7caf0,366a78bb-c880-47bb-bac7-f55f6001a8f5,7,037,0,0,000,61037000020000101,1.0,2079-06-06,Вишневая,6178,6178,0f29a402-1c9a-4fc5-a963-439a1a0e0708,,60252826006,60652426,1,5aed7926-9e6a-488d-955a-ae141750c0f2,020,610370000200001,347182,,61,ул,1900-01-01,0001,6131,6131,2020-08-17,000,0000,000,0,,0000,,0
0,c24e3e30-9007-47d1-8032-3cc17cb7caf0,0f29a402-1c9a-4fc5-a963-439a1a0e0708,7,037,0,0,000,61037000020000102,2.0,2020-08-17,Вишневая,6192,6192,89f3666a-c57b-4d73-b13a-9b3ee92a8651,,60252826002,60652426,21,5aed7926-9e6a-488d-955a-ae141750c0f2,020,610370000200001,347180,366a78bb-c880-47bb-bac7-f55f6001a8f5,61,ул,2012-01-01,0001,6131,6131,2020-08-17,000,0000,000,0,ed5f0774-2236-4e4c-9ad3-a5bd320fe97f,0000,,0
0,c24e3e30-9007-47d1-8032-3cc17cb7caf0,89f3666a-c57b-4d73-b13a-9b3ee92a8651,7,037,0,0,000,61037000020000151,51.0,2018-06-01,Вишневая,6192,6192,e5615718-1448-4221-b19e-4b9ad78fe811,,60252826002,60652426126,21,5aed7926-9e6a-488d-955a-ae141750c0f2,020,610370000200001,347182,0f29a402-1c9a-4fc5-a963-439a1a0e0708,61,ул,2014-01-05,0001,6131,6131,2020-08-17,000,0000,000,0,ed5f0774-2236-4e4c-9ad3-a5bd320fe97f,0000,,0
0,c24e3e30-9007-47d1-8032-3cc17cb7caf0,e5615718-1448-4221-b19e-4b9ad78fe811,7,037,0,0,000,61037000020000100,0.0,2079-06-06,Вишневая,6192,6192,4991e1e3-ac34-412c-a08b-c2d9a124c6d4,,60252826002,60652426126,40,5aed7926-9e6a-488d-955a-ae141750c0f2,020,610370000200001,347182,89f3666a-c57b-4d73-b13a-9b3ee92a8651,61,ул,2018-06-01,0001,6131,6131,2020-08-17,000,0000,000,0,60b1c1dc-09be-4035-9eca-bdaea0b883f0,0000,,0
1,c24e3e30-9007-47d1-8032-3cc17cb7caf0,4991e1e3-ac34-412c-a08b-c2d9a124c6d4,7,037,0,0,000,61037000020000100,0.0,2079-06-06,Вишневая,6192,6192,,,60252826006,60652426126,21,5aed7926-9e6a-488d-955a-ae141750c0f2,020,610370000200001,347182,e5615718-1448-4221-b19e-4b9ad78fe811,61,ул,2020-08-17,0001,6131,6131,2020-08-17,000,0000,000,1,,0000,,0
0,33120a5b-e57b-49b1-b88b-3594758792fe,3960eedb-1ec9-475a-ac05-b0fcc435d9a9,7,037,0,0,000,61037000023000201,1.0,2079-06-06,Манохинская,6178,6178,296afc68-123e-4e52-b257-780d14640fb2,,60252826007,60652426,1,84d71354-f85a-4d3e-b715-74ac7c579eed,023,610370000230002,347182,,61,ул,1900-01-01,0002,6131,6131,2020-08-17,000,0000,000,0,,0000,,0
0,33120a5b-e57b-49b1-b88b-3594758792fe,296afc68-123e-4e52-b257-780d14640fb2,7,037,0,0,000,61037000023000202,2.0,2020-08-17,Манохинская,6192,6192,180e14d5-07b7-4955-90a4-9055e3417d1f,,60252826002,60652426,21,84d71354-f85a-4d3e-b715-74ac7c579eed,023,610370000230002,347180,3960eedb-1ec9-475a-ac05-b0fcc435d9a9,61,ул,2012-01-01,0002,6131,6131,2020-08-17,000,0000,000,0,ed5f0774-2236-4e4c-9ad3-a5bd320fe97f,0000,,0
0,33120a5b-e57b-49b1-b88b-3594758792fe,180e14d5-07b7-4955-90a4-9055e3417d1f,7,037,0,0,000,61037000023000251,51.0,2018-06-01,Манохинская,6192,6192,a17bf90f-8715-4baa-bd80-ccf4f7f0acb8,,60252826002,60652426126,21,84d71354-f85a-4d3e-b715-74ac7c579eed,023,610370000230002,,296afc68-123e-4e52-b257-780d14640fb2,61,ул,2014-01-05,0002,6131,6131,2020-08-17,000,0000,000,0,ed5f0774-2236-4e4c-9ad3-a5bd320fe97f,0000,,0
0,33120a5b-e57b-49b1-b88b-3594758792fe,a17bf90f-8715-4baa-bd80-ccf4f7f0acb8,7,037,0,0,000,61037000023000200,0.0,2079-06-06,Манохинская,6192,6192,b47ebfaa-f9fb-426d-bee9-d447e9066644,,60252826002,60652426126,40,84d71354-f85a-4d3e-b715-74ac7c579eed,023,610370000230002,347182,180e14d5-07b7-4955-90a4-9055e3417d1f,61,ул,2018-06-01,0002,6131,6131,2020-08-17,000,0000,000,0,60b1c1dc-09be-4035-9eca-bdaea0b883f0,0000,,0
1,33120a5b-e57b-49b1-b88b-3594758792fe,b47ebfaa-f9fb-426d-bee9-d447e9066644,7,037,0,0,000,61037000023000200,0.0,2079-06-06,Манохинская,6192,6192,,,60252826007,60652426126,21,84d71354-f85a-4d3e-b715-74ac7c579eed,023,610370000230002,347182,a17bf90f-8715-4baa-bd80-ccf4f7f0acb8,61,ул,2020-08-17,0002,6131,6131,2020-08-17,000,0000,000,1,,0000,,0
0,cdfcb71c-439c-4c88-b931-d824ed66441a,6ba0b0ba-9395-4dde-88e7-808159686a48,7,037,0,0,000,61037000020000401,1.0,2079-06-06,С.Разина,6178,6178,5928f508-b9cd-493c-8322-e0a1c1d6915d,,60252826006,60652426,1,5aed7926-9e6a-488d-955a-ae141750c0f2,020,610370000200004,347182,,61,ул,1900-01-01,0004,6131,6131,2020-08-17,000,0000,000,0,,0000,,0
0,cdfcb71c-439c-4c88-b931-d824ed66441a,5928f508-b9cd-493c-8322-e0a1c1d6915d,7,037,0,0,000,61037000020000402,2.0,2018-06-01,С.Разина,6192,6192,e502e0be-6ea2-4142-ba61-9e86b1ea7fc8,,60252826002,60652426,21,5aed7926-9e6a-488d-955a-ae141750c0f2,020,610370000200004,347180,6ba0b0ba-9395-4dde-88e7-808159686a48,61,ул,2012-01-01,0004,6131,6131,2020-08-17,000,0000,000,0,ed5f0774-2236-4e4c-9ad3-a5bd320fe97f,0000,,0
0,cdfcb71c-439c-4c88-b931-d824ed66441a,e502e0be-6ea2-4142-ba61-9e86b1ea7fc8,7,037,0,0,000,61037000020000451,51.0,2018-06-01,С.Разина,6192,6192,ba40e20b-8ad5-489d-898a-e863cf72ea06,,60252826002,60652426126,21,5aed7926-9e6a-488d-955a-ae141750c0f2,020,610370000200004,347182,5928f508-b9cd-493c-8322-e0a1c1d6915d,61,ул,2014-01-05,0004,6131,6131,2020-08-17,000,0000,000,0,ed5f0774-2236-4e4c-9ad3-a5bd320fe97f,0000,,0
0,cdfcb71c-439c-4c88-b931-d824ed66441a,ba40e20b-8ad5-489d-898a-e863cf72ea06,7,037,0,0,000,61037000020000400,0.0,2079-06-06,С.Разина,6192,6192,41b6aaea-bddd-4ef9-b2cd-2486d0d858e8,,60252826002,60652426126,40,5aed7926-9e6a-488d-955a-ae141750c0f2,020,610370000200004,347182,e502e0be-6ea2-4142-ba61-9e86b1ea7fc8,61,ул,2018-06-01,0004,6131,6131,2020-08-17,000,0000,000,0,60b1c1dc-09be-4035-9eca-bdaea0b883f0,0000,,0
1,cdfcb71c-439c-4c88-b931-d824ed66441a,41b6aaea-bddd-4ef9-b2cd-2486d0d858e8,7,037,0,0,000,61037000020000400,0.0,2079-06-06,С.Разина,6192,6192,,,60252826006,60652426126,21,5aed7926-9e6a-488d-955a-ae141750c0f2,020,610370000200004,347182,ba40e20b-8ad5-489d-898a-e863cf72ea06,61,ул,2020-08-17,0004,6131,6131,2020-08-17,000,0000,000,1,,0000,,0
0,514a734b-7da2-41f5-876c-02c7cb35898d,b9344586-4ac4-4558-91f9-a565287ca003,7,037,0,0,000,61037000007000101,1.0,2079-06-06,Заречная,6178,6178,029c0188-ff9d-4f9d-8a5b-3038504d23d4,,60252826004,60652426,1,3acc2d4a-de01-44ac-9243-39cc4ad31439,007,610370000070001,347182,,61,ул,1900-01-01,0001,6131,6131,2020-08-17,000,0000,000,0,,0000,,0
0,514a734b-7da2-41f5-876c-02c7cb35898d,029c0188-ff9d-4f9d-8a5b-3038504d23d4,7,037,0,0,000,61037000007000102,2.0,2018-06-01,Заречная,6192,6192,ebe6e2c5-fe5c-4193-9e8c-f08a7322c9d2,,60252826002,60652426,21,3acc2d4a-de01-44ac-9243-39cc4ad31439,007,610370000070001,347180,b9344586-4ac4-4558-91f9-a565287ca003,61,ул,2012-01-01,0001,6131,6131,2020-08-17,000,0000,000,0,ed5f0774-2236-4e4c-9ad3-a5bd320fe97f,0000,,0
0,514a734b-7da2-41f5-876c-02c7cb35898d,ebe6e2c5-fe5c-4193-9e8c-f08a7322c9d2,7,037,0,0,000,61037000007000151,51.0,2018-06-01,Заречная,6192,6192,41d27464-89b2-487d-bb74-27f30e7de955,,60252826002,60652426126,21,3acc2d4a-de01-44ac-9243-39cc4ad31439,007,610370000070001,347182,029c0188-ff9d-4f9d-8a5b-3038504d23d4,61,ул,2014-01-05,0001,6131,6131,2020-08-17,000,0000,000,0,ed5f0774-2236-4e4c-9ad3-a5bd320fe97f,0000,,0
0,514a734b-7da2-41f5-876c-02c7cb35898d,41d27464-89b2-487d-bb74-27f30e7de955,7,037,0,0,000,61037000007000100,0.0,2079-06-06,Заречная,6192,6192,c52d83ba-dbc7-4a9a-bf33-decb518f773e,,60252826002,60652426126,40,3acc2d4a-de01-44ac-9243-39cc4ad31439,007,610370000070001,347182,ebe6e2c5-fe5c-4193-9e8c-f08a7322c9d2,61,ул,2018-06-01,0001,6131,6131,2020-08-17,000,0000,000,0,60b1c1dc-09be-4035-9eca-bdaea0b883f0,0000,,0
1,514a734b-7da2-41f5-876c-02c7cb35898d,c52d83ba-dbc7-4a9a-bf33-decb518f773e,7,037,0,0,000,61037000007000100,0.0,2079-06-06,Заречная,6192,6192,,,60252826004,60652426126,21,3acc2d4a-de01-44ac-9243-39cc4ad31439,007,610370000070001,347182,41d27464-89b2-487d-bb74-27f30e7de955,61,ул,2020-08-17,0001,6131,6131,2020-08-17,000,0000,000,1,,0000,,0
0,13eecd7e-bae8-4224-9355-8c6729c19ec3,e77e53ee-5736-4555-ae40-bcaf0f7c0b32,7,037,0,0,000,61037000021000301,1.0,2079-06-06,Мартыненко,6178,6178,dc2620b3-8f78-4a10-96ca-49212e6a3c4a,,60252826002,60652426,1,75edd7ec-50de-4409-9e79-d693215e3cab,021,610370000210003,347180,,61,ул,1900-01-01,0003,6131,6131,2020-08-17,000,0000,000,0,,0000,,0
0,13eecd7e-bae8-4224-9355-8c6729c19ec3,dc2620b3-8f78-4a10-96ca-49212e6a3c4a,7,037,0,0,000,61037000021000302,2.0,2020-08-17,Мартыненко,6192,6192,43945f71-f676-408a-ad4c-b3625dd0f40c,,60252826001,60652426,21,75edd7ec-50de-4409-9e79-d693215e3cab,021,610370000210003,347180,e77e53ee-5736-4555-ae40-bcaf0f7c0b32,61,ул,2012-01-01,0003,6131,6131,2020-08-17,000,0000,000,0,ed5f0774-2236-4e4c-9ad3-a5bd320fe97f,0000,,0
0,13eecd7e-bae8-4224-9355-8c6729c19ec3,43945f71-f676-408a-ad4c-b3625dd0f40c,7,037,0,0,000,61037000021000300,0.0,2079-06-06,Мартыненко,6192,6192,baa830ef-369f-425e-88a0-98b7cd31b92c,,60252826001,60652426101,21,75edd7ec-50de-4409-9e79-d693215e3cab,021,610370000210003,347180,dc2620b3-8f78-4a10-96ca-49212e6a3c4a,61,ул,2014-01-05,0003,6131,6131,2020-08-17,000,0000,000,0,ed5f0774-2236-4e4c-9ad3-a5bd320fe97f,0000,,0
1,13eecd7e-bae8-4224-9355-8c6729c19ec3,baa830ef-369f-425e-88a0-98b7cd31b92c,7,037,0,0,000,61037000021000300,0.0,2079-06-06,Мартыненко,6192,6192,,,60252826002,60652426101,21,75edd7ec-50de-4409-9e79-d693215e3cab,021,610370000210003,347180,43945f71-f676-408a-ad4c-b3625dd0f40c,61,ул,2020-08-17,0003,6131,6131,2020-08-17,000,0000,000,1,,0000,,0
0,2d3f3125-e777-495f-8660-83edc9a5f9eb,2d3f3125-e777-495f-8660-83edc9a5f9eb,7,037,0,0,000,61037000028001201,1.0,2079-06-06,Советская,6192,6192,a8822401-41df-4728-bd1a-e40ab5692c9a,,,,10,21bbcc91-28b9-4273-898f-532b4d24366f,028,610370000280012,347182,,61,ул,2015-11-12,0012,6131,6131,2020-08-17,000,0000,000,0,66bc6259-c53f-4bcc-a277-32d6ec20f976,0000,,0
0,2d3f3125-e777-495f-8660-83edc9a5f9eb,a8822401-41df-4728-bd1a-e40ab5692c9a,7,037,0,0,000,61037000028001202,2.0,2018-06-14,Советская,6192,6192,f0d7f57e-44ea-4737-8b35-787c30da306e,,60252826008,60652426,21,21bbcc91-28b9-4273-898f-532b4d24366f,028,610370000280012,347182,2d3f3125-e777-495f-8660-83edc9a5f9eb,61,ул,2018-06-08,0012,6131,6131,2020-08-17,000,0000,000,0,114179f1-d539-47df-bc13-9c59459226d3,0000,,0
0,2d3f3125-e777-495f-8660-83edc9a5f9eb,f0d7f57e-44ea-4737-8b35-787c30da306e,7,037,0,0,000,61037000028001251,51.0,2018-06-14,Советская,6192,6192,5fb84f53-00d2-4587-aef1-8ec935c53df7,,60252826008,60652426136,21,21bbcc91-28b9-4273-898f-532b4d24366f,028,610370000280012,347182,a8822401-41df-4728-bd1a-e40ab5692c9a,61,ул,2018-06-13,0012,6131,6131,2020-08-17,000,0000,000,0,0811f1e0-02b6-4f52-a174-0787dcf2e23f,0000,,0
0,2d3f3125-e777-495f-8660-83edc9a5f9eb,5fb84f53-00d2-4587-aef1-8ec935c53df7,7,037,0,0,000,61037000028001200,0.0,2079-06-06,Советская,6192,6192,6ac509fb-3be6-4a55-987a-8c7e16158424,,60252826008,60652426136,40,21bbcc91-28b9-4273-898f-532b4d24366f,028,610370000280012,347182,f0d7f57e-44ea-4737-8b35-787c30da306e,61,ул,2018-06-14,0012,6131,6131,2020-08-17,000,0000,000,0,60b1c1dc-09be-4035-9eca-bdaea0b883f0,0000,,0
1,2d3f3125-e777-495f-8660-83edc9a5f9eb,6ac509fb-3be6-4a55-987a-8c7e16158424,7,037,0,0,000,61037000028001200,0.0,2079-06-06,Советская,6192,6192,,,60252826008,60652426136,21,21bbcc91-28b9-4273-898f-532b4d24366f,028,610370000280012,347182,5fb84f53-00d2-4587-aef1-8ec935c53df7,61,ул,2020-08-17,0012,6131,6131,2020-08-17,000,0000,000,1,,0000,,0
0,cab91431-61d1-4521-b389-2c1b6697e5fe,cab91431-61d1-4521-b389-2c1b6697e5fe,7,037,0,0,000,61037000015000451,51.0,2079-06-06,Луговая,6192,6192,6d2511d1-c25a-4b6a-998a-c27240f76754,,60252826005,60652426111,10,ce988145-4eb6-4000-b0e8-2be367acc6d3,015,610370000150004,347182,,61,ул,2015-11-17,0004,6131,6131,2020-08-17,000,0000,000,0,b6d6ecf7-b5e8-4f7e-a30a-c1b580af7813,0000,,0
0,cab91431-61d1-4521-b389-2c1b6697e5fe,6d2511d1-c25a-4b6a-998a-c27240f76754,7,037,0,0,000,61037000015000400,0.0,2020-08-17,Луговая,6192,6192,ac05d78e-7b46-4e7c-92ab-2643ecbcca3a,,60252826002,60652426126,40,ce988145-4eb6-4000-b0e8-2be367acc6d3,015,610370000150004,347182,cab91431-61d1-4521-b389-2c1b6697e5fe,61,ул,2018-06-01,0004,6131,6131,2020-08-17,000,0000,000,0,60b1c1dc-09be-4035-9eca-bdaea0b883f0,0000,,0
1,cab91431-61d1-4521-b389-2c1b6697e5fe,ac05d78e-7b46-4e7c-92ab-2643ecbcca3a,7,037,0,0,000,61037000015000400,0.0,2079-06-06,Луговая,6192,6192,,,60252826005,60652426126,21,ce988145-4eb6-4000-b0e8-2be367acc6d3,015,610370000150004,347182,6d2511d1-c25a-4b6a-998a-c27240f76754,61,ул,2020-08-17,0004,6131,6131,2020-08-17,000,0000,000,1,,0000,,0
0,157e5dc2-92cd-409a-887a-c4ff95ce4ad1,157e5dc2-92cd-409a-887a-c4ff95ce4ad1,7,037,0,0,000,61037000020000801,1.0,2079-06-06,Казачья,6192,6192,f37f81b7-cdbe-412e-a831-1f15fc4e08a9,,60252826006,60652426,10,5aed7926-9e6a-488d-955a-ae141750c0f2,020,610370000200008,347182,,61,ул,2015-11-17,0008,6131,6131,2020-08-17,000,0000,000,0,53e3fa94-1c3a-4064-bc1b-f55fe6e4572a,0000,,0
0,157e5dc2-92cd-409a-887a-c4ff95ce4ad1,f37f81b7-cdbe-412e-a831-1f15fc4e08a9,7,037,0,0,000,61037000020000851,51.0,2018-06-09,Казачья,6192,6192,fbfe7b2e-81b5-4d53-a497-dc84c13621c8,,60252826006,60652426121,21,5aed7926-9e6a-488d-955a-ae141750c0f2,020,610370000200008,347182,157e5dc2-92cd-409a-887a-c4ff95ce4ad1,61,ул,2018-06-08,0008,6131,6131,2020-08-17,000,0000,000,0,0811f1e0-02b6-4f52-a174-0787dcf2e23f,0000,,0
0,157e5dc2-92cd-409a-887a-c4ff95ce4ad1,fbfe7b2e-81b5-4d53-a497-dc84c13621c8,7,037,0,0,000,61037000020000800,0.0,2020-08-17,Казачья,6192,6192,eeb05675-d056-412d-b069-bc77b75bd111,,60252826002,60652426121,40,5aed7926-9e6a-488d-955a-ae141750c0f2,020,610370000200008,347182,f37f81b7-cdbe-412e-a831-1f15fc4e08a9,61,ул,2018-06-09,0008,6131,6131,2020-08-17,000,0000,000,0,60b1c1dc-09be-4035-9eca-bdaea0b883f0,0000,,0
1,157e5dc2-92cd-409a-887a-c4ff95ce4ad1,eeb05675-d056-412d-b069-bc77b75bd111,7,037,0,0,000,61037000020000800,0.0,2079-06-06,Казачья,6192,6192,,,60252826006,60652426121,21,5aed7926-9e6a-488d-955a-ae141750c0f2,020,610370000200008,347182,fbfe7b2e-81b5-4d53-a497-dc84c13621c8,61,ул,2020-08-17,0008,6131,6131,2020-08-17,000,0000,000,1,,0000,,0
0,b84824f9-89fa-44cd-8994-e50dcd4b1ec7,cde30c2d-e692-4640-a122-3226e3d67346,7,037,0,0,000,61037000021000201,1.0,2079-06-06,Главная,6178,6178,193b8d78-f16e-49e4-a558-3b28eede7dbe,,60252826002,60652426,1,75edd7ec-50de-4409-9e79-d693215e3cab,021,610370000210002,347180,,61,ул,1900-01-01,0002,6131,6131,2020-08-17,000,0000,000,0,,0000,,0
0,b84824f9-89fa-44cd-8994-e50dcd4b1ec7,193b8d78-f16e-49e4-a558-3b28eede7dbe,7,037,0,0,000,61037000021000202,2.0,2020-08-17,Главная,6192,6192,9ad02bd0-8e2f-420e-b241-7625e02736f8,,60252826001,60652426,21,75edd7ec-50de-4409-9e79-d693215e3cab,021,610370000210002,347180,cde30c2d-e692-4640-a122-3226e3d67346,61,ул,2012-01-01,0002,6131,6131,2020-08-17,000,0000,000,0,ed5f0774-2236-4e4c-9ad3-a5bd320fe97f,0000,,0
0,b84824f9-89fa-44cd-8994-e50dcd4b1ec7,9ad02bd0-8e2f-420e-b241-7625e02736f8,7,037,0,0,000,61037000021000200,0.0,2079-06-06,Главная,6192,6192,ce8e944c-eb18-4ab6-98b3-0b897994e324,,60252826001,60652426101,21,75edd7ec-50de-4409-9e79-d693215e3cab,021,610370000210002,347180,193b8d78-f16e-49e4-a558-3b28eede7dbe,61,ул,2014-01-05,0002,6131,6131,2020-08-17,000,0000,000,0,ed5f0774-2236-4e4c-9ad3-a5bd320fe97f,0000,,0
1,b84824f9-89fa-44cd-8994-e50dcd4b1ec7,ce8e944c-eb18-4ab6-98b3-0b897994e324,7,037,0,0,000,61037000021000200,0.0,2079-06-06,Главная,6192,6192,,,60252826002,60652426101,21,75edd7ec-50de-4409-9e79-d693215e3cab,021,610370000210002,347180,9ad02bd0-8e2f-420e-b241-7625e02736f8,61,ул,2020-08-17,0002,6131,6131,2020-08-17,000,0000,000,1,,0000,,0
0,8453bbff-44dd-46d4-aefa-ab8947df2b87,b2ac9f06-e653-4c1e-a5ed-9a7eef41a76a,7,037,0,0,000,61037000020000301,1.0,2079-06-06,Лесная,6178,6178,a6f66b1c-0d5b-402e-99ee-59e32c7182ad,,60252826006,60652426,1,5aed7926-9e6a-488d-955a-ae141750c0f2,020,610370000200003,347182,,61,ул,1900-01-01,0003,6131,6131,2020-08-17,000,0000,000,0,,0000,,0
0,8453bbff-44dd-46d4-aefa-ab8947df2b87,a6f66b1c-0d5b-402e-99ee-59e32c7182ad,7,037,0,0,000,61037000020000302,2.0,2018-06-01,Лесная,6192,6192,7ef010e0-ff85-4f9d-890b-d95b26008407,,60252826002,60652426,21,5aed7926-9e6a-488d-955a-ae141750c0f2,020,610370000200003,347180,b2ac9f06-e653-4c1e-a5ed-9a7eef41a76a,61,ул,2012-01-01,0003,6131,6131,2020-08-17,000,0000,000,0,ed5f0774-2236-4e4c-9ad3-a5bd320fe97f,0000,,0
0,8453bbff-44dd-46d4-aefa-ab8947df2b87,7ef010e0-ff85-4f9d-890b-d95b26008407,7,037,0,0,000,61037000020000351,51.0,2018-06-01,Лесная,6192,6192,b03c8d97-8fe8-4bab-81e3-4fda91b7c363,,60252826002,60652426126,21,5aed7926-9e6a-488d-955a-ae141750c0f2,020,610370000200003,347182,a6f66b1c-0d5b-402e-99ee-59e32c7182ad,61,ул,2014-01-05,0003,6131,6131,2020-08-17,000,0000,000,0,ed5f0774-2236-4e4c-9ad3-a5bd320fe97f,0000,,0
0,8453bbff-44dd-46d4-aefa-ab8947df2b87,b03c8d97-8fe8-4bab-81e3-4fda91b7c363,7,037,0,0,000,61037000020000300,0.0,2079-06-06,Лесная,6192,6192,9f5980f8-6009-4c29-a72f-25c74dbc4f61,,60252826002,60652426126,40,5aed7926-9e6a-488d-955a-ae141750c0f2,020,610370000200003,347182,7ef010e0-ff85-4f9d-890b-d95b26008407,61,ул,2018-06-01,0003,6131,6131,2020-08-17,000,0000,000,0,60b1c1dc-09be-4035-9eca-bdaea0b883f0,0000,,0
1,8453bbff-44dd-46d4-aefa-ab8947df2b87,9f5980f8-6009-4c29-a72f-25c74dbc4f61,7,037,0,0,000,61037000020000300,0.0,2079-06-06,Лесная,6192,6192,,,60252826006,60652426126,21,5aed7926-9e6a-488d-955a-ae141750c0f2,020,610370000200003,347182,b03c8d97-8fe8-4bab-81e3-4fda91b7c363,61,ул,2020-08-17,0003,6131,6131,2020-08-17,000,0000,000,1,,0000,,0
0,342ef7cd-bcdb-4798-a429-2b42d08dae73,4e755b28-d846-4d1d-9cea-4c4af74e788b,7,037,0,0,000,61037000028000301,1.0,2079-06-06,1 Мая,6178,6178,5ba76a96-a5bf-4241-a691-337aba6d656e,,60252826008,60652426,1,21bbcc91-28b9-4273-898f-532b4d24366f,028,610370000280003,347182,,61,ул,1900-01-01,0003,6131,6131,2020-08-17,000,0000,000,0,,0000,,0
0,342ef7cd-bcdb-4798-a429-2b42d08dae73,5ba76a96-a5bf-4241-a691-337aba6d656e,7,037,0,0,000,61037000028000302,2.0,2018-05-16,1 Мая,6192,6192,99b364d8-dbad-4065-bb1a-3fbe4efd3c51,,60252826002,60652426,21,21bbcc91-28b9-4273-898f-532b4d24366f,028,610370000280003,347180,4e755b28-d846-4d1d-9cea-4c4af74e788b,61,ул,2012-01-01,0003,6131,6131,2020-08-17,000,0000,000,0,ed5f0774-2236-4e4c-9ad3-a5bd320fe97f,0000,,0
0,342ef7cd-bcdb-4798-a429-2b42d08dae73,99b364d8-dbad-4065-bb1a-3fbe4efd3c51,7,037,0,0,000,61037000028000351,51.0,2018-05-16,1 Мая,6192,6192,3e9cc07c-2597-4f4f-a116-0752e3714db7,,60252826002,60652426126,21,21bbcc91-28b9-4273-898f-532b4d24366f,028,610370000280003,347182,5ba76a96-a5bf-4241-a691-337aba6d656e,61,ул,2014-01-05,0003,6131,6131,2020-08-17,000,0000,000,0,ed5f0774-2236-4e4c-9ad3-a5bd320fe97f,0000,,0
0,342ef7cd-bcdb-4798-a429-2b42d08dae73,3e9cc07c-2597-4f4f-a116-0752e3714db7,7,037,0,0,000,61037000028000300,0.0,2079-06-06,1 Мая,6192,6192,42f427cb-8b30-49d9-b13d-7b22ecbe0fdc,,60252826002,60652426126,40,21bbcc91-28b9-4273-898f-532b4d24366f,028,610370000280003,347182,99b364d8-dbad-4065-bb1a-3fbe4efd3c51,61,ул,2018-05-16,0003,6131,6131,2020-08-17,000,0000,000,0,28deb936-ae51-4792-9fb0-6b2de2c3bf48,0000,,0
1,342ef7cd-bcdb-4798-a429-2b42d08dae73,42f427cb-8b30-49d9-b13d-7b22ecbe0fdc,7,037,0,0,000,61037000028000300,0.0,2079-06-06,1 Мая,6192,6192,,,60252826008,60652426126,21,21bbcc91-28b9-4273-898f-532b4d24366f,028,610370000280003,347182,3e9cc07c-2597-4f4f-a116-0752e3714db7,61,ул,2020-08-17,0003,6131,6131,2020-08-17,000,0000,000,1,,0000,,0
0,8c20bc56-723e-4e8c-a0f9-145b847b0d01,0ef63ad6-28af-41c2-b3b3-995f4f45c3db,7,037,0,0,000,61037000028000201,1.0,2079-06-06,Северный,6178,6178,400b270a-ae94-489d-9dab-73a0843271da,,60252826008,60652426,1,21bbcc91-28b9-4273-898f-532b4d24366f,028,610370000280002,347182,,61,пер,1900-01-01,0002,6131,6131,2020-08-17,000,0000,000,0,,0000,,0
0,8c20bc56-723e-4e8c-a0f9-145b847b0d01,400b270a-ae94-489d-9dab-73a0843271da,7,037,0,0,000,61037000028000202,2.0,2020-08-17,Северный,6192,6192,32335810-d362-449a-9fec-e022dfaaf7ec,,60252826002,60652426,21,21bbcc91-28b9-4273-898f-532b4d24366f,028,610370000280002,347180,0ef63ad6-28af-41c2-b3b3-995f4f45c3db,61,пер,2012-01-01,0002,6131,6131,2020-08-17,000,0000,000,0,ed5f0774-2236-4e4c-9ad3-a5bd320fe97f,0000,,0
0,8c20bc56-723e-4e8c-a0f9-145b847b0d01,32335810-d362-449a-9fec-e022dfaaf7ec,7,037,0,0,000,61037000028000200,0.0,2079-06-06,Северный,6192,6192,74cf6f85-2f22-4e65-b6f0-7665beb86d29,,60252826002,60652426126,21,21bbcc91-28b9-4273-898f-532b4d24366f,028,610370000280002,347182,400b270a-ae94-489d-9dab-73a0843271da,61,пер,2014-01-05,0002,6131,6131,2020-08-17,000,0000,000,0,ed5f0774-2236-4e4c-9ad3-a5bd320fe97f,0000,,0
1,8c20bc56-723e-4e8c-a0f9-145b847b0d01,74cf6f85-2f22-4e65-b6f0-7665beb86d29,7,037,0,0,000,61037000028000200,0.0,2079-06-06,Северный,6192,6192,,,60252826008,60652426126,21,21bbcc91-28b9-4273-898f-532b4d24366f,028,610370000280002,347182,32335810-d362-449a-9fec-e022dfaaf7ec,61,пер,2020-08-17,0002,6131,6131,2020-08-17,000,0000,000,1,,0000,,0
0,d8a01bc1-8e09-4394-aa4d-4a807fa9309f,03365cf0-b27b-4043-beff-9f74d0a2c1d1,7,000,0,0,001,61000001000232701,1.0,2006-03-20,Лодочный 5-й,6194,6194,2c645675-57f8-4cff-8040-970705c97b3b,,60401364000,60701000,1,c1cfe4b9-f7c2-423c-abfa-6ed1c05a15c5,000,610000010002327,344033,,61,пер,1900-01-01,2327,6162,6162,2020-08-20,000,0000,000,0,,0000,,0
0,d8a01bc1-8e09-4394-aa4d-4a807fa9309f,2c645675-57f8-4cff-8040-970705c97b3b,7,000,0,0,001,61000001000232702,2.0,2079-06-06,5-й Лодочный,6194,6194,578916b9-b9a7-417a-bfeb-6125dd8eac15,,60401364000,60701000,20,c1cfe4b9-f7c2-423c-abfa-6ed1c05a15c5,000,610000010002327,344033,03365cf0-b27b-4043-beff-9f74d0a2c1d1,61,пер,2006-03-20,2327,6162,6162,2020-08-20,000,0000,000,0,8fc14092-cb6f-41b2-ae0e-4db9c3c19d71,0000,,0
0,d8a01bc1-8e09-4394-aa4d-4a807fa9309f,578916b9-b9a7-417a-bfeb-6125dd8eac15,7,000,0,0,001,61000001000232703,3.0,2017-09-28,5-й Лодочный,6194,6194,7cfe5baa-f6ac-491f-b929-8abf81809f5f,,60401000000,60701000,21,c1cfe4b9-f7c2-423c-abfa-6ed1c05a15c5,000,610000010002327,344033,2c645675-57f8-4cff-8040-970705c97b3b,61,пер,2015-05-18,2327,6162,6162,2020-08-20,000,0000,000,0,,0000,,0
0,d8a01bc1-8e09-4394-aa4d-4a807fa9309f,7cfe5baa-f6ac-491f-b929-8abf81809f5f,7,000,0,0,001,61000001000232700,0.0,2079-06-06,5-й Лодочный,6194,6194,fc6b2e90-0eb7-4b3d-8e46-2fc8de65020b,,60401000000,60701000,21,c1cfe4b9-f7c2-423c-abfa-6ed1c05a15c5,000,610000010002327,344001,578916b9-b9a7-417a-bfeb-6125dd8eac15,61,пер,2017-09-28,2327,6162,6162,2020-08-20,000,0000,000,0,6b10644c-476c-4187-82dc-bac1fe8d4f25,0000,,0
1,d8a01bc1-8e09-4394-aa4d-4a807fa9309f,fc6b2e90-0eb7-4b3d-8e46-2fc8de65020b,7,000,0,0,001,61000001000232700,0.0,2079-06-06,5-й Лодочный,6194,6194,,,60401000000,60701000001,21,c1cfe4b9-f7c2-423c-abfa-6ed1c05a15c5,000,610000010002327,344001,7cfe5baa-f6ac-491f-b929-8abf81809f5f,61,пер,2020-08-18,2327,6162,6162,2020-08-20,000,0000,000,1,,0000,,0
0,2f9dc77a-a88f-4da2-a07f-e5de01b37435,2f9dc77a-a88f-4da2-a07f-e5de01b37435,7,000,0,0,001,61000001000348300,0.0,2079-06-06,6-й Берестяной,6193,6193,9dd123e6-74d6-4980-9503-1a26b44bbf6d,,60401362000,60701000,10,c1cfe4b9-f7c2-423c-abfa-6ed1c05a15c5,000,610000010003483,344114,,61,пер,2016-08-17,3483,6161,6161,2020-08-20,000,0000,000,0,13534ee6-c34d-4c19-9014-8f856e0b4d85,0000,,0
1,2f9dc77a-a88f-4da2-a07f-e5de01b37435,9dd123e6-74d6-4980-9503-1a26b44bbf6d,7,000,0,0,001,61000001000348300,0.0,2079-06-06,6-й Берестяной,6193,6193,,,60401362000,60701000001,21,c1cfe4b9-f7c2-423c-abfa-6ed1c05a15c5,000,610000010003483,344114,2f9dc77a-a88f-4da2-a07f-e5de01b37435,61,пер,2020-08-18,3483,6161,6161,2020-08-20,000,0000,000,1,,0000,,0
0,db60a6eb-7a35-4c89-bc32-da3b494e1ce1,db60a6eb-7a35-4c89-bc32-da3b494e1ce1,7,000,0,0,001,61000001000340001,1.0,2016-06-06,Касательный 5-й,6195,6195,45adef03-4d07-44da-9ad1-c1dcce85b664,,60401380000,60701000,10,c1cfe4b9-f7c2-423c-abfa-6ed1c05a15c5,000,610000010003400,344000,,61,пер,2009-10-09,3400,6167,6167,2020-08-20,000,0000,000,0,,0000,,0
0,db60a6eb-7a35-4c89-bc32-da3b494e1ce1,45adef03-4d07-44da-9ad1-c1dcce85b664,7,000,0,0,001,61000001000340002,2.0,2016-06-06,Касательный 5-й,6195,6195,498235c7-5109-4fb0-b5eb-9c36d5e45568,,60401000000,60701000,21,c1cfe4b9-f7c2-423c-abfa-6ed1c05a15c5,000,610000010003400,344000,db60a6eb-7a35-4c89-bc32-da3b494e1ce1,61,пер,2015-05-27,3400,6167,6167,2020-08-20,000,0000,000,0,,0000,,0
0,db60a6eb-7a35-4c89-bc32-da3b494e1ce1,498235c7-5109-4fb0-b5eb-9c36d5e45568,7,000,0,0,001,61000001000340003,3.0,2079-06-06,5-й Касательный,6195,6195,2417dba8-9a74-4430-b92c-f4dd04f748cc,,60401000000,60701000,20,c1cfe4b9-f7c2-423c-abfa-6ed1c05a15c5,000,610000010003400,344000,45adef03-4d07-44da-9ad1-c1dcce85b664,61,пер,2016-06-06,3400,6167,6167,2020-08-20,000,0000,000,0,6994b730-9eee-4818-be30-280aa97b48a7,0000,,0
0,db60a6eb-7a35-4c89-bc32-da3b494e1ce1,2417dba8-9a74-4430-b92c-f4dd04f748cc,7,000,0,0,001,61000001000340000,0.0,2079-06-06,5-й Касательный,6195,6195,96059375-48cf-47f7-98af-d8e161d09f03,,60401000000,60701000,21,c1cfe4b9-f7c2-423c-abfa-6ed1c05a15c5,000,610000010003400,,498235c7-5109-4fb0-b5eb-9c36d5e45568,61,пер,2017-09-28,3400,6167,6167,2020-08-20,000,0000,000,0,6b10644c-476c-4187-82dc-bac1fe8d4f25,0000,,0
1,db60a6eb-7a35-4c89-bc32-da3b494e1ce1,96059375-48cf-47f7-98af-d8e161d09f03,7,000,0,0,001,61000001000340000,0.0,2079-06-06,5-й Касательный,6195,6195,,,60401000000,60701000001,21,c1cfe4b9-f7c2-423c-abfa-6ed1c05a15c5,000,610000010003400,,2417dba8-9a74-4430-b92c-f4dd04f748cc,61,пер,2020-08-18,3400,6167,6167,2020-08-20,000,0000,000,1,,0000,,0
1,f1d6489a-d999-495d-9b63-69b279c5ee62,f1d6489a-d999-495d-9b63-69b279c5ee62,65,008,0,0,000,61008000032001300,0.0,2079-06-06,Канал БГР-8 ПК-4600,6183,6183,,,60209809005,60609409176,10,157d4be1-4ec3-413e-bb8a-878e9405fc83,032,610080000320013,347794,,61,тер.,2020-08-19,0000,6106,6106,2020-08-20,000,0000,000,1,,0013,,0
0,1a809412-9a45-402c-9453-8ec8366f4169,70d5f500-3b9f-481f-970d-1ad331578bab,7,000,0,0,001,61000001000299001,1.0,2015-11-23,Санинструкторский,6194,6194,d808269a-dddc-4e95-a1a9-4a987a684f0a,,60401382000,60701000,1,c1cfe4b9-f7c2-423c-abfa-6ed1c05a15c5,000,610000010002990,344029,,61,пер,1900-01-01,2990,6168,6168,2020-08-20,000,0000,000,0,,0000,,0
0,1a809412-9a45-402c-9453-8ec8366f4169,d808269a-dddc-4e95-a1a9-4a987a684f0a,7,000,0,0,001,61000001000299002,2.0,2015-05-28,Санинструкторский,6194,6194,5ce476dc-e53b-42b4-86b9-128ff25080a0,,60401382000,60701000,21,c1cfe4b9-f7c2-423c-abfa-6ed1c05a15c5,000,610000010002990,344055,70d5f500-3b9f-481f-970d-1ad331578bab,61,пер,2014-10-16,2990,6168,6168,2020-08-20,000,0000,000,0,,0000,,0
0,1a809412-9a45-402c-9453-8ec8366f4169,5ce476dc-e53b-42b4-86b9-128ff25080a0,7,000,0,0,001,61000001000299003,3.0,2015-11-23,Санинструкторский,6194,6194,eb705232-0b33-4420-9264-58aade653c8c,,60401000000,60701000,21,c1cfe4b9-f7c2-423c-abfa-6ed1c05a15c5,000,610000010002990,344055,d808269a-dddc-4e95-a1a9-4a987a684f0a,61,пер,2015-05-28,2990,6168,6168,2020-08-20,000,0000,000,0,,0000,,0
0,1a809412-9a45-402c-9453-8ec8366f4169,eb705232-0b33-4420-9264-58aade653c8c,7,000,0,0,001,61000001000299004,4.0,2079-06-06,5-й Санинструкторский,6194,6194,d208c9f9-e9fa-4c4a-a2ff-fe3fb08d70fd,,60401000000,60701000,20,c1cfe4b9-f7c2-423c-abfa-6ed1c05a15c5,000,610000010002990,344055,5ce476dc-e53b-42b4-86b9-128ff25080a0,61,пер,2015-11-23,2990,6168,6168,2020-08-20,000,0000,000,0,6ddf9f23-a3c6-4661-ac7b-f4fd4c202d47,0000,,0
0,1a809412-9a45-402c-9453-8ec8366f4169,d208c9f9-e9fa-4c4a-a2ff-fe3fb08d70fd,7,000,0,0,001,61000001000299000,0.0,2079-06-06,5-й Санинструкторский,6194,6194,635bd4c3-a535-4da0-93c7-899f913b52e8,,60401000000,60701000,21,c1cfe4b9-f7c2-423c-abfa-6ed1c05a15c5,000,610000010002990,344055,eb705232-0b33-4420-9264-58aade653c8c,61,пер,2017-09-28,2990,6168,6168,2020-08-20,000,0000,000,0,6b10644c-476c-4187-82dc-bac1fe8d4f25,0000,,0
1,1a809412-9a45-402c-9453-8ec8366f4169,635bd4c3-a535-4da0-93c7-899f913b52e8,7,000,0,0,001,61000001000299000,0.0,2079-06-06,5-й Санинструкторский,6194,6194,,,60401000000,60701000001,21,c1cfe4b9-f7c2-423c-abfa-6ed1c05a15c5,000,610000010002990,344055,d208c9f9-e9fa-4c4a-a2ff-fe3fb08d70fd,61,пер,2020-08-18,2990,6168,6168,2020-08-20,000,0000,000,1,,0000,,0
0,91d66566-2d76-40e0-8f8c-be05269b68af,a7df9996-67ac-4fc6-ac84-d1bbc1e17a78,7,000,0,0,001,61000001000220301,1.0,2005-08-11,Самобытный 5-й,6194,6194,90f46869-f061-48e7-b744-97e37d856fe8,,60401364000,60701000,1,c1cfe4b9-f7c2-423c-abfa-6ed1c05a15c5,000,610000010002203,344033,,61,пер,1900-01-01,2203,6162,6162,2020-08-20,000,0000,000,0,,0000,,0
0,91d66566-2d76-40e0-8f8c-be05269b68af,90f46869-f061-48e7-b744-97e37d856fe8,7,000,0,0,001,61000001000220302,2.0,2079-06-06,5-й Самобытный,6194,6194,c73b6119-fc2c-4995-a833-0249c00f9a50,,60401364000,60701000,20,c1cfe4b9-f7c2-423c-abfa-6ed1c05a15c5,000,610000010002203,344033,a7df9996-67ac-4fc6-ac84-d1bbc1e17a78,61,пер,2005-08-11,2203,6162,6162,2020-08-20,000,0000,000,0,7a8f452c-01dd-4f64-a19f-3ee068c1dfba,0000,,0
0,91d66566-2d76-40e0-8f8c-be05269b68af,c73b6119-fc2c-4995-a833-0249c00f9a50,7,000,0,0,001,61000001000220303,3.0,2017-09-28,5-й Самобытный,6194,6194,31d36cab-32a2-4539-a9de-4a2c01fd4cee,,60401000000,60701000,21,c1cfe4b9-f7c2-423c-abfa-6ed1c05a15c5,000,610000010002203,344033,90f46869-f061-48e7-b744-97e37d856fe8,61,пер,2015-05-18,2203,6162,6162,2020-08-20,000,0000,000,0,,0000,,0
0,91d66566-2d76-40e0-8f8c-be05269b68af,31d36cab-32a2-4539-a9de-4a2c01fd4cee,7,000,0,0,001,61000001000220300,0.0,2079-06-06,5-й Самобытный,6194,6194,95674ce7-2410-4326-af70-8386114c346a,,60401000000,60701000,21,c1cfe4b9-f7c2-423c-abfa-6ed1c05a15c5,000,610000010002203,344033,c73b6119-fc2c-4995-a833-0249c00f9a50,61,пер,2017-09-28,2203,6162,6162,2020-08-20,000,0000,000,0,6b10644c-476c-4187-82dc-bac1fe8d4f25,0000,,0
1,91d66566-2d76-40e0-8f8c-be05269b68af,95674ce7-2410-4326-af70-8386114c346a,7,000,0,0,001,61000001000220300,0.0,2079-06-06,5-й Самобытный,6194,6194,,,60401000000,60701000001,21,c1cfe4b9-f7c2-423c-abfa-6ed1c05a15c5,000,610000010002203,344033,31d36cab-32a2-4539-a9de-4a2c01fd4cee,61,пер,2020-08-18,2203,6162,6162,2020-08-20,000,0000,000,1,,0000,,0
0,d9c784cf-edf0-44b4-8ec0-769c242e8573,d9c784cf-edf0-44b4-8ec0-769c242e8573,7,000,0,0,001,61000001000343901,1.0,2079-06-06,6-й Санинструкторский,6194,6194,c370ad47-10f2-4c3f-b28c-7d1d3ee75858,,60401382000,60701000,10,c1cfe4b9-f7c2-423c-abfa-6ed1c05a15c5,000,610000010003439,344029,,61,пер,2013-12-25,3439,6168,6168,2020-08-20,000,0000,000,0,,0000,,0
0,d9c784cf-edf0-44b4-8ec0-769c242e8573,c370ad47-10f2-4c3f-b28c-7d1d3ee75858,7,000,0,0,001,61000001000343902,2.0,2017-09-28,6-й Санинструкторский,6194,6194,b870fbfb-939a-4232-ab20-eaff3b7dbc6f,,60401000000,60701000,21,c1cfe4b9-f7c2-423c-abfa-6ed1c05a15c5,000,610000010003439,344029,d9c784cf-edf0-44b4-8ec0-769c242e8573,61,пер,2015-05-28,3439,6168,6168,2020-08-20,000,0000,000,0,5e0fcb63-6128-4f55-992b-2c24f7cb7e9a,0000,,0
0,d9c784cf-edf0-44b4-8ec0-769c242e8573,b870fbfb-939a-4232-ab20-eaff3b7dbc6f,7,000,0,0,001,61000001000343900,0.0,2079-06-06,6-й Санинструкторский,6194,6194,1b8b7ba6-bba3-4726-b697-38d558eec25a,,60401000000,60701000,21,c1cfe4b9-f7c2-423c-abfa-6ed1c05a15c5,000,610000010003439,344029,c370ad47-10f2-4c3f-b28c-7d1d3ee75858,61,пер,2017-09-28,3439,,,2020-08-20,000,0000,000,0,6b10644c-476c-4187-82dc-bac1fe8d4f25,0000,,0
1,d9c784cf-edf0-44b4-8ec0-769c242e8573,1b8b7ba6-bba3-4726-b697-38d558eec25a,7,000,0,0,001,61000001000343900,0.0,2079-06-06,6-й Санинструкторский,6194,6194,,,60401000000,60701000001,21,c1cfe4b9-f7c2-423c-abfa-6ed1c05a15c5,000,610000010003439,344029,b870fbfb-939a-4232-ab20-eaff3b7dbc6f,61,пер,2020-08-18,3439,,,2020-08-20,000,0000,000,1,,0000,,0
0,a311cabc-1cf4-41b1-ad1a-010dd8f94e2a,ac1c7b4d-f415-4c93-81a4-dfc2f921f65b,7,000,0,0,001,61000001000217901,1.0,2015-11-27,Восход,6165,6165,fb3dd0ff-7598-470c-a98e-29754277620a,,60401374000,60701000,1,c1cfe4b9-f7c2-423c-abfa-6ed1c05a15c5,000,610000010002179,344000,,61,сад,1900-01-01,2179,,,2020-08-22,000,0000,000,0,,0000,,0
0,a311cabc-1cf4-41b1-ad1a-010dd8f94e2a,fb3dd0ff-7598-470c-a98e-29754277620a,7,000,0,0,001,61000001000217951,51.0,2016-09-29,Восход,6165,6165,7095001d-5551-45e5-a336-37bb6b505533,,60401000000,60701000,21,c1cfe4b9-f7c2-423c-abfa-6ed1c05a15c5,000,610000010002179,344000,ac1c7b4d-f415-4c93-81a4-dfc2f921f65b,61,сад,2015-05-21,0000,,,2020-08-22,000,0000,000,0,,2179,,0
0,a311cabc-1cf4-41b1-ad1a-010dd8f94e2a,7095001d-5551-45e5-a336-37bb6b505533,90,000,0,0,001,61000001000217951,51.0,2016-09-29,Восход,6165,6165,3af418d1-3a8f-43b8-9537-154b64695e57,,60401000000,60701000,20,c1cfe4b9-f7c2-423c-abfa-6ed1c05a15c5,000,610000010002179,344000,fb3dd0ff-7598-470c-a98e-29754277620a,61,сад,2015-11-27,0000,,,2020-08-22,000,0000,000,0,36aa6b3e-8607-4e6e-bce6-0b467c0fab04,0000,,0
0,a311cabc-1cf4-41b1-ad1a-010dd8f94e2a,3af418d1-3a8f-43b8-9537-154b64695e57,65,000,0,0,001,61000001000217902,2.0,2020-08-21,Восход,6165,6165,c13d81ba-1a61-49a5-874d-4f60f4be1d1b,,60401000000,60701000,50,c1cfe4b9-f7c2-423c-abfa-6ed1c05a15c5,000,610000010002179,344000,7095001d-5551-45e5-a336-37bb6b505533,61,сад,2016-09-29,0000,,,2020-08-22,000,0000,000,0,,2179,,0
0,a311cabc-1cf4-41b1-ad1a-010dd8f94e2a,c13d81ba-1a61-49a5-874d-4f60f4be1d1b,65,000,0,0,001,61000001000217903,3.0,2020-08-21,Восход,6165,6165,17eb7563-81ef-4128-a79b-7027e601a727,,60401000000,60701000001,21,c1cfe4b9-f7c2-423c-abfa-6ed1c05a15c5,000,610000010002179,344000,3af418d1-3a8f-43b8-9537-154b64695e57,61,сад,2017-09-28,0000,,,2020-08-22,000,0000,000,0,6b10644c-476c-4187-82dc-bac1fe8d4f25,2179,,0
1,a311cabc-1cf4-41b1-ad1a-010dd8f94e2a,17eb7563-81ef-4128-a79b-7027e601a727,65,000,0,0,001,61000001000217900,0.0,2079-06-06,Восход,6165,6165,,,60401000000,60701000001,20,c1cfe4b9-f7c2-423c-abfa-6ed1c05a15c5,000,610000010002179,344000,c13d81ba-1a61-49a5-874d-4f60f4be1d1b,61,тер. СНТ,2020-08-21,0000,,,2020-08-22,000,0000,000,1,,2179,,0
0,da4c699c-7346-4367-9231-7c3d72da5d6f,d7d82383-1d2a-40a6-91c1-88c3a589c021,7,000,0,0,001,61000001000306701,1.0,1958-09-24,Авангард,6193,6193,65f46652-41f1-40a9-bcaa-ae9a3e2f7fb2,,60401362000,60701000,1,c1cfe4b9-f7c2-423c-abfa-6ed1c05a15c5,000,610000010003067,344000,,61,сад,1900-01-01,3067,6161,6161,2020-08-22,000,0000,000,0,,0000,,0
0,da4c699c-7346-4367-9231-7c3d72da5d6f,65f46652-41f1-40a9-bcaa-ae9a3e2f7fb2,7,000,0,0,001,61000001000306751,51.0,1958-09-24,Авангард,6193,6193,979a8476-ead1-495e-be83-58529c3a3407,,60401000000,60701000,21,c1cfe4b9-f7c2-423c-abfa-6ed1c05a15c5,000,610000010003067,344000,d7d82383-1d2a-40a6-91c1-88c3a589c021,61,сад,1958-09-24,0000,6161,6161,2020-08-22,000,0000,000,0,a149717c-1a2c-4087-a768-c6d629fa34f4,3067,,0
0,da4c699c-7346-4367-9231-7c3d72da5d6f,979a8476-ead1-495e-be83-58529c3a3407,90,000,0,0,001,61000001000306702,2.0,2016-09-28,Авангард,6193,6193,715db729-69f7-49f0-9eef-39230af67b62,,60401362000,60701000,20,c1cfe4b9-f7c2-423c-abfa-6ed1c05a15c5,000,610000010003067,344000,65f46652-41f1-40a9-bcaa-ae9a3e2f7fb2,61,снт,1958-09-24,0000,6161,6161,2020-08-22,000,0000,000,0,,0000,,0
0,da4c699c-7346-4367-9231-7c3d72da5d6f,715db729-69f7-49f0-9eef-39230af67b62,90,000,0,0,001,61000001000306751,51.0,2016-09-28,Авангард,6193,6193,71496d62-c85b-446b-b33a-8f64a39c1644,,60401000000,60701000,21,c1cfe4b9-f7c2-423c-abfa-6ed1c05a15c5,000,610000010003067,344000,979a8476-ead1-495e-be83-58529c3a3407,61,снт,2015-05-14,0000,6161,6161,2020-08-22,000,0000,000,0,c1753102-bccb-42f5-b561-82d0cdce2ba9,3067,,0
0,da4c699c-7346-4367-9231-7c3d72da5d6f,71496d62-c85b-446b-b33a-8f64a39c1644,65,000,0,0,001,61000001000306703,3.0,2020-08-21,Авангард,6193,6193,9e93b469-b7f8-406b-b661-ad6b7a698fc5,,60401000000,60701000,50,c1cfe4b9-f7c2-423c-abfa-6ed1c05a15c5,000,610000010003067,344000,715db729-69f7-49f0-9eef-39230af67b62,61,снт,2016-09-28,0000,6161,6161,2020-08-22,000,0000,000,0,,3067,,0
0,da4c699c-7346-4367-9231-7c3d72da5d6f,9e93b469-b7f8-406b-b661-ad6b7a698fc5,65,000,0,0,001,61000001000306704,4.0,2020-08-21,Авангард,6193,6193,65833015-cf57-44b0-893f-6424e533c195,,60401000000,60701000001,21,c1cfe4b9-f7c2-423c-abfa-6ed1c05a15c5,000,610000010003067,344000,71496d62-c85b-446b-b33a-8f64a39c1644,61,снт,2017-09-28,0000,6161,6161,2020-08-22,000,0000,000,0,6b10644c-476c-4187-82dc-bac1fe8d4f25,3067,,0
1,da4c699c-7346-4367-9231-7c3d72da5d6f,65833015-cf57-44b0-893f-6424e533c195,65,000,0,0,001,61000001000306700,0.0,2079-06-06,Авангард,6193,6193,,,60401000000,60701000001,20,c1cfe4b9-f7c2-423c-abfa-6ed1c05a15c5,000,610000010003067,344000,9e93b469-b7f8-406b-b661-ad6b7a698fc5,61,тер. СНТ,2020-08-21,0000,6161,6161,2020-08-22,000,0000,000,1,,3067,,0
1,57bae3c0-6926-42d1-9533-74f88b9a1063,57bae3c0-6926-42d1-9533-74f88b9a1063,7,026,0,0,000,61026000013003600,0.0,2079-06-06,Благодатная,6171,6171,,,60235824003,60635424111,10,2d298bf2-e342-4961-be98-d75ba2da7a90,013,610260000130036,,,61,ул,2020-08-20,0036,6122,6122,2020-08-22,000,0000,000,1,,0000,,0
0,058b0350-3029-48b0-9aec-ff8d34a5af0e,5444bec6-b181-4e8d-af06-a1d559471c41,7,000,0,0,001,61000001000308201,1.0,1993-03-02,Авиатор,6193,6193,b9edf23f-7bf1-4cc3-83b9-8be171382714,,60401378000,60701000,1,c1cfe4b9-f7c2-423c-abfa-6ed1c05a15c5,000,610000010003082,344000,,61,сад,1900-01-01,3082,6166,6166,2020-08-22,000,0000,000,0,,0000,,0
0,058b0350-3029-48b0-9aec-ff8d34a5af0e,b9edf23f-7bf1-4cc3-83b9-8be171382714,7,000,0,0,001,61000001000308251,51.0,1993-03-02,Авиатор,6193,6193,fb498c64-5ddc-44a3-b456-a1f289dc96ba,,60401000000,60701000,21,c1cfe4b9-f7c2-423c-abfa-6ed1c05a15c5,000,610000010003082,344000,5444bec6-b181-4e8d-af06-a1d559471c41,61,сад,1993-03-02,0000,6166,6166,2020-08-22,000,0000,000,0,8ec5ac88-7578-474d-acf9-d668efe32328,3082,,0
0,058b0350-3029-48b0-9aec-ff8d34a5af0e,fb498c64-5ddc-44a3-b456-a1f289dc96ba,90,000,0,0,001,61000001000308202,2.0,2016-09-29,Авиатор,6193,6193,a3ee9096-5e0b-4081-8367-09e5cc0a07ac,,60401378000,60701000,20,c1cfe4b9-f7c2-423c-abfa-6ed1c05a15c5,000,610000010003082,344000,b9edf23f-7bf1-4cc3-83b9-8be171382714,61,снт,1993-03-02,0000,6166,6166,2020-08-22,000,0000,000,0,,0000,,0
0,058b0350-3029-48b0-9aec-ff8d34a5af0e,a3ee9096-5e0b-4081-8367-09e5cc0a07ac,90,000,0,0,001,61000001000308251,51.0,2016-09-29,Авиатор,6193,6193,0bde48c2-cf3b-4034-9575-178886745ad5,,60401000000,60701000,21,c1cfe4b9-f7c2-423c-abfa-6ed1c05a15c5,000,610000010003082,344000,fb498c64-5ddc-44a3-b456-a1f289dc96ba,61,снт,2015-05-25,0000,6166,6166,2020-08-22,000,0000,000,0,96eb4242-3eee-43f3-bbf3-fb9bd4785de7,3082,,0
0,058b0350-3029-48b0-9aec-ff8d34a5af0e,0bde48c2-cf3b-4034-9575-178886745ad5,65,000,0,0,001,61000001000308203,3.0,2020-08-21,Авиатор,6193,6193,42d493c0-0cb2-4542-bcf5-aaa72ac0a541,,60401000000,60701000,50,c1cfe4b9-f7c2-423c-abfa-6ed1c05a15c5,000,610000010003082,344000,a3ee9096-5e0b-4081-8367-09e5cc0a07ac,61,снт,2016-09-29,0000,6166,6166,2020-08-22,000,0000,000,0,,3082,,0
0,058b0350-3029-48b0-9aec-ff8d34a5af0e,42d493c0-0cb2-4542-bcf5-aaa72ac0a541,65,000,0,0,001,61000001000308204,4.0,2020-08-21,Авиатор,6193,6193,4bb06167-9551-4ef0-8c25-6dd164a31f79,,60401000000,60701000001,21,c1cfe4b9-f7c2-423c-abfa-6ed1c05a15c5,000,610000010003082,344000,0bde48c2-cf3b-4034-9575-178886745ad5,61,снт,2017-09-28,0000,6166,6166,2020-08-22,000,0000,000,0,6b10644c-476c-4187-82dc-bac1fe8d4f25,3082,,0
1,058b0350-3029-48b0-9aec-ff8d34a5af0e,4bb06167-9551-4ef0-8c25-6dd164a31f79,65,000,0,0,001,61000001000308200,0.0,2079-06-06,Авиатор,6193,6193,,,60401000000,60701000001,20,c1cfe4b9-f7c2-423c-abfa-6ed1c05a15c5,000,610000010003082,344000,42d493c0-0cb2-4542-bcf5-aaa72ac0a541,61,тер. СНТ,2020-08-21,0000,6166,6166,2020-08-22,000,0000,000,1,,3082,,0
1,ce17da19-d258-4e2d-98be-cbf278bf7e1e,ce17da19-d258-4e2d-98be-cbf278bf7e1e,7,026,0,0,000,61026000013003500,0.0,2079-06-06,Северная,6171,6171,,,60235824003,60635424111,10,2d298bf2-e342-4961-be98-d75ba2da7a90,013,610260000130035,,,61,ул,2020-08-20,0035,6122,6122,2020-08-22,000,0000,000,1,,0000,,0
0,9f7f9623-b011-40e2-bf7d-0db1b1644958,40bc3467-0419-411b-84f9-443cf6029f6e,7,000,0,0,001,61000001000307101,1.0,1988-10-03,Аэро,6193,6193,b393a794-e418-4676-9575-c508f5f5d0d6,,60401362000,60701000,1,c1cfe4b9-f7c2-423c-abfa-6ed1c05a15c5,000,610000010003071,344000,,61,сад,1900-01-01,3071,6161,6161,2020-08-22,000,0000,000,0,,0000,,0
0,9f7f9623-b011-40e2-bf7d-0db1b1644958,b393a794-e418-4676-9575-c508f5f5d0d6,7,000,0,0,001,61000001000307151,51.0,1988-10-03,Аэро,6193,6193,624e1ed9-2023-4afb-9208-bc4d2cc9db1b,,60401000000,60701000,21,c1cfe4b9-f7c2-423c-abfa-6ed1c05a15c5,000,610000010003071,344000,40bc3467-0419-411b-84f9-443cf6029f6e,61,сад,1988-10-03,0000,6161,6161,2020-08-22,000,0000,000,0,8ec5ac88-7578-474d-acf9-d668efe32328,3071,,0
0,9f7f9623-b011-40e2-bf7d-0db1b1644958,624e1ed9-2023-4afb-9208-bc4d2cc9db1b,90,000,0,0,001,61000001000307102,2.0,2016-09-29,Аэро,6193,6193,6a2dd0bc-37cc-4598-b249-460104d3f059,,60401362000,60701000,20,c1cfe4b9-f7c2-423c-abfa-6ed1c05a15c5,000,610000010003071,344000,b393a794-e418-4676-9575-c508f5f5d0d6,61,снт,1988-10-03,0000,6161,6161,2020-08-22,000,0000,000,0,,0000,,0
0,9f7f9623-b011-40e2-bf7d-0db1b1644958,6a2dd0bc-37cc-4598-b249-460104d3f059,90,000,0,0,001,61000001000307151,51.0,2016-09-29,Аэро,6193,6193,9db94a45-c70b-4961-8ac6-96997dff3899,,60401000000,60701000,21,c1cfe4b9-f7c2-423c-abfa-6ed1c05a15c5,000,610000010003071,344000,624e1ed9-2023-4afb-9208-bc4d2cc9db1b,61,снт,2015-05-14,0000,6161,6161,2020-08-22,000,0000,000,0,2d8a0dee-320d-42c2-b381-1c4be63e86c4,3071,,0
0,9f7f9623-b011-40e2-bf7d-0db1b1644958,9db94a45-c70b-4961-8ac6-96997dff3899,65,000,0,0,001,61000001000307103,3.0,2020-08-21,Аэро,6193,6193,731f2535-2135-436c-9e45-0d8cf8fef67f,,60401000000,60701000,50,c1cfe4b9-f7c2-423c-abfa-6ed1c05a15c5,000,610000010003071,344000,6a2dd0bc-37cc-4598-b249-460104d3f059,61,снт,2016-09-29,0000,6161,6161,2020-08-22,000,0000,000,0,,3071,,0
0,9f7f9623-b011-40e2-bf7d-0db1b1644958,731f2535-2135-436c-9e45-0d8cf8fef67f,65,000,0,0,001,61000001000307104,4.0,2020-08-21,Аэро,6193,6193,5f138eaf-fa80-416e-a75b-3fdb3f13dd68,,60401000000,60701000001,21,c1cfe4b9-f7c2-423c-abfa-6ed1c05a15c5,000,610000010003071,344000,9db94a45-c70b-4961-8ac6-96997dff3899,61,снт,2017-09-28,0000,6161,6161,2020-08-22,000,0000,000,0,6b10644c-476c-4187-82dc-bac1fe8d4f25,3071,,0
1,9f7f9623-b011-40e2-bf7d-0db1b1644958,5f138eaf-fa80-416e-a75b-3fdb3f13dd68,65,000,0,0,001,61000001000307100,0.0,2079-06-06,Аэро,6193,6193,,,60401000000,60701000001,20,c1cfe4b9-f7c2-423c-abfa-6ed1c05a15c5,000,610000010003071,344000,731f2535-2135-436c-9e45-0d8cf8fef67f,61,тер. СНТ,2020-08-21,0000,6161,6161,2020-08-22,000,0000,000,1,,3071,,0
1,8e0ae125-eaba-4965-898e-66afef31940f,8e0ae125-eaba-4965-898e-66afef31940f,7,026,0,0,000,61026000013003400,0.0,2079-06-06,Культурная,6171,6171,,,60235824003,60635424111,10,2d298bf2-e342-4961-be98-d75ba2da7a90,013,610260000130034,,,61,ул,2020-08-20,0034,6122,6122,2020-08-22,000,0000,000,1,,0000,,0
0,e8186f06-04c9-4d00-9236-9b1f8624e81f,9352904d-075d-4efb-abe3-94ebdd6b603f,7,000,0,0,001,61000001000308301,1.0,1993-09-21,Аксаец,6193,6193,307b4ae5-01d6-4833-970c-2ea3dcfdf2fb,,60401378000,60701000,1,c1cfe4b9-f7c2-423c-abfa-6ed1c05a15c5,000,610000010003083,344000,,61,сад,1900-01-01,3083,6166,6166,2020-08-22,000,0000,000,0,,0000,,0
0,e8186f06-04c9-4d00-9236-9b1f8624e81f,307b4ae5-01d6-4833-970c-2ea3dcfdf2fb,7,000,0,0,001,61000001000308351,51.0,1993-09-21,Аксаец,6193,6193,fd9bf95a-7b47-457b-8aad-5dd3c88262f2,,60401000000,60701000,21,c1cfe4b9-f7c2-423c-abfa-6ed1c05a15c5,000,610000010003083,344000,9352904d-075d-4efb-abe3-94ebdd6b603f,61,сад,1993-09-21,0000,6166,6166,2020-08-22,000,0000,000,0,40eb1e87-42b8-45d8-881c-7daf139afba2,3083,,0
0,e8186f06-04c9-4d00-9236-9b1f8624e81f,fd9bf95a-7b47-457b-8aad-5dd3c88262f2,90,000,0,0,001,61000001000308302,2.0,2016-09-29,Аксаец,6193,6193,be791e19-3dba-4bfb-bfce-921c0a4b9f56,,60401378000,60701000,20,c1cfe4b9-f7c2-423c-abfa-6ed1c05a15c5,000,610000010003083,344000,307b4ae5-01d6-4833-970c-2ea3dcfdf2fb,61,снт,1993-09-21,0000,6166,6166,2020-08-22,000,0000,000,0,,0000,,0
0,e8186f06-04c9-4d00-9236-9b1f8624e81f,be791e19-3dba-4bfb-bfce-921c0a4b9f56,90,000,0,0,001,61000001000308351,51.0,2016-09-29,Аксаец,6193,6193,3bccfe2d-d402-46d5-aef4-68211df51c97,,60401000000,60701000,21,c1cfe4b9-f7c2-423c-abfa-6ed1c05a15c5,000,610000010003083,344000,fd9bf95a-7b47-457b-8aad-5dd3c88262f2,61,снт,2015-05-25,0000,6166,6166,2020-08-22,000,0000,000,0,0ef60aa4-60ab-42d4-9012-d08451b904c6,3083,,0
0,e8186f06-04c9-4d00-9236-9b1f8624e81f,3bccfe2d-d402-46d5-aef4-68211df51c97,65,000,0,0,001,61000001000308303,3.0,2020-08-21,Аксаец,6193,6193,1f3c2837-aa5e-4fa8-99a5-b025b0691e09,,60401000000,60701000,50,c1cfe4b9-f7c2-423c-abfa-6ed1c05a15c5,000,610000010003083,344000,be791e19-3dba-4bfb-bfce-921c0a4b9f56,61,снт,2016-09-29,0000,6166,6166,2020-08-22,000,0000,000,0,,3083,,0
0,e8186f06-04c9-4d00-9236-9b1f8624e81f,1f3c2837-aa5e-4fa8-99a5-b025b0691e09,65,000,0,0,001,61000001000308304,4.0,2020-08-21,Аксаец,6193,6193,7b7bdb30-6bad-444f-b402-4b3a728fce28,,60401000000,60701000001,21,c1cfe4b9-f7c2-423c-abfa-6ed1c05a15c5,000,610000010003083,344000,3bccfe2d-d402-46d5-aef4-68211df51c97,61,снт,2017-09-28,0000,6166,6166,2020-08-22,000,0000,000,0,6b10644c-476c-4187-82dc-bac1fe8d4f25,3083,,0
1,e8186f06-04c9-4d00-9236-9b1f8624e81f,7b7bdb30-6bad-444f-b402-4b3a728fce28,65,000,0,0,001,61000001000308300,0.0,2079-06-06,Аксаец,6193,6193,,,60401000000,60701000001,20,c1cfe4b9-f7c2-423c-abfa-6ed1c05a15c5,000,610000010003083,344000,1f3c2837-aa5e-4fa8-99a5-b025b0691e09,61,тер. СНТ,2020-08-21,0000,6166,6166,2020-08-22,000,0000,000,1,,3083,,0
0,ef5c05d9-9996-4b28-b621-9d8859a5f3db,300f4b16-0fff-43e6-b193-7fb5ff7ef62d,7,000,0,0,001,61000001000306901,1.0,1989-02-08,Агропром,6193,6193,fd17b23d-d726-478e-a3cf-1d6cf963254c,,60401362000,60701000,1,c1cfe4b9-f7c2-423c-abfa-6ed1c05a15c5,000,610000010003069,344000,,61,сад,1900-01-01,3069,6161,6161,2020-08-22,000,0000,000,0,,0000,,0
0,ef5c05d9-9996-4b28-b621-9d8859a5f3db,fd17b23d-d726-478e-a3cf-1d6cf963254c,7,000,0,0,001,61000001000306951,51.0,2016-09-29,Агропром,6193,6193,a2862976-49b1-42cc-b221-19ca385abf55,,60401000000,60701000,21,c1cfe4b9-f7c2-423c-abfa-6ed1c05a15c5,000,610000010003069,344000,300f4b16-0fff-43e6-b193-7fb5ff7ef62d,61,сад,1989-02-08,0000,6161,6161,2020-08-22,000,0000,000,0,40eb1e87-42b8-45d8-881c-7daf139afba2,3069,,0
0,ef5c05d9-9996-4b28-b621-9d8859a5f3db,a2862976-49b1-42cc-b221-19ca385abf55,90,000,0,0,001,61000001000306951,51.0,2016-09-29,Агропром,6193,6193,97e44fe2-5ff9-4b5b-832e-2a89a322e529,,60401000000,60701000,20,c1cfe4b9-f7c2-423c-abfa-6ed1c05a15c5,000,610000010003069,344000,fd17b23d-d726-478e-a3cf-1d6cf963254c,61,снт,1989-02-08,0000,6161,6161,2020-08-22,000,0000,000,0,559c2bac-cc98-4e2d-b71c-069f1e28e865,0000,,0
0,ef5c05d9-9996-4b28-b621-9d8859a5f3db,97e44fe2-5ff9-4b5b-832e-2a89a322e529,65,000,0,0,001,61000001000306902,2.0,2020-08-21,Агропром,6193,6193,a9bb2209-a532-4eb4-b573-7a61ee651437,,60401000000,60701000,50,c1cfe4b9-f7c2-423c-abfa-6ed1c05a15c5,000,610000010003069,344000,a2862976-49b1-42cc-b221-19ca385abf55,61,снт,2016-09-29,0000,6161,6161,2020-08-22,000,0000,000,0,,3069,,0
0,ef5c05d9-9996-4b28-b621-9d8859a5f3db,a9bb2209-a532-4eb4-b573-7a61ee651437,65,000,0,0,001,61000001000306903,3.0,2020-08-21,Агропром,6193,6193,53fc8526-42be-4068-a195-3ed666e70c0f,,60401000000,60701000001,21,c1cfe4b9-f7c2-423c-abfa-6ed1c05a15c5,000,610000010003069,344000,97e44fe2-5ff9-4b5b-832e-2a89a322e529,61,снт,2017-09-28,0000,6161,6161,2020-08-22,000,0000,000,0,6b10644c-476c-4187-82dc-bac1fe8d4f25,3069,,0
1,ef5c05d9-9996-4b28-b621-9d8859a5f3db,53fc8526-42be-4068-a195-3ed666e70c0f,65,000,0,0,001,61000001000306900,0.0,2079-06-06,Агропром,6193,6193,,,60401000000,60701000001,20,c1cfe4b9-f7c2-423c-abfa-6ed1c05a15c5,000,610000010003069,344000,a9bb2209-a532-4eb4-b573-7a61ee651437,61,тер. СНТ,2020-08-21,0000,6161,6161,2020-08-22,000,0000,000,1,,3069,,0
1,599e9d37-0fe8-4c56-8377-c74779cb7a15,599e9d37-0fe8-4c56-8377-c74779cb7a15,7,014,0,0,000,61014000001012800,0.0,2079-06-06,Эхохина,6186,6186,,,60219817001,60619417101,10,ef4c0ecc-d43a-44c0-a577-ea13e165ddb1,001,610140000010128,,,61,ул,2020-08-24,0128,6112,6112,2020-08-27,000,0000,000,1,,0000,,0
0,9359ac83-2d08-4753-851e-20632676a39f,932dfae3-70b5-4568-bd3d-c4ed89b36ac0,7,000,0,0,001,61000001000218201,1.0,2015-12-02,Южтехмонтаж-1,6165,6165,3a3f5623-0ef0-48ba-a875-890169b9e461,,60401374000,60701000,1,c1cfe4b9-f7c2-423c-abfa-6ed1c05a15c5,000,610000010002182,344000,,61,сад,1900-01-01,2182,,,2020-08-27,000,0000,000,0,,0000,,0
0,9359ac83-2d08-4753-851e-20632676a39f,3a3f5623-0ef0-48ba-a875-890169b9e461,7,000,0,0,001,61000001000218251,51.0,2016-09-28,Южтехмонтаж-1,6165,6165,c422e703-6ac2-49e8-8af2-fd9ee64340d7,,60401000000,60701000,21,c1cfe4b9-f7c2-423c-abfa-6ed1c05a15c5,000,610000010002182,344000,932dfae3-70b5-4568-bd3d-c4ed89b36ac0,61,сад,2015-05-21,0000,,,2020-08-27,000,0000,000,0,,2182,,0
0,9359ac83-2d08-4753-851e-20632676a39f,c422e703-6ac2-49e8-8af2-fd9ee64340d7,90,000,0,0,001,61000001000218251,51.0,2016-09-28,Южтехмонтаж-1,6165,6165,ff184826-beb5-4c39-a28d-9fc5d3e6513a,,60401000000,60701000,20,c1cfe4b9-f7c2-423c-abfa-6ed1c05a15c5,000,610000010002182,344000,3a3f5623-0ef0-48ba-a875-890169b9e461,61,сад,2015-12-02,0000,,,2020-08-27,000,0000,000,0,5c3bc064-9270-4cd3-9e27-0b8a3be659b5,0000,,0
0,9359ac83-2d08-4753-851e-20632676a39f,ff184826-beb5-4c39-a28d-9fc5d3e6513a,65,000,0,0,001,61000001000218202,2.0,2020-08-25,Южтехмонтаж-1,6165,6165,f8ab8518-c082-4188-bccb-be51eb24bd3d,,60401000000,60701000,50,c1cfe4b9-f7c2-423c-abfa-6ed1c05a15c5,000,610000010002182,344000,c422e703-6ac2-49e8-8af2-fd9ee64340d7,61,сад,2016-09-28,0000,,,2020-08-27,000,0000,000,0,,2182,,0
0,9359ac83-2d08-4753-851e-20632676a39f,f8ab8518-c082-4188-bccb-be51eb24bd3d,65,000,0,0,001,61000001000218203,3.0,2019-12-17,Южтехмонтаж-1,6165,6165,5f3f48b8-7bc8-4e2b-89c4-d8f42f85881d,,60401000000,60701000001,21,c1cfe4b9-f7c2-423c-abfa-6ed1c05a15c5,000,610000010002182,344000,ff184826-beb5-4c39-a28d-9fc5d3e6513a,61,сад,2017-09-28,0000,,,2020-08-27,000,0000,000,0,6b10644c-476c-4187-82dc-bac1fe8d4f25,2182,,0
0,9359ac83-2d08-4753-851e-20632676a39f,5f3f48b8-7bc8-4e2b-89c4-d8f42f85881d,65,000,0,0,001,61000001000218204,4.0,2020-08-25,Южтехмонтаж-1,6193,6193,6d85bc6a-46e7-45ad-b2d8-f61d498443d0,,60401000000,60701000001,21,c1cfe4b9-f7c2-423c-abfa-6ed1c05a15c5,000,610000010002182,344000,f8ab8518-c082-4188-bccb-be51eb24bd3d,61,сад,2019-12-17,0000,6161,6161,2020-08-27,000,0000,000,0,2347a065-80cd-4bec-ba96-8717307323e8,2182,,0
1,9359ac83-2d08-4753-851e-20632676a39f,6d85bc6a-46e7-45ad-b2d8-f61d498443d0,65,000,0,0,001,61000001000218200,0.0,2079-06-06,Южтехмонтаж-1,6193,6193,,,60401000000,60701000001,20,c1cfe4b9-f7c2-423c-abfa-6ed1c05a15c5,000,610000010002182,344000,5f3f48b8-7bc8-4e2b-89c4-d8f42f85881d,61,тер. СНТ,2020-08-25,0000,6161,6161,2020-08-27,000,0000,000,1,,2182,,0
0,641bb972-9089-41b4-ab21-13e441e670eb,3f3e7c52-6adb-4c12-bad9-6a459c425d39,7,000,0,0,001,61000001000308101,1.0,1991-03-11,Утро,6193,6193,1663cea9-a055-41af-a9ab-0f6a7394d56e,,60401362000,60701000,1,c1cfe4b9-f7c2-423c-abfa-6ed1c05a15c5,000,610000010003081,344000,,61,сад,1900-01-01,3081,6161,6161,2020-08-27,000,0000,000,0,,0000,,0
0,641bb972-9089-41b4-ab21-13e441e670eb,1663cea9-a055-41af-a9ab-0f6a7394d56e,7,000,0,0,001,61000001000308151,51.0,1991-03-11,Утро,6193,6193,98ddcb53-e235-419c-b405-e4768e1d5a5a,,60401000000,60701000,21,c1cfe4b9-f7c2-423c-abfa-6ed1c05a15c5,000,610000010003081,344114,3f3e7c52-6adb-4c12-bad9-6a459c425d39,61,сад,1991-03-11,0000,6161,6161,2020-08-27,000,0000,000,0,40eb1e87-42b8-45d8-881c-7daf139afba2,3081,,0
0,641bb972-9089-41b4-ab21-13e441e670eb,98ddcb53-e235-419c-b405-e4768e1d5a5a,90,000,0,0,001,61000001000308102,2.0,2016-09-28,Утро,6193,6193,86d51165-91ef-466f-bec3-8f28b5b3207f,,60401362000,60701000,20,c1cfe4b9-f7c2-423c-abfa-6ed1c05a15c5,000,610000010003081,344114,1663cea9-a055-41af-a9ab-0f6a7394d56e,61,днп,1991-03-11,0000,6161,6161,2020-08-27,000,0000,000,0,,0000,,0
0,641bb972-9089-41b4-ab21-13e441e670eb,86d51165-91ef-466f-bec3-8f28b5b3207f,90,000,0,0,001,61000001000308151,51.0,2016-09-28,Утро,6193,6193,b1023969-a61d-4b03-af25-43f201de2ae3,,60401000000,60701000,21,c1cfe4b9-f7c2-423c-abfa-6ed1c05a15c5,000,610000010003081,344114,98ddcb53-e235-419c-b405-e4768e1d5a5a,61,днп,2015-05-14,0000,6161,6161,2020-08-27,000,0000,000,0,bbf2421d-9eb9-489d-9c38-e6eaa4005da8,3081,,0
0,641bb972-9089-41b4-ab21-13e441e670eb,b1023969-a61d-4b03-af25-43f201de2ae3,65,000,0,0,001,61000001000308103,3.0,2020-08-25,Утро,6193,6193,b2089eea-6eb2-47ff-bc1a-aa7afcd1dec1,,60401000000,60701000,50,c1cfe4b9-f7c2-423c-abfa-6ed1c05a15c5,000,610000010003081,344114,86d51165-91ef-466f-bec3-8f28b5b3207f,61,днп,2016-09-28,0000,6161,6161,2020-08-27,000,0000,000,0,,3081,,0
0,641bb972-9089-41b4-ab21-13e441e670eb,b2089eea-6eb2-47ff-bc1a-aa7afcd1dec1,65,000,0,0,001,61000001000308104,4.0,2020-08-25,Утро,6193,6193,dd19dd1e-df69-4430-a09c-43d034adc68d,,60401000000,60701000001,21,c1cfe4b9-f7c2-423c-abfa-6ed1c05a15c5,000,610000010003081,344114,b1023969-a61d-4b03-af25-43f201de2ae3,61,днп,2017-09-28,0000,6161,6161,2020-08-27,000,0000,000,0,6b10644c-476c-4187-82dc-bac1fe8d4f25,3081,,0
1,641bb972-9089-41b4-ab21-13e441e670eb,dd19dd1e-df69-4430-a09c-43d034adc68d,65,000,0,0,001,61000001000308100,0.0,2079-06-06,Утро,6193,6193,,,60401000000,60701000001,20,c1cfe4b9-f7c2-423c-abfa-6ed1c05a15c5,000,610000010003081,344114,b2089eea-6eb2-47ff-bc1a-aa7afcd1dec1,61,тер. СНТ,2020-08-25,0000,6161,6161,2020-08-27,000,0000,000,1,,3081,,0
0,d99b82ab-10a2-455f-a992-48cd06a19e2f,638e2917-0504-4e41-8df0-4b834fb1c261,7,000,0,0,001,61000001000307601,1.0,2015-12-01,Луч,6193,6193,027fc2a4-5459-47e8-9685-43246c5f866f,,60401362000,60701000,1,c1cfe4b9-f7c2-423c-abfa-6ed1c05a15c5,000,610000010003076,344000,,61,сад,1900-01-01,3076,6161,6161,2020-08-27,000,0000,000,0,,0000,,0
0,d99b82ab-10a2-455f-a992-48cd06a19e2f,027fc2a4-5459-47e8-9685-43246c5f866f,7,000,0,0,001,61000001000307651,51.0,2016-09-28,Луч,6193,6193,7f85b00b-bfe0-481a-8593-622b6e252d66,,60401000000,60701000,21,c1cfe4b9-f7c2-423c-abfa-6ed1c05a15c5,000,610000010003076,344000,638e2917-0504-4e41-8df0-4b834fb1c261,61,сад,2015-05-14,0000,6161,6161,2020-08-27,000,0000,000,0,,3076,,0
0,d99b82ab-10a2-455f-a992-48cd06a19e2f,7f85b00b-bfe0-481a-8593-622b6e252d66,90,000,0,0,001,61000001000307651,51.0,2016-09-28,Луч,6193,6193,58be3441-2a19-4cf2-b43f-c0dbe88a0585,,60401000000,60701000,20,c1cfe4b9-f7c2-423c-abfa-6ed1c05a15c5,000,610000010003076,344000,027fc2a4-5459-47e8-9685-43246c5f866f,61,сад,2015-12-01,0000,6161,6161,2020-08-27,000,0000,000,0,5bc3dfeb-6b36-4cd6-9893-0c4e16ac91de,0000,,0
0,d99b82ab-10a2-455f-a992-48cd06a19e2f,58be3441-2a19-4cf2-b43f-c0dbe88a0585,65,000,0,0,001,61000001000307602,2.0,2020-08-25,Луч,6193,6193,a095023e-b060-440c-96c4-437a8438ec4d,,60401000000,60701000,50,c1cfe4b9-f7c2-423c-abfa-6ed1c05a15c5,000,610000010003076,344000,7f85b00b-bfe0-481a-8593-622b6e252d66,61,сад,2016-09-28,0000,6161,6161,2020-08-27,000,0000,000,0,,3076,,0
0,d99b82ab-10a2-455f-a992-48cd06a19e2f,a095023e-b060-440c-96c4-437a8438ec4d,65,000,0,0,001,61000001000307603,3.0,2020-08-25,Луч,6193,6193,f7ef3ce8-1c04-4b0c-bb1a-1cbfcf21de58,,60401000000,60701000001,21,c1cfe4b9-f7c2-423c-abfa-6ed1c05a15c5,000,610000010003076,344000,58be3441-2a19-4cf2-b43f-c0dbe88a0585,61,сад,2017-09-28,0000,6161,6161,2020-08-27,000,0000,000,0,6b10644c-476c-4187-82dc-bac1fe8d4f25,3076,,0
1,d99b82ab-10a2-455f-a992-48cd06a19e2f,f7ef3ce8-1c04-4b0c-bb1a-1cbfcf21de58,65,000,0,0,001,61000001000307600,0.0,2079-06-06,Луч,6193,6193,,,60401000000,60701000001,20,c1cfe4b9-f7c2-423c-abfa-6ed1c05a15c5,000,610000010003076,344000,a095023e-b060-440c-96c4-437a8438ec4d,61,тер. СНТ,2020-08-25,0000,6161,6161,2020-08-27,000,0000,000,1,,3076,,0
0,089582ae-2aa0-403f-8c17-fd643f2ab3a8,a92cb128-3402-48c4-9c8a-d23863242253,7,000,0,0,001,61000001000309101,1.0,2015-11-30,Колос,6193,6193,ec35888a-08ed-4d0f-95fa-9f230d555eab,,60401378000,60701000,1,c1cfe4b9-f7c2-423c-abfa-6ed1c05a15c5,000,610000010003091,344000,,61,сад,1900-01-01,3091,6166,6166,2020-08-27,000,0000,000,0,,0000,,0
0,089582ae-2aa0-403f-8c17-fd643f2ab3a8,ec35888a-08ed-4d0f-95fa-9f230d555eab,7,000,0,0,001,61000001000309151,51.0,2016-09-29,Колос,6193,6193,bb4df7b3-438b-45db-b44b-5a90400837cd,,60401000000,60701000,21,c1cfe4b9-f7c2-423c-abfa-6ed1c05a15c5,000,610000010003091,344000,a92cb128-3402-48c4-9c8a-d23863242253,61,сад,2015-05-25,0000,6166,6166,2020-08-27,000,0000,000,0,,3091,,0
0,089582ae-2aa0-403f-8c17-fd643f2ab3a8,bb4df7b3-438b-45db-b44b-5a90400837cd,90,000,0,0,001,61000001000309151,51.0,2016-09-29,Колос,6193,6193,8e604737-20c9-4fd1-bc64-7bff86fad8f3,,60401000000,60701000,20,c1cfe4b9-f7c2-423c-abfa-6ed1c05a15c5,000,610000010003091,344000,ec35888a-08ed-4d0f-95fa-9f230d555eab,61,сад,2015-11-30,0000,6166,6166,2020-08-27,000,0000,000,0,2d130a1a-4718-4436-9e2a-a5516eace0fe,0000,,0
0,089582ae-2aa0-403f-8c17-fd643f2ab3a8,8e604737-20c9-4fd1-bc64-7bff86fad8f3,65,000,0,0,001,61000001000309102,2.0,2020-08-24,Колос,6193,6193,ee1e37cd-f9f0-4653-89d1-943b0e5cffa2,,60401000000,60701000,50,c1cfe4b9-f7c2-423c-abfa-6ed1c05a15c5,000,610000010003091,344000,bb4df7b3-438b-45db-b44b-5a90400837cd,61,сад,2016-09-29,0000,6166,6166,2020-08-27,000,0000,000,0,,3091,,0
0,089582ae-2aa0-403f-8c17-fd643f2ab3a8,ee1e37cd-f9f0-4653-89d1-943b0e5cffa2,65,000,0,0,001,61000001000309103,3.0,2020-08-24,Колос,6193,6193,fcecb53e-5b57-440a-bff8-44924ebb75bd,,60401000000,60701000001,21,c1cfe4b9-f7c2-423c-abfa-6ed1c05a15c5,000,610000010003091,344000,8e604737-20c9-4fd1-bc64-7bff86fad8f3,61,сад,2017-09-28,0000,6166,6166,2020-08-27,000,0000,000,0,6b10644c-476c-4187-82dc-bac1fe8d4f25,3091,,0
1,089582ae-2aa0-403f-8c17-fd643f2ab3a8,fcecb53e-5b57-440a-bff8-44924ebb75bd,65,000,0,0,001,61000001000309100,0.0,2079-06-06,Колос,6193,6193,,,60401000000,60701000001,20,c1cfe4b9-f7c2-423c-abfa-6ed1c05a15c5,000,610000010003091,344000,ee1e37cd-f9f0-4653-89d1-943b0e5cffa2,61,тер. СНТ,2020-08-24,0000,6166,6166,2020-08-27,000,0000,000,1,,3091,,0
0,5ea000f8-bafe-473a-9a4e-baf3d06ea55c,7cee8351-5ebe-49e8-986a-fdd1f099f3e0,7,000,0,0,001,61000001000308801,1.0,2015-11-30,Дружба МВД,6193,6193,4ba22bcf-a037-41df-9230-16bad1f80c8c,,60401378000,60701000,1,c1cfe4b9-f7c2-423c-abfa-6ed1c05a15c5,000,610000010003088,344000,,61,сад,1900-01-01,3088,6166,6166,2020-08-27,000,0000,000,0,,0000,,0
0,5ea000f8-bafe-473a-9a4e-baf3d06ea55c,4ba22bcf-a037-41df-9230-16bad1f80c8c,7,000,0,0,001,61000001000308802,2.0,2015-05-25,Дружба МВД,6193,6193,f6fd9248-055d-4b50-97ca-7e4b2c829928,,60401378000,60701000,21,c1cfe4b9-f7c2-423c-abfa-6ed1c05a15c5,000,610000010003088,344000,7cee8351-5ebe-49e8-986a-fdd1f099f3e0,61,сад,2013-06-06,0000,6166,6166,2020-08-27,000,0000,000,0,40eb1e87-42b8-45d8-881c-7daf139afba2,3088,,0
0,5ea000f8-bafe-473a-9a4e-baf3d06ea55c,f6fd9248-055d-4b50-97ca-7e4b2c829928,7,000,0,0,001,61000001000308851,51.0,2016-09-28,Дружба МВД,6193,6193,6917717c-3f5f-494c-9e10-f25b2a41c6f3,,60401000000,60701000,21,c1cfe4b9-f7c2-423c-abfa-6ed1c05a15c5,000,610000010003088,344000,4ba22bcf-a037-41df-9230-16bad1f80c8c,61,сад,2015-05-25,0000,6166,6166,2020-08-27,000,0000,000,0,,3088,,0
0,5ea000f8-bafe-473a-9a4e-baf3d06ea55c,6917717c-3f5f-494c-9e10-f25b2a41c6f3,90,000,0,0,001,61000001000308851,51.0,2016-09-28,Дружба МВД,6193,6193,a491bd1c-400e-4e50-840f-13e98bd3312a,,60401000000,60701000,20,c1cfe4b9-f7c2-423c-abfa-6ed1c05a15c5,000,610000010003088,344000,f6fd9248-055d-4b50-97ca-7e4b2c829928,61,сад,2015-11-30,0000,6166,6166,2020-08-27,000,0000,000,0,c3e6310d-9f4b-458b-ab80-0757addbcd36,0000,,0
0,5ea000f8-bafe-473a-9a4e-baf3d06ea55c,a491bd1c-400e-4e50-840f-13e98bd3312a,65,000,0,0,001,61000001000308803,3.0,2020-08-24,Дружба МВД,6193,6193,b6834799-2074-4074-bbfb-d3a3707ac8d8,,60401000000,60701000,50,c1cfe4b9-f7c2-423c-abfa-6ed1c05a15c5,000,610000010003088,344000,6917717c-3f5f-494c-9e10-f25b2a41c6f3,61,сад,2016-09-28,0000,6166,6166,2020-08-27,000,0000,000,0,,3088,,0
0,5ea000f8-bafe-473a-9a4e-baf3d06ea55c,b6834799-2074-4074-bbfb-d3a3707ac8d8,65,000,0,0,001,61000001000308804,4.0,2020-08-24,Дружба МВД,6193,6193,16001a05-8e18-4975-b210-d1592e644156,,60401000000,60701000001,21,c1cfe4b9-f7c2-423c-abfa-6ed1c05a15c5,000,610000010003088,344000,a491bd1c-400e-4e50-840f-13e98bd3312a,61,сад,2017-09-28,0000,6166,6166,2020-08-27,000,0000,000,0,6b10644c-476c-4187-82dc-bac1fe8d4f25,3088,,0
1,5ea000f8-bafe-473a-9a4e-baf3d06ea55c,16001a05-8e18-4975-b210-d1592e644156,65,000,0,0,001,61000001000308800,0.0,2079-06-06,Дружба МВД,6193,6193,,,60401000000,60701000001,20,c1cfe4b9-f7c2-423c-abfa-6ed1c05a15c5,000,610000010003088,344000,b6834799-2074-4074-bbfb-d3a3707ac8d8,61,тер. СНТ,2020-08-24,0000,6166,6166,2020-08-27,000,0000,000,1,,3088,,0
0,a0e744b6-7e7b-45d1-a620-c3c5db1f2508,8be110d2-f8e4-470f-a5af-0a569cb30175,7,000,0,0,001,61000001000309551,51.0,1993-06-04,Природа,6193,6193,bfe4ba95-e505-46b2-bb7d-36353290604b,,60401378000,60701000,1,c1cfe4b9-f7c2-423c-abfa-6ed1c05a15c5,000,610000010003095,344000,,61,сад,1900-01-01,3095,6166,6166,2020-08-27,000,0000,000,0,,0000,,0
0,a0e744b6-7e7b-45d1-a620-c3c5db1f2508,bfe4ba95-e505-46b2-bb7d-36353290604b,90,000,0,0,001,61000001000309501,1.0,2016-09-29,Природа,6193,6193,ce100b13-6bef-4f2b-8c67-6735828856c8,,60401378000,60701000,20,c1cfe4b9-f7c2-423c-abfa-6ed1c05a15c5,000,610000010003095,344000,8be110d2-f8e4-470f-a5af-0a569cb30175,61,снт,1993-06-04,0000,6166,6166,2020-08-27,000,0000,000,0,,0000,,0
0,a0e744b6-7e7b-45d1-a620-c3c5db1f2508,ce100b13-6bef-4f2b-8c67-6735828856c8,90,000,0,0,001,61000001000309551,51.0,2016-09-29,Природа,6193,6193,c6fab483-bc3c-4b7f-b961-8d8c1f32984a,,60401000000,60701000,21,c1cfe4b9-f7c2-423c-abfa-6ed1c05a15c5,000,610000010003095,344000,bfe4ba95-e505-46b2-bb7d-36353290604b,61,снт,2015-05-25,0000,6166,6166,2020-08-27,000,0000,000,0,ad009a8c-8c92-4447-b4b6-99a6ae15e2e7,3095,,0
0,a0e744b6-7e7b-45d1-a620-c3c5db1f2508,c6fab483-bc3c-4b7f-b961-8d8c1f32984a,65,000,0,0,001,61000001000309502,2.0,2020-08-25,Природа,6193,6193,c8e53a53-3220-45f2-9ec0-9718b69b32e4,,60401000000,60701000,50,c1cfe4b9-f7c2-423c-abfa-6ed1c05a15c5,000,610000010003095,344000,ce100b13-6bef-4f2b-8c67-6735828856c8,61,снт,2016-09-29,0000,6166,6166,2020-08-27,000,0000,000,0,,3095,,0
0,a0e744b6-7e7b-45d1-a620-c3c5db1f2508,c8e53a53-3220-45f2-9ec0-9718b69b32e4,65,000,0,0,001,61000001000309503,3.0,2020-08-25,Природа,6193,6193,03b750ac-ce55-4e37-b1ec-f39bcc9ee55e,,60401000000,60701000001,21,c1cfe4b9-f7c2-423c-abfa-6ed1c05a15c5,000,610000010003095,344000,c6fab483-bc3c-4b7f-b961-8d8c1f32984a,61,снт,2017-09-28,0000,6166,6166,2020-08-27,000,0000,000,0,6b10644c-476c-4187-82dc-bac1fe8d4f25,3095,,0
1,a0e744b6-7e7b-45d1-a620-c3c5db1f2508,03b750ac-ce55-4e37-b1ec-f39bcc9ee55e,65,000,0,0,001,61000001000309500,0.0,2079-06-06,Природа,6193,6193,,,60401000000,60701000001,20,c1cfe4b9-f7c2-423c-abfa-6ed1c05a15c5,000,610000010003095,344000,c8e53a53-3220-45f2-9ec0-9718b69b32e4,61,тер. СНТ,2020-08-25,0000,6166,6166,2020-08-27,000,0000,000,1,,3095,,0
0,75f9c12a-7f58-4102-8a27-63698974ca14,75f9c12a-7f58-4102-8a27-63698974ca14,90,000,0,0,001,61000001000344451,51.0,2016-09-28,Гамма-труд,6193,6193,5ae38844-6a93-4d91-b314-4088f377ab92,,60401000000,60701000,10,c1cfe4b9-f7c2-423c-abfa-6ed1c05a15c5,000,610000010003444,344000,,61,снт,2015-07-01,0000,6161,6161,2020-08-27,000,0000,000,0,a01a04f1-2a99-43a1-956d-69f22cd3e11a,0000,,0
0,75f9c12a-7f58-4102-8a27-63698974ca14,5ae38844-6a93-4d91-b314-4088f377ab92,65,000,0,0,001,61000001000344401,1.0,2020-08-25,Гамма-труд,6193,6193,feb81a8a-8adc-47ca-9091-91bd60be5c42,,60401000000,60701000,50,c1cfe4b9-f7c2-423c-abfa-6ed1c05a15c5,000,610000010003444,344000,75f9c12a-7f58-4102-8a27-63698974ca14,61,снт,2016-09-28,0000,6161,6161,2020-08-27,000,0000,000,0,,3444,,0
0,75f9c12a-7f58-4102-8a27-63698974ca14,feb81a8a-8adc-47ca-9091-91bd60be5c42,65,000,0,0,001,61000001000344499,99.0,2020-08-25,Гамма-труд,6193,6193,8a9f7a41-db7b-4a44-8c0d-bf2c4a6adf92,,60401000000,60701000001,21,c1cfe4b9-f7c2-423c-abfa-6ed1c05a15c5,000,610000010003444,344000,5ae38844-6a93-4d91-b314-4088f377ab92,61,снт,2017-09-28,0000,6161,6161,2020-08-27,000,0000,000,0,6b10644c-476c-4187-82dc-bac1fe8d4f25,3444,,0
1,75f9c12a-7f58-4102-8a27-63698974ca14,8a9f7a41-db7b-4a44-8c0d-bf2c4a6adf92,65,000,0,0,001,61000001000344499,99.0,2079-06-06,Гамма-труд,6193,6193,,,60401000000,60701000001,30,c1cfe4b9-f7c2-423c-abfa-6ed1c05a15c5,000,610000010003444,344000,feb81a8a-8adc-47ca-9091-91bd60be5c42,61,снт,2020-08-25,0000,6161,6161,2020-08-27,000,0000,000,0,,3444,,0
0,f394af91-ca5f-45b6-92af-8d2f5147d64f,f394af91-ca5f-45b6-92af-8d2f5147d64f,90,000,0,0,001,61000001000001901,1.0,2016-09-28,Союз,6193,6193,fd79c4ab-0eb2-417b-992c-73e1e5b78b29,,60401362000,60701000,10,c1cfe4b9-f7c2-423c-abfa-6ed1c05a15c5,000,610000010000019,344000,,61,снт,1988-03-18,0000,6161,6161,2020-08-27,000,0000,000,0,,0000,,0
0,f394af91-ca5f-45b6-92af-8d2f5147d64f,fd79c4ab-0eb2-417b-992c-73e1e5b78b29,90,000,0,0,001,61000001000001902,2.0,2016-09-28,Союз,6193,6193,c18ab759-2061-44a8-bfa9-8ee563011c47,,60401362000,60701000,20,c1cfe4b9-f7c2-423c-abfa-6ed1c05a15c5,000,610000010000019,344000,f394af91-ca5f-45b6-92af-8d2f5147d64f,61,снт,1988-03-18,0000,6161,6161,2020-08-27,000,0000,000,0,,0019,,0
0,f394af91-ca5f-45b6-92af-8d2f5147d64f,c18ab759-2061-44a8-bfa9-8ee563011c47,90,000,0,0,001,61000001000001951,51.0,2016-09-28,Союз,6193,6193,142b75e8-5b00-431c-818f-d21b6ba0fbf8,,60401000000,60701000,21,c1cfe4b9-f7c2-423c-abfa-6ed1c05a15c5,000,610000010000019,344000,fd79c4ab-0eb2-417b-992c-73e1e5b78b29,61,снт,2015-05-14,0000,6161,6161,2020-08-27,000,0000,000,0,706f5d8b-3c8e-441b-912d-17f5340e1688,0019,,0
0,f394af91-ca5f-45b6-92af-8d2f5147d64f,142b75e8-5b00-431c-818f-d21b6ba0fbf8,65,000,0,0,001,61000001000001903,3.0,2020-08-25,Союз,6193,6193,c1254d54-abae-4248-bf2c-b119ffa3a1bf,,60401000000,60701000,50,c1cfe4b9-f7c2-423c-abfa-6ed1c05a15c5,000,610000010000019,344000,c18ab759-2061-44a8-bfa9-8ee563011c47,61,снт,2016-09-28,0000,6161,6161,2020-08-27,000,0000,000,0,,0019,,0
0,f394af91-ca5f-45b6-92af-8d2f5147d64f,c1254d54-abae-4248-bf2c-b119ffa3a1bf,65,000,0,0,001,61000001000001904,4.0,2020-08-25,Союз,6193,6193,3fa57037-6976-4c33-92ed-619d1cf8011d,,60401000000,60701000001,21,c1cfe4b9-f7c2-423c-abfa-6ed1c05a15c5,000,610000010000019,344000,142b75e8-5b00-431c-818f-d21b6ba0fbf8,61,снт,2017-09-28,0000,6161,6161,2020-08-27,000,0000,000,0,6b10644c-476c-4187-82dc-bac1fe8d4f25,0019,,0
1,f394af91-ca5f-45b6-92af-8d2f5147d64f,3fa57037-6976-4c33-92ed-619d1cf8011d,65,000,0,0,001,61000001000001900,0.0,2079-06-06,Союз,6193,6193,,,60401000000,60701000001,20,c1cfe4b9-f7c2-423c-abfa-6ed1c05a15c5,000,610000010000019,344000,c1254d54-abae-4248-bf2c-b119ffa3a1bf,61,тер. СНТ,2020-08-25,0000,6161,6161,2020-08-27,000,0000,000,1,,0019,,0
1,9a46a1d0-9788-4d50-b3b1-01af68febadd,9a46a1d0-9788-4d50-b3b1-01af68febadd,7,014,0,0,000,61014000001012900,0.0,2079-06-06,75 лет Победы,6186,6186,,,60219817001,60619417101,10,ef4c0ecc-d43a-44c0-a577-ea13e165ddb1,001,610140000010129,,,61,ул,2020-08-24,0129,6112,6112,2020-08-27,000,0000,000,1,,0000,,0
0,7456cb0f-472d-432f-9347-a835659acc6b,b83779c1-0439-406e-8b79-e8dfe92f6a8b,7,000,0,0,001,61000001000307801,1.0,1992-11-27,Полиграфист-2,6193,6193,728d627b-377e-474f-9fbd-4bd496c45639,,60401362000,60701000,1,c1cfe4b9-f7c2-423c-abfa-6ed1c05a15c5,000,610000010003078,344000,,61,сад,1900-01-01,3078,6161,6161,2020-08-27,000,0000,000,0,,0000,,0
0,7456cb0f-472d-432f-9347-a835659acc6b,728d627b-377e-474f-9fbd-4bd496c45639,7,000,0,0,001,61000001000307851,51.0,1992-11-27,Полиграфист-2,6193,6193,74bef074-1afe-4518-8718-a8aab93629e0,,60401362000,60701000,21,c1cfe4b9-f7c2-423c-abfa-6ed1c05a15c5,000,610000010003078,344000,b83779c1-0439-406e-8b79-e8dfe92f6a8b,61,сад,1992-11-27,0000,6161,6161,2020-08-27,000,0000,000,0,,3078,,0
0,7456cb0f-472d-432f-9347-a835659acc6b,74bef074-1afe-4518-8718-a8aab93629e0,90,000,0,0,001,61000001000307802,2.0,2016-09-29,Полиграфист-2,6193,6193,52b67c95-c377-453f-9afc-14731229c9eb,,60401362000,60701000,20,c1cfe4b9-f7c2-423c-abfa-6ed1c05a15c5,000,610000010003078,344000,728d627b-377e-474f-9fbd-4bd496c45639,61,снт,1992-11-27,0000,6161,6161,2020-08-27,000,0000,000,0,,0000,,0
0,7456cb0f-472d-432f-9347-a835659acc6b,52b67c95-c377-453f-9afc-14731229c9eb,90,000,0,0,001,61000001000307851,51.0,2016-09-29,Полиграфист-2,6193,6193,78e0b0cb-b30a-484a-8f74-6c3b7d638f8f,,60401000000,60701000,21,c1cfe4b9-f7c2-423c-abfa-6ed1c05a15c5,000,610000010003078,344000,74bef074-1afe-4518-8718-a8aab93629e0,61,снт,2015-05-14,0000,6161,6161,2020-08-27,000,0000,000,0,7b51f702-d909-4e66-955e-b6cc6f49c74b,3078,,0
0,7456cb0f-472d-432f-9347-a835659acc6b,78e0b0cb-b30a-484a-8f74-6c3b7d638f8f,65,000,0,0,001,61000001000307803,3.0,2020-08-25,Полиграфист-2,6193,6193,c90e9b9a-1688-4e0a-b2d0-d644d8a6e8ba,,60401000000,60701000,50,c1cfe4b9-f7c2-423c-abfa-6ed1c05a15c5,000,610000010003078,344000,52b67c95-c377-453f-9afc-14731229c9eb,61,снт,2016-09-29,0000,6161,6161,2020-08-27,000,0000,000,0,,3078,,0
0,7456cb0f-472d-432f-9347-a835659acc6b,c90e9b9a-1688-4e0a-b2d0-d644d8a6e8ba,65,000,0,0,001,61000001000307804,4.0,2020-08-25,Полиграфист-2,6193,6193,682c3320-30f1-4660-bfc5-2a1d69a53936,,60401000000,60701000001,21,c1cfe4b9-f7c2-423c-abfa-6ed1c05a15c5,000,610000010003078,344000,78e0b0cb-b30a-484a-8f74-6c3b7d638f8f,61,снт,2017-09-28,0000,6161,6161,2020-08-27,000,0000,000,0,6b10644c-476c-4187-82dc-bac1fe8d4f25,3078,,0
1,7456cb0f-472d-432f-9347-a835659acc6b,682c3320-30f1-4660-bfc5-2a1d69a53936,65,000,0,0,001,61000001000307800,0.0,2079-06-06,Полиграфист-2,6193,6193,,,60401000000,60701000001,20,c1cfe4b9-f7c2-423c-abfa-6ed1c05a15c5,000,610000010003078,344000,c90e9b9a-1688-4e0a-b2d0-d644d8a6e8ba,61,тер. СНТ,2020-08-25,0000,6161,6161,2020-08-27,000,0000,000,1,,3078,,0
0,389a9800-8aae-4833-b381-8e218da21c82,389a9800-8aae-4833-b381-8e218da21c82,90,000,0,0,001,61000001000344301,1.0,2015-07-01,СНТ Космос,6193,6193,0f638011-105f-4973-baae-ad7ecc6a8028,,60401360000,60701000,10,c1cfe4b9-f7c2-423c-abfa-6ed1c05a15c5,000,610000010003443,344000,,61,снт,1991-01-14,0000,6166,6166,2020-08-27,000,0000,000,0,,0000,,0
0,389a9800-8aae-4833-b381-8e218da21c82,0f638011-105f-4973-baae-ad7ecc6a8028,90,000,0,0,001,61000001000344302,2.0,2016-09-29,СНТ Космос,6193,6193,3a58101e-facd-4ff1-afeb-0cad0dcf70b6,,60401000000,60701000,21,c1cfe4b9-f7c2-423c-abfa-6ed1c05a15c5,000,610000010003443,344000,389a9800-8aae-4833-b381-8e218da21c82,61,снт,2015-05-31,0000,6166,6166,2020-08-27,000,0000,000,0,,3443,,0
0,389a9800-8aae-4833-b381-8e218da21c82,3a58101e-facd-4ff1-afeb-0cad0dcf70b6,90,000,0,0,001,61000001000344351,51.0,2016-09-29,Космос,6193,6193,53f30848-060c-48b3-a39d-24bdb1f9a87c,,60401000000,60701000,20,c1cfe4b9-f7c2-423c-abfa-6ed1c05a15c5,000,610000010003443,344000,0f638011-105f-4973-baae-ad7ecc6a8028,61,снт,2015-07-01,0000,6166,6166,2020-08-27,000,0000,000,0,a326629f-4bb8-4859-86cd-d1a8dec8ae30,3443,,0
0,389a9800-8aae-4833-b381-8e218da21c82,53f30848-060c-48b3-a39d-24bdb1f9a87c,65,000,0,0,001,61000001000344303,3.0,2020-08-25,Космос,6193,6193,0dbcbedb-38ac-4050-b8f0-4b428268b002,,60401000000,60701000,50,c1cfe4b9-f7c2-423c-abfa-6ed1c05a15c5,000,610000010003443,344000,3a58101e-facd-4ff1-afeb-0cad0dcf70b6,61,снт,2016-09-29,0000,6166,6166,2020-08-27,000,0000,000,0,,3443,,0
0,389a9800-8aae-4833-b381-8e218da21c82,0dbcbedb-38ac-4050-b8f0-4b428268b002,65,000,0,0,001,61000001000344399,99.0,2020-08-25,Космос,6193,6193,37e24957-3f2d-4326-8f64-5eba833b3871,,60401000000,60701000001,21,c1cfe4b9-f7c2-423c-abfa-6ed1c05a15c5,000,610000010003443,344000,53f30848-060c-48b3-a39d-24bdb1f9a87c,61,снт,2017-09-28,0000,6166,6166,2020-08-27,000,0000,000,0,6b10644c-476c-4187-82dc-bac1fe8d4f25,3443,,0
1,389a9800-8aae-4833-b381-8e218da21c82,37e24957-3f2d-4326-8f64-5eba833b3871,65,000,0,0,001,61000001000344399,99.0,2079-06-06,Космос,6193,6193,,,60401000000,60701000001,30,c1cfe4b9-f7c2-423c-abfa-6ed1c05a15c5,000,610000010003443,344000,0dbcbedb-38ac-4050-b8f0-4b428268b002,61,снт,2020-08-25,0000,6166,6166,2020-08-27,000,0000,000,0,,3443,,0
0,e7d4a7c4-a9be-4b78-8124-0dac27dbba11,e0e96fdf-73d5-4216-a812-9f51cfbe8f32,7,000,0,0,001,61000001000309701,1.0,1987-04-08,Росинка,6193,6193,99052883-cde8-4d0a-816a-9834ecc8a1c3,,60401378000,60701000,1,c1cfe4b9-f7c2-423c-abfa-6ed1c05a15c5,000,610000010003097,344000,,61,сад,1900-01-01,3097,6166,6166,2020-08-27,000,0000,000,0,,0000,,0
0,e7d4a7c4-a9be-4b78-8124-0dac27dbba11,99052883-cde8-4d0a-816a-9834ecc8a1c3,7,000,0,0,001,61000001000309751,51.0,1987-04-08,Росинка,6193,6193,428314ab-486a-48c4-a4ae-d4fededd1168,,60401000000,60701000,21,c1cfe4b9-f7c2-423c-abfa-6ed1c05a15c5,000,610000010003097,344000,e0e96fdf-73d5-4216-a812-9f51cfbe8f32,61,сад,1987-04-08,0000,6166,6166,2020-08-27,000,0000,000,0,8ec5ac88-7578-474d-acf9-d668efe32328,3097,,0
0,e7d4a7c4-a9be-4b78-8124-0dac27dbba11,428314ab-486a-48c4-a4ae-d4fededd1168,90,000,0,0,001,61000001000309702,2.0,2016-09-29,Росинка,6193,6193,0e509d88-1498-453e-a210-7c0a618ebf7d,,60401378000,60701000,20,c1cfe4b9-f7c2-423c-abfa-6ed1c05a15c5,000,610000010003097,344000,99052883-cde8-4d0a-816a-9834ecc8a1c3,61,снт,1987-04-08,0000,6166,6166,2020-08-27,000,0000,000,0,,0000,,0
0,e7d4a7c4-a9be-4b78-8124-0dac27dbba11,0e509d88-1498-453e-a210-7c0a618ebf7d,90,000,0,0,001,61000001000309751,51.0,2016-09-29,Росинка,6193,6193,330a2241-4a11-4f1b-937e-a79973b4018d,,60401000000,60701000,21,c1cfe4b9-f7c2-423c-abfa-6ed1c05a15c5,000,610000010003097,344000,428314ab-486a-48c4-a4ae-d4fededd1168,61,снт,2015-05-25,0000,6166,6166,2020-08-27,000,0000,000,0,c443fbac-0c22-4aa9-90a3-b3fb92659865,3097,,0
0,e7d4a7c4-a9be-4b78-8124-0dac27dbba11,330a2241-4a11-4f1b-937e-a79973b4018d,65,000,0,0,001,61000001000309703,3.0,2020-08-25,Росинка,6193,6193,0d42d3fd-4a5b-48b3-a316-fc0a97eff217,,60401000000,60701000,50,c1cfe4b9-f7c2-423c-abfa-6ed1c05a15c5,000,610000010003097,344000,0e509d88-1498-453e-a210-7c0a618ebf7d,61,снт,2016-09-29,0000,6166,6166,2020-08-27,000,0000,000,0,,3097,,0
0,e7d4a7c4-a9be-4b78-8124-0dac27dbba11,0d42d3fd-4a5b-48b3-a316-fc0a97eff217,65,000,0,0,001,61000001000309704,4.0,2020-08-25,Росинка,6193,6193,410703ec-b2f1-4767-a935-f5badaab5939,,60401000000,60701000001,21,c1cfe4b9-f7c2-423c-abfa-6ed1c05a15c5,000,610000010003097,344000,330a2241-4a11-4f1b-937e-a79973b4018d,61,снт,2017-09-28,0000,6166,6166,2020-08-27,000,0000,000,0,6b10644c-476c-4187-82dc-bac1fe8d4f25,3097,,0
1,e7d4a7c4-a9be-4b78-8124-0dac27dbba11,410703ec-b2f1-4767-a935-f5badaab5939,65,000,0,0,001,61000001000309700,0.0,2079-06-06,Росинка,6193,6193,,,60401000000,60701000001,20,c1cfe4b9-f7c2-423c-abfa-6ed1c05a15c5,000,610000010003097,344000,0d42d3fd-4a5b-48b3-a316-fc0a97eff217,61,тер. СНТ,2020-08-25,0000,6166,6166,2020-08-27,000,0000,000,1,,3097,,0
0,532a84d0-9df8-4798-8333-4bac089d5558,8c8efa1f-5730-4b94-9b78-5e060e17eb38,7,000,0,0,001,61000001000310401,1.0,2015-12-02,Садовод,6193,6193,eb677f85-191a-4706-a4db-9caa26851b13,,60401378000,60701000,1,c1cfe4b9-f7c2-423c-abfa-6ed1c05a15c5,000,610000010003104,344000,,61,сад,1900-01-01,3104,6166,6166,2020-08-27,000,0000,000,0,,0000,,0
0,532a84d0-9df8-4798-8333-4bac089d5558,eb677f85-191a-4706-a4db-9caa26851b13,7,000,0,0,001,61000001000310451,51.0,2016-09-28,Садовод,6193,6193,9038d765-4794-441b-ba69-0a2b7ed0ba19,,60401000000,60701000,21,c1cfe4b9-f7c2-423c-abfa-6ed1c05a15c5,000,610000010003104,344000,8c8efa1f-5730-4b94-9b78-5e060e17eb38,61,сад,2013-07-05,0000,6166,6166,2020-08-27,000,0000,000,0,8ec5ac88-7578-474d-acf9-d668efe32328,3104,,0
0,532a84d0-9df8-4798-8333-4bac089d5558,9038d765-4794-441b-ba69-0a2b7ed0ba19,90,000,0,0,001,61000001000310451,51.0,2016-09-28,Садовод,6193,6193,55d3aa01-ccc9-440f-a3af-665fae238590,,60401000000,60701000,20,c1cfe4b9-f7c2-423c-abfa-6ed1c05a15c5,000,610000010003104,344000,eb677f85-191a-4706-a4db-9caa26851b13,61,сад,2015-12-02,0000,6166,6166,2020-08-27,000,0000,000,0,79966e78-9d85-4c29-a2ac-0628d0d08499,0000,,0
0,532a84d0-9df8-4798-8333-4bac089d5558,55d3aa01-ccc9-440f-a3af-665fae238590,65,000,0,0,001,61000001000310402,2.0,2020-08-25,Садовод,6193,6193,64b1bfab-f371-41c9-b555-6a4365972e49,,60401000000,60701000,50,c1cfe4b9-f7c2-423c-abfa-6ed1c05a15c5,000,610000010003104,344000,9038d765-4794-441b-ba69-0a2b7ed0ba19,61,сад,2016-09-28,0000,6166,6166,2020-08-27,000,0000,000,0,,3104,,0
0,532a84d0-9df8-4798-8333-4bac089d5558,64b1bfab-f371-41c9-b555-6a4365972e49,65,000,0,0,001,61000001000310403,3.0,2020-08-25,Садовод,6193,6193,24cfb043-df30-4d16-8606-77fc0961b314,,60401000000,60701000001,21,c1cfe4b9-f7c2-423c-abfa-6ed1c05a15c5,000,610000010003104,344000,55d3aa01-ccc9-440f-a3af-665fae238590,61,сад,2017-09-28,0000,6166,6166,2020-08-27,000,0000,000,0,6b10644c-476c-4187-82dc-bac1fe8d4f25,3104,,0
1,532a84d0-9df8-4798-8333-4bac089d5558,24cfb043-df30-4d16-8606-77fc0961b314,65,000,0,0,001,61000001000310400,0.0,2079-06-06,Садовод,6193,6193,,,60401000000,60701000001,20,c1cfe4b9-f7c2-423c-abfa-6ed1c05a15c5,000,610000010003104,344000,64b1bfab-f371-41c9-b555-6a4365972e49,61,тер. СНТ,2020-08-25,0000,6166,6166,2020-08-27,000,0000,000,1,,3104,,0
0,27671189-de43-4c65-b20a-d6ac4f32fe34,e77e08c8-082a-403b-b4a0-fa60a0034e31,7,000,0,0,001,61000001000310901,1.0,1993-01-26,Труженик,6193,6193,fbda0f9e-cfb3-42d4-bdd3-1fa971bba2d4,,60401378000,60701000,1,c1cfe4b9-f7c2-423c-abfa-6ed1c05a15c5,000,610000010003109,344000,,61,сад,1900-01-01,3109,6166,6166,2020-08-27,000,0000,000,0,,0000,,0
0,27671189-de43-4c65-b20a-d6ac4f32fe34,fbda0f9e-cfb3-42d4-bdd3-1fa971bba2d4,7,000,0,0,001,61000001000310951,51.0,1993-01-26,Труженик,6193,6193,c1ddfd96-0f17-4076-a9d4-6f5dae5ef886,,60401378000,60701000,21,c1cfe4b9-f7c2-423c-abfa-6ed1c05a15c5,000,610000010003109,344000,e77e08c8-082a-403b-b4a0-fa60a0034e31,61,сад,1993-01-26,0000,6166,6166,2020-08-27,000,0000,000,0,40eb1e87-42b8-45d8-881c-7daf139afba2,3109,,0
0,27671189-de43-4c65-b20a-d6ac4f32fe34,c1ddfd96-0f17-4076-a9d4-6f5dae5ef886,90,000,0,0,001,61000001000310902,2.0,2016-09-28,Труженик,6193,6193,24a08dd6-8881-4c54-8a89-543ba1fd5eed,,60401378000,60701000,20,c1cfe4b9-f7c2-423c-abfa-6ed1c05a15c5,000,610000010003109,344000,fbda0f9e-cfb3-42d4-bdd3-1fa971bba2d4,61,снт,1993-01-26,0000,6166,6166,2020-08-27,000,0000,000,0,,0000,,0
0,27671189-de43-4c65-b20a-d6ac4f32fe34,24a08dd6-8881-4c54-8a89-543ba1fd5eed,90,000,0,0,001,61000001000310951,51.0,2016-09-28,Труженик,6193,6193,75f00aa4-79c4-4bb1-9c21-eee0498cb4ae,,60401000000,60701000,21,c1cfe4b9-f7c2-423c-abfa-6ed1c05a15c5,000,610000010003109,344000,c1ddfd96-0f17-4076-a9d4-6f5dae5ef886,61,снт,2015-05-25,0000,6166,6166,2020-08-27,000,0000,000,0,0841da05-c722-48b9-bdfe-f21ccedd1730,3109,,0
0,27671189-de43-4c65-b20a-d6ac4f32fe34,75f00aa4-79c4-4bb1-9c21-eee0498cb4ae,65,000,0,0,001,61000001000310903,3.0,2020-08-25,Труженик,6193,6193,a2b0d2a5-ca8b-45a1-8916-580fffcb37ab,,60401000000,60701000,50,c1cfe4b9-f7c2-423c-abfa-6ed1c05a15c5,000,610000010003109,344000,24a08dd6-8881-4c54-8a89-543ba1fd5eed,61,снт,2016-09-28,0000,6166,6166,2020-08-27,000,0000,000,0,,3109,,0
0,27671189-de43-4c65-b20a-d6ac4f32fe34,a2b0d2a5-ca8b-45a1-8916-580fffcb37ab,65,000,0,0,001,61000001000310904,4.0,2020-08-25,Труженик,6193,6193,ef5ee36f-512b-4b23-a8ed-518ad7638bff,,60401000000,60701000001,21,c1cfe4b9-f7c2-423c-abfa-6ed1c05a15c5,000,610000010003109,344000,75f00aa4-79c4-4bb1-9c21-eee0498cb4ae,61,снт,2017-09-28,0000,6166,6166,2020-08-27,000,0000,000,0,6b10644c-476c-4187-82dc-bac1fe8d4f25,3109,,0
1,27671189-de43-4c65-b20a-d6ac4f32fe34,ef5ee36f-512b-4b23-a8ed-518ad7638bff,65,000,0,0,001,61000001000310900,0.0,2079-06-06,Труженик,6193,6193,,,60401000000,60701000001,20,c1cfe4b9-f7c2-423c-abfa-6ed1c05a15c5,000,610000010003109,344000,a2b0d2a5-ca8b-45a1-8916-580fffcb37ab,61,тер. СНТ,2020-08-25,0000,6166,6166,2020-08-27,000,0000,000,1,,3109,,0
1,341b8d81-4001-440c-a0e1-1aa4456da088,341b8d81-4001-440c-a0e1-1aa4456da088,7,027,0,0,000,61027000009001100,0.0,2079-06-06,Медовая,6171,6171,,,60236824004,60636424106,10,4394571c-ae2e-425e-838a-f66ea1313b04,009,610270000090011,,,61,ул,2020-08-25,0011,6123,6123,2020-08-27,000,0000,000,1,,0000,,0
0,2a6bb4c4-a795-4936-ba74-effed03efce8,f662d381-df9f-4954-87c9-483f099a2298,7,000,0,0,001,61000001000308901,1.0,2015-11-30,Жемчужина,6193,6193,cb30036f-a648-4539-bd83-cc31210aa806,,60401378000,60701000,1,c1cfe4b9-f7c2-423c-abfa-6ed1c05a15c5,000,610000010003089,344000,,61,сад,1900-01-01,3089,6166,6166,2020-08-27,000,0000,000,0,,0000,,0
0,2a6bb4c4-a795-4936-ba74-effed03efce8,cb30036f-a648-4539-bd83-cc31210aa806,7,000,0,0,001,61000001000308951,51.0,2016-09-29,Жемчужина,6193,6193,9a1f7da6-1dc4-4e8a-95f6-d4bfd0fb78e2,,60401000000,60701000,21,c1cfe4b9-f7c2-423c-abfa-6ed1c05a15c5,000,610000010003089,344065,f662d381-df9f-4954-87c9-483f099a2298,61,сад,2013-07-08,0000,6166,6166,2020-08-27,000,0000,000,0,8ec5ac88-7578-474d-acf9-d668efe32328,3089,,0
0,2a6bb4c4-a795-4936-ba74-effed03efce8,9a1f7da6-1dc4-4e8a-95f6-d4bfd0fb78e2,90,000,0,0,001,61000001000308951,51.0,2016-09-29,Жемчужина,6193,6193,3e7a3592-e206-49dc-be72-59807330954c,,60401000000,60701000,20,c1cfe4b9-f7c2-423c-abfa-6ed1c05a15c5,000,610000010003089,344065,cb30036f-a648-4539-bd83-cc31210aa806,61,сад,2015-11-30,0000,6166,6166,2020-08-27,000,0000,000,0,dca3b5fa-71b4-48cf-ab4b-45daaf9d605f,0000,,0
0,2a6bb4c4-a795-4936-ba74-effed03efce8,3e7a3592-e206-49dc-be72-59807330954c,65,000,0,0,001,61000001000308902,2.0,2020-08-24,Жемчужина,6193,6193,8d8b77b5-de63-4781-b39b-605179ad0b10,,60401000000,60701000,50,c1cfe4b9-f7c2-423c-abfa-6ed1c05a15c5,000,610000010003089,344065,9a1f7da6-1dc4-4e8a-95f6-d4bfd0fb78e2,61,сад,2016-09-29,0000,6166,6166,2020-08-27,000,0000,000,0,,3089,,0
0,2a6bb4c4-a795-4936-ba74-effed03efce8,8d8b77b5-de63-4781-b39b-605179ad0b10,65,000,0,0,001,61000001000308903,3.0,2020-08-24,Жемчужина,6193,6193,51ddaa47-211b-412c-bd28-521ebb244b5a,,60401000000,60701000001,21,c1cfe4b9-f7c2-423c-abfa-6ed1c05a15c5,000,610000010003089,344065,3e7a3592-e206-49dc-be72-59807330954c,61,сад,2017-09-28,0000,6166,6166,2020-08-27,000,0000,000,0,6b10644c-476c-4187-82dc-bac1fe8d4f25,3089,,0
1,2a6bb4c4-a795-4936-ba74-effed03efce8,51ddaa47-211b-412c-bd28-521ebb244b5a,65,000,0,0,001,61000001000308900,0.0,2079-06-06,Жемчужина,6193,6193,,,60401000000,60701000001,20,c1cfe4b9-f7c2-423c-abfa-6ed1c05a15c5,000,610000010003089,344065,8d8b77b5-de63-4781-b39b-605179ad0b10,61,тер. СНТ,2020-08-24,0000,6166,6166,2020-08-27,000,0000,000,1,,3089,,0
0,868618d4-b301-4e02-bfe0-c19e8c313891,b6380ea2-d9de-41b8-8f12-398f526a60b9,7,000,0,0,001,61000001000308001,1.0,1995-09-19,Северный,6193,6193,a14af245-7295-4017-b9c6-84c550b3d5ad,,60401362000,60701000,1,c1cfe4b9-f7c2-423c-abfa-6ed1c05a15c5,000,610000010003080,344000,,61,сад,1900-01-01,3080,6161,6161,2020-08-27,000,0000,000,0,,0000,,0
0,868618d4-b301-4e02-bfe0-c19e8c313891,a14af245-7295-4017-b9c6-84c550b3d5ad,7,000,0,0,001,61000001000308051,51.0,1995-09-19,Северный,6193,6193,0f593f82-71e0-4948-97d1-ecd31089da24,,60401000000,60701000,21,c1cfe4b9-f7c2-423c-abfa-6ed1c05a15c5,000,610000010003080,344000,b6380ea2-d9de-41b8-8f12-398f526a60b9,61,сад,1995-09-19,0000,6161,6161,2020-08-27,000,0000,000,0,8ec5ac88-7578-474d-acf9-d668efe32328,3080,,0
0,868618d4-b301-4e02-bfe0-c19e8c313891,0f593f82-71e0-4948-97d1-ecd31089da24,90,000,0,0,001,61000001000308002,2.0,2016-09-29,Северный,6193,6193,a1817021-8a35-4f7c-82fe-aeea178b8710,,60401362000,60701000,20,c1cfe4b9-f7c2-423c-abfa-6ed1c05a15c5,000,610000010003080,344000,a14af245-7295-4017-b9c6-84c550b3d5ad,61,снт,1995-09-19,0000,6161,6161,2020-08-27,000,0000,000,0,,0000,,0
0,868618d4-b301-4e02-bfe0-c19e8c313891,a1817021-8a35-4f7c-82fe-aeea178b8710,90,000,0,0,001,61000001000308051,51.0,2016-09-29,Северный,6193,6193,e3820cbc-7f13-44e2-b19a-84be18114098,,60401000000,60701000,21,c1cfe4b9-f7c2-423c-abfa-6ed1c05a15c5,000,610000010003080,344000,0f593f82-71e0-4948-97d1-ecd31089da24,61,снт,2015-05-14,0000,6161,6161,2020-08-27,000,0000,000,0,be7c44f4-11f2-4761-adc3-c11f3ecbf43c,3080,,0
0,868618d4-b301-4e02-bfe0-c19e8c313891,e3820cbc-7f13-44e2-b19a-84be18114098,65,000,0,0,001,61000001000308003,3.0,2020-08-25,Северный,6193,6193,82d54a82-8da6-470d-a1e6-57ed79221245,,60401000000,60701000,50,c1cfe4b9-f7c2-423c-abfa-6ed1c05a15c5,000,610000010003080,344000,a1817021-8a35-4f7c-82fe-aeea178b8710,61,снт,2016-09-29,0000,6161,6161,2020-08-27,000,0000,000,0,,3080,,0
0,868618d4-b301-4e02-bfe0-c19e8c313891,82d54a82-8da6-470d-a1e6-57ed79221245,65,000,0,0,001,61000001000308004,4.0,2020-08-25,Северный,6193,6193,8a39a29f-4493-41ce-a9ea-21532327f902,,60401000000,60701000001,21,c1cfe4b9-f7c2-423c-abfa-6ed1c05a15c5,000,610000010003080,344000,e3820cbc-7f13-44e2-b19a-84be18114098,61,снт,2017-09-28,0000,6161,6161,2020-08-27,000,0000,000,0,6b10644c-476c-4187-82dc-bac1fe8d4f25,3080,,0
1,868618d4-b301-4e02-bfe0-c19e8c313891,8a39a29f-4493-41ce-a9ea-21532327f902,65,000,0,0,001,61000001000308000,0.0,2079-06-06,Северный,6193,6193,,,60401000000,60701000001,20,c1cfe4b9-f7c2-423c-abfa-6ed1c05a15c5,000,610000010003080,344000,82d54a82-8da6-470d-a1e6-57ed79221245,61,тер. СНТ,2020-08-25,0000,6161,6161,2020-08-27,000,0000,000,1,,3080,,0
0,e4d67613-52c2-40e7-8e16-95c44302c46d,39fc6e28-df30-45a8-8c4c-7e8517d438a4,7,000,0,0,001,61000001000219451,51.0,1994-06-03,СТ Красный Аксай,6195,6195,de039b22-adc1-4ee5-a36b-b4c332b54688,,60401380000,60701000,1,c1cfe4b9-f7c2-423c-abfa-6ed1c05a15c5,000,610000010002194,344000,,61,сад,1900-01-01,2194,6167,6167,2020-08-27,000,0000,000,0,,0000,,0
0,e4d67613-52c2-40e7-8e16-95c44302c46d,de039b22-adc1-4ee5-a36b-b4c332b54688,90,000,0,0,001,61000001000219401,1.0,2016-09-29,Красный Аксай,6193,6193,07db1acb-43ce-4fdf-96c6-b131797a37be,,60401378000,60701000,20,c1cfe4b9-f7c2-423c-abfa-6ed1c05a15c5,000,610000010002194,344000,39fc6e28-df30-45a8-8c4c-7e8517d438a4,61,снт,1994-06-03,0000,6166,6166,2020-08-27,000,0000,000,0,,0000,,0
0,e4d67613-52c2-40e7-8e16-95c44302c46d,07db1acb-43ce-4fdf-96c6-b131797a37be,90,000,0,0,001,61000001000219451,51.0,2016-09-29,Красный Аксай,6193,6193,e3636312-4d8d-427d-9be0-9a176ff92bf0,,60401000000,60701000,21,c1cfe4b9-f7c2-423c-abfa-6ed1c05a15c5,000,610000010002194,344000,de039b22-adc1-4ee5-a36b-b4c332b54688,61,снт,2015-05-25,0000,6166,6166,2020-08-27,000,0000,000,0,fb976eda-2105-43c8-a3a0-e3806d93f98c,2194,,0
0,e4d67613-52c2-40e7-8e16-95c44302c46d,e3636312-4d8d-427d-9be0-9a176ff92bf0,65,000,0,0,001,61000001000219402,2.0,2020-08-24,Красный Аксай,6193,6193,534f8c25-5cc5-4144-a800-1914c9bda4fb,,60401000000,60701000,50,c1cfe4b9-f7c2-423c-abfa-6ed1c05a15c5,000,610000010002194,344000,07db1acb-43ce-4fdf-96c6-b131797a37be,61,снт,2016-09-29,0000,6166,6166,2020-08-27,000,0000,000,0,,2194,,0
0,e4d67613-52c2-40e7-8e16-95c44302c46d,534f8c25-5cc5-4144-a800-1914c9bda4fb,65,000,0,0,001,61000001000219403,3.0,2020-08-24,Красный Аксай,6193,6193,638fc268-5529-4bd1-a3e4-050cffda99cf,,60401000000,60701000001,21,c1cfe4b9-f7c2-423c-abfa-6ed1c05a15c5,000,610000010002194,344000,e3636312-4d8d-427d-9be0-9a176ff92bf0,61,снт,2017-09-28,0000,6166,6166,2020-08-27,000,0000,000,0,6b10644c-476c-4187-82dc-bac1fe8d4f25,2194,,0
1,e4d67613-52c2-40e7-8e16-95c44302c46d,638fc268-5529-4bd1-a3e4-050cffda99cf,65,000,0,0,001,61000001000219400,0.0,2079-06-06,Красный Аксай,6193,6193,,,60401000000,60701000001,20,c1cfe4b9-f7c2-423c-abfa-6ed1c05a15c5,000,610000010002194,344000,534f8c25-5cc5-4144-a800-1914c9bda4fb,61,тер. СНТ,2020-08-24,0000,6166,6166,2020-08-27,000,0000,000,1,,2194,,0
