ACTSTATUS,AOGUID,AOID,AOLEVEL,AREACODE,AUTOCODE,CENTSTATUS,CITYCODE,CODE,CURRSTATUS,ENDDATE,FORMALNAME,IFNSFL,IFNSUL,NEXTID,OFFNAME,OKATO,OKTMO,OPERSTATUS,PARENTGUID,PLACECODE,PLAINCODE,POSTALCODE,PREVID,REGIONCODE,SHORTNAME,STARTDATE,STREETCODE,TERRIFNSFL,TERRIFNSUL,UPDATEDATE,CTARCODE,EXTRCODE,SEXTCODE,LIVESTATUS,NORMDOC,PLANCODE,CADNUM,DIVTYPE
0,e4d25ed9-b242-4cd7-80cb-ac2200bb4e8b,3faf7d24-da1e-4346-9173-473bcd0aaac6,7,031,0,0,000,64031000044000102,2.0,2015-10-13,Садовая,6446,6446,783da5c9-9712-4d60-9235-92c1d7a193e1,,63241888005,63641488141,21,a4ea1d4b-f67c-4974-a319-c3f7814b0f22,044,640310000440001,412011,04309e8f-b43f-45dc-b8a2-eb5d73a80300,64,ул,2014-01-10,0001,,,2020-08-30,000,0000,000,0,,0000,,0
0,e4d25ed9-b242-4cd7-80cb-ac2200bb4e8b,783da5c9-9712-4d60-9235-92c1d7a193e1,7,031,0,0,000,64031000044000100,0.0,2020-07-13,Садовая,6446,6446,527c7277-888d-4eda-88fb-4a764968e1ed,,63241888005,63641488,21,a4ea1d4b-f67c-4974-a319-c3f7814b0f22,044,640310000440001,412011,3faf7d24-da1e-4346-9173-473bcd0aaac6,64,ул,2015-10-13,0001,,,2020-08-30,000,0000,000,0,,0000,,0
0,e4d25ed9-b242-4cd7-80cb-ac2200bb4e8b,527c7277-888d-4eda-88fb-4a764968e1ed,7,031,0,0,000,64031000044000100,0.0,2079-06-06,Садовая,6446,6446,b34de749-050d-426d-9dba-6d117961a9ca,,63241000435,63641488141,21,a4ea1d4b-f67c-4974-a319-c3f7814b0f22,044,640310000440001,412011,783da5c9-9712-4d60-9235-92c1d7a193e1,64,ул,2020-07-13,0001,,,2020-08-30,000,0000,000,0,,0000,,0
1,e4d25ed9-b242-4cd7-80cb-ac2200bb4e8b,b34de749-050d-426d-9dba-6d117961a9ca,7,031,0,0,000,64031000044000100,0.0,2079-06-06,Садовая,6446,6446,,,63241000150,63641488141,20,a4ea1d4b-f67c-4974-a319-c3f7814b0f22,044,640310000440001,412011,527c7277-888d-4eda-88fb-4a764968e1ed,64,ул,2020-08-28,0001,,,2020-08-30,000,0000,000,1,,0000,,0
0,902f8a42-13a5-4888-a5ef-ee8a67f918a0,70d6c133-8cf1-4274-879c-c1551ed231f8,7,031,0,0,000,64031000098000201,1.0,2079-06-06,Первомайская,6446,6446,bc874c01-7dff-4d57-b17f-354bc3135feb,,63241818003,63641488,1,16d6150f-1a4f-4655-bbba-7f8709429f85,098,640310000980002,412047,,64,ул,1900-01-01,0002,,,2020-08-30,000,0000,000,0,,0000,,0
0,902f8a42-13a5-4888-a5ef-ee8a67f918a0,bc874c01-7dff-4d57-b17f-354bc3135feb,7,031,0,0,000,64031000098000200,0.0,2020-08-28,Первомайская,6446,6446,4c3d7e24-7df3-48b8-b59a-d9a8c3beaacc,,63241818003,63641488,21,16d6150f-1a4f-4655-bbba-7f8709429f85,098,640310000980002,412047,70d6c133-8cf1-4274-879c-c1551ed231f8,64,ул,2014-01-10,0002,,,2020-08-30,000,0000,000,0,,0000,,0
0,902f8a42-13a5-4888-a5ef-ee8a67f918a0,4c3d7e24-7df3-48b8-b59a-d9a8c3beaacc,7,031,0,0,000,64031000098000200,0.0,2079-06-06,Первомайская,6446,6446,e5619bdb-4075-4e37-8145-73ba5fd32b43,,63241000435,63641488176,21,16d6150f-1a4f-4655-bbba-7f8709429f85,098,640310000980002,412047,bc874c01-7dff-4d57-b17f-354bc3135feb,64,ул,2020-07-13,0002,,,2020-08-30,000,0000,000,0,,0000,,0
1,902f8a42-13a5-4888-a5ef-ee8a67f918a0,e5619bdb-4075-4e37-8145-73ba5fd32b43,7,031,0,0,000,64031000098000200,0.0,2079-06-06,Первомайская,6446,6446,,,63241000445,63641488176,20,16d6150f-1a4f-4655-bbba-7f8709429f85,098,640310000980002,412047,4c3d7e24-7df3-48b8-b59a-d9a8c3beaacc,64,ул,2020-08-28,0002,,,2020-08-30,000,0000,000,1,,0000,,0
0,338fdf33-fc72-4a86-b8a3-d9a3c43f545e,ad5c2365-4096-4f56-9ff7-821292bd9675,6,000,0,0,004,6400000400101,1.0,2020-07-28,Радужный,6439,6439,b6cb9f69-2948-4a8e-9e80-5de48df159e2,,63407000000,63607101,1,45eea4e7-2977-44bb-9b3d-ef8e9198e5d2,001,64000004001,413841,,64,п,1900-01-01,0000,,,2020-08-30,000,0000,000,0,,0000,,0
0,338fdf33-fc72-4a86-b8a3-d9a3c43f545e,b6cb9f69-2948-4a8e-9e80-5de48df159e2,6,000,0,0,004,6400000400102,2.0,2020-07-28,Радужный,6439,6439,bd1cf238-c8cc-4dd3-82d5-c6561c07a8a9,,63407000000,63607101001,20,45eea4e7-2977-44bb-9b3d-ef8e9198e5d2,000,64000004001,413863,ad5c2365-4096-4f56-9ff7-821292bd9675,64,п,2007-09-21,0000,,,2020-08-30,000,0000,000,0,,0777,,0
0,338fdf33-fc72-4a86-b8a3-d9a3c43f545e,bd1cf238-c8cc-4dd3-82d5-c6561c07a8a9,6,000,0,0,004,6400000400151,51.0,2020-07-28,Радужный,6439,6439,99a1e519-8b31-4c99-b994-38eb20921f01,,63207501000,63607101001,21,45eea4e7-2977-44bb-9b3d-ef8e9198e5d2,000,64000004001,,b6cb9f69-2948-4a8e-9e80-5de48df159e2,64,п,2019-12-08,0000,,,2020-08-30,000,0000,000,0,,0777,,0
0,338fdf33-fc72-4a86-b8a3-d9a3c43f545e,99a1e519-8b31-4c99-b994-38eb20921f01,65,000,0,0,004,64000004000077700,0.0,2079-06-06,Радужный,6439,6439,a43cb591-6af8-44dc-a070-d619c0f0784a,,63207501000,63607101,20,45eea4e7-2977-44bb-9b3d-ef8e9198e5d2,000,640000040000777,,bd1cf238-c8cc-4dd3-82d5-c6561c07a8a9,64,р-н,2020-07-28,0000,,,2020-08-30,000,0000,000,0,,0777,,0
1,338fdf33-fc72-4a86-b8a3-d9a3c43f545e,a43cb591-6af8-44dc-a070-d619c0f0784a,65,000,0,0,004,64000004000077700,0.0,2079-06-06,Радужный,6439,6439,,,63207501000,63607101001,50,45eea4e7-2977-44bb-9b3d-ef8e9198e5d2,000,640000040000777,,99a1e519-8b31-4c99-b994-38eb20921f01,64,р-н,2020-08-28,0000,,,2020-08-30,000,0000,000,1,,0777,,0
0,e83acdb4-eef9-40bf-bb7d-a91410b6a76d,31cac56d-89ad-4ef1-ac63-cdeb3d52359f,7,031,0,0,000,64031000044000201,1.0,2079-06-06,Овражная,6446,6446,036eb195-5d80-41d9-8782-e70f1770ea27,,63241888005,63641488,1,a4ea1d4b-f67c-4974-a319-c3f7814b0f22,044,640310000440002,412011,,64,ул,1900-01-01,0002,,,2020-08-30,000,0000,000,0,,0000,,0
0,e83acdb4-eef9-40bf-bb7d-a91410b6a76d,036eb195-5d80-41d9-8782-e70f1770ea27,7,031,0,0,000,64031000044000202,2.0,2015-10-13,Овражная,6446,6446,de74a43c-bb8c-4dbc-852d-8eb02ad09b1d,,63241888005,63641488141,21,a4ea1d4b-f67c-4974-a319-c3f7814b0f22,044,640310000440002,412011,31cac56d-89ad-4ef1-ac63-cdeb3d52359f,64,ул,2014-01-10,0002,,,2020-08-30,000,0000,000,0,,0000,,0
0,e83acdb4-eef9-40bf-bb7d-a91410b6a76d,de74a43c-bb8c-4dbc-852d-8eb02ad09b1d,7,031,0,0,000,64031000044000200,0.0,2020-07-13,Овражная,6446,6446,4871d229-e73b-46d6-914c-28bffae4aad0,,63241888005,63641488,21,a4ea1d4b-f67c-4974-a319-c3f7814b0f22,044,640310000440002,412011,036eb195-5d80-41d9-8782-e70f1770ea27,64,ул,2015-10-13,0002,,,2020-08-30,000,0000,000,0,,0000,,0
0,e83acdb4-eef9-40bf-bb7d-a91410b6a76d,4871d229-e73b-46d6-914c-28bffae4aad0,7,031,0,0,000,64031000044000200,0.0,2079-06-06,Овражная,6446,6446,f3ec2b8a-7ec7-44a2-91ac-19d88375c7b3,,63241000435,63641488141,21,a4ea1d4b-f67c-4974-a319-c3f7814b0f22,044,640310000440002,412011,de74a43c-bb8c-4dbc-852d-8eb02ad09b1d,64,ул,2020-07-13,0002,,,2020-08-30,000,0000,000,0,,0000,,0
1,e83acdb4-eef9-40bf-bb7d-a91410b6a76d,f3ec2b8a-7ec7-44a2-91ac-19d88375c7b3,7,031,0,0,000,64031000044000200,0.0,2079-06-06,Овражная,6446,6446,,,63241000150,63641488141,20,a4ea1d4b-f67c-4974-a319-c3f7814b0f22,044,640310000440002,412011,4871d229-e73b-46d6-914c-28bffae4aad0,64,ул,2020-08-28,0002,,,2020-08-30,000,0000,000,1,,0000,,0
0,481165f2-c6bd-419c-97da-d7fb117c7d37,c807e754-f36e-4930-be35-a48b390a2e70,7,000,0,0,004,64000004001000401,1.0,2079-06-06,Лазурный,6439,6439,ed1efc25-c32b-4928-8c98-67e0b75da695,,63407000000,63607101,1,338fdf33-fc72-4a86-b8a3-d9a3c43f545e,001,640000040010004,413841,,64,проезд,1900-01-01,0004,,,2020-08-30,000,0000,000,0,,0000,,0
0,481165f2-c6bd-419c-97da-d7fb117c7d37,ed1efc25-c32b-4928-8c98-67e0b75da695,7,000,0,0,004,64000004001000402,2.0,2019-12-08,Лазурный,6439,6439,1f3833b7-b0e6-4898-b1ea-f1f56b1b55fb,,63407000000,63607101,21,338fdf33-fc72-4a86-b8a3-d9a3c43f545e,000,640000040010004,413863,c807e754-f36e-4930-be35-a48b390a2e70,64,проезд,2007-09-21,0782,,,2020-08-30,000,0000,000,0,5b993e9e-3b49-4a4e-b949-b20cd50f7f5c,0777,,0
0,481165f2-c6bd-419c-97da-d7fb117c7d37,1f3833b7-b0e6-4898-b1ea-f1f56b1b55fb,7,000,0,0,004,64000004001000451,51.0,2020-07-28,Лазурный,6439,6439,70b9fea7-db07-45a4-b2bc-09144d6fb0e5,,63207501000,63607101,21,338fdf33-fc72-4a86-b8a3-d9a3c43f545e,000,640000040010004,413863,ed1efc25-c32b-4928-8c98-67e0b75da695,64,проезд,2019-12-08,0782,,,2020-08-30,000,0000,000,0,5b993e9e-3b49-4a4e-b949-b20cd50f7f5c,0777,,0
0,11f170f7-6d5e-4cfa-8ecb-1d59749f29a8,55a5c146-6f0e-4f37-b6ea-857252830de1,7,031,0,0,000,64031000072000104,4.0,2019-12-08,Горная,6446,6446,fada0c6d-8d76-42cc-9558-32828be9a4ad,,63241888001,63641488171,21,9327f1f6-9ac6-491a-bab1-b0781cd1f792,072,640310000720001,412046,fa02cfa9-039f-4f08-95a4-1062cea507a0,64,ул,2018-10-03,0001,,,2020-08-30,000,0000,000,0,28f81489-58c7-4753-87a0-085cd47c57fa,0000,,0
0,11f170f7-6d5e-4cfa-8ecb-1d59749f29a8,fada0c6d-8d76-42cc-9558-32828be9a4ad,7,031,0,0,000,64031000072000100,0.0,2020-08-28,Горная,6446,6446,e9f0a9f9-2ff2-4dbe-a7ee-64357692739b,,63241888001,63641488171,21,9327f1f6-9ac6-491a-bab1-b0781cd1f792,072,640310000720001,412046,55a5c146-6f0e-4f37-b6ea-857252830de1,64,ул,2019-12-08,0001,,,2020-08-30,000,0000,000,0,28f81489-58c7-4753-87a0-085cd47c57fa,0000,,0
0,11f170f7-6d5e-4cfa-8ecb-1d59749f29a8,e9f0a9f9-2ff2-4dbe-a7ee-64357692739b,7,031,0,0,000,64031000072000100,0.0,2020-08-28,Горная,6446,6446,e5d5c405-b396-42d4-bc1e-e7cad819c475,,63241000435,63641488171,21,9327f1f6-9ac6-491a-bab1-b0781cd1f792,072,640310000720001,412046,fada0c6d-8d76-42cc-9558-32828be9a4ad,64,ул,2020-07-13,0001,,,2020-08-30,000,0000,000,0,,0000,,0
1,11f170f7-6d5e-4cfa-8ecb-1d59749f29a8,e5d5c405-b396-42d4-bc1e-e7cad819c475,7,031,0,0,000,64031000072000100,0.0,2079-06-06,Горная,6446,6446,,,63241000340,63641488171,20,9327f1f6-9ac6-491a-bab1-b0781cd1f792,072,640310000720001,412046,e9f0a9f9-2ff2-4dbe-a7ee-64357692739b,64,ул,2020-08-28,0001,,,2020-08-30,000,0000,000,1,,0000,,0
0,1c0789c4-eab0-4ca7-abaf-43ca08a2a0a9,ad9d354c-ca18-4e04-b8c0-8c453910ac20,7,031,0,0,000,64031000036000301,1.0,2079-06-06,Молодежная,6446,6446,df7fa71a-292a-4ddd-8366-ea70ccee4573,,63241888004,63641488,1,dbe0de57-0ca8-4e40-bbeb-f35181f371c2,036,640310000360003,412011,,64,ул,1900-01-01,0003,,,2020-08-30,000,0000,000,0,,0000,,0
0,1c0789c4-eab0-4ca7-abaf-43ca08a2a0a9,df7fa71a-292a-4ddd-8366-ea70ccee4573,7,031,0,0,000,64031000036000302,2.0,2015-10-13,Молодежная,6446,6446,02099080-4f64-4ae6-840e-40da4b1dbe05,,63241888004,63641488146,21,dbe0de57-0ca8-4e40-bbeb-f35181f371c2,036,640310000360003,412011,ad9d354c-ca18-4e04-b8c0-8c453910ac20,64,ул,2014-01-10,0003,,,2020-08-30,000,0000,000,0,,0000,,0
0,1c0789c4-eab0-4ca7-abaf-43ca08a2a0a9,02099080-4f64-4ae6-840e-40da4b1dbe05,7,031,0,0,000,64031000036000303,3.0,2020-08-28,Молодежная,6446,6446,eab5b421-601f-4c22-9f22-4e6b316b47dc,,63241888001,63641488,21,dbe0de57-0ca8-4e40-bbeb-f35181f371c2,036,640310000360003,412011,df7fa71a-292a-4ddd-8366-ea70ccee4573,64,ул,2015-10-13,0003,,,2020-08-30,000,0000,000,0,,0000,,0
0,1c0789c4-eab0-4ca7-abaf-43ca08a2a0a9,eab5b421-601f-4c22-9f22-4e6b316b47dc,7,031,0,0,000,64031000036000300,0.0,2020-08-28,Молодежная,6446,6446,b4a1d5f6-58a9-445d-9cbb-6b7d3193457d,,63241000435,63641488,21,dbe0de57-0ca8-4e40-bbeb-f35181f371c2,036,640310000360003,412011,02099080-4f64-4ae6-840e-40da4b1dbe05,64,ул,2019-12-08,0003,,,2020-08-30,000,0000,000,0,,0000,,0
1,1c0789c4-eab0-4ca7-abaf-43ca08a2a0a9,b4a1d5f6-58a9-445d-9cbb-6b7d3193457d,7,031,0,0,000,64031000036000300,0.0,2079-06-06,Молодежная,6446,6446,,,63241000170,63641488146,20,dbe0de57-0ca8-4e40-bbeb-f35181f371c2,036,640310000360003,412011,eab5b421-601f-4c22-9f22-4e6b316b47dc,64,ул,2020-08-28,0003,,,2020-08-30,000,0000,000,1,,0000,,0
0,aa75ea73-2894-4dc3-9af0-7d12ce7dc7ab,e1bb9f96-b5fb-4b5d-a4d5-96450fcbd2e9,7,000,0,0,004,64000004001000801,1.0,2079-06-06,Песчаный,6439,6439,e6eb562c-a2f3-449e-b81d-36b7a74612b1,,63407000000,63607101,1,338fdf33-fc72-4a86-b8a3-d9a3c43f545e,001,640000040010008,413841,,64,проезд,1900-01-01,0008,,,2020-08-30,000,0000,000,0,,0000,,0
0,aa75ea73-2894-4dc3-9af0-7d12ce7dc7ab,e6eb562c-a2f3-449e-b81d-36b7a74612b1,7,000,0,0,004,64000004001000802,2.0,2019-12-08,Песчаный,6439,6439,39c75560-470d-4514-bb13-4a26cafde186,,63407000000,63607101,21,338fdf33-fc72-4a86-b8a3-d9a3c43f545e,000,640000040010008,413863,e1bb9f96-b5fb-4b5d-a4d5-96450fcbd2e9,64,проезд,2007-09-21,0783,,,2020-08-30,000,0000,000,0,5b993e9e-3b49-4a4e-b949-b20cd50f7f5c,0777,,0
0,aa75ea73-2894-4dc3-9af0-7d12ce7dc7ab,39c75560-470d-4514-bb13-4a26cafde186,7,000,0,0,004,64000004001000851,51.0,2020-07-28,Песчаный,6439,6439,708a41cd-bb80-48a9-ad5f-da05c55f6dac,,63207501000,63607101,21,338fdf33-fc72-4a86-b8a3-d9a3c43f545e,000,640000040010008,413863,e6eb562c-a2f3-449e-b81d-36b7a74612b1,64,проезд,2019-12-08,0783,,,2020-08-30,000,0000,000,0,5b993e9e-3b49-4a4e-b949-b20cd50f7f5c,0777,,0
0,aa75ea73-2894-4dc3-9af0-7d12ce7dc7ab,708a41cd-bb80-48a9-ad5f-da05c55f6dac,7,000,0,0,004,64000004000078300,0.0,2079-06-06,Песчаный,6439,6439,b6ba0c47-4255-4076-9cdb-49451624e46b,,63207501000,63607101,20,338fdf33-fc72-4a86-b8a3-d9a3c43f545e,000,640000040000783,413863,39c75560-470d-4514-bb13-4a26cafde186,64,проезд,2020-07-28,0783,,,2020-08-30,000,0000,000,0,,0777,,0
1,aa75ea73-2894-4dc3-9af0-7d12ce7dc7ab,b6ba0c47-4255-4076-9cdb-49451624e46b,7,000,0,0,004,64000004000078300,0.0,2079-06-06,Песчаный,6439,6439,,,63207501000,63607101001,50,338fdf33-fc72-4a86-b8a3-d9a3c43f545e,000,640000040000783,413863,708a41cd-bb80-48a9-ad5f-da05c55f6dac,64,проезд,2020-08-28,0783,,,2020-08-30,000,0000,000,1,,0777,,0
1,70f3dd98-5841-4dd6-85a8-9de739bc3884,70f3dd98-5841-4dd6-85a8-9de739bc3884,6,000,0,0,000,6400000000400,0.0,2079-06-06,Новооктябрьский,6445,6445,,,63000000006,63760000106,10,df594e0e-a935-4664-9d26-0bae13f904fe,004,64000000004,,,64,п,2020-08-28,0000,,,2020-08-30,000,0000,000,1,,0000,,0
0,20d8605c-4f88-4860-8009-149bc16a2150,3a242ed9-06fc-48bb-90df-542b8cf91c50,7,031,0,0,000,64031000098000101,1.0,2079-06-06,Веселая,6446,6446,2975df17-5625-4901-8232-ea925624156e,,63241818003,63641488,1,16d6150f-1a4f-4655-bbba-7f8709429f85,098,640310000980001,412047,,64,ул,1900-01-01,0001,,,2020-08-30,000,0000,000,0,,0000,,0
0,20d8605c-4f88-4860-8009-149bc16a2150,2975df17-5625-4901-8232-ea925624156e,7,031,0,0,000,64031000098000100,0.0,2020-08-27,Веселая,6446,6446,f1e1bcdc-ebf2-4dba-888b-dc6dfac28b59,,63241818003,63641488,21,16d6150f-1a4f-4655-bbba-7f8709429f85,098,640310000980001,412047,3a242ed9-06fc-48bb-90df-542b8cf91c50,64,ул,2014-01-10,0001,,,2020-08-30,000,0000,000,0,,0000,,0
0,20d8605c-4f88-4860-8009-149bc16a2150,f1e1bcdc-ebf2-4dba-888b-dc6dfac28b59,7,031,0,0,000,64031000098000100,0.0,2079-06-06,Веселая,6446,6446,53c930e2-ce41-4c8b-ad92-107d775c3074,,63241000435,63641488176,21,16d6150f-1a4f-4655-bbba-7f8709429f85,098,640310000980001,412047,2975df17-5625-4901-8232-ea925624156e,64,ул,2020-07-13,0001,,,2020-08-30,000,0000,000,0,,0000,,0
1,20d8605c-4f88-4860-8009-149bc16a2150,53c930e2-ce41-4c8b-ad92-107d775c3074,7,031,0,0,000,64031000098000100,0.0,2079-06-06,Веселая,6446,6446,,,63241000445,63641488176,20,16d6150f-1a4f-4655-bbba-7f8709429f85,098,640310000980001,412047,f1e1bcdc-ebf2-4dba-888b-dc6dfac28b59,64,ул,2020-08-27,0001,,,2020-08-30,000,0000,000,1,,0000,,0
0,82b31e08-d625-4627-ab4b-a735053cfc50,d4228693-b746-42f6-a7e7-4d533c4642c5,7,031,0,0,000,64031000098000501,1.0,2079-06-06,Овражная,6446,6446,440f3555-124e-4ec8-982e-b809bb3cb03b,,63241818003,63641488,1,16d6150f-1a4f-4655-bbba-7f8709429f85,098,640310000980005,412047,,64,ул,1900-01-01,0005,,,2020-08-30,000,0000,000,0,,0000,,0
0,82b31e08-d625-4627-ab4b-a735053cfc50,440f3555-124e-4ec8-982e-b809bb3cb03b,7,031,0,0,000,64031000098000500,0.0,2020-08-28,Овражная,6446,6446,5a9bce83-234f-4c5b-b1eb-8849556d4dbf,,63241818003,63641488,21,16d6150f-1a4f-4655-bbba-7f8709429f85,098,640310000980005,412047,d4228693-b746-42f6-a7e7-4d533c4642c5,64,ул,2014-01-10,0005,,,2020-08-30,000,0000,000,0,,0000,,0
0,82b31e08-d625-4627-ab4b-a735053cfc50,5a9bce83-234f-4c5b-b1eb-8849556d4dbf,7,031,0,0,000,64031000098000500,0.0,2079-06-06,Овражная,6446,6446,58d238fe-9ccf-4b39-adbb-a9d1deeb664a,,63241000435,63641488176,21,16d6150f-1a4f-4655-bbba-7f8709429f85,098,640310000980005,412047,440f3555-124e-4ec8-982e-b809bb3cb03b,64,ул,2020-07-13,0005,,,2020-08-30,000,0000,000,0,,0000,,0
1,82b31e08-d625-4627-ab4b-a735053cfc50,58d238fe-9ccf-4b39-adbb-a9d1deeb664a,7,031,0,0,000,64031000098000500,0.0,2079-06-06,Овражная,6446,6446,,,63241000445,63641488176,20,16d6150f-1a4f-4655-bbba-7f8709429f85,098,640310000980005,412047,5a9bce83-234f-4c5b-b1eb-8849556d4dbf,64,ул,2020-08-28,0005,,,2020-08-30,000,0000,000,1,,0000,,0
0,7badf6a7-b13f-4482-8b03-eb4bb258262f,33c7276a-8479-471d-a972-7cf7b19d2602,7,000,0,0,004,64000004001000701,1.0,2079-06-06,Парковый,6439,6439,47fff9cb-83a6-47bb-81c2-9b7ed9aff88c,,63407000000,63607101,1,338fdf33-fc72-4a86-b8a3-d9a3c43f545e,001,640000040010007,413841,,64,проезд,1900-01-01,0007,,,2020-08-30,000,0000,000,0,,0000,,0
0,7badf6a7-b13f-4482-8b03-eb4bb258262f,47fff9cb-83a6-47bb-81c2-9b7ed9aff88c,7,000,0,0,004,64000004001000702,2.0,2019-12-08,Парковый,6439,6439,d46e171f-f05c-4469-b751-c2abaa89a283,,63407000000,63607101,21,338fdf33-fc72-4a86-b8a3-d9a3c43f545e,000,640000040010007,413863,33c7276a-8479-471d-a972-7cf7b19d2602,64,проезд,2007-07-21,0780,,,2020-08-30,000,0000,000,0,5b993e9e-3b49-4a4e-b949-b20cd50f7f5c,0777,,0
0,7badf6a7-b13f-4482-8b03-eb4bb258262f,d46e171f-f05c-4469-b751-c2abaa89a283,7,000,0,0,004,64000004001000751,51.0,2020-07-28,Парковый,6439,6439,6aa37e83-b46f-43a8-b968-b34ec75540bc,,63207501000,63607101,21,338fdf33-fc72-4a86-b8a3-d9a3c43f545e,000,640000040010007,413863,47fff9cb-83a6-47bb-81c2-9b7ed9aff88c,64,проезд,2019-12-08,0780,,,2020-08-30,000,0000,000,0,5b993e9e-3b49-4a4e-b949-b20cd50f7f5c,0777,,0
0,7badf6a7-b13f-4482-8b03-eb4bb258262f,6aa37e83-b46f-43a8-b968-b34ec75540bc,7,000,0,0,004,64000004000078000,0.0,2079-06-06,Парковый,6439,6439,a3485297-c3e4-4f6a-bf64-3d65ed969de9,,63207501000,63607101,20,338fdf33-fc72-4a86-b8a3-d9a3c43f545e,000,640000040000780,413863,d46e171f-f05c-4469-b751-c2abaa89a283,64,проезд,2020-07-28,0780,,,2020-08-30,000,0000,000,0,,0777,,0
1,7badf6a7-b13f-4482-8b03-eb4bb258262f,a3485297-c3e4-4f6a-bf64-3d65ed969de9,7,000,0,0,004,64000004000078000,0.0,2079-06-06,Парковый,6439,6439,,,63207501000,63607101001,50,338fdf33-fc72-4a86-b8a3-d9a3c43f545e,000,640000040000780,413863,6aa37e83-b46f-43a8-b968-b34ec75540bc,64,проезд,2020-08-28,0780,,,2020-08-30,000,0000,000,1,,0777,,0
0,2cbbf007-8b95-4f64-a97d-d7971c71dc7c,0f92b15a-238a-4582-a21d-30d1914d6d35,7,031,0,0,000,64031000036000201,1.0,2079-06-06,Школьная,6446,6446,edd8c9c4-df78-441c-b09c-ea4577a6b84d,,63241888004,63641488,1,dbe0de57-0ca8-4e40-bbeb-f35181f371c2,036,640310000360002,412011,,64,ул,1900-01-01,0002,,,2020-08-30,000,0000,000,0,,0000,,0
0,2cbbf007-8b95-4f64-a97d-d7971c71dc7c,edd8c9c4-df78-441c-b09c-ea4577a6b84d,7,031,0,0,000,64031000036000202,2.0,2015-10-13,Школьная,6446,6446,e09e72de-e7bb-4575-a6d8-1c2bdae7bf24,,63241888004,63641488146,21,dbe0de57-0ca8-4e40-bbeb-f35181f371c2,036,640310000360002,412011,0f92b15a-238a-4582-a21d-30d1914d6d35,64,ул,2014-01-10,0002,,,2020-08-30,000,0000,000,0,,0000,,0
0,2cbbf007-8b95-4f64-a97d-d7971c71dc7c,e09e72de-e7bb-4575-a6d8-1c2bdae7bf24,7,031,0,0,000,64031000036000200,0.0,2020-07-13,Школьная,6446,6446,0fa2c12a-64e4-434c-92b5-f85c89745a96,,63241888004,63641488,21,dbe0de57-0ca8-4e40-bbeb-f35181f371c2,036,640310000360002,412011,edd8c9c4-df78-441c-b09c-ea4577a6b84d,64,ул,2015-10-13,0002,,,2020-08-30,000,0000,000,0,,0000,,0
0,2cbbf007-8b95-4f64-a97d-d7971c71dc7c,0fa2c12a-64e4-434c-92b5-f85c89745a96,7,031,0,0,000,64031000036000200,0.0,2079-06-06,Школьная,6446,6446,5140d615-d237-428c-9c9e-bc2b30d5b499,,63241000435,63641488146,21,dbe0de57-0ca8-4e40-bbeb-f35181f371c2,036,640310000360002,412011,e09e72de-e7bb-4575-a6d8-1c2bdae7bf24,64,ул,2020-07-13,0002,,,2020-08-30,000,0000,000,0,,0000,,0
1,2cbbf007-8b95-4f64-a97d-d7971c71dc7c,5140d615-d237-428c-9c9e-bc2b30d5b499,7,031,0,0,000,64031000036000200,0.0,2079-06-06,Школьная,6446,6446,,,63241000170,63641488146,20,dbe0de57-0ca8-4e40-bbeb-f35181f371c2,036,640310000360002,412011,0fa2c12a-64e4-434c-92b5-f85c89745a96,64,ул,2020-08-28,0002,,,2020-08-30,000,0000,000,1,,0000,,0
0,b5306fac-0d37-49b9-973a-c6eadae8bba8,35c5870f-01cd-41bc-b9a9-041159609e6a,7,031,0,0,000,64031000098000301,1.0,2079-06-06,Рабочая,6446,6446,2a737634-178b-458c-a858-301002559998,,63241818003,63641488,1,16d6150f-1a4f-4655-bbba-7f8709429f85,098,640310000980003,412047,,64,ул,1900-01-01,0003,,,2020-08-30,000,0000,000,0,,0000,,0
0,b5306fac-0d37-49b9-973a-c6eadae8bba8,2a737634-178b-458c-a858-301002559998,7,031,0,0,000,64031000098000300,0.0,2020-08-28,Рабочая,6446,6446,6006e5eb-23e0-43e8-9d9f-709040ccb567,,63241818003,63641488,21,16d6150f-1a4f-4655-bbba-7f8709429f85,098,640310000980003,,35c5870f-01cd-41bc-b9a9-041159609e6a,64,ул,2014-01-10,0003,,,2020-08-30,000,0000,000,0,,0000,,0
0,b5306fac-0d37-49b9-973a-c6eadae8bba8,6006e5eb-23e0-43e8-9d9f-709040ccb567,7,031,0,0,000,64031000098000300,0.0,2079-06-06,Рабочая,6446,6446,33a3a0db-8835-428c-8da3-448925cb19fb,,63241000435,63641488176,21,16d6150f-1a4f-4655-bbba-7f8709429f85,098,640310000980003,,2a737634-178b-458c-a858-301002559998,64,ул,2020-07-13,0003,,,2020-08-30,000,0000,000,0,,0000,,0
1,b5306fac-0d37-49b9-973a-c6eadae8bba8,33a3a0db-8835-428c-8da3-448925cb19fb,7,031,0,0,000,64031000098000300,0.0,2079-06-06,Рабочая,6446,6446,,,63241000445,63641488176,20,16d6150f-1a4f-4655-bbba-7f8709429f85,098,640310000980003,,6006e5eb-23e0-43e8-9d9f-709040ccb567,64,ул,2020-08-28,0003,,,2020-08-30,000,0000,000,1,,0000,,0
0,c04d471d-54b1-4c9f-91f6-e6f772b3aaaa,a873c127-ac45-48e7-b285-f7aa4faa4386,7,000,0,0,004,64000004001001001,1.0,2079-06-06,Солнечный,6439,6439,bccbd6e5-8a75-47ba-be77-04f90725debe,,63407000000,63607101,1,338fdf33-fc72-4a86-b8a3-d9a3c43f545e,001,640000040010010,413841,,64,проезд,1900-01-01,0010,,,2020-08-30,000,0000,000,0,,0000,,0
0,e4d25ed9-b242-4cd7-80cb-ac2200bb4e8b,04309e8f-b43f-45dc-b8a2-eb5d73a80300,7,031,0,0,000,64031000044000101,1.0,2079-06-06,Садовая,6446,6446,3faf7d24-da1e-4346-9173-473bcd0aaac6,,63241888005,63641488,1,a4ea1d4b-f67c-4974-a319-c3f7814b0f22,044,640310000440001,412011,,64,ул,1900-01-01,0001,,,2020-08-30,000,0000,000,0,,0000,,0
0,c04d471d-54b1-4c9f-91f6-e6f772b3aaaa,bccbd6e5-8a75-47ba-be77-04f90725debe,7,000,0,0,004,64000004001001002,2.0,2019-12-08,Солнечный,6439,6439,a654c09e-5fa0-4157-949a-eb1413689434,,63407000000,63607101,21,338fdf33-fc72-4a86-b8a3-d9a3c43f545e,000,640000040010010,413863,a873c127-ac45-48e7-b285-f7aa4faa4386,64,проезд,2007-09-21,0787,,,2020-08-30,000,0000,000,0,5b993e9e-3b49-4a4e-b949-b20cd50f7f5c,0777,,0
0,c04d471d-54b1-4c9f-91f6-e6f772b3aaaa,a654c09e-5fa0-4157-949a-eb1413689434,7,000,0,0,004,64000004001001051,51.0,2020-07-28,Солнечный,6439,6439,8faf8119-8092-44fc-8868-32008d122d0e,,63207501000,63607101,21,338fdf33-fc72-4a86-b8a3-d9a3c43f545e,000,640000040010010,413863,bccbd6e5-8a75-47ba-be77-04f90725debe,64,проезд,2019-12-08,0787,,,2020-08-30,000,0000,000,0,5b993e9e-3b49-4a4e-b949-b20cd50f7f5c,0777,,0
0,c04d471d-54b1-4c9f-91f6-e6f772b3aaaa,8faf8119-8092-44fc-8868-32008d122d0e,7,000,0,0,004,64000004000078700,0.0,2079-06-06,Солнечный,6439,6439,a895a041-6426-4f29-9294-57b58d3319fb,,63207501000,63607101,20,338fdf33-fc72-4a86-b8a3-d9a3c43f545e,000,640000040000787,413863,a654c09e-5fa0-4157-949a-eb1413689434,64,проезд,2020-07-28,0787,,,2020-08-30,000,0000,000,0,,0777,,0
1,c04d471d-54b1-4c9f-91f6-e6f772b3aaaa,a895a041-6426-4f29-9294-57b58d3319fb,7,000,0,0,004,64000004000078700,0.0,2079-06-06,Солнечный,6439,6439,,,63207501000,63607101001,50,338fdf33-fc72-4a86-b8a3-d9a3c43f545e,000,640000040000787,413863,8faf8119-8092-44fc-8868-32008d122d0e,64,проезд,2020-08-28,0787,,,2020-08-30,000,0000,000,1,,0777,,0
0,894fbcd2-4c7c-4a5b-b134-6dbe68e18546,af2e206d-bd2a-4eaa-b718-47d5c20a68f4,7,031,0,0,000,64031000098000401,1.0,2079-06-06,Кирпичная,6446,6446,7365e6bb-4aa6-4493-943e-ecd7a678d87e,,63241818003,63641488,1,16d6150f-1a4f-4655-bbba-7f8709429f85,098,640310000980004,412047,,64,ул,1900-01-01,0004,,,2020-08-30,000,0000,000,0,,0000,,0
0,894fbcd2-4c7c-4a5b-b134-6dbe68e18546,7365e6bb-4aa6-4493-943e-ecd7a678d87e,7,031,0,0,000,64031000098000400,0.0,2020-08-28,Кирпичная,6446,6446,73032750-f15b-4129-b88a-b27247424924,,63241818003,63641488,21,16d6150f-1a4f-4655-bbba-7f8709429f85,098,640310000980004,412047,af2e206d-bd2a-4eaa-b718-47d5c20a68f4,64,ул,2014-01-10,0004,,,2020-08-30,000,0000,000,0,,0000,,0
0,894fbcd2-4c7c-4a5b-b134-6dbe68e18546,73032750-f15b-4129-b88a-b27247424924,7,031,0,0,000,64031000098000400,0.0,2079-06-06,Кирпичная,6446,6446,e379d060-95f0-489e-b55e-1efab126bec2,,63241000435,63641488176,21,16d6150f-1a4f-4655-bbba-7f8709429f85,098,640310000980004,412047,7365e6bb-4aa6-4493-943e-ecd7a678d87e,64,ул,2020-07-13,0004,,,2020-08-30,000,0000,000,0,,0000,,0
1,894fbcd2-4c7c-4a5b-b134-6dbe68e18546,e379d060-95f0-489e-b55e-1efab126bec2,7,031,0,0,000,64031000098000400,0.0,2079-06-06,Кирпичная,6446,6446,,,63241000445,63641488176,20,16d6150f-1a4f-4655-bbba-7f8709429f85,098,640310000980004,412047,73032750-f15b-4129-b88a-b27247424924,64,ул,2020-08-28,0004,,,2020-08-30,000,0000,000,1,,0000,,0
0,5f9b1e41-17e4-4928-b556-442e2b427ec8,516f37c8-0a03-4b05-8a51-3acb4efab6f6,7,031,0,0,000,64031000036000101,1.0,2079-06-06,Колхозная,6446,6446,c4a157ea-8903-4053-9c4c-e93289cf4963,,63241888004,63641488,1,dbe0de57-0ca8-4e40-bbeb-f35181f371c2,036,640310000360001,412011,,64,ул,1900-01-01,0001,,,2020-08-30,000,0000,000,0,,0000,,0
0,5f9b1e41-17e4-4928-b556-442e2b427ec8,c4a157ea-8903-4053-9c4c-e93289cf4963,7,031,0,0,000,64031000036000102,2.0,2015-10-13,Колхозная,6446,6446,37040175-428a-49d8-9928-326b80aa73ac,,63241888004,63641488146,21,dbe0de57-0ca8-4e40-bbeb-f35181f371c2,036,640310000360001,412011,516f37c8-0a03-4b05-8a51-3acb4efab6f6,64,ул,2014-01-10,0001,,,2020-08-30,000,0000,000,0,,0000,,0
0,5f9b1e41-17e4-4928-b556-442e2b427ec8,37040175-428a-49d8-9928-326b80aa73ac,7,031,0,0,000,64031000036000100,0.0,2020-07-13,Колхозная,6446,6446,b1a08f91-f2ba-4f6e-9b7b-a850bfb13c9a,,63241888004,63641488,21,dbe0de57-0ca8-4e40-bbeb-f35181f371c2,036,640310000360001,412011,c4a157ea-8903-4053-9c4c-e93289cf4963,64,ул,2015-10-13,0001,,,2020-08-30,000,0000,000,0,,0000,,0
0,5f9b1e41-17e4-4928-b556-442e2b427ec8,b1a08f91-f2ba-4f6e-9b7b-a850bfb13c9a,7,031,0,0,000,64031000036000100,0.0,2079-06-06,Колхозная,6446,6446,22cf411c-856e-4ebb-87a6-14f1ae2ce082,,63241000435,63641488146,21,dbe0de57-0ca8-4e40-bbeb-f35181f371c2,036,640310000360001,412011,37040175-428a-49d8-9928-326b80aa73ac,64,ул,2020-07-13,0001,,,2020-08-30,000,0000,000,0,,0000,,0
1,5f9b1e41-17e4-4928-b556-442e2b427ec8,22cf411c-856e-4ebb-87a6-14f1ae2ce082,7,031,0,0,000,64031000036000100,0.0,2079-06-06,Колхозная,6446,6446,,,63241000170,63641488146,20,dbe0de57-0ca8-4e40-bbeb-f35181f371c2,036,640310000360001,412011,b1a08f91-f2ba-4f6e-9b7b-a850bfb13c9a,64,ул,2020-08-28,0001,,,2020-08-30,000,0000,000,1,,0000,,0
0,11f170f7-6d5e-4cfa-8ecb-1d59749f29a8,c10440e2-d0c7-4baf-851b-7822c777bd23,7,031,0,0,000,64031000072000101,1.0,2079-06-06,Горная,6446,6446,0a1c4b8e-474f-45dd-97b7-3f7ccddf0daa,,63241848003,63641488,1,9327f1f6-9ac6-491a-bab1-b0781cd1f792,072,640310000720001,412046,,64,ул,1900-01-01,0001,,,2020-08-30,000,0000,000,0,,0000,,0
0,11f170f7-6d5e-4cfa-8ecb-1d59749f29a8,0a1c4b8e-474f-45dd-97b7-3f7ccddf0daa,7,031,0,0,000,64031000072000102,2.0,2015-10-12,Горная,6446,6446,fa02cfa9-039f-4f08-95a4-1062cea507a0,,63241848003,63641488171,21,9327f1f6-9ac6-491a-bab1-b0781cd1f792,072,640310000720001,412046,c10440e2-d0c7-4baf-851b-7822c777bd23,64,ул,2014-01-10,0001,,,2020-08-30,000,0000,000,0,,0000,,0
0,11f170f7-6d5e-4cfa-8ecb-1d59749f29a8,fa02cfa9-039f-4f08-95a4-1062cea507a0,7,031,0,0,000,64031000072000103,3.0,2019-12-08,Горная,6446,6446,55a5c146-6f0e-4f37-b6ea-857252830de1,,63241888001,63641488,21,9327f1f6-9ac6-491a-bab1-b0781cd1f792,072,640310000720001,412046,0a1c4b8e-474f-45dd-97b7-3f7ccddf0daa,64,ул,2015-10-12,0001,,,2020-08-30,000,0000,000,0,,0000,,0
0,481165f2-c6bd-419c-97da-d7fb117c7d37,70b9fea7-db07-45a4-b2bc-09144d6fb0e5,7,000,0,0,004,64000004000078200,0.0,2079-06-06,Лазурный,6439,6439,fc12a295-a6cb-4d8b-be23-5e1e211e2272,,63207501000,63607101,20,338fdf33-fc72-4a86-b8a3-d9a3c43f545e,000,640000040000782,413863,1f3833b7-b0e6-4898-b1ea-f1f56b1b55fb,64,проезд,2020-07-28,0782,,,2020-08-30,000,0000,000,0,,0777,,0
1,481165f2-c6bd-419c-97da-d7fb117c7d37,fc12a295-a6cb-4d8b-be23-5e1e211e2272,7,000,0,0,004,64000004000078200,0.0,2079-06-06,Лазурный,6439,6439,,,63207501000,63607101001,50,338fdf33-fc72-4a86-b8a3-d9a3c43f545e,000,640000040000782,413863,70b9fea7-db07-45a4-b2bc-09144d6fb0e5,64,проезд,2020-08-28,0782,,,2020-08-30,000,0000,000,1,,0777,,0
0,3d3620fd-e413-4240-9481-1046c5e2b71f,1461dced-796d-4843-ac01-12d1b4febcce,7,031,0,0,000,64031000044000301,1.0,2079-06-06,Центральная,6446,6446,59993be9-770e-40fb-88cf-d6617aec71ed,,63241888005,63641488,1,a4ea1d4b-f67c-4974-a319-c3f7814b0f22,044,640310000440003,412011,,64,ул,1900-01-01,0003,,,2020-08-30,000,0000,000,0,,0000,,0
0,3d3620fd-e413-4240-9481-1046c5e2b71f,59993be9-770e-40fb-88cf-d6617aec71ed,7,031,0,0,000,64031000044000302,2.0,2015-10-13,Центральная,6446,6446,d671a89e-3ad8-4847-9dbd-9e391709ef98,,63241888005,63641488141,21,a4ea1d4b-f67c-4974-a319-c3f7814b0f22,044,640310000440003,412011,1461dced-796d-4843-ac01-12d1b4febcce,64,ул,2014-01-10,0003,,,2020-08-30,000,0000,000,0,,0000,,0
0,3d3620fd-e413-4240-9481-1046c5e2b71f,d671a89e-3ad8-4847-9dbd-9e391709ef98,7,031,0,0,000,64031000044000300,0.0,2020-07-13,Центральная,6446,6446,2b6e0902-d45e-478c-b04e-60bb729bfa0f,,63241888005,63641488,21,a4ea1d4b-f67c-4974-a319-c3f7814b0f22,044,640310000440003,412011,59993be9-770e-40fb-88cf-d6617aec71ed,64,ул,2015-10-13,0003,,,2020-08-30,000,0000,000,0,,0000,,0
0,3d3620fd-e413-4240-9481-1046c5e2b71f,2b6e0902-d45e-478c-b04e-60bb729bfa0f,7,031,0,0,000,64031000044000300,0.0,2079-06-06,Центральная,6446,6446,2dca7d9e-49fa-49ff-a500-7b9d21eb90db,,63241888005,63641488141,21,a4ea1d4b-f67c-4974-a319-c3f7814b0f22,044,640310000440003,412011,d671a89e-3ad8-4847-9dbd-9e391709ef98,64,ул,2020-07-13,0003,,,2020-08-30,000,0000,000,0,,0000,,0
1,3d3620fd-e413-4240-9481-1046c5e2b71f,2dca7d9e-49fa-49ff-a500-7b9d21eb90db,7,031,0,0,000,64031000044000300,0.0,2079-06-06,Центральная,6446,6446,,,63241000150,63641488141,20,a4ea1d4b-f67c-4974-a319-c3f7814b0f22,044,640310000440003,412011,2b6e0902-d45e-478c-b04e-60bb729bfa0f,64,ул,2020-08-28,0003,,,2020-08-30,000,0000,000,1,,0000,,0
0,36ec9165-5d37-4baa-882d-325cb86c3f97,36ec9165-5d37-4baa-882d-325cb86c3f97,90,000,0,0,013,64000013000053351,51.0,2016-09-28,Базарный,6449,6449,939f9512-8d83-463c-b229-cd2195560980,,63450000000,63650440,10,c58d0505-54eb-4c34-8216-b14f7cdb0ecb,000,640000130000533,413100,,64,гск,2002-12-25,0000,,,2020-09-03,000,0000,000,0,,0000,,0
0,36ec9165-5d37-4baa-882d-325cb86c3f97,939f9512-8d83-463c-b229-cd2195560980,65,000,0,0,013,64000013000053301,1.0,2079-06-06,Базарный,6449,6449,0d4c88e7-ebc9-4edc-ad4b-875e119b67a1,,63450000000,63650440,50,c58d0505-54eb-4c34-8216-b14f7cdb0ecb,000,640000130000533,413100,36ec9165-5d37-4baa-882d-325cb86c3f97,64,гск,2016-09-28,0000,,,2020-09-03,000,0000,000,0,,0533,,0
0,36ec9165-5d37-4baa-882d-325cb86c3f97,0d4c88e7-ebc9-4edc-ad4b-875e119b67a1,65,000,0,0,013,64000013000053300,0.0,2020-09-01,Базарный,6449,6449,2ddc456b-42a0-4467-b672-78b494ac3fff,,63250501000,63650440,21,c58d0505-54eb-4c34-8216-b14f7cdb0ecb,000,640000130000533,413100,939f9512-8d83-463c-b229-cd2195560980,64,гск,2019-12-08,0000,,,2020-09-03,000,0000,000,0,,0533,,0
1,36ec9165-5d37-4baa-882d-325cb86c3f97,2ddc456b-42a0-4467-b672-78b494ac3fff,65,000,0,0,013,64000013000053300,0.0,2079-06-06,Базарный,6449,6449,,,63250501000,63650101001,20,c58d0505-54eb-4c34-8216-b14f7cdb0ecb,000,640000130000533,413100,0d4c88e7-ebc9-4edc-ad4b-875e119b67a1,64,гск,2020-09-01,0000,,,2020-09-03,000,0000,000,1,,0533,,0
0,9ba43ef2-ac70-46df-95f4-fb9ea2fbe87d,77e2361b-41c0-44bd-8302-4ff64f7fcc68,7,000,0,0,001,64000001000098401,1.0,2018-10-16,Поперечная 3-я,6454,6454,db4b3aa4-1556-49bf-ab26-83e583b18a7f,,63401380000,63701000,1,bf465fda-7834-47d5-986b-ccdb584a85a6,000,640000010000984,410053,,64,ул,1900-01-01,0984,,,2020-08-16,000,0000,000,0,,0000,,0
0,9ba43ef2-ac70-46df-95f4-fb9ea2fbe87d,db4b3aa4-1556-49bf-ab26-83e583b18a7f,7,000,0,0,001,64000001000098400,0.0,2079-06-06,3-я Поперечная,6454,6454,7e5d1aa8-d6c2-4098-a734-e6c1b13f539e,,63401380000,63701000,20,bf465fda-7834-47d5-986b-ccdb584a85a6,000,640000010000984,410053,77e2361b-41c0-44bd-8302-4ff64f7fcc68,64,ул,2018-10-16,0984,,,2020-08-16,000,0000,000,0,745a3299-991a-4087-9ac0-afe174f72e8d,0000,,0
1,9ba43ef2-ac70-46df-95f4-fb9ea2fbe87d,7e5d1aa8-d6c2-4098-a734-e6c1b13f539e,7,000,0,0,001,64000001000098400,0.0,2079-06-06,3-я Поперечная,6454,6454,,,63401380000,63701000001,20,bf465fda-7834-47d5-986b-ccdb584a85a6,000,640000010000984,410053,db4b3aa4-1556-49bf-ab26-83e583b18a7f,64,ул,2020-08-13,0984,,,2020-08-16,000,0000,000,1,,0000,,0
0,c972335d-0884-4de7-a4f7-ffa8144f3c46,b0fb92ef-09cd-45d0-aa2b-63d8f3273dbe,7,000,0,0,001,64000001000515000,0.0,2079-06-06,Петровский,6453,6453,341d52a8-3a83-437e-aded-092e5e1c0436,,63401376000,63701000,1,bf465fda-7834-47d5-986b-ccdb584a85a6,000,640000010005150,410062,,64,тракт,1900-01-01,5150,,,2020-08-16,000,0000,000,0,,0000,,0
1,c972335d-0884-4de7-a4f7-ffa8144f3c46,341d52a8-3a83-437e-aded-092e5e1c0436,7,000,0,0,001,64000001000515000,0.0,2079-06-06,Петровский,6453,6453,,,63401376000,63701000001,20,bf465fda-7834-47d5-986b-ccdb584a85a6,000,640000010005150,410062,b0fb92ef-09cd-45d0-aa2b-63d8f3273dbe,64,тракт,2020-08-14,5150,,,2020-08-16,000,0000,000,1,,0000,,0
0,f7d0e449-6ef7-4204-92a4-bd6059564b0a,a4ba5a2e-fb65-4d66-abd2-4156a5ff80dd,7,000,0,0,001,64000001000511201,1.0,1998-05-20,Крылова,6453,6453,ffc6d242-41f6-4fe7-9d7c-5f731c455967,,63401376000,63701000,1,bf465fda-7834-47d5-986b-ccdb584a85a6,000,640000010005112,410033,,64,туп,1900-01-01,5112,,,2020-08-16,000,0000,000,0,,0000,,0
0,f7d0e449-6ef7-4204-92a4-bd6059564b0a,ffc6d242-41f6-4fe7-9d7c-5f731c455967,7,000,0,0,001,64000001000511200,0.0,2079-06-06,им Крылова Н.И.,6453,6453,5e34abc9-2a84-411c-9d59-14479a3c798e,,63401376000,63701000,20,bf465fda-7834-47d5-986b-ccdb584a85a6,000,640000010005112,410033,a4ba5a2e-fb65-4d66-abd2-4156a5ff80dd,64,туп,1998-05-20,5112,,,2020-08-16,000,0000,000,0,,0000,,0
1,f7d0e449-6ef7-4204-92a4-bd6059564b0a,5e34abc9-2a84-411c-9d59-14479a3c798e,7,000,0,0,001,64000001000511200,0.0,2079-06-06,им Крылова Н.И.,6453,6453,,,63401376000,63701000001,20,bf465fda-7834-47d5-986b-ccdb584a85a6,000,640000010005112,410033,ffc6d242-41f6-4fe7-9d7c-5f731c455967,64,туп,2020-08-12,5112,,,2020-08-16,000,0000,000,1,,0000,,0
0,ba64bac7-496f-4b01-81fb-270c13584cc5,1ca50bfd-baeb-4bf2-83f8-bc13e9540c95,7,000,0,0,001,64000001000033401,1.0,2018-09-03,Динамовский 1-й,6451,6451,12c41053-458b-4233-8782-d8ee977a2a8f,,63401368000,63701000,1,bf465fda-7834-47d5-986b-ccdb584a85a6,000,640000010000334,410060,,64,пер,1900-01-01,0334,,,2020-08-16,000,0000,000,0,,0000,,0
0,ba64bac7-496f-4b01-81fb-270c13584cc5,12c41053-458b-4233-8782-d8ee977a2a8f,7,000,0,0,001,64000001000033400,0.0,2079-06-06,1-й Динамовский,6451,6451,dfbbf1ad-adb7-4c2a-b939-837ae1345132,,63401368000,63701000,20,bf465fda-7834-47d5-986b-ccdb584a85a6,000,640000010000334,410060,1ca50bfd-baeb-4bf2-83f8-bc13e9540c95,64,пер,2018-09-03,0334,,,2020-08-16,000,0000,000,0,9700e1ef-d189-413d-a032-45f8df4983bd,0000,,0
1,ba64bac7-496f-4b01-81fb-270c13584cc5,dfbbf1ad-adb7-4c2a-b939-837ae1345132,7,000,0,0,001,64000001000033400,0.0,2079-06-06,1-й Динамовский,6451,6451,,,63401368000,63701000001,20,bf465fda-7834-47d5-986b-ccdb584a85a6,000,640000010000334,410060,12c41053-458b-4233-8782-d8ee977a2a8f,64,пер,2020-08-13,0334,,,2020-08-16,000,0000,000,1,,0000,,0
0,ff992db4-f932-4171-bfab-cb4df87e5889,c92547fd-7b21-415f-ab26-ee20375af9b9,7,000,0,0,001,64000001000010601,1.0,2019-01-11,Беговая 1-я,6454,6454,11eaa596-e5ea-4c31-b841-734462314826,,63401380000,63701000,1,bf465fda-7834-47d5-986b-ccdb584a85a6,000,640000010000106,,,64,ул,1900-01-01,0106,,,2020-08-16,000,0000,000,0,,0000,,0
0,ff992db4-f932-4171-bfab-cb4df87e5889,11eaa596-e5ea-4c31-b841-734462314826,7,000,0,0,001,64000001000010600,0.0,2079-06-06,1-я Беговая,6454,6454,88c86de4-8c34-476d-96c8-8e287e2b970b,,63401380000,63701000,20,bf465fda-7834-47d5-986b-ccdb584a85a6,000,640000010000106,,c92547fd-7b21-415f-ab26-ee20375af9b9,64,ул,2019-01-11,0106,,,2020-08-16,000,0000,000,0,28b87136-e63e-41dd-b46b-b1628bcf442a,0000,,0
1,ff992db4-f932-4171-bfab-cb4df87e5889,88c86de4-8c34-476d-96c8-8e287e2b970b,7,000,0,0,001,64000001000010600,0.0,2079-06-06,1-я Беговая,6454,6454,,,63401380000,63701000001,20,bf465fda-7834-47d5-986b-ccdb584a85a6,000,640000010000106,,11eaa596-e5ea-4c31-b841-734462314826,64,ул,2020-08-13,0106,,,2020-08-16,000,0000,000,1,,0000,,0
0,da2d7758-e72f-400d-9925-e8eda97eb408,d223c4a1-e695-42ac-b7a1-227c8fd85e61,7,000,0,0,001,64000001000011001,1.0,2019-01-11,Беговая 5-я,6454,6454,98d37259-591e-4f03-bcbf-2d90e806b330,,63401380000,63701000,1,bf465fda-7834-47d5-986b-ccdb584a85a6,000,640000010000110,410008,,64,ул,1900-01-01,0110,,,2020-08-16,000,0000,000,0,,0000,,0
0,da2d7758-e72f-400d-9925-e8eda97eb408,98d37259-591e-4f03-bcbf-2d90e806b330,7,000,0,0,001,64000001000011000,0.0,2079-06-06,5-я Беговая,6454,6454,3867fe21-c89e-46c6-ae66-acc91ecc59dc,,63401380000,63701000,20,bf465fda-7834-47d5-986b-ccdb584a85a6,000,640000010000110,410008,d223c4a1-e695-42ac-b7a1-227c8fd85e61,64,ул,2019-01-11,0110,,,2020-08-16,000,0000,000,0,28b87136-e63e-41dd-b46b-b1628bcf442a,0000,,0
1,da2d7758-e72f-400d-9925-e8eda97eb408,3867fe21-c89e-46c6-ae66-acc91ecc59dc,7,000,0,0,001,64000001000011000,0.0,2079-06-06,5-я Беговая,6454,6454,,,63401380000,63701000001,20,bf465fda-7834-47d5-986b-ccdb584a85a6,000,640000010000110,410008,98d37259-591e-4f03-bcbf-2d90e806b330,64,ул,2020-08-13,0110,,,2020-08-16,000,0000,000,1,,0000,,0
0,b79d25bf-6010-469b-86f0-f7a2525a6b6a,9ecbd4fd-4d5e-4de5-8cc8-13351b9a6f81,7,000,0,0,001,64000001000035500,0.0,2079-06-06,Добряковский,6450,6450,54117114-4423-4e38-acc9-526a3888d3f2,,63401372000,63701000,1,bf465fda-7834-47d5-986b-ccdb584a85a6,000,640000010000355,410009,,64,туп,1900-01-01,0355,6452,6452,2020-08-16,000,0000,000,0,,0000,,0
1,b79d25bf-6010-469b-86f0-f7a2525a6b6a,54117114-4423-4e38-acc9-526a3888d3f2,7,000,0,0,001,64000001000035500,0.0,2079-06-06,Добряковский,6450,6450,,,63401372000,63701000001,20,bf465fda-7834-47d5-986b-ccdb584a85a6,000,640000010000355,410009,9ecbd4fd-4d5e-4de5-8cc8-13351b9a6f81,64,туп,2020-08-13,0355,6452,6452,2020-08-16,000,0000,000,1,,0000,,0
0,0bf6737d-5001-40cb-b3a7-26d4c94212f3,0bf6737d-5001-40cb-b3a7-26d4c94212f3,7,000,0,0,001,64000001000000800,0.0,2079-06-06,Соборный,6450,6450,5cbbdf23-3333-4939-bd15-a6edbea8c3b6,,63401364000,63701000,10,bf465fda-7834-47d5-986b-ccdb584a85a6,000,640000010000008,410031,,64,туп,2012-02-01,0008,,,2020-08-16,000,0000,000,0,,0000,,0
1,0bf6737d-5001-40cb-b3a7-26d4c94212f3,5cbbdf23-3333-4939-bd15-a6edbea8c3b6,7,000,0,0,001,64000001000000800,0.0,2079-06-06,Соборный,6450,6450,,,63401364000,63701000001,20,bf465fda-7834-47d5-986b-ccdb584a85a6,000,640000010000008,410031,0bf6737d-5001-40cb-b3a7-26d4c94212f3,64,туп,2020-08-12,0008,,,2020-08-16,000,0000,000,1,,0000,,0
0,cbe8cbff-f908-45f6-9972-306fed768719,c1e37d66-4d83-4f59-aed8-62dc5c18e893,7,000,0,0,001,64000001000094400,0.0,2079-06-06,Песковский,6450,6450,7b98ac76-7341-4779-81b6-3e3be4482e55,,63401364000,63701000,1,bf465fda-7834-47d5-986b-ccdb584a85a6,000,640000010000944,410031,,64,пер,1900-01-01,0944,,,2020-08-16,000,0000,000,0,,0000,,0
1,cbe8cbff-f908-45f6-9972-306fed768719,7b98ac76-7341-4779-81b6-3e3be4482e55,7,000,0,0,001,64000001000094400,0.0,2079-06-06,Песковский,6450,6450,,,63401364000,63701000001,20,bf465fda-7834-47d5-986b-ccdb584a85a6,000,640000010000944,410031,c1e37d66-4d83-4f59-aed8-62dc5c18e893,64,пер,2020-08-13,0944,,,2020-08-16,000,0000,000,1,,0000,,0
0,bd0cdb00-a7d1-43a1-a674-3e219fa52fe9,02819b56-5cac-4b5f-9ff0-2d384f5e4d2d,7,000,0,0,001,64000001000174701,1.0,2018-10-08,Садовая 3-я,6450,6450,d8c5b324-b7a2-4b85-b1de-e60539284e3b,,63401372000,63701000,1,bf465fda-7834-47d5-986b-ccdb584a85a6,000,640000010001747,410012,,64,ул,1900-01-01,1747,6452,6452,2020-08-16,000,0000,000,0,,0000,,0
0,bd0cdb00-a7d1-43a1-a674-3e219fa52fe9,d8c5b324-b7a2-4b85-b1de-e60539284e3b,7,000,0,0,001,64000001000174700,0.0,2079-06-06,3-я Садовая,6450,6450,cf3415ae-28d0-4162-ba35-023376fbc46d,,63401372000,63701000,20,bf465fda-7834-47d5-986b-ccdb584a85a6,000,640000010001747,410012,02819b56-5cac-4b5f-9ff0-2d384f5e4d2d,64,ул,2018-10-08,1747,6452,6452,2020-08-16,000,0000,000,0,04c8937f-e3b3-4828-b859-f9b734912683,0000,,0
1,bd0cdb00-a7d1-43a1-a674-3e219fa52fe9,cf3415ae-28d0-4162-ba35-023376fbc46d,7,000,0,0,001,64000001000174700,0.0,2079-06-06,3-я Садовая,6450,6450,,,63401372000,63701000001,20,bf465fda-7834-47d5-986b-ccdb584a85a6,000,640000010001747,410012,d8c5b324-b7a2-4b85-b1de-e60539284e3b,64,ул,2020-08-13,1747,6452,6452,2020-08-16,000,0000,000,1,,0000,,0
1,00f2babc-b279-4fea-b0f5-2fc46ba54a92,00f2babc-b279-4fea-b0f5-2fc46ba54a92,65,039,0,0,000,64039000000034900,0.0,2079-06-06,СНТ Авангард,6449,6449,,,63250550000,63650101,10,7051ab15-7d76-4817-9bec-b61e18ef91d2,000,640390000000349,,,64,зона,2020-08-14,0000,,,2020-08-16,000,0000,000,1,,0349,,0
0,454d5de0-34f0-4ae1-9d56-5d587039f669,539a0bc3-4252-43be-83ed-049d36637681,7,000,0,0,001,64000001000509100,0.0,2079-06-06,Военный карьер,6450,6450,552b13c1-5dab-4500-b8e1-afbded79914d,,63401372000,63701000,1,bf465fda-7834-47d5-986b-ccdb584a85a6,000,640000010005091,410009,,64,пер,1900-01-01,5091,6452,6452,2020-08-16,000,0000,000,0,,0000,,0
1,454d5de0-34f0-4ae1-9d56-5d587039f669,552b13c1-5dab-4500-b8e1-afbded79914d,7,000,0,0,001,64000001000509100,0.0,2079-06-06,Военный карьер,6450,6450,,,63401372000,63701000001,20,bf465fda-7834-47d5-986b-ccdb584a85a6,000,640000010005091,410009,539a0bc3-4252-43be-83ed-049d36637681,64,пер,2020-08-13,5091,6452,6452,2020-08-16,000,0000,000,1,,0000,,0
0,5d2fea70-5383-473e-a964-798215bfa671,e80fa4d5-70c3-4cbe-a46f-0defb5426b1a,7,000,0,0,001,64000001000047500,0.0,2079-06-06,Каспийский 1-й,6451,6451,60e441d5-a961-4cc2-8856-4b8cf6e395ab,,63401368000,63701000,1,bf465fda-7834-47d5-986b-ccdb584a85a6,000,640000010000475,410048,,64,туп,1900-01-01,0475,,,2020-08-16,000,0000,000,0,,0000,,0
1,5d2fea70-5383-473e-a964-798215bfa671,60e441d5-a961-4cc2-8856-4b8cf6e395ab,7,000,0,0,001,64000001000047500,0.0,2079-06-06,Каспийский 1-й,6451,6451,,,63401368000,63701000001,20,bf465fda-7834-47d5-986b-ccdb584a85a6,000,640000010000475,410048,e80fa4d5-70c3-4cbe-a46f-0defb5426b1a,64,туп,2020-08-13,0475,,,2020-08-16,000,0000,000,1,,0000,,0
0,9d23a9bb-6c63-4524-b2c2-ab15076e48ef,79de8752-2fba-4f8f-8fbb-66b4de0db422,7,000,0,0,001,64000001000129800,0.0,2079-06-06,Томский,6451,6451,06e4eaad-acb8-40f6-b7e3-055d92f1c53d,,63401368000,63701000,1,bf465fda-7834-47d5-986b-ccdb584a85a6,000,640000010001298,410049,,64,туп,1900-01-01,1298,,,2020-08-16,000,0000,000,0,,0000,,0
1,9d23a9bb-6c63-4524-b2c2-ab15076e48ef,06e4eaad-acb8-40f6-b7e3-055d92f1c53d,7,000,0,0,001,64000001000129800,0.0,2079-06-06,Томский,6451,6451,,,63401368000,63701000001,20,bf465fda-7834-47d5-986b-ccdb584a85a6,000,640000010001298,410049,79de8752-2fba-4f8f-8fbb-66b4de0db422,64,туп,2020-08-13,1298,,,2020-08-16,000,0000,000,1,,0000,,0
0,c2725375-0d49-491a-bab9-f99db8c0feab,f6c5f94c-1981-401a-bf32-309e8fad0a67,7,000,0,0,001,64000001000055000,0.0,2079-06-06,Красный 1-й,6454,6454,26cbc43e-3afb-4f82-bab5-6e077fb5d5b3,,63401380000,63701000,1,bf465fda-7834-47d5-986b-ccdb584a85a6,000,640000010000550,410017,,64,туп,1900-01-01,0550,,,2020-08-16,000,0000,000,0,,0000,,0
1,c2725375-0d49-491a-bab9-f99db8c0feab,26cbc43e-3afb-4f82-bab5-6e077fb5d5b3,7,000,0,0,001,64000001000055000,0.0,2079-06-06,Красный 1-й,6454,6454,,,63401380000,63701000001,20,bf465fda-7834-47d5-986b-ccdb584a85a6,000,640000010000550,410017,f6c5f94c-1981-401a-bf32-309e8fad0a67,64,туп,2020-08-13,0550,,,2020-08-16,000,0000,000,1,,0000,,0
0,af758265-e365-475a-83d0-aaec56ccf37a,a9159340-68c8-4144-9edf-365f3d2ac6af,7,000,0,0,001,64000001000162300,0.0,2079-06-06,Соколовый 2-й,6450,6450,abbb104c-9e42-468c-a57a-0f015ea30726,,63401372000,63701000,1,bf465fda-7834-47d5-986b-ccdb584a85a6,000,640000010001623,410005,,64,пер,1900-01-01,1623,6452,6452,2020-08-16,000,0000,000,0,,0000,,0
1,af758265-e365-475a-83d0-aaec56ccf37a,abbb104c-9e42-468c-a57a-0f015ea30726,7,000,0,0,001,64000001000162300,0.0,2079-06-06,Соколовый 2-й,6450,6450,,,63401372000,63701000001,20,bf465fda-7834-47d5-986b-ccdb584a85a6,000,640000010001623,410005,a9159340-68c8-4144-9edf-365f3d2ac6af,64,пер,2020-08-13,1623,6452,6452,2020-08-16,000,0000,000,1,,0000,,0
0,6e203555-7227-4829-9cd0-3396edc626cb,b4070846-4062-429c-879d-8b4e9548cdc8,7,000,0,0,001,64000001000568700,0.0,2079-06-06,1-я Дачная,6450,6450,833df658-5460-4371-8f17-3a81854ae348,,63401372000,63701000,1,bf465fda-7834-47d5-986b-ccdb584a85a6,000,640000010005687,410009,,64,ул,1900-01-01,5687,6452,6452,2020-08-16,000,0000,000,0,,0000,,0
1,6e203555-7227-4829-9cd0-3396edc626cb,833df658-5460-4371-8f17-3a81854ae348,7,000,0,0,001,64000001000568700,0.0,2079-06-06,1-я Дачная,6450,6450,,,63401372000,63701000001,20,bf465fda-7834-47d5-986b-ccdb584a85a6,000,640000010005687,410009,b4070846-4062-429c-879d-8b4e9548cdc8,64,ул,2020-08-13,5687,6452,6452,2020-08-16,000,0000,000,1,,0000,,0
0,a776004d-3144-48df-8fe5-9bc11cea4480,34d29561-11a1-4b29-90e1-46ecc7a3b9cf,7,000,0,0,001,64000001000162800,0.0,2079-06-06,Соколовский 2-й,6450,6450,97e83861-f376-4f82-9acc-86f343fecdc6,,63401372000,63701000,1,bf465fda-7834-47d5-986b-ccdb584a85a6,000,640000010001628,410005,,64,туп,1900-01-01,1628,6452,6452,2020-08-16,000,0000,000,0,,0000,,0
1,a776004d-3144-48df-8fe5-9bc11cea4480,97e83861-f376-4f82-9acc-86f343fecdc6,7,000,0,0,001,64000001000162800,0.0,2079-06-06,Соколовский 2-й,6450,6450,,,63401372000,63701000001,20,bf465fda-7834-47d5-986b-ccdb584a85a6,000,640000010001628,410005,34d29561-11a1-4b29-90e1-46ecc7a3b9cf,64,туп,2020-08-13,1628,6452,6452,2020-08-16,000,0000,000,1,,0000,,0
0,3739d205-5322-4bd2-8d2e-4998d7513e9d,627ac896-2f64-4305-9e78-2366280b2f58,7,000,0,0,001,64000001000165000,0.0,2079-06-06,Соколовогорский,6450,6450,02526063-5d5d-454e-acee-d1b735890909,,63401364000,63701000,1,bf465fda-7834-47d5-986b-ccdb584a85a6,000,640000010001650,410038,,64,туп,1900-01-01,1650,,,2020-08-16,000,0000,000,0,,0000,,0
1,3739d205-5322-4bd2-8d2e-4998d7513e9d,02526063-5d5d-454e-acee-d1b735890909,7,000,0,0,001,64000001000165000,0.0,2079-06-06,Соколовогорский,6450,6450,,,63401364000,63701000001,20,bf465fda-7834-47d5-986b-ccdb584a85a6,000,640000010001650,410038,627ac896-2f64-4305-9e78-2366280b2f58,64,туп,2020-08-12,1650,,,2020-08-16,000,0000,000,1,,0000,,0
0,1b244d8e-cb7b-4366-914e-7195b3a8dad3,c198da85-c00e-4704-b78a-5f050ef46a79,7,000,0,0,001,64000001000055800,0.0,2079-06-06,Крекингский 3-й,6451,6451,4f3a3b0d-5b5b-4ddd-a48a-fe823d6d7026,,63401368000,63701000,1,bf465fda-7834-47d5-986b-ccdb584a85a6,000,640000010000558,410048,,64,туп,1900-01-01,0558,,,2020-08-16,000,0000,000,0,,0000,,0
1,1b244d8e-cb7b-4366-914e-7195b3a8dad3,4f3a3b0d-5b5b-4ddd-a48a-fe823d6d7026,7,000,0,0,001,64000001000055800,0.0,2079-06-06,Крекингский 3-й,6451,6451,,,63401368000,63701000001,20,bf465fda-7834-47d5-986b-ccdb584a85a6,000,640000010000558,410048,c198da85-c00e-4704-b78a-5f050ef46a79,64,туп,2020-08-13,0558,,,2020-08-16,000,0000,000,1,,0000,,0
0,473d1c7a-2566-4306-a31d-14b4efac32fb,9637f5ec-0455-4783-8cdf-b1bde3ed2902,7,000,0,0,001,64000001000164300,0.0,2079-06-06,Динамовский 6-й,6451,6451,37cc25e7-78ee-40c6-9637-2b4a9081f68e,,63401368000,63701000,1,bf465fda-7834-47d5-986b-ccdb584a85a6,000,640000010001643,410036,,64,туп,1900-01-01,1643,,,2020-08-16,000,0000,000,0,,0000,,0
1,473d1c7a-2566-4306-a31d-14b4efac32fb,37cc25e7-78ee-40c6-9637-2b4a9081f68e,7,000,0,0,001,64000001000164300,0.0,2079-06-06,Динамовский 6-й,6451,6451,,,63401368000,63701000001,20,bf465fda-7834-47d5-986b-ccdb584a85a6,000,640000010001643,410036,9637f5ec-0455-4783-8cdf-b1bde3ed2902,64,туп,2020-08-13,1643,,,2020-08-16,000,0000,000,1,,0000,,0
1,1e399170-64d0-44ee-a9fc-27c1ec75ea8d,1e399170-64d0-44ee-a9fc-27c1ec75ea8d,65,001,0,0,000,64001000120001000,0.0,2079-06-06,Сиреневая,6432,6432,,,63243000030,63643470111,10,478886f9-6112-4f71-979e-316980add534,120,640010001200010,410506,,64,тер,2020-08-12,0000,,,2020-08-16,000,0000,000,1,,0010,,0
0,78604474-432a-47ac-9399-384529788e14,90dc94e3-c82d-496f-90e3-d711c0359c07,7,000,0,0,001,64000001000145400,0.0,2079-06-06,Южный 2-й,6451,6451,fceec6f1-29bb-4067-85b4-97e9178cdffb,,63401368000,63701000,1,bf465fda-7834-47d5-986b-ccdb584a85a6,000,640000010001454,410036,,64,туп,1900-01-01,1454,,,2020-08-16,000,0000,000,0,,0000,,0
1,78604474-432a-47ac-9399-384529788e14,fceec6f1-29bb-4067-85b4-97e9178cdffb,7,000,0,0,001,64000001000145400,0.0,2079-06-06,Южный 2-й,6451,6451,,,63401368000,63701000001,20,bf465fda-7834-47d5-986b-ccdb584a85a6,000,640000010001454,410036,90dc94e3-c82d-496f-90e3-d711c0359c07,64,туп,2020-08-13,1454,,,2020-08-16,000,0000,000,1,,0000,,0
0,13dbead6-c236-47db-b930-29a51e9c3a91,77a75d3e-35f7-43a8-8f56-290883bdd844,7,000,0,0,001,64000001000010901,1.0,2019-01-11,Беговая 4-я,6454,6454,ec83510a-7468-4862-b9ca-f76aa201d8ac,,63401380000,63701000,1,bf465fda-7834-47d5-986b-ccdb584a85a6,000,640000010000109,410008,,64,ул,1900-01-01,0109,,,2020-08-16,000,0000,000,0,,0000,,0
0,13dbead6-c236-47db-b930-29a51e9c3a91,ec83510a-7468-4862-b9ca-f76aa201d8ac,7,000,0,0,001,64000001000010900,0.0,2079-06-06,4-я Беговая,6454,6454,1ccd9e72-633a-449b-a0f5-0130ff114a01,,63401380000,63701000,20,bf465fda-7834-47d5-986b-ccdb584a85a6,000,640000010000109,410008,77a75d3e-35f7-43a8-8f56-290883bdd844,64,ул,2019-01-11,0109,,,2020-08-16,000,0000,000,0,28b87136-e63e-41dd-b46b-b1628bcf442a,0000,,0
1,13dbead6-c236-47db-b930-29a51e9c3a91,1ccd9e72-633a-449b-a0f5-0130ff114a01,7,000,0,0,001,64000001000010900,0.0,2079-06-06,4-я Беговая,6454,6454,,,63401380000,63701000001,20,bf465fda-7834-47d5-986b-ccdb584a85a6,000,640000010000109,410008,ec83510a-7468-4862-b9ca-f76aa201d8ac,64,ул,2020-08-13,0109,,,2020-08-16,000,0000,000,1,,0000,,0
0,279450fc-126c-4821-91db-2d579a41899b,145dae5e-0040-459d-a22d-5d04d0638287,7,000,0,0,001,64000001000561700,0.0,2079-06-06,Большой Астраханский,6451,6451,5954429e-7155-4180-9a22-594d17e4e6a2,,63401368000,63701000,1,bf465fda-7834-47d5-986b-ccdb584a85a6,000,640000010005617,,,64,туп,1900-01-01,5617,,,2020-08-16,000,0000,000,0,,0000,,0
1,279450fc-126c-4821-91db-2d579a41899b,5954429e-7155-4180-9a22-594d17e4e6a2,7,000,0,0,001,64000001000561700,0.0,2079-06-06,Большой Астраханский,6451,6451,,,63401368000,63701000001,20,bf465fda-7834-47d5-986b-ccdb584a85a6,000,640000010005617,,145dae5e-0040-459d-a22d-5d04d0638287,64,туп,2020-08-13,5617,,,2020-08-16,000,0000,000,1,,0000,,0
0,c65fecbc-ca69-4a49-9808-89aeaffc86d1,5c540096-eb6b-43f4-8468-c3b912a7f374,7,000,0,0,001,64000001000075301,1.0,2018-09-05,Нагорная 1-я,6451,6451,928a0261-7e86-4863-a0ed-a230552009d7,,63401368000,63701000,1,bf465fda-7834-47d5-986b-ccdb584a85a6,000,640000010000753,410001,,64,ул,1900-01-01,0753,,,2020-08-16,000,0000,000,0,,0000,,0
0,c65fecbc-ca69-4a49-9808-89aeaffc86d1,928a0261-7e86-4863-a0ed-a230552009d7,7,000,0,0,001,64000001000075300,0.0,2079-06-06,1-я Нагорная,6451,6451,36b7fd62-cc25-44c6-9565-8f5087fe8b98,,63401368000,63701000,20,bf465fda-7834-47d5-986b-ccdb584a85a6,000,640000010000753,410001,5c540096-eb6b-43f4-8468-c3b912a7f374,64,ул,2018-09-05,0753,,,2020-08-16,000,0000,000,0,a86224d6-069b-4868-8c50-95bfbe18cc98,0000,,0
1,c65fecbc-ca69-4a49-9808-89aeaffc86d1,36b7fd62-cc25-44c6-9565-8f5087fe8b98,7,000,0,0,001,64000001000075300,0.0,2079-06-06,1-я Нагорная,6451,6451,,,63401368000,63701000001,20,bf465fda-7834-47d5-986b-ccdb584a85a6,000,640000010000753,410001,928a0261-7e86-4863-a0ed-a230552009d7,64,ул,2020-08-13,0753,,,2020-08-16,000,0000,000,1,,0000,,0
0,ab5daa13-d227-4197-860a-d581ad11de7a,41c39492-c2bc-42f9-9579-a9df53a9f749,7,000,0,0,001,64000001000114801,1.0,2018-09-04,Сенной 7-й,6450,6450,7df6fff7-cb8b-4ab0-8b17-28ade4a88d41,,63401372000,63701000,1,bf465fda-7834-47d5-986b-ccdb584a85a6,000,640000010001148,410005,,64,туп,1900-01-01,1148,6452,6452,2020-08-16,000,0000,000,0,,0000,,0
0,ab5daa13-d227-4197-860a-d581ad11de7a,7df6fff7-cb8b-4ab0-8b17-28ade4a88d41,7,000,0,0,001,64000001000114800,0.0,2079-06-06,7-й Сенной,6450,6450,717ce08b-52f5-40fb-be81-626c42edce10,,63401372000,63701000,20,bf465fda-7834-47d5-986b-ccdb584a85a6,000,640000010001148,410005,41c39492-c2bc-42f9-9579-a9df53a9f749,64,туп,2018-09-04,1148,6452,6452,2020-08-16,000,0000,000,0,f479234c-a28e-4669-a34a-35e2ecc5eac1,0000,,0
1,ab5daa13-d227-4197-860a-d581ad11de7a,717ce08b-52f5-40fb-be81-626c42edce10,7,000,0,0,001,64000001000114800,0.0,2079-06-06,7-й Сенной,6450,6450,,,63401372000,63701000001,20,bf465fda-7834-47d5-986b-ccdb584a85a6,000,640000010001148,410005,7df6fff7-cb8b-4ab0-8b17-28ade4a88d41,64,туп,2020-08-13,1148,6452,6452,2020-08-16,000,0000,000,1,,0000,,0
0,9d957341-9e33-4259-a205-f75c51b39e75,4f47a859-2e36-4a0d-901f-ca37bdc214f6,7,000,0,0,001,64000001000079200,0.0,2079-06-06,Нефтяной 1-й,6451,6451,0dc615c5-b0d5-4a5f-9794-8f59bc84013d,,63401368000,63701000,1,bf465fda-7834-47d5-986b-ccdb584a85a6,000,640000010000792,410055,,64,туп,1900-01-01,0792,,,2020-08-16,000,0000,000,0,,0000,,0
1,9d957341-9e33-4259-a205-f75c51b39e75,0dc615c5-b0d5-4a5f-9794-8f59bc84013d,7,000,0,0,001,64000001000079200,0.0,2079-06-06,Нефтяной 1-й,6451,6451,,,63401368000,63701000001,20,bf465fda-7834-47d5-986b-ccdb584a85a6,000,640000010000792,410055,4f47a859-2e36-4a0d-901f-ca37bdc214f6,64,туп,2020-08-13,0792,,,2020-08-16,000,0000,000,1,,0000,,0
0,c17b75b4-9c6f-4331-8d32-4bc8ff1166ba,8a3b7eb1-46de-46b7-88f8-3b627b153d65,7,000,0,0,001,64000001000410000,0.0,2079-06-06,Пензенский,6451,6451,5674cf0a-b62c-44fc-9b3f-05294afdd596,,63401368000,63701000,1,bf465fda-7834-47d5-986b-ccdb584a85a6,000,640000010004100,,,64,пер,1900-01-01,4100,,,2020-08-16,000,0000,000,0,,0000,,0
1,c17b75b4-9c6f-4331-8d32-4bc8ff1166ba,5674cf0a-b62c-44fc-9b3f-05294afdd596,7,000,0,0,001,64000001000410000,0.0,2079-06-06,Пензенский,6451,6451,,,63401368000,63701000001,20,bf465fda-7834-47d5-986b-ccdb584a85a6,000,640000010004100,,8a3b7eb1-46de-46b7-88f8-3b627b153d65,64,пер,2020-08-13,4100,,,2020-08-16,000,0000,000,1,,0000,,0
0,52bb2b42-f107-4ddd-9ace-955141a94860,861c717e-cb54-40b4-bbc9-e196e5c61a24,7,000,0,0,001,64000001000508300,0.0,2079-06-06,Аткарский,6453,6453,914156fe-8d4d-4a65-99a0-e16f2cd74123,,63401376000,63701000,1,bf465fda-7834-47d5-986b-ccdb584a85a6,000,640000010005083,410051,,64,тракт,1900-01-01,5083,,,2020-08-16,000,0000,000,0,,0000,,0
1,52bb2b42-f107-4ddd-9ace-955141a94860,914156fe-8d4d-4a65-99a0-e16f2cd74123,7,000,0,0,001,64000001000508300,0.0,2079-06-06,Аткарский,6453,6453,,,63401376000,63701000001,20,bf465fda-7834-47d5-986b-ccdb584a85a6,000,640000010005083,410051,861c717e-cb54-40b4-bbc9-e196e5c61a24,64,тракт,2020-08-14,5083,,,2020-08-16,000,0000,000,1,,0000,,0
0,0110d3be-03a1-409a-ba8c-898dbcc2059c,3adb46c8-83b5-4b36-b731-929439ab13a2,7,000,0,0,001,64000001000106301,1.0,1998-05-21,Радищевский,6450,6450,60afd1ac-3607-41cb-b7bb-4145ce08b488,,63401364000,63701000,1,bf465fda-7834-47d5-986b-ccdb584a85a6,000,640000010001063,410003,,64,туп,1998-05-20,1063,,,2020-08-16,000,0000,000,0,,0000,,0
0,0110d3be-03a1-409a-ba8c-898dbcc2059c,60afd1ac-3607-41cb-b7bb-4145ce08b488,7,000,0,0,001,64000001000106302,2.0,1998-05-22,им А.Н.Радищева,6450,6450,aa40dba0-7281-422b-8d05-6090cf6be450,,63401364000,63701000,20,bf465fda-7834-47d5-986b-ccdb584a85a6,000,640000010001063,410003,3adb46c8-83b5-4b36-b731-929439ab13a2,64,туп,1998-05-21,1063,,,2020-08-16,000,0000,000,0,,0000,,0
0,0110d3be-03a1-409a-ba8c-898dbcc2059c,aa40dba0-7281-422b-8d05-6090cf6be450,7,000,0,0,001,64000001000106300,0.0,2079-06-06,им Радищева А.Н.,6450,6450,11eb2cd5-a535-4a6f-b7e6-188b141a3620,,63401364000,63701000,20,bf465fda-7834-47d5-986b-ccdb584a85a6,000,640000010001063,410003,60afd1ac-3607-41cb-b7bb-4145ce08b488,64,туп,1998-05-22,1063,,,2020-08-16,000,0000,000,0,,0000,,0
1,0110d3be-03a1-409a-ba8c-898dbcc2059c,11eb2cd5-a535-4a6f-b7e6-188b141a3620,7,000,0,0,001,64000001000106300,0.0,2079-06-06,им Радищева А.Н.,6450,6450,,,63401364000,63701000001,20,bf465fda-7834-47d5-986b-ccdb584a85a6,000,640000010001063,410003,aa40dba0-7281-422b-8d05-6090cf6be450,64,туп,2020-08-13,1063,,,2020-08-16,000,0000,000,1,,0000,,0
0,26737f75-2a36-46bd-b263-87d7cea2be77,e241dfa9-ea0d-4b6b-8dae-187b6946cf43,7,000,0,0,001,64000001000042001,1.0,2018-10-22,Земляная 2-я,6450,6450,cf43deed-c6a8-48b5-bb0b-4e1077552dc6,,63401372000,63701000,1,bf465fda-7834-47d5-986b-ccdb584a85a6,000,640000010000420,410012,,64,ул,1900-01-01,0420,6452,6452,2020-08-16,000,0000,000,0,,0000,,0
0,26737f75-2a36-46bd-b263-87d7cea2be77,cf43deed-c6a8-48b5-bb0b-4e1077552dc6,7,000,0,0,001,64000001000042000,0.0,2079-06-06,2-я Земляная,6450,6450,d4545356-4090-495d-bc66-99ba38947c51,,63401372000,63701000,20,bf465fda-7834-47d5-986b-ccdb584a85a6,000,640000010000420,410012,e241dfa9-ea0d-4b6b-8dae-187b6946cf43,64,ул,2018-10-22,0420,6452,6452,2020-08-16,000,0000,000,0,ebdd76dd-4c24-4584-9f5b-ff077b134385,0000,,0
1,26737f75-2a36-46bd-b263-87d7cea2be77,d4545356-4090-495d-bc66-99ba38947c51,7,000,0,0,001,64000001000042000,0.0,2079-06-06,2-я Земляная,6450,6450,,,63401372000,63701000001,20,bf465fda-7834-47d5-986b-ccdb584a85a6,000,640000010000420,410012,cf43deed-c6a8-48b5-bb0b-4e1077552dc6,64,ул,2020-08-13,0420,6452,6452,2020-08-16,000,0000,000,1,,0000,,0
0,b5a529f8-e9c3-4a97-86b9-16835619fa4d,9a5f28a3-f0f6-402d-8dee-82ebe25135be,7,000,0,0,001,64000001000139300,0.0,2079-06-06,Чайковского 6-й,6453,6453,61dcd574-f927-4528-826b-8a4f53689655,,63401376000,63701000,1,bf465fda-7834-47d5-986b-ccdb584a85a6,000,640000010001393,410033,,64,туп,1900-01-01,1393,,,2020-08-16,000,0000,000,0,,0000,,0
1,b5a529f8-e9c3-4a97-86b9-16835619fa4d,61dcd574-f927-4528-826b-8a4f53689655,7,000,0,0,001,64000001000139300,0.0,2079-06-06,Чайковского 6-й,6453,6453,,,63401376000,63701000001,20,bf465fda-7834-47d5-986b-ccdb584a85a6,000,640000010001393,410033,9a5f28a3-f0f6-402d-8dee-82ebe25135be,64,туп,2020-08-12,1393,,,2020-08-16,000,0000,000,1,,0000,,0
0,ecc13219-d55e-41a6-9508-128e1a99cb53,6dbcf6fc-88ef-4c2f-8d9e-443ebe4f54e7,7,000,0,0,001,64000001000120300,0.0,2079-06-06,Соликамский 4-й,6451,6451,152c95b9-50da-4e58-a7e9-4b676b311874,,63401368000,63701000,1,bf465fda-7834-47d5-986b-ccdb584a85a6,000,640000010001203,410036,,64,туп,1900-01-01,1203,,,2020-08-16,000,0000,000,0,,0000,,0
1,ecc13219-d55e-41a6-9508-128e1a99cb53,152c95b9-50da-4e58-a7e9-4b676b311874,7,000,0,0,001,64000001000120300,0.0,2079-06-06,Соликамский 4-й,6451,6451,,,63401368000,63701000001,20,bf465fda-7834-47d5-986b-ccdb584a85a6,000,640000010001203,410036,6dbcf6fc-88ef-4c2f-8d9e-443ebe4f54e7,64,туп,2020-08-13,1203,,,2020-08-16,000,0000,000,1,,0000,,0
0,def3664a-a8d6-4c6a-a99d-ae8ae8ba5e2a,bca93cf7-7e9a-45ab-803f-80100a582314,7,000,0,0,001,64000001000162200,0.0,2079-06-06,Соколовый 1-й,6450,6450,9d64e0d7-094b-4e8d-a92c-f8b56c4ccd6f,,63401372000,63701000,1,bf465fda-7834-47d5-986b-ccdb584a85a6,000,640000010001622,410005,,64,пер,1900-01-01,1622,6452,6452,2020-08-16,000,0000,000,0,,0000,,0
1,def3664a-a8d6-4c6a-a99d-ae8ae8ba5e2a,9d64e0d7-094b-4e8d-a92c-f8b56c4ccd6f,7,000,0,0,001,64000001000162200,0.0,2079-06-06,Соколовый 1-й,6450,6450,,,63401372000,63701000001,20,bf465fda-7834-47d5-986b-ccdb584a85a6,000,640000010001622,410005,bca93cf7-7e9a-45ab-803f-80100a582314,64,пер,2020-08-13,1622,6452,6452,2020-08-16,000,0000,000,1,,0000,,0
0,d0627ce6-047b-4dfb-903e-69718d6d5f1c,506e5286-37b4-465e-b8ac-457512b4509a,7,000,0,0,001,64000001000162400,0.0,2079-06-06,Соколовый 3-й,6450,6450,378faea6-d627-4b5b-abbf-ae3099e6ef9b,,63401372000,63701000,1,bf465fda-7834-47d5-986b-ccdb584a85a6,000,640000010001624,410005,,64,пер,1900-01-01,1624,6452,6452,2020-08-16,000,0000,000,0,,0000,,0
1,d0627ce6-047b-4dfb-903e-69718d6d5f1c,378faea6-d627-4b5b-abbf-ae3099e6ef9b,7,000,0,0,001,64000001000162400,0.0,2079-06-06,Соколовый 3-й,6450,6450,,,63401372000,63701000001,20,bf465fda-7834-47d5-986b-ccdb584a85a6,000,640000010001624,410005,506e5286-37b4-465e-b8ac-457512b4509a,64,пер,2020-08-13,1624,6452,6452,2020-08-16,000,0000,000,1,,0000,,0
0,b8bac0a3-958a-4956-bebe-00123e5dc855,3ea7ce16-fd35-4227-baf1-e2df8ec754b1,7,000,0,0,001,64000001000136300,0.0,2079-06-06,Финляндский,6451,6451,e0aac42c-a22e-4925-8e84-b480be5f27f2,,63401368000,63701000,1,bf465fda-7834-47d5-986b-ccdb584a85a6,000,640000010001363,410060,,64,туп,1900-01-01,1363,,,2020-08-16,000,0000,000,0,,0000,,0
1,b8bac0a3-958a-4956-bebe-00123e5dc855,e0aac42c-a22e-4925-8e84-b480be5f27f2,7,000,0,0,001,64000001000136300,0.0,2079-06-06,Финляндский,6451,6451,,,63401368000,63701000001,20,bf465fda-7834-47d5-986b-ccdb584a85a6,000,640000010001363,410060,3ea7ce16-fd35-4227-baf1-e2df8ec754b1,64,туп,2020-08-13,1363,,,2020-08-16,000,0000,000,1,,0000,,0
0,dc2cbf00-7b5a-4850-998e-b22939da8d2d,a7a29b26-dc3b-469d-b236-6a1b864007f4,7,000,0,0,001,64000001000034001,1.0,2018-09-03,Динамовский 3-й,6451,6451,44678f8b-caeb-4dcd-af54-6ae708792fe0,,63401368000,63701000,1,bf465fda-7834-47d5-986b-ccdb584a85a6,000,640000010000340,,,64,пер,1900-01-01,0340,,,2020-08-16,000,0000,000,0,,0000,,0
0,dc2cbf00-7b5a-4850-998e-b22939da8d2d,44678f8b-caeb-4dcd-af54-6ae708792fe0,7,000,0,0,001,64000001000034000,0.0,2079-06-06,3-й Динамовский,6451,6451,1cc2949b-bee5-46bd-8909-06f84ff32f21,,63401368000,63701000,20,bf465fda-7834-47d5-986b-ccdb584a85a6,000,640000010000340,,a7a29b26-dc3b-469d-b236-6a1b864007f4,64,пер,2018-09-03,0340,,,2020-08-16,000,0000,000,0,9700e1ef-d189-413d-a032-45f8df4983bd,0000,,0
1,dc2cbf00-7b5a-4850-998e-b22939da8d2d,1cc2949b-bee5-46bd-8909-06f84ff32f21,7,000,0,0,001,64000001000034000,0.0,2079-06-06,3-й Динамовский,6451,6451,,,63401368000,63701000001,20,bf465fda-7834-47d5-986b-ccdb584a85a6,000,640000010000340,,44678f8b-caeb-4dcd-af54-6ae708792fe0,64,пер,2020-08-13,0340,,,2020-08-16,000,0000,000,1,,0000,,0
0,5eac8d4a-cdf8-480e-a0e8-e88bcf86a22a,711b3eb3-0751-4944-9a45-a992726a3214,7,000,0,0,001,64000001000010801,1.0,2019-01-11,Беговая 3-я,6454,6454,5cff560c-1031-4879-8316-9d6f2fda0acd,,63401380000,63701000,1,bf465fda-7834-47d5-986b-ccdb584a85a6,000,640000010000108,410008,,64,ул,1900-01-01,0108,,,2020-08-16,000,0000,000,0,,0000,,0
0,5eac8d4a-cdf8-480e-a0e8-e88bcf86a22a,5cff560c-1031-4879-8316-9d6f2fda0acd,7,000,0,0,001,64000001000010800,0.0,2079-06-06,3-я Беговая,6454,6454,901be196-500c-4534-b64e-be71a2bce213,,63401380000,63701000,20,bf465fda-7834-47d5-986b-ccdb584a85a6,000,640000010000108,410008,711b3eb3-0751-4944-9a45-a992726a3214,64,ул,2019-01-11,0108,,,2020-08-16,000,0000,000,0,28b87136-e63e-41dd-b46b-b1628bcf442a,0000,,0
1,5eac8d4a-cdf8-480e-a0e8-e88bcf86a22a,901be196-500c-4534-b64e-be71a2bce213,7,000,0,0,001,64000001000010800,0.0,2079-06-06,3-я Беговая,6454,6454,,,63401380000,63701000001,20,bf465fda-7834-47d5-986b-ccdb584a85a6,000,640000010000108,410008,5cff560c-1031-4879-8316-9d6f2fda0acd,64,ул,2020-08-13,0108,,,2020-08-16,000,0000,000,1,,0000,,0
0,29030574-6cb1-4e01-b71b-daf3bf78990e,6306b10d-59d5-46ee-baf2-62d4dcc11442,7,000,0,0,001,64000001000075601,1.0,2018-09-05,Нагорная 2-я,6451,6451,1d8be246-f8ae-4912-ae82-bd7bf5bf3509,,63401368000,63701000,1,bf465fda-7834-47d5-986b-ccdb584a85a6,000,640000010000756,410001,,64,ул,1900-01-01,0756,,,2020-08-16,000,0000,000,0,,0000,,0
0,29030574-6cb1-4e01-b71b-daf3bf78990e,1d8be246-f8ae-4912-ae82-bd7bf5bf3509,7,000,0,0,001,64000001000075600,0.0,2079-06-06,2-я Нагорная,6451,6451,c597f53d-4c2b-4cd9-b6f1-3da77c83ae08,,63401368000,63701000,20,bf465fda-7834-47d5-986b-ccdb584a85a6,000,640000010000756,410001,6306b10d-59d5-46ee-baf2-62d4dcc11442,64,ул,2018-09-05,0756,,,2020-08-16,000,0000,000,0,a86224d6-069b-4868-8c50-95bfbe18cc98,0000,,0
1,29030574-6cb1-4e01-b71b-daf3bf78990e,c597f53d-4c2b-4cd9-b6f1-3da77c83ae08,7,000,0,0,001,64000001000075600,0.0,2079-06-06,2-я Нагорная,6451,6451,,,63401368000,63701000001,20,bf465fda-7834-47d5-986b-ccdb584a85a6,000,640000010000756,410001,1d8be246-f8ae-4912-ae82-bd7bf5bf3509,64,ул,2020-08-13,0756,,,2020-08-16,000,0000,000,1,,0000,,0
0,1d685946-41b6-4b81-b6af-b31b34dc08e0,8ab03335-52b5-47a2-9f50-21a76a0ad663,7,000,0,0,001,64000001000515200,0.0,2079-06-06,Шелковичный 6-й,6455,6455,60843036-1728-4630-9de5-0af573f9ecb2,,63401386000,63701000,1,bf465fda-7834-47d5-986b-ccdb584a85a6,000,640000010005152,410017,,64,туп,1900-01-01,5152,,,2020-08-16,000,0000,000,0,,0000,,0
1,1d685946-41b6-4b81-b6af-b31b34dc08e0,60843036-1728-4630-9de5-0af573f9ecb2,7,000,0,0,001,64000001000515200,0.0,2079-06-06,Шелковичный 6-й,6455,6455,,,63401386000,63701000001,20,bf465fda-7834-47d5-986b-ccdb584a85a6,000,640000010005152,410017,8ab03335-52b5-47a2-9f50-21a76a0ad663,64,туп,2020-08-13,5152,,,2020-08-16,000,0000,000,1,,0000,,0
0,5bd30041-915a-4b90-9aac-4fd05380bdeb,f066768f-e5ca-4fc8-9e6c-f0e8c71148fa,7,000,0,0,001,64000001000541000,0.0,2079-06-06,Пристанское,6450,6450,e13c3668-5285-48cb-aa7f-8f2e881d8b8f,,63401364000,63701000,1,bf465fda-7834-47d5-986b-ccdb584a85a6,000,640000010005410,410038,,64,ш,1900-01-01,5410,,,2020-08-16,000,0000,000,0,,0000,,0
1,5bd30041-915a-4b90-9aac-4fd05380bdeb,e13c3668-5285-48cb-aa7f-8f2e881d8b8f,7,000,0,0,001,64000001000541000,0.0,2079-06-06,Пристанское,6450,6450,,,63401364000,63701000001,20,bf465fda-7834-47d5-986b-ccdb584a85a6,000,640000010005410,410038,f066768f-e5ca-4fc8-9e6c-f0e8c71148fa,64,ш,2020-08-14,5410,,,2020-08-16,000,0000,000,1,,0000,,0
0,30fa84bc-e874-42bb-b546-5b317da6d873,81dc64cf-0a3c-47ab-9d2d-3bb4541061e8,7,000,0,0,001,64000001000010200,0.0,2079-06-06,Барнаульский,6451,6451,1559bc52-ed0c-41ed-bb33-de2072283b31,,63401368000,63701000,1,bf465fda-7834-47d5-986b-ccdb584a85a6,000,640000010000102,410039,,64,туп,1900-01-01,0102,,,2020-08-16,000,0000,000,0,,0000,,0
1,30fa84bc-e874-42bb-b546-5b317da6d873,1559bc52-ed0c-41ed-bb33-de2072283b31,7,000,0,0,001,64000001000010200,0.0,2079-06-06,Барнаульский,6451,6451,,,63401368000,63701000001,20,bf465fda-7834-47d5-986b-ccdb584a85a6,000,640000010000102,410039,81dc64cf-0a3c-47ab-9d2d-3bb4541061e8,64,туп,2020-08-13,0102,,,2020-08-16,000,0000,000,1,,0000,,0
0,f0299d93-5c98-4759-a8e6-c17d339bcfaf,7477e7ae-cde0-47e1-b129-6bd012daa913,7,000,0,0,001,64000001000097200,0.0,2079-06-06,Полезный,6454,6454,15d4e7c6-7f8e-4f8f-9768-a15e1311c2d9,,63401380000,63701000,1,bf465fda-7834-47d5-986b-ccdb584a85a6,000,640000010000972,410054,,64,пер,1900-01-01,0972,,,2020-08-16,000,0000,000,0,,0000,,0
1,f0299d93-5c98-4759-a8e6-c17d339bcfaf,15d4e7c6-7f8e-4f8f-9768-a15e1311c2d9,7,000,0,0,001,64000001000097200,0.0,2079-06-06,Полезный,6454,6454,,,63401380000,63701000001,20,bf465fda-7834-47d5-986b-ccdb584a85a6,000,640000010000972,410054,7477e7ae-cde0-47e1-b129-6bd012daa913,64,пер,2020-08-13,0972,,,2020-08-16,000,0000,000,1,,0000,,0
0,fa1cd1b1-723c-4389-a0e3-e3709a984052,8f8401ae-afb9-41db-a026-a05c39c97444,7,000,0,0,001,64000001000507600,0.0,2079-06-06,Деловой,6453,6453,b96c6899-ca6d-47dc-b4d1-670de8898323,,63401376000,63701000,1,bf465fda-7834-47d5-986b-ccdb584a85a6,000,640000010005076,410040,,64,туп,1900-01-01,5076,,,2020-08-16,000,0000,000,0,,0000,,0
1,fa1cd1b1-723c-4389-a0e3-e3709a984052,b96c6899-ca6d-47dc-b4d1-670de8898323,7,000,0,0,001,64000001000507600,0.0,2079-06-06,Деловой,6453,6453,,,63401376000,63701000001,20,bf465fda-7834-47d5-986b-ccdb584a85a6,000,640000010005076,410040,8f8401ae-afb9-41db-a026-a05c39c97444,64,туп,2020-08-13,5076,,,2020-08-16,000,0000,000,1,,0000,,0
0,c582d7d4-fa2e-4740-918f-fde58984a377,9d1eaaca-fe8d-4471-9235-8f0e8601c3de,7,000,0,0,001,64000001000086500,0.0,2079-06-06,Одесский 1-й,6453,6453,52f6426c-8439-482a-82c2-ac0790f643f7,,63401376000,63701000,1,bf465fda-7834-47d5-986b-ccdb584a85a6,000,640000010000865,410052,,64,пер,1900-01-01,0865,,,2020-08-16,000,0000,000,0,,0000,,0
1,c582d7d4-fa2e-4740-918f-fde58984a377,52f6426c-8439-482a-82c2-ac0790f643f7,7,000,0,0,001,64000001000086500,0.0,2079-06-06,Одесский 1-й,6453,6453,,,63401376000,63701000001,20,bf465fda-7834-47d5-986b-ccdb584a85a6,000,640000010000865,410052,9d1eaaca-fe8d-4471-9235-8f0e8601c3de,64,пер,2020-08-13,0865,,,2020-08-16,000,0000,000,1,,0000,,0
0,25c02f91-e5a4-49df-a20b-c89c7f9d4d76,cad0196f-3640-4947-b7bb-a904b143f77d,7,000,0,0,001,64000001000162500,0.0,2079-06-06,Соколовый 4-й,6450,6450,5f73be9c-461e-42b0-b11b-327ad1020660,,63401372000,63701000,1,bf465fda-7834-47d5-986b-ccdb584a85a6,000,640000010001625,410005,,64,пер,1900-01-01,1625,6452,6452,2020-08-16,000,0000,000,0,,0000,,0
1,25c02f91-e5a4-49df-a20b-c89c7f9d4d76,5f73be9c-461e-42b0-b11b-327ad1020660,7,000,0,0,001,64000001000162500,0.0,2079-06-06,Соколовый 4-й,6450,6450,,,63401372000,63701000001,20,bf465fda-7834-47d5-986b-ccdb584a85a6,000,640000010001625,410005,cad0196f-3640-4947-b7bb-a904b143f77d,64,пер,2020-08-13,1625,6452,6452,2020-08-16,000,0000,000,1,,0000,,0
0,d502d8d5-76f7-4dd3-b72e-e90f2256aff0,b5fbcc84-922b-4511-b819-6ee7c1209c17,7,000,0,0,001,64000001000078100,0.0,2079-06-06,Нескучный,6450,6450,3d561652-beba-4b0a-8ac4-d2db9714293f,,63401364000,63701000,1,bf465fda-7834-47d5-986b-ccdb584a85a6,000,640000010000781,410002,,64,пер,1900-01-01,0781,,,2020-08-16,000,0000,000,0,,0000,,0
1,d502d8d5-76f7-4dd3-b72e-e90f2256aff0,3d561652-beba-4b0a-8ac4-d2db9714293f,7,000,0,0,001,64000001000078100,0.0,2079-06-06,Нескучный,6450,6450,,,63401364000,63701000001,20,bf465fda-7834-47d5-986b-ccdb584a85a6,000,640000010000781,410002,b5fbcc84-922b-4511-b819-6ee7c1209c17,64,пер,2020-08-13,0781,,,2020-08-16,000,0000,000,1,,0000,,0
0,cb18068a-9d50-46f8-9af4-98f971525eb2,195c55a1-3754-4731-aa28-66ede56cbc1a,7,000,0,0,001,64000001000139200,0.0,2079-06-06,Чайковского 5-й,6453,6453,493be2a0-b0c8-4375-828c-3eae9f8db184,,63401376000,63701000,1,bf465fda-7834-47d5-986b-ccdb584a85a6,000,640000010001392,410033,,64,туп,1900-01-01,1392,,,2020-08-16,000,0000,000,0,,0000,,0
1,cb18068a-9d50-46f8-9af4-98f971525eb2,493be2a0-b0c8-4375-828c-3eae9f8db184,7,000,0,0,001,64000001000139200,0.0,2079-06-06,Чайковского 5-й,6453,6453,,,63401376000,63701000001,20,bf465fda-7834-47d5-986b-ccdb584a85a6,000,640000010001392,410033,195c55a1-3754-4731-aa28-66ede56cbc1a,64,туп,2020-08-12,1392,,,2020-08-16,000,0000,000,1,,0000,,0
0,e6055761-ad06-45b9-a117-130f9761ff6b,7333fbef-d739-4442-a0e1-65ca5493c2b1,7,000,0,0,001,64000001000098501,1.0,2018-10-16,Поперечная 4-я,6454,6454,b64b47b4-00b6-4921-be2c-1162be73ad40,,63401380000,63701000,1,bf465fda-7834-47d5-986b-ccdb584a85a6,000,640000010000985,410053,,64,ул,1900-01-01,0985,,,2020-08-16,000,0000,000,0,,0000,,0
0,e6055761-ad06-45b9-a117-130f9761ff6b,b64b47b4-00b6-4921-be2c-1162be73ad40,7,000,0,0,001,64000001000098500,0.0,2079-06-06,4-я Поперечная,6454,6454,6619aefe-4787-4c36-acc9-25cc174e4b46,,63401380000,63701000,20,bf465fda-7834-47d5-986b-ccdb584a85a6,000,640000010000985,410053,7333fbef-d739-4442-a0e1-65ca5493c2b1,64,ул,2018-10-16,0985,,,2020-08-16,000,0000,000,0,745a3299-991a-4087-9ac0-afe174f72e8d,0000,,0
1,e6055761-ad06-45b9-a117-130f9761ff6b,6619aefe-4787-4c36-acc9-25cc174e4b46,7,000,0,0,001,64000001000098500,0.0,2079-06-06,4-я Поперечная,6454,6454,,,63401380000,63701000001,20,bf465fda-7834-47d5-986b-ccdb584a85a6,000,640000010000985,410053,b64b47b4-00b6-4921-be2c-1162be73ad40,64,ул,2020-08-13,0985,,,2020-08-16,000,0000,000,1,,0000,,0
0,bedf3812-a4ef-490e-9d14-834307c2f739,926944d3-5617-4019-8687-8a67606d111d,7,000,0,0,001,64000001000505601,1.0,2018-10-08,Зеленогорская 7-я,6453,6453,93752189-c226-489c-afd6-1707c423d66b,,63401376000,63701000,1,bf465fda-7834-47d5-986b-ccdb584a85a6,000,640000010005056,410051,,64,ул,1900-01-01,5056,,,2020-08-16,000,0000,000,0,,0000,,0
0,bedf3812-a4ef-490e-9d14-834307c2f739,93752189-c226-489c-afd6-1707c423d66b,7,000,0,0,001,64000001000505600,0.0,2079-06-06,7-я Зеленогорская,6453,6453,2fdebb0e-cf7b-4877-a076-22dcaad4b828,,63401376000,63701000,20,bf465fda-7834-47d5-986b-ccdb584a85a6,000,640000010005056,410051,926944d3-5617-4019-8687-8a67606d111d,64,ул,2018-10-08,5056,,,2020-08-16,000,0000,000,0,c5924758-45ff-407a-a98b-b83c90d2ae9a,0000,,0
1,bedf3812-a4ef-490e-9d14-834307c2f739,2fdebb0e-cf7b-4877-a076-22dcaad4b828,7,000,0,0,001,64000001000505600,0.0,2079-06-06,7-я Зеленогорская,6453,6453,,,63401376000,63701000001,20,bf465fda-7834-47d5-986b-ccdb584a85a6,000,640000010005056,410051,93752189-c226-489c-afd6-1707c423d66b,64,ул,2020-08-13,5056,,,2020-08-16,000,0000,000,1,,0000,,0
0,135bc485-6601-4b0f-8f42-682ea645c053,9801a427-261a-45f1-a9b6-7fc1a0b4bbef,7,000,0,0,001,64000001000158501,1.0,2018-09-04,Силикатная 5-я,6454,6454,fb38ae37-ad1c-438b-95c8-eb310f9ad9f5,,63401380000,63701000,1,bf465fda-7834-47d5-986b-ccdb584a85a6,000,640000010001585,410053,,64,ул,1900-01-01,1585,,,2020-08-16,000,0000,000,0,,0000,,0
0,135bc485-6601-4b0f-8f42-682ea645c053,fb38ae37-ad1c-438b-95c8-eb310f9ad9f5,7,000,0,0,001,64000001000158500,0.0,2079-06-06,5-я Силикатная,6454,6454,01272262-6b4d-48f0-b55c-7a0f9d2babd3,,63401380000,63701000,20,bf465fda-7834-47d5-986b-ccdb584a85a6,000,640000010001585,410053,9801a427-261a-45f1-a9b6-7fc1a0b4bbef,64,ул,2018-09-04,1585,,,2020-08-16,000,0000,000,0,f479234c-a28e-4669-a34a-35e2ecc5eac1,0000,,0
1,135bc485-6601-4b0f-8f42-682ea645c053,01272262-6b4d-48f0-b55c-7a0f9d2babd3,7,000,0,0,001,64000001000158500,0.0,2079-06-06,5-я Силикатная,6454,6454,,,63401380000,63701000001,20,bf465fda-7834-47d5-986b-ccdb584a85a6,000,640000010001585,410053,fb38ae37-ad1c-438b-95c8-eb310f9ad9f5,64,ул,2020-08-13,1585,,,2020-08-16,000,0000,000,1,,0000,,0
0,2c20dd7e-bdb9-474c-8cb9-7a4e367eb029,dc085828-8b2d-46cf-8781-fefd778188cf,7,000,0,0,001,64000001000055300,0.0,2079-06-06,Крекингский 1-й,6451,6451,18cefe9f-3dcd-4bd0-a0f2-2fd92b4e31cf,,63401368000,63701000,1,bf465fda-7834-47d5-986b-ccdb584a85a6,000,640000010000553,410048,,64,туп,1900-01-01,0553,,,2020-08-16,000,0000,000,0,,0000,,0
1,2c20dd7e-bdb9-474c-8cb9-7a4e367eb029,18cefe9f-3dcd-4bd0-a0f2-2fd92b4e31cf,7,000,0,0,001,64000001000055300,0.0,2079-06-06,Крекингский 1-й,6451,6451,,,63401368000,63701000001,20,bf465fda-7834-47d5-986b-ccdb584a85a6,000,640000010000553,410048,dc085828-8b2d-46cf-8781-fefd778188cf,64,туп,2020-08-13,0553,,,2020-08-16,000,0000,000,1,,0000,,0
0,6c389892-6ed4-4895-bcfa-b0a833cc39a6,11b702ca-2402-4825-bc72-7ba61fcad120,7,000,0,0,001,64000001000052500,0.0,2079-06-06,Коммунарный,6450,6450,deb8b4db-c04f-4a7c-aa10-141fb0647990,,63401364000,63701000,1,bf465fda-7834-47d5-986b-ccdb584a85a6,000,640000010000525,410031,,64,туп,1900-01-01,0525,,,2020-08-16,000,0000,000,0,,0000,,0
1,6c389892-6ed4-4895-bcfa-b0a833cc39a6,deb8b4db-c04f-4a7c-aa10-141fb0647990,7,000,0,0,001,64000001000052500,0.0,2079-06-06,Коммунарный,6450,6450,,,63401364000,63701000001,20,bf465fda-7834-47d5-986b-ccdb584a85a6,000,640000010000525,410031,11b702ca-2402-4825-bc72-7ba61fcad120,64,туп,2020-08-13,0525,,,2020-08-16,000,0000,000,1,,0000,,0
0,14c54622-562a-4be7-bed1-5bd44948a2f9,aee19d45-97cb-4e0b-8943-1836e956ea1d,7,000,0,0,001,64000001000162600,0.0,2079-06-06,Соколовый 5-й,6450,6450,d367789c-4881-4c20-bc4c-14b17018a41b,,63401372000,63701000,1,bf465fda-7834-47d5-986b-ccdb584a85a6,000,640000010001626,410005,,64,пер,1900-01-01,1626,6452,6452,2020-08-16,000,0000,000,0,,0000,,0
1,14c54622-562a-4be7-bed1-5bd44948a2f9,d367789c-4881-4c20-bc4c-14b17018a41b,7,000,0,0,001,64000001000162600,0.0,2079-06-06,Соколовый 5-й,6450,6450,,,63401372000,63701000001,20,bf465fda-7834-47d5-986b-ccdb584a85a6,000,640000010001626,410005,aee19d45-97cb-4e0b-8943-1836e956ea1d,64,пер,2020-08-13,1626,6452,6452,2020-08-16,000,0000,000,1,,0000,,0
0,db2fef6b-248b-4eb6-98a8-0136fe3ebb06,0817c205-f768-4f04-b5fe-09cf7935f6f9,7,011,0,0,000,64011000001011901,1.0,2079-06-06,Радостный,6413,6413,8c9f23f6-1037-43e6-8bda-58da08f3abd7,,63213551000,63613151,1,9d74eece-db20-40fc-bb84-f345c3596d45,001,640110000010119,413442,,64,пер,1900-01-01,0119,6410,6410,2020-08-20,000,0000,000,0,,0000,,0
0,db2fef6b-248b-4eb6-98a8-0136fe3ebb06,8c9f23f6-1037-43e6-8bda-58da08f3abd7,7,011,0,0,000,64011000001011902,2.0,2018-02-21,Радостный,6413,6413,5cedb0be-1b8f-4ef9-81b2-fecb5f265473,,63213551000,63613151051,21,9d74eece-db20-40fc-bb84-f345c3596d45,001,640110000010119,413442,0817c205-f768-4f04-b5fe-09cf7935f6f9,64,пер,2015-10-06,0119,6410,6410,2020-08-20,000,0000,000,0,,0000,,0
0,db2fef6b-248b-4eb6-98a8-0136fe3ebb06,5cedb0be-1b8f-4ef9-81b2-fecb5f265473,7,011,0,0,000,64011000001011903,3.0,2018-02-21,Радостный,6413,6413,ba168c74-d4ce-4688-b9b2-0372bb4971ab,,63213551000,63613151051,21,9d74eece-db20-40fc-bb84-f345c3596d45,001,640110000010119,413442,8c9f23f6-1037-43e6-8bda-58da08f3abd7,64,пер,2015-10-15,0119,6410,6410,2020-08-20,000,0000,000,0,,0000,,0
0,db2fef6b-248b-4eb6-98a8-0136fe3ebb06,ba168c74-d4ce-4688-b9b2-0372bb4971ab,7,011,0,0,000,64011000001011900,0.0,2020-08-18,Радостный,6413,6413,51c48ad5-a142-4c9e-8bf4-edb9ca73272b,,63213551000,63613151051,20,9d74eece-db20-40fc-bb84-f345c3596d45,001,640110000010119,413442,5cedb0be-1b8f-4ef9-81b2-fecb5f265473,64,пер,2018-02-21,0119,6410,6410,2020-08-20,000,0000,000,0,f2f0c770-98a1-46cc-8a5d-149bcb990665,0000,,0
1,db2fef6b-248b-4eb6-98a8-0136fe3ebb06,51c48ad5-a142-4c9e-8bf4-edb9ca73272b,7,011,0,0,000,64011000001011900,0.0,2079-06-06,Радостный,6413,6413,,,63213551000,63613151051,20,9d74eece-db20-40fc-bb84-f345c3596d45,001,640110000010119,413442,ba168c74-d4ce-4688-b9b2-0372bb4971ab,64,пер,2020-08-18,0119,6410,6410,2020-08-20,000,0000,000,1,,0000,,0
0,457a8828-aa06-4ac1-a2bb-bf1ed3d6dab9,457a8828-aa06-4ac1-a2bb-bf1ed3d6dab9,7,000,0,0,001,64000001124000601,1.0,2079-06-06,Огуречная,6453,6453,a9d28887-f527-4f58-a924-e956de7adf2d,,63401376000,63701000,10,ea1be3eb-8c87-4e92-9817-ed8ca14b762b,124,640000011240006,410047,,64,ул,2012-06-05,0006,,,2020-08-27,000,0000,000,0,,0000,,0
0,457a8828-aa06-4ac1-a2bb-bf1ed3d6dab9,a9d28887-f527-4f58-a924-e956de7adf2d,7,000,0,0,001,64000001124000651,51.0,2019-10-25,Огуречная,6453,6453,9d828d7c-dc60-4235-82f8-38e06990fa7b,,63401376000,63701000001,21,ea1be3eb-8c87-4e92-9817-ed8ca14b762b,000,640000011240006,410047,457a8828-aa06-4ac1-a2bb-bf1ed3d6dab9,64,ул,2015-12-01,7951,,,2020-08-27,000,0000,000,0,,7947,,0
0,457a8828-aa06-4ac1-a2bb-bf1ed3d6dab9,9d828d7c-dc60-4235-82f8-38e06990fa7b,7,000,0,0,001,64000001000795100,0.0,2020-08-26,Огуречная,6453,6453,8742cc45-a5b7-4ffd-a71d-e61f7dbc253c,,63401376000,63701000001,51,ea1be3eb-8c87-4e92-9817-ed8ca14b762b,000,640000010007951,410047,a9d28887-f527-4f58-a924-e956de7adf2d,64,ул,2019-10-25,7951,,,2020-08-27,000,0000,000,0,9a560bc1-994c-4d88-8ec5-37d5d54fcee0,7947,,0
1,457a8828-aa06-4ac1-a2bb-bf1ed3d6dab9,8742cc45-a5b7-4ffd-a71d-e61f7dbc253c,7,000,0,0,001,64000001000795100,0.0,2079-06-06,Огуречная,6453,6453,,,63401372000,63701000001,20,ea1be3eb-8c87-4e92-9817-ed8ca14b762b,000,640000010007951,410047,9d828d7c-dc60-4235-82f8-38e06990fa7b,64,ул,2020-08-26,7951,,,2020-08-27,000,0000,000,1,,7947,,0
