ACTSTATUS,AOGUID,AOID,AOLEVEL,AREACODE,AUTOCODE,CENTSTATUS,CITYCODE,CODE,CURRSTATUS,ENDDATE,FORMALNAME,IFNSFL,IFNSUL,NEXTID,OFFNAME,OKATO,OKTMO,OPERSTATUS,PARENTGUID,PLACECODE,PLAINCODE,POSTALCODE,PREVID,REGIONCODE,SHORTNAME,STARTDATE,STREETCODE,TERRIFNSFL,TERRIFNSUL,UPDATEDATE,CTARCODE,EXTRCODE,SEXTCODE,LIVESTATUS,NORMDOC,PLANCODE,CADNUM,DIVTYPE
0,1b18016a-a61d-44d7-aa22-adcada6f6397,3aacf378-f463-40e4-8363-4b317841d7d8,6,016,0,0,000,6701600035201,1.0,2020-02-13,Осиновка ( Рославльское с/пос),6725,6725,af516b80-b39f-471c-ba00-e631bbf55231,,66236880008,66636480,1,8ac93b54-db33-4693-a9ba-7182c8822a1f,352,67016000352,216537,,67,нп,1900-01-01,0000,,,2020-08-30,000,0000,000,0,,0000,,0
0,1b18016a-a61d-44d7-aa22-adcada6f6397,af516b80-b39f-471c-ba00-e631bbf55231,6,016,0,0,000,6701600035202,2.0,2019-10-25,Осиновка ( Рославльское с/пос),6725,6725,c4973950-543d-4ea1-a070-47aec8bf55db,,66236880008,66636480151,21,8ac93b54-db33-4693-a9ba-7182c8822a1f,352,67016000352,216537,3aacf378-f463-40e4-8363-4b317841d7d8,67,нп,2014-01-10,0000,,,2020-08-30,000,0000,000,0,,0000,,0
0,fe55a939-72f4-45f3-99c5-9aff78b7279e,f4a1a303-8256-4b49-8fea-16df9e261c14,6,016,0,0,000,6701600035001,1.0,2020-08-27,Новоселки (Грязенятское с/пос),6725,6725,971acc06-9795-4182-be2e-1984945f2524,,66236820015,66636420,1,8ac93b54-db33-4693-a9ba-7182c8822a1f,350,67016000350,216567,,67,д,1900-01-01,0000,,,2020-08-30,000,0000,000,0,,0000,,0
0,fe55a939-72f4-45f3-99c5-9aff78b7279e,971acc06-9795-4182-be2e-1984945f2524,6,016,0,0,000,6701600035002,2.0,2019-10-25,Новоселки (Грязенятское с/пос),6725,6725,5f0880e1-db59-4315-a19c-a2d12d36558a,,66236820015,66636420166,21,8ac93b54-db33-4693-a9ba-7182c8822a1f,350,67016000350,216567,f4a1a303-8256-4b49-8fea-16df9e261c14,67,д,2014-01-10,0000,,,2020-08-30,000,0000,000,0,,0000,,0
0,fe55a939-72f4-45f3-99c5-9aff78b7279e,5f0880e1-db59-4315-a19c-a2d12d36558a,6,016,0,0,000,6701600035003,3.0,2020-08-27,Новоселки (Грязенятское с/пос),6725,6725,64612166-5e2f-4452-a41f-10784ab24a03,,66236820015,66636460141,21,8ac93b54-db33-4693-a9ba-7182c8822a1f,350,67016000350,216567,971acc06-9795-4182-be2e-1984945f2524,67,д,2019-10-25,0000,,,2020-08-30,000,0000,000,0,,0000,,0
0,1b18016a-a61d-44d7-aa22-adcada6f6397,c4973950-543d-4ea1-a070-47aec8bf55db,6,016,0,0,000,6701600035201,1.0,2020-02-13,Осиновка ( Рославльское с/пос),6725,6725,69e816af-1952-48ef-9e48-5308737553fc,,66236880008,66636470121,21,8ac93b54-db33-4693-a9ba-7182c8822a1f,352,67016000352,216537,af516b80-b39f-471c-ba00-e631bbf55231,67,нп,2019-10-25,0000,,,2020-08-30,000,0000,000,0,,0000,,0
0,1b18016a-a61d-44d7-aa22-adcada6f6397,69e816af-1952-48ef-9e48-5308737553fc,6,016,0,0,000,6701600035203,3.0,2020-08-27,Осиновка,6725,6725,1d513dfa-92da-41e1-836a-ea362f33a2c9,,66236880008,66636470121,20,8ac93b54-db33-4693-a9ba-7182c8822a1f,352,67016000352,216537,c4973950-543d-4ea1-a070-47aec8bf55db,67,нп,2020-02-13,0000,,,2020-08-30,000,0000,000,0,a818bea7-4708-4515-873d-eb929c4d395f,0000,,0
1,1b18016a-a61d-44d7-aa22-adcada6f6397,1d513dfa-92da-41e1-836a-ea362f33a2c9,6,016,0,0,000,6701600035200,0.0,2079-06-06,Осиновка,6725,6725,,,66236880008,66636470121,20,8ac93b54-db33-4693-a9ba-7182c8822a1f,352,67016000352,216537,69e816af-1952-48ef-9e48-5308737553fc,67,д,2020-08-27,0000,,,2020-08-30,000,0000,000,1,,0000,,0
0,5f68e505-95c8-4263-a143-130b18d4e012,21efffce-e7bb-4b26-ab32-ee8f8f358b18,6,016,0,0,000,6701600010501,1.0,2020-08-27,Ивановское (Астапковичское с/пос),6725,6725,00df1bb6-f4b3-4ea0-bbb9-09ff6aaac51d,,66236808007,66636408,1,8ac93b54-db33-4693-a9ba-7182c8822a1f,105,67016000105,216521,,67,д,1900-01-01,0000,,,2020-08-30,000,0000,000,0,,0000,,0
0,5f68e505-95c8-4263-a143-130b18d4e012,00df1bb6-f4b3-4ea0-bbb9-09ff6aaac51d,6,016,0,0,000,6701600010502,2.0,2020-08-27,Ивановское (Астапковичское с/пос),6725,6725,f272c853-8a29-43dc-a5f8-5a088bb84022,,66236808007,66636408131,21,8ac93b54-db33-4693-a9ba-7182c8822a1f,105,67016000105,,21efffce-e7bb-4b26-ab32-ee8f8f358b18,67,д,2014-01-10,0000,,,2020-08-30,000,0000,000,0,,0000,,0
1,5f68e505-95c8-4263-a143-130b18d4e012,f272c853-8a29-43dc-a5f8-5a088bb84022,6,016,0,0,000,6701600010500,0.0,2079-06-06,Ивановское,6725,6725,,,66236808007,66636408131,20,8ac93b54-db33-4693-a9ba-7182c8822a1f,105,67016000105,,00df1bb6-f4b3-4ea0-bbb9-09ff6aaac51d,67,д,2020-08-27,0000,,,2020-08-30,000,0000,000,1,,0000,,0
1,9e89491a-d405-4fae-8caa-15da68b586e8,9e89491a-d405-4fae-8caa-15da68b586e8,7,004,0,0,000,67004000160000600,0.0,2079-06-06,Надежды Румянцевой,6722,6722,,,66208862000,66608456326,10,4a2a67e0-60ac-4f1d-bea4-2aeb34f9901c,160,670040001600006,215016,,67,ул,2020-08-27,0006,6723,6723,2020-08-30,000,0000,000,1,,0000,,0
1,fe55a939-72f4-45f3-99c5-9aff78b7279e,64612166-5e2f-4452-a41f-10784ab24a03,6,016,0,0,000,6701600035000,0.0,2079-06-06,Новоселки,6725,6725,,,66236820015,66636460141,20,8ac93b54-db33-4693-a9ba-7182c8822a1f,350,67016000350,216567,5f0880e1-db59-4315-a19c-a2d12d36558a,67,д,2020-08-27,0000,,,2020-08-30,000,0000,000,1,,0000,,0
0,ade02642-3343-4022-99af-b3c42ce91d77,e3565282-079b-44ac-b051-ec138408c10c,6,016,0,0,000,6701600017601,1.0,2020-08-27,Михайловка (Костыревское с/пос),6725,6725,faaccc18-debe-46c6-bbb4-26820d408746,,66236846007,66636446,1,8ac93b54-db33-4693-a9ba-7182c8822a1f,176,67016000176,216522,,67,д,1900-01-01,0000,,,2020-08-30,000,0000,000,0,,0000,,0
0,ade02642-3343-4022-99af-b3c42ce91d77,faaccc18-debe-46c6-bbb4-26820d408746,6,016,0,0,000,6701600017602,2.0,2019-10-25,Михайловка (Костыревское с/пос),6725,6725,baf0245a-7a14-4881-8c06-92772dc703cf,,66236846007,66636446146,21,8ac93b54-db33-4693-a9ba-7182c8822a1f,176,67016000176,,e3565282-079b-44ac-b051-ec138408c10c,67,д,2014-01-10,0000,,,2020-08-30,000,0000,000,0,,0000,,0
0,ade02642-3343-4022-99af-b3c42ce91d77,baf0245a-7a14-4881-8c06-92772dc703cf,6,016,0,0,000,6701600017603,3.0,2020-08-27,Михайловка (Костыревское с/пос),6725,6725,80906218-b626-43c2-b6c9-9096bbb6ce92,,66236846007,66636462112,21,8ac93b54-db33-4693-a9ba-7182c8822a1f,176,67016000176,,faaccc18-debe-46c6-bbb4-26820d408746,67,д,2019-10-25,0000,,,2020-08-30,000,0000,000,0,,0000,,0
1,ade02642-3343-4022-99af-b3c42ce91d77,80906218-b626-43c2-b6c9-9096bbb6ce92,6,016,0,0,000,6701600017600,0.0,2079-06-06,Михайловка,6725,6725,,,66236846007,66636462112,20,8ac93b54-db33-4693-a9ba-7182c8822a1f,176,67016000176,,baf0245a-7a14-4881-8c06-92772dc703cf,67,д,2020-08-27,0000,,,2020-08-30,000,0000,000,1,,0000,,0
0,0d71be7d-ce24-4da7-93f0-b912ebbbc384,0d71be7d-ce24-4da7-93f0-b912ebbbc384,65,020,0,0,000,67020000050000251,51.0,2079-06-06,Шелуково урочище,6722,6722,2144f534-e00e-4f2d-b327-e0bbefb438cb,,66248820005,66648420121,10,ef88d16f-7a72-4f9a-b255-0f1f64081b38,000,670200000500002,215354,,67,тер.,2017-04-19,0000,6716,6716,2020-08-30,000,0000,000,0,af135d2d-51be-4465-80e6-702935332bfe,0002,,0
0,0d71be7d-ce24-4da7-93f0-b912ebbbc384,2144f534-e00e-4f2d-b327-e0bbefb438cb,65,020,0,0,000,67020000000000201,1.0,2017-05-31,Шелуково урочище,6722,6722,1a099780-0e72-45a7-92a1-7f6429c72cc8,,66248820005,66648420121,50,ef88d16f-7a72-4f9a-b255-0f1f64081b38,000,670200000000002,215354,0d71be7d-ce24-4da7-93f0-b912ebbbc384,67,тер.,2017-04-19,0000,6716,6716,2020-08-30,000,0000,000,0,d2c4ddb1-9575-4c1f-86e2-daba81acb2b2,0002,,0
0,0d71be7d-ce24-4da7-93f0-b912ebbbc384,1a099780-0e72-45a7-92a1-7f6429c72cc8,65,020,0,0,000,67020000000000202,2.0,2020-08-27,Шелуково урочище,6722,6722,754988c1-64a6-46ad-9853-1873722289b6,,66248820000,66648420121,21,ef88d16f-7a72-4f9a-b255-0f1f64081b38,000,670200000000002,215354,2144f534-e00e-4f2d-b327-e0bbefb438cb,67,тер.,2017-05-26,0000,6716,6716,2020-08-30,000,0000,000,0,d2c4ddb1-9575-4c1f-86e2-daba81acb2b2,0002,,0
0,0d71be7d-ce24-4da7-93f0-b912ebbbc384,754988c1-64a6-46ad-9853-1873722289b6,65,020,0,0,000,67020000000000203,3.0,2018-04-20,Шелуково урочище,6722,6722,c78d12e5-fd36-4c85-a03e-e48862c4d08e,,66248820000,66648420,21,ef88d16f-7a72-4f9a-b255-0f1f64081b38,000,670200000000002,215354,1a099780-0e72-45a7-92a1-7f6429c72cc8,67,тер.,2017-05-31,0000,6716,6716,2020-08-30,000,0000,000,0,d2c4ddb1-9575-4c1f-86e2-daba81acb2b2,0002,,0
0,0d71be7d-ce24-4da7-93f0-b912ebbbc384,c78d12e5-fd36-4c85-a03e-e48862c4d08e,65,020,0,0,000,67020000000000200,0.0,2020-08-27,Шелуково урочище,6722,6722,253b8f28-1903-483b-bc60-40aa087df122,,66248820000,66648435,21,ef88d16f-7a72-4f9a-b255-0f1f64081b38,000,670200000000002,215332,754988c1-64a6-46ad-9853-1873722289b6,67,тер.,2018-04-20,0000,6716,6716,2020-08-30,000,0000,000,0,543d8b85-e2f2-43ed-993c-709ef064ba93,0002,,0
1,0d71be7d-ce24-4da7-93f0-b912ebbbc384,253b8f28-1903-483b-bc60-40aa087df122,65,020,0,0,000,67020000000000200,0.0,2079-06-06,Шелуково урочище,6722,6722,,,66248835000,66648435,20,ef88d16f-7a72-4f9a-b255-0f1f64081b38,000,670200000000002,215332,c78d12e5-fd36-4c85-a03e-e48862c4d08e,67,тер.,2020-08-27,0000,6716,6716,2020-08-30,000,0000,000,1,,0002,,0
0,7b1fb5ec-4770-4d10-b1f6-7dcf156f6d43,e622c412-e363-4c46-8e65-a28c1d018f33,6,016,0,0,000,6701600016501,1.0,2020-08-27,Любовка (Кирилловское с/пос),6725,6725,73da9d7e-c7c1-423a-82ac-dccaba6a19b4,,66236842008,66636442,1,8ac93b54-db33-4693-a9ba-7182c8822a1f,165,67016000165,216530,,67,д,1900-01-01,0000,,,2020-08-30,000,0000,000,0,,0000,,0
0,7b1fb5ec-4770-4d10-b1f6-7dcf156f6d43,73da9d7e-c7c1-423a-82ac-dccaba6a19b4,6,016,0,0,000,6701600016502,2.0,2020-08-27,Любовка (Кирилловское с/пос),6725,6725,c454aa6c-2e22-483b-9bc9-ea36b9672e59,,66236842008,66636442131,21,8ac93b54-db33-4693-a9ba-7182c8822a1f,165,67016000165,,e622c412-e363-4c46-8e65-a28c1d018f33,67,д,2014-01-10,0000,,,2020-08-30,000,0000,000,0,,0000,,0
1,7b1fb5ec-4770-4d10-b1f6-7dcf156f6d43,c454aa6c-2e22-483b-9bc9-ea36b9672e59,6,016,0,0,000,6701600016500,0.0,2079-06-06,Любовка,6725,6725,,,66236842008,66636442131,20,8ac93b54-db33-4693-a9ba-7182c8822a1f,165,67016000165,,73da9d7e-c7c1-423a-82ac-dccaba6a19b4,67,д,2020-08-27,0000,,,2020-08-30,000,0000,000,1,,0000,,0
0,8cc54628-da83-408f-9db2-1001efe3f6d0,0d7d22ec-220d-4bfb-9bfe-779b80a5bcd4,6,016,0,0,000,6701600026801,1.0,2020-08-27,Староселье(Пригорьевское с/пос),6725,6725,5d3f55af-ef16-4b0a-98c3-ffb1a3704d01,,66236876010,66636476,1,8ac93b54-db33-4693-a9ba-7182c8822a1f,268,67016000268,216522,,67,д,1900-01-01,0000,,,2020-08-30,000,0000,000,0,,0000,,0
0,8cc54628-da83-408f-9db2-1001efe3f6d0,5d3f55af-ef16-4b0a-98c3-ffb1a3704d01,6,016,0,0,000,6701600026802,2.0,2020-08-27,Староселье(Пригорьевское с/пос),6725,6725,8ff534d7-f786-4e1d-944d-fecd5f198edf,,66236876010,66636476186,21,8ac93b54-db33-4693-a9ba-7182c8822a1f,268,67016000268,216522,0d7d22ec-220d-4bfb-9bfe-779b80a5bcd4,67,д,2014-01-10,0000,,,2020-08-30,000,0000,000,0,,0000,,0
1,8cc54628-da83-408f-9db2-1001efe3f6d0,8ff534d7-f786-4e1d-944d-fecd5f198edf,6,016,0,0,000,6701600026800,0.0,2079-06-06,Староселье,6725,6725,,,66236876010,66636476186,20,8ac93b54-db33-4693-a9ba-7182c8822a1f,268,67016000268,216522,5d3f55af-ef16-4b0a-98c3-ffb1a3704d01,67,д,2020-08-27,0000,,,2020-08-30,000,0000,000,1,,0000,,0
0,83b18f80-acb3-431a-9a86-627b00e381f7,b78e0d16-8692-42f1-8008-c218d7bf3108,6,016,0,0,000,6701600032401,1.0,2020-08-27,Красная Горка (Астапковичское с/пос),6725,6725,3bad98a5-238a-4ef3-bc40-ce316bfc7cf4,,66236808009,66636408,1,8ac93b54-db33-4693-a9ba-7182c8822a1f,324,67016000324,216521,,67,д,1900-01-01,0000,,,2020-08-30,000,0000,000,0,,0000,,0
0,83b18f80-acb3-431a-9a86-627b00e381f7,3bad98a5-238a-4ef3-bc40-ce316bfc7cf4,6,016,0,0,000,6701600032402,2.0,2020-08-27,Красная Горка (Астапковичское с/пос),6725,6725,b2d79a45-2384-44af-988a-95bffa7221a1,,66236808009,66636408141,21,8ac93b54-db33-4693-a9ba-7182c8822a1f,324,67016000324,,b78e0d16-8692-42f1-8008-c218d7bf3108,67,д,2014-01-10,0000,,,2020-08-30,000,0000,000,0,,0000,,0
1,83b18f80-acb3-431a-9a86-627b00e381f7,b2d79a45-2384-44af-988a-95bffa7221a1,6,016,0,0,000,6701600032400,0.0,2079-06-06,Красная Горка,6725,6725,,,66236808009,66636408141,20,8ac93b54-db33-4693-a9ba-7182c8822a1f,324,67016000324,,3bad98a5-238a-4ef3-bc40-ce316bfc7cf4,67,д,2020-08-27,0000,,,2020-08-30,000,0000,000,1,,0000,,0
0,35abb3a3-f835-455e-b36a-5ab01900b4df,03ca3244-8fb4-4502-86d5-27280e5727c6,6,016,0,0,000,6701600032601,1.0,2020-08-27,Липовка (Крапивенское с/пос),6725,6725,7097daf3-8a76-4729-ad03-c5935ef3ddc0,,66236853011,66636453,1,8ac93b54-db33-4693-a9ba-7182c8822a1f,326,67016000326,216543,,67,д,1900-01-01,0000,,,2020-08-30,000,0000,000,0,,0000,,0
0,35abb3a3-f835-455e-b36a-5ab01900b4df,7097daf3-8a76-4729-ad03-c5935ef3ddc0,6,016,0,0,000,6701600032602,2.0,2019-10-25,Липовка (Крапивенское с/пос),6725,6725,cf57da80-3173-4c86-a0eb-41b28bd37895,,66236853011,66636453171,21,8ac93b54-db33-4693-a9ba-7182c8822a1f,326,67016000326,216543,03ca3244-8fb4-4502-86d5-27280e5727c6,67,д,2014-01-10,0000,,,2020-08-30,000,0000,000,0,,0000,,0
0,35abb3a3-f835-455e-b36a-5ab01900b4df,cf57da80-3173-4c86-a0eb-41b28bd37895,6,016,0,0,000,6701600032603,3.0,2020-08-27,Липовка (Крапивенское с/пос),6725,6725,0c2594a2-983f-4fbe-8554-23ad9d522761,,66236853011,66636488211,21,8ac93b54-db33-4693-a9ba-7182c8822a1f,326,67016000326,216543,7097daf3-8a76-4729-ad03-c5935ef3ddc0,67,д,2019-10-25,0000,,,2020-08-30,000,0000,000,0,,0000,,0
1,35abb3a3-f835-455e-b36a-5ab01900b4df,0c2594a2-983f-4fbe-8554-23ad9d522761,6,016,0,0,000,6701600032600,0.0,2079-06-06,Липовка,6725,6725,,,66236853011,66636488211,20,8ac93b54-db33-4693-a9ba-7182c8822a1f,326,67016000326,216543,cf57da80-3173-4c86-a0eb-41b28bd37895,67,д,2020-08-27,0000,,,2020-08-30,000,0000,000,1,,0000,,0
0,89fad52e-bc7a-415a-9db4-6656e9ea4956,ed9dbfed-a86e-4914-bdae-9b0a401cbd06,6,016,0,0,000,6701600032701,1.0,2020-08-27,Липовка (Костыревское с/пос),6725,6725,9c0941be-8059-4cdc-88c3-190677020cd0,,66236846018,66636446,1,8ac93b54-db33-4693-a9ba-7182c8822a1f,327,67016000327,216522,,67,д,1900-01-01,0000,,,2020-08-30,000,0000,000,0,,0000,,0
0,89fad52e-bc7a-415a-9db4-6656e9ea4956,9c0941be-8059-4cdc-88c3-190677020cd0,6,016,0,0,000,6701600032702,2.0,2019-10-25,Липовка (Костыревское с/пос),6725,6725,864274b6-55b7-4367-b801-69cd066a0274,,66236846018,66636446141,21,8ac93b54-db33-4693-a9ba-7182c8822a1f,327,67016000327,216522,ed9dbfed-a86e-4914-bdae-9b0a401cbd06,67,д,2014-01-10,0000,,,2020-08-30,000,0000,000,0,,0000,,0
0,89fad52e-bc7a-415a-9db4-6656e9ea4956,864274b6-55b7-4367-b801-69cd066a0274,6,016,0,0,000,6701600032703,3.0,2020-08-27,Липовка (Костыревское с/пос),6725,6725,4effc764-ea49-46b2-ab8e-1ec1f1598f97,,66236846018,66636462181,21,8ac93b54-db33-4693-a9ba-7182c8822a1f,327,67016000327,216522,9c0941be-8059-4cdc-88c3-190677020cd0,67,д,2019-10-25,0000,,,2020-08-30,000,0000,000,0,,0000,,0
1,89fad52e-bc7a-415a-9db4-6656e9ea4956,4effc764-ea49-46b2-ab8e-1ec1f1598f97,6,016,0,0,000,6701600032700,0.0,2079-06-06,Липовка,6725,6725,,,66236846018,66636462181,20,8ac93b54-db33-4693-a9ba-7182c8822a1f,327,67016000327,216522,864274b6-55b7-4367-b801-69cd066a0274,67,д,2020-08-27,0000,,,2020-08-30,000,0000,000,1,,0000,,0
0,c8527656-8822-43ea-835f-a61dc8bfc6c9,776c1af8-4ce6-4b4d-9b04-9495e711ed13,6,016,0,0,000,6701600035301,1.0,2020-02-13,Михайловка (Рославльское с/пос),6725,6725,6423fc96-73e8-4d57-b4f2-261eb45ad5bb,,66236880015,66636480,1,8ac93b54-db33-4693-a9ba-7182c8822a1f,353,67016000353,216522,,67,нп,1900-01-01,0000,,,2020-08-30,000,0000,000,0,,0000,,0
0,c8527656-8822-43ea-835f-a61dc8bfc6c9,6423fc96-73e8-4d57-b4f2-261eb45ad5bb,6,016,0,0,000,6701600035302,2.0,2019-10-25,Михайловка (Рославльское с/пос),6725,6725,0b0023b0-391a-4997-a9cb-7f9cb838b242,,66236880015,66636480146,21,8ac93b54-db33-4693-a9ba-7182c8822a1f,353,67016000353,216522,776c1af8-4ce6-4b4d-9b04-9495e711ed13,67,нп,2014-01-10,0000,,,2020-08-30,000,0000,000,0,,0000,,0
0,c8527656-8822-43ea-835f-a61dc8bfc6c9,0b0023b0-391a-4997-a9cb-7f9cb838b242,6,016,0,0,000,6701600035301,1.0,2020-02-13,Михайловка (Рославльское с/пос),6725,6725,90498178-21a5-4a6f-bc18-09b443f05544,,66236880015,66636470115,21,8ac93b54-db33-4693-a9ba-7182c8822a1f,353,67016000353,216522,6423fc96-73e8-4d57-b4f2-261eb45ad5bb,67,нп,2019-10-25,0000,,,2020-08-30,000,0000,000,0,,0000,,0
0,c8527656-8822-43ea-835f-a61dc8bfc6c9,90498178-21a5-4a6f-bc18-09b443f05544,6,016,0,0,000,6701600035303,3.0,2020-08-27,Михайловка,6725,6725,813e1292-65e3-405c-8fe0-68667dd2910e,,66236880015,66636470115,20,8ac93b54-db33-4693-a9ba-7182c8822a1f,353,67016000353,216522,0b0023b0-391a-4997-a9cb-7f9cb838b242,67,нп,2020-02-13,0000,,,2020-08-30,000,0000,000,0,a818bea7-4708-4515-873d-eb929c4d395f,0000,,0
1,c8527656-8822-43ea-835f-a61dc8bfc6c9,813e1292-65e3-405c-8fe0-68667dd2910e,6,016,0,0,000,6701600035300,0.0,2079-06-06,Михайловка,6725,6725,,,66236880015,66636470115,20,8ac93b54-db33-4693-a9ba-7182c8822a1f,353,67016000353,216522,90498178-21a5-4a6f-bc18-09b443f05544,67,д,2020-08-27,0000,,,2020-08-30,000,0000,000,1,,0000,,0
0,1e50c8a4-dd53-4c07-807a-59ccfedbd0c8,7e42b1d9-d52c-4938-9cf5-c9c367090965,6,016,0,0,000,6701600006001,1.0,2020-08-27,Васильевка (Костыревское с/пос),6725,6725,dc8306f5-d2e6-4833-a272-e37ae2678d91,,66236846003,66636446,1,8ac93b54-db33-4693-a9ba-7182c8822a1f,060,67016000060,216522,,67,д,1900-01-01,0000,,,2020-08-30,000,0000,000,0,,0000,,0
0,1e50c8a4-dd53-4c07-807a-59ccfedbd0c8,dc8306f5-d2e6-4833-a272-e37ae2678d91,6,016,0,0,000,6701600006002,2.0,2019-10-25,Васильевка (Костыревское с/пос),6725,6725,e5a0970c-9d0f-46b2-bc7c-3de4c9dfc1ef,,66236846003,66636446116,21,8ac93b54-db33-4693-a9ba-7182c8822a1f,060,67016000060,216522,7e42b1d9-d52c-4938-9cf5-c9c367090965,67,д,2014-01-10,0000,,,2020-08-30,000,0000,000,0,,0000,,0
0,1e50c8a4-dd53-4c07-807a-59ccfedbd0c8,e5a0970c-9d0f-46b2-bc7c-3de4c9dfc1ef,6,016,0,0,000,6701600006003,3.0,2020-08-27,Васильевка (Костыревское с/пос),6725,6725,466186f0-abed-4918-9144-bf7f9b53c675,,66236846003,66636462109,21,8ac93b54-db33-4693-a9ba-7182c8822a1f,060,67016000060,216522,dc8306f5-d2e6-4833-a272-e37ae2678d91,67,д,2019-10-25,0000,,,2020-08-30,000,0000,000,0,,0000,,0
1,1e50c8a4-dd53-4c07-807a-59ccfedbd0c8,466186f0-abed-4918-9144-bf7f9b53c675,6,016,0,0,000,6701600006000,0.0,2079-06-06,Васильевка,6725,6725,,,66236846003,66636462109,20,8ac93b54-db33-4693-a9ba-7182c8822a1f,060,67016000060,216522,e5a0970c-9d0f-46b2-bc7c-3de4c9dfc1ef,67,д,2020-08-27,0000,,,2020-08-30,000,0000,000,1,,0000,,0
0,c95d1289-e0da-467f-ac35-330998c46a50,bdfc4c9a-1770-477e-9077-9487779e07b8,6,016,0,0,000,6701600021601,1.0,2020-08-27,Павловка (Грязенятское с/пос),6725,6725,9950a803-65a1-40cd-88e2-8850616ce5f1,,66236820016,66636420,1,8ac93b54-db33-4693-a9ba-7182c8822a1f,216,67016000216,216567,,67,д,1900-01-01,0000,,,2020-08-30,000,0000,000,0,,0000,,0
0,c95d1289-e0da-467f-ac35-330998c46a50,9950a803-65a1-40cd-88e2-8850616ce5f1,6,016,0,0,000,6701600021602,2.0,2019-10-25,Павловка (Грязенятское с/пос),6725,6725,943fce84-5678-4875-b53a-8c8c29e5dbd6,,66236820016,66636420171,21,8ac93b54-db33-4693-a9ba-7182c8822a1f,216,67016000216,216567,bdfc4c9a-1770-477e-9077-9487779e07b8,67,д,2014-01-10,0000,,,2020-08-30,000,0000,000,0,,0000,,0
0,c95d1289-e0da-467f-ac35-330998c46a50,943fce84-5678-4875-b53a-8c8c29e5dbd6,6,016,0,0,000,6701600021603,3.0,2020-08-27,Павловка (Грязенятское с/пос),6725,6725,a852ba3c-fb1f-4997-a124-9975b57ae8ba,,66236820016,66636460146,21,8ac93b54-db33-4693-a9ba-7182c8822a1f,216,67016000216,216567,9950a803-65a1-40cd-88e2-8850616ce5f1,67,д,2019-10-25,0000,,,2020-08-30,000,0000,000,0,,0000,,0
1,c95d1289-e0da-467f-ac35-330998c46a50,a852ba3c-fb1f-4997-a124-9975b57ae8ba,6,016,0,0,000,6701600021600,0.0,2079-06-06,Павловка,6725,6725,,,66236820016,66636460146,20,8ac93b54-db33-4693-a9ba-7182c8822a1f,216,67016000216,216567,943fce84-5678-4875-b53a-8c8c29e5dbd6,67,д,2020-08-27,0000,,,2020-08-30,000,0000,000,1,,0000,,0
0,7abe6c65-1393-46d5-9af1-2bfa9bc89a76,4a46c06b-b366-46bb-b0a5-ec7d3647d428,6,016,0,0,000,6701600014201,1.0,2020-08-27,Староселье (Костыревское МО),6725,6725,fdb0bfbd-a93a-421a-85a4-1bb71db8b0a1,,66236846011,66636446,1,8ac93b54-db33-4693-a9ba-7182c8822a1f,142,67016000142,216522,,67,д,1900-01-01,0000,,,2020-08-30,000,0000,000,0,,0000,,0
0,7abe6c65-1393-46d5-9af1-2bfa9bc89a76,fdb0bfbd-a93a-421a-85a4-1bb71db8b0a1,6,016,0,0,000,6701600014202,2.0,2019-10-25,Староселье (Костыревское МО),6725,6725,bdd8173b-1f60-4426-a5cd-8268fe342485,,66236846011,66636446166,21,8ac93b54-db33-4693-a9ba-7182c8822a1f,142,67016000142,216522,4a46c06b-b366-46bb-b0a5-ec7d3647d428,67,д,2014-01-10,0000,,,2020-08-30,000,0000,000,0,,0000,,0
0,7abe6c65-1393-46d5-9af1-2bfa9bc89a76,bdd8173b-1f60-4426-a5cd-8268fe342485,6,016,0,0,000,6701600014203,3.0,2020-08-27,Староселье (Костыревское МО),6725,6725,126d5913-14a3-4732-8cab-afbf0389aa14,,66236846011,66636462127,21,8ac93b54-db33-4693-a9ba-7182c8822a1f,142,67016000142,216522,fdb0bfbd-a93a-421a-85a4-1bb71db8b0a1,67,д,2019-10-25,0000,,,2020-08-30,000,0000,000,0,,0000,,0
1,7abe6c65-1393-46d5-9af1-2bfa9bc89a76,126d5913-14a3-4732-8cab-afbf0389aa14,6,016,0,0,000,6701600014200,0.0,2079-06-06,Староселье,6725,6725,,,66236846011,66636462127,20,8ac93b54-db33-4693-a9ba-7182c8822a1f,142,67016000142,216522,bdd8173b-1f60-4426-a5cd-8268fe342485,67,д,2020-08-27,0000,,,2020-08-30,000,0000,000,1,,0000,,0
1,1e45c404-0628-4247-9147-db35c6b59f98,1e45c404-0628-4247-9147-db35c6b59f98,7,001,0,0,000,67001000012002100,0.0,2079-06-06,Лучистая,6714,6714,,,66244865003,66644465111,10,01c7228d-a6f0-42ce-b29b-4defa1ccca9c,012,670010000120021,,,67,ул,2020-09-01,0021,,,2020-09-03,000,0000,000,1,,0020,,0
1,f974bc8c-23bc-4810-bb8e-48804b168a3b,f974bc8c-23bc-4810-bb8e-48804b168a3b,7,001,0,0,000,67001000412002900,0.0,2079-06-06,Пограничная,6714,6714,,,66244865013,66644465211,10,6155978c-abc4-4323-ac38-44f841425c61,412,670010004120029,,,67,ул,2020-09-01,0029,,,2020-09-03,000,0000,000,1,,0000,,0
1,a29f08fb-02b1-4f8a-904c-b6c075bd7bd6,a29f08fb-02b1-4f8a-904c-b6c075bd7bd6,65,000,0,0,003,67000003000047400,0.0,2079-06-06,"садоводческое товарищество ""Свет""",6732,6732,,,66401000000,66701000001,10,d414a2e8-9e1e-48c1-94a4-7308d5608177,000,670000030000474,,,67,тер,2020-09-02,0000,,,2020-09-03,000,0000,000,1,,0474,,0
1,653570e7-dec0-453e-bd79-c1e3260d3be9,653570e7-dec0-453e-bd79-c1e3260d3be9,7,001,0,0,000,67001000012002200,0.0,2079-06-06,Райская,6714,6714,,,66244865003,66644465111,10,01c7228d-a6f0-42ce-b29b-4defa1ccca9c,012,670010000120022,,,67,ул,2020-09-01,0022,,,2020-09-03,000,0000,000,1,,0020,,0
1,0e74da14-0b6e-4156-8912-cdcfb512d62a,0e74da14-0b6e-4156-8912-cdcfb512d62a,7,001,0,0,000,67001000012002300,0.0,2079-06-06,Изумрудная,6714,6714,,,66244865003,66644465111,10,01c7228d-a6f0-42ce-b29b-4defa1ccca9c,012,670010000120023,,,67,ул,2020-09-01,0023,,,2020-09-03,000,0000,000,1,,0020,,0
1,3479bff5-fb32-4209-b7fa-0bda8c15f514,3479bff5-fb32-4209-b7fa-0bda8c15f514,7,021,0,0,000,67021000056000600,0.0,2079-06-06,Лесная,6722,6722,,,66250805001,66650435226,10,db02b64f-98f8-4742-81c9-45dbbb03f56e,056,670210000560006,215464,,67,ул,2020-09-01,0006,,,2020-09-03,000,0000,000,1,,0000,,0
0,9d4370fb-3e5a-47cc-b3b3-2bed67bca2b9,9d4370fb-3e5a-47cc-b3b3-2bed67bca2b9,91,020,0,0,000,,,2016-09-29,Бородинская 3-я,6722,6722,c9a5dc58-a366-4380-a7b1-5d4b2b17ee58,,66248825002,66648425106,10,e42d679d-9446-4438-82af-971c91b3e961,011,,215363,,67,ул,2016-09-28,0000,6716,6716,2020-08-16,000,0000,000,0,5784676e-4899-4c27-b71b-aac81033ffd0,0000,,0
0,9d4370fb-3e5a-47cc-b3b3-2bed67bca2b9,c9a5dc58-a366-4380-a7b1-5d4b2b17ee58,7,020,0,0,000,67020000011001451,51.0,2016-09-30,Бородинская 3-я,6722,6722,1f2874ea-c64d-4e0e-a201-b9b63c0e5014,,66248825000,66648425,51,e42d679d-9446-4438-82af-971c91b3e961,011,670200000110014,215363,9d4370fb-3e5a-47cc-b3b3-2bed67bca2b9,67,ул,2016-09-29,0014,6716,6716,2020-08-16,000,0000,000,0,,0001,,0
0,9d4370fb-3e5a-47cc-b3b3-2bed67bca2b9,1f2874ea-c64d-4e0e-a201-b9b63c0e5014,7,020,0,0,000,67020000000002701,1.0,2079-06-06,3-я Бородинская,6722,6722,a3caed57-0cb6-4288-ab23-3edc6ee80d13,,66248825000,66648425,50,f3bcd8ad-e1df-4f55-963a-d0e17e25d618,000,670200000000027,215363,c9a5dc58-a366-4380-a7b1-5d4b2b17ee58,67,ул,2016-09-30,0027,6716,6716,2020-08-16,000,0000,000,0,e524b391-3808-439f-b56d-c1f7dd025af1,0003,,0
0,9d4370fb-3e5a-47cc-b3b3-2bed67bca2b9,a3caed57-0cb6-4288-ab23-3edc6ee80d13,7,020,0,0,000,67020000000002700,0.0,2020-08-14,3-я Бородинская,6722,6722,7acb7de8-cf16-47cc-a6d8-e24bfa05708d,,66248825000,66648410,21,f3bcd8ad-e1df-4f55-963a-d0e17e25d618,000,670200000000027,215363,1f2874ea-c64d-4e0e-a201-b9b63c0e5014,67,ул,2018-04-20,0027,6716,6716,2020-08-16,000,0000,000,0,543d8b85-e2f2-43ed-993c-709ef064ba93,0003,,0
1,9d4370fb-3e5a-47cc-b3b3-2bed67bca2b9,7acb7de8-cf16-47cc-a6d8-e24bfa05708d,7,020,0,0,000,67020000000002700,0.0,2079-06-06,3-я Бородинская,6722,6722,,,66248810000,66648410,20,f3bcd8ad-e1df-4f55-963a-d0e17e25d618,000,670200000000027,215363,a3caed57-0cb6-4288-ab23-3edc6ee80d13,67,ул,2020-08-14,0027,6716,6716,2020-08-16,000,0000,000,1,,0003,,0
0,1e43f594-9745-4798-8c7c-d231ae17e1ca,1e43f594-9745-4798-8c7c-d231ae17e1ca,91,020,0,0,000,,,2016-09-29,Басманная 1-я,6722,6722,2010dc52-33b3-4002-98e0-90f26663dcf8,,66248825002,66648425106,10,e42d679d-9446-4438-82af-971c91b3e961,011,,215363,,67,ул,2016-09-28,0000,6716,6716,2020-08-16,000,0000,000,0,981dc216-dc52-4225-87e4-5c670ba16e7b,0000,,0
0,1e43f594-9745-4798-8c7c-d231ae17e1ca,2010dc52-33b3-4002-98e0-90f26663dcf8,7,020,0,0,000,67020000011003551,51.0,2016-09-30,Басманная 1-я,6722,6722,125099fe-fd67-4afb-8877-bf753f27fb7f,,66248825000,66648425,51,e42d679d-9446-4438-82af-971c91b3e961,011,670200000110035,215363,1e43f594-9745-4798-8c7c-d231ae17e1ca,67,ул,2016-09-29,0035,6716,6716,2020-08-16,000,0000,000,0,,0001,,0
0,1e43f594-9745-4798-8c7c-d231ae17e1ca,125099fe-fd67-4afb-8877-bf753f27fb7f,7,020,0,0,000,67020000000000401,1.0,2079-06-06,1-я Басманная,6722,6722,2b6f8952-4ea8-4e0e-8f0b-70bdab7f4eb0,,66248825000,66648425,50,f3bcd8ad-e1df-4f55-963a-d0e17e25d618,000,670200000000004,215363,2010dc52-33b3-4002-98e0-90f26663dcf8,67,ул,2016-09-30,0004,6716,6716,2020-08-16,000,0000,000,0,e524b391-3808-439f-b56d-c1f7dd025af1,0003,,0
0,1e43f594-9745-4798-8c7c-d231ae17e1ca,2b6f8952-4ea8-4e0e-8f0b-70bdab7f4eb0,7,020,0,0,000,67020000000000400,0.0,2020-08-14,1-я Басманная,6722,6722,69dbf00e-2dc9-471c-89c3-c9722e48753e,,66248825000,66648410,21,f3bcd8ad-e1df-4f55-963a-d0e17e25d618,000,670200000000004,215363,125099fe-fd67-4afb-8877-bf753f27fb7f,67,ул,2018-04-20,0004,6716,6716,2020-08-16,000,0000,000,0,543d8b85-e2f2-43ed-993c-709ef064ba93,0003,,0
1,1e43f594-9745-4798-8c7c-d231ae17e1ca,69dbf00e-2dc9-471c-89c3-c9722e48753e,7,020,0,0,000,67020000000000400,0.0,2079-06-06,1-я Басманная,6722,6722,,,66248810000,66648410,20,f3bcd8ad-e1df-4f55-963a-d0e17e25d618,000,670200000000004,215363,2b6f8952-4ea8-4e0e-8f0b-70bdab7f4eb0,67,ул,2020-08-14,0004,6716,6716,2020-08-16,000,0000,000,1,,0003,,0
0,b01d1ac0-15b1-4c61-8e5d-416425a99b84,b01d1ac0-15b1-4c61-8e5d-416425a99b84,91,020,0,0,000,,,2016-09-29,Лесная 3-я,6722,6722,65ecc695-1489-43b0-8c8f-7a623358bac4,,66248825002,66648425106,10,e42d679d-9446-4438-82af-971c91b3e961,011,,215363,,67,ул,2016-09-28,0000,6716,6716,2020-08-16,000,0000,000,0,fce134bc-a521-42f5-997f-477b32a60cae,0000,,0
0,b01d1ac0-15b1-4c61-8e5d-416425a99b84,65ecc695-1489-43b0-8c8f-7a623358bac4,7,020,0,0,000,67020000011002751,51.0,2016-09-30,Лесная 3-я,6722,6722,c6c84fb6-cd23-40a2-be41-4c48cbef02df,,66248825000,66648425,51,e42d679d-9446-4438-82af-971c91b3e961,011,670200000110027,215363,b01d1ac0-15b1-4c61-8e5d-416425a99b84,67,ул,2016-09-29,0027,6716,6716,2020-08-16,000,0000,000,0,,0001,,0
0,b01d1ac0-15b1-4c61-8e5d-416425a99b84,c6c84fb6-cd23-40a2-be41-4c48cbef02df,7,020,0,0,000,67020000000002001,1.0,2079-06-06,3-я Лесная,6722,6722,05e29518-d46a-4af4-a2b0-fc4cac56c495,,66248825000,66648425,50,f3bcd8ad-e1df-4f55-963a-d0e17e25d618,000,670200000000020,215363,65ecc695-1489-43b0-8c8f-7a623358bac4,67,ул,2016-09-30,0020,6716,6716,2020-08-16,000,0000,000,0,e524b391-3808-439f-b56d-c1f7dd025af1,0003,,0
0,b01d1ac0-15b1-4c61-8e5d-416425a99b84,05e29518-d46a-4af4-a2b0-fc4cac56c495,7,020,0,0,000,67020000000002000,0.0,2020-08-14,3-я Лесная,6722,6722,3ee1e974-982d-470e-aba2-3a1f0a80925a,,66248825000,66648410,21,f3bcd8ad-e1df-4f55-963a-d0e17e25d618,000,670200000000020,215363,c6c84fb6-cd23-40a2-be41-4c48cbef02df,67,ул,2018-04-20,0020,6716,6716,2020-08-16,000,0000,000,0,543d8b85-e2f2-43ed-993c-709ef064ba93,0003,,0
1,b01d1ac0-15b1-4c61-8e5d-416425a99b84,3ee1e974-982d-470e-aba2-3a1f0a80925a,7,020,0,0,000,67020000000002000,0.0,2079-06-06,3-я Лесная,6722,6722,,,66248810000,66648410,20,f3bcd8ad-e1df-4f55-963a-d0e17e25d618,000,670200000000020,215363,05e29518-d46a-4af4-a2b0-fc4cac56c495,67,ул,2020-08-14,0020,6716,6716,2020-08-16,000,0000,000,1,,0003,,0
0,77ec217c-f0d0-4e5e-8764-58eca228dadd,77ec217c-f0d0-4e5e-8764-58eca228dadd,91,020,0,0,000,,,2016-09-29,Можайская 1-я,6722,6722,991c3343-d336-4622-a5b1-3baa62e92eb1,,66248825002,66648425106,10,e42d679d-9446-4438-82af-971c91b3e961,011,,215363,,67,ул,2016-09-28,0000,6716,6716,2020-08-16,000,0000,000,0,c3874a0d-8d81-4c98-a4c9-2fdbf334e14f,0000,,0
0,77ec217c-f0d0-4e5e-8764-58eca228dadd,991c3343-d336-4622-a5b1-3baa62e92eb1,7,020,0,0,000,67020000011003051,51.0,2016-09-30,Можайская 1-я,6722,6722,9a80c02d-797b-41bd-908f-8c6660505099,,66248825002,66648425,51,e42d679d-9446-4438-82af-971c91b3e961,011,670200000110030,215363,77ec217c-f0d0-4e5e-8764-58eca228dadd,67,ул,2016-09-29,0030,6716,6716,2020-08-16,000,0000,000,0,,0001,,0
0,77ec217c-f0d0-4e5e-8764-58eca228dadd,9a80c02d-797b-41bd-908f-8c6660505099,7,020,0,0,000,67020000000001601,1.0,2079-06-06,1-я Можайская,6722,6722,a654e7dc-92ba-4686-979e-b7c5db4ee5ab,,66248825002,66648425,50,f3bcd8ad-e1df-4f55-963a-d0e17e25d618,000,670200000000016,215363,991c3343-d336-4622-a5b1-3baa62e92eb1,67,ул,2016-09-30,0016,6716,6716,2020-08-16,000,0000,000,0,e524b391-3808-439f-b56d-c1f7dd025af1,0003,,0
0,77ec217c-f0d0-4e5e-8764-58eca228dadd,a654e7dc-92ba-4686-979e-b7c5db4ee5ab,7,020,0,0,000,67020000000001600,0.0,2020-08-14,1-я Можайская,6722,6722,f32e279f-ad6d-431b-98bc-314e5dd2658c,,66248825002,66648410,21,f3bcd8ad-e1df-4f55-963a-d0e17e25d618,000,670200000000016,215363,9a80c02d-797b-41bd-908f-8c6660505099,67,ул,2018-04-20,0016,6716,6716,2020-08-16,000,0000,000,0,543d8b85-e2f2-43ed-993c-709ef064ba93,0003,,0
1,77ec217c-f0d0-4e5e-8764-58eca228dadd,f32e279f-ad6d-431b-98bc-314e5dd2658c,7,020,0,0,000,67020000000001600,0.0,2079-06-06,1-я Можайская,6722,6722,,,66248810000,66648410,20,f3bcd8ad-e1df-4f55-963a-d0e17e25d618,000,670200000000016,215363,a654e7dc-92ba-4686-979e-b7c5db4ee5ab,67,ул,2020-08-14,0016,6716,6716,2020-08-16,000,0000,000,1,,0003,,0
0,ae33d5cc-1234-4779-a36b-f755eb23ffcb,ae33d5cc-1234-4779-a36b-f755eb23ffcb,91,020,0,0,000,,,2016-09-29,Басманная 5-я,6722,6722,c64e6af8-dd3c-4038-8ca3-3c0ba78f8068,,66248825002,66648425106,10,e42d679d-9446-4438-82af-971c91b3e961,011,,215363,,67,ул,2016-09-28,0000,6716,6716,2020-08-16,000,0000,000,0,6d8ccc8f-2d79-4dae-9a9d-7c160e49c52a,0000,,0
0,ae33d5cc-1234-4779-a36b-f755eb23ffcb,c64e6af8-dd3c-4038-8ca3-3c0ba78f8068,7,020,0,0,000,67020000011003951,51.0,2016-09-30,Басманная 5-я,6722,6722,f454abf9-504d-46fc-afce-5ed8d08291a2,,66248825000,66648425,51,e42d679d-9446-4438-82af-971c91b3e961,011,670200000110039,215363,ae33d5cc-1234-4779-a36b-f755eb23ffcb,67,ул,2016-09-29,0039,6716,6716,2020-08-16,000,0000,000,0,,0001,,0
0,ae33d5cc-1234-4779-a36b-f755eb23ffcb,f454abf9-504d-46fc-afce-5ed8d08291a2,7,020,0,0,000,67020000000003201,1.0,2079-06-06,5-я Басманная,6722,6722,25768479-a4df-476b-97a6-b61512419cd5,,66248825000,66648425,50,f3bcd8ad-e1df-4f55-963a-d0e17e25d618,000,670200000000032,215363,c64e6af8-dd3c-4038-8ca3-3c0ba78f8068,67,ул,2016-09-30,0032,6716,6716,2020-08-16,000,0000,000,0,e524b391-3808-439f-b56d-c1f7dd025af1,0003,,0
0,ae33d5cc-1234-4779-a36b-f755eb23ffcb,25768479-a4df-476b-97a6-b61512419cd5,7,020,0,0,000,67020000000003200,0.0,2020-08-14,5-я Басманная,6722,6722,6d71173f-8a1d-4df6-abad-921090c6c09a,,66248825000,66648410,21,f3bcd8ad-e1df-4f55-963a-d0e17e25d618,000,670200000000032,215363,f454abf9-504d-46fc-afce-5ed8d08291a2,67,ул,2018-04-20,0032,6716,6716,2020-08-16,000,0000,000,0,543d8b85-e2f2-43ed-993c-709ef064ba93,0003,,0
1,ae33d5cc-1234-4779-a36b-f755eb23ffcb,6d71173f-8a1d-4df6-abad-921090c6c09a,7,020,0,0,000,67020000000003200,0.0,2079-06-06,5-я Басманная,6722,6722,,,66248810000,66648410,20,f3bcd8ad-e1df-4f55-963a-d0e17e25d618,000,670200000000032,215363,25768479-a4df-476b-97a6-b61512419cd5,67,ул,2020-08-14,0032,6716,6716,2020-08-16,000,0000,000,1,,0003,,0
0,bf29a986-c607-42c5-83dd-15d4f2ead770,bf29a986-c607-42c5-83dd-15d4f2ead770,91,020,0,0,000,,,2016-09-29,Бородинская 11-я,6722,6722,c70465d5-43b8-4258-8679-6ded039dbd5c,,66248825002,66648425106,10,e42d679d-9446-4438-82af-971c91b3e961,011,,215363,,67,ул,2016-09-28,0000,6716,6716,2020-08-16,000,0000,000,0,7c1d0553-db81-4f46-a8b4-30dd200235cb,0000,,0
0,bf29a986-c607-42c5-83dd-15d4f2ead770,c70465d5-43b8-4258-8679-6ded039dbd5c,7,020,0,0,000,67020000011002051,51.0,2016-09-30,Бородинская 11-я,6722,6722,2bb8e39e-4cac-41a9-a7fc-7054e3472c07,,66248825000,66648425,51,e42d679d-9446-4438-82af-971c91b3e961,011,670200000110020,215363,bf29a986-c607-42c5-83dd-15d4f2ead770,67,ул,2016-09-29,0020,6716,6716,2020-08-16,000,0000,000,0,,0001,,0
0,bf29a986-c607-42c5-83dd-15d4f2ead770,2bb8e39e-4cac-41a9-a7fc-7054e3472c07,7,020,0,0,000,67020000000003001,1.0,2079-06-06,11-я Бородинская,6722,6722,e610d0b9-5874-4630-8bf6-e6c6c0db3721,,66248825000,66648425,50,f3bcd8ad-e1df-4f55-963a-d0e17e25d618,000,670200000000030,215363,c70465d5-43b8-4258-8679-6ded039dbd5c,67,ул,2016-09-30,0030,6716,6716,2020-08-16,000,0000,000,0,e524b391-3808-439f-b56d-c1f7dd025af1,0003,,0
0,bf29a986-c607-42c5-83dd-15d4f2ead770,e610d0b9-5874-4630-8bf6-e6c6c0db3721,7,020,0,0,000,67020000000003000,0.0,2020-08-14,11-я Бородинская,6722,6722,c451dcfc-d084-4650-a97a-937155b313bf,,66248825000,66648410,21,f3bcd8ad-e1df-4f55-963a-d0e17e25d618,000,670200000000030,215363,2bb8e39e-4cac-41a9-a7fc-7054e3472c07,67,ул,2018-04-20,0030,6716,6716,2020-08-16,000,0000,000,0,543d8b85-e2f2-43ed-993c-709ef064ba93,0003,,0
1,bf29a986-c607-42c5-83dd-15d4f2ead770,c451dcfc-d084-4650-a97a-937155b313bf,7,020,0,0,000,67020000000003000,0.0,2079-06-06,11-я Бородинская,6722,6722,,,66248810000,66648410,20,f3bcd8ad-e1df-4f55-963a-d0e17e25d618,000,670200000000030,215363,e610d0b9-5874-4630-8bf6-e6c6c0db3721,67,ул,2020-08-14,0030,6716,6716,2020-08-16,000,0000,000,1,,0003,,0
0,bd9c4618-93a1-4f3a-a8ca-e588fbcb5845,bd9c4618-93a1-4f3a-a8ca-e588fbcb5845,7,017,0,0,000,67017000122000401,1.0,2079-06-06,Дорожная,6713,6713,3cc3cc01-3820-4612-a789-5f8111fab5c4,,66238000000,66638415151,10,eb91546a-5768-4476-a264-78f820d5fbd9,122,670170001220004,216730,,67,ул,2017-06-05,0004,,,2020-08-16,000,0000,000,0,5f8ff97f-2f0b-4f7a-9e7c-eedc8007988c,0000,,0
0,bd9c4618-93a1-4f3a-a8ca-e588fbcb5845,3cc3cc01-3820-4612-a789-5f8111fab5c4,7,017,0,0,000,67017000122000402,2.0,2018-11-07,Дорожная,6713,6713,667ea634-6aa3-4e1d-8d99-a8f719c0dace,,66238000000,66638415151,21,eb91546a-5768-4476-a264-78f820d5fbd9,122,670170001220004,,bd9c4618-93a1-4f3a-a8ca-e588fbcb5845,67,ул,2017-08-21,0004,,,2020-08-16,000,0000,000,0,e031c13f-9d38-4b34-9fe4-4038825b7947,0000,,0
0,bd9c4618-93a1-4f3a-a8ca-e588fbcb5845,667ea634-6aa3-4e1d-8d99-a8f719c0dace,7,017,0,0,000,67017000122000403,3.0,2019-10-25,Дорожная,6713,6713,5e19b1c0-92f4-4416-a9e7-446b1d1750b0,,66238000000,66638415151,21,eb91546a-5768-4476-a264-78f820d5fbd9,122,670170001220004,216730,3cc3cc01-3820-4612-a789-5f8111fab5c4,67,ул,2018-11-07,0004,,,2020-08-16,000,0000,000,0,8deeb30d-c4dd-4108-bd46-7c4eeed2d0a5,0000,,0
0,bd9c4618-93a1-4f3a-a8ca-e588fbcb5845,5e19b1c0-92f4-4416-a9e7-446b1d1750b0,7,017,0,0,000,67017000122000400,0.0,2020-08-13,Дорожная,6713,6713,1d4d7e5c-b0e1-4183-a478-091faba9ec7a,,66238000000,66638494120,21,eb91546a-5768-4476-a264-78f820d5fbd9,122,670170001220004,216730,667ea634-6aa3-4e1d-8d99-a8f719c0dace,67,ул,2019-10-25,0004,,,2020-08-16,000,0000,000,0,8deeb30d-c4dd-4108-bd46-7c4eeed2d0a5,0000,,0
0,bd9c4618-93a1-4f3a-a8ca-e588fbcb5845,1d4d7e5c-b0e1-4183-a478-091faba9ec7a,7,017,0,0,000,67017000122000400,0.0,2020-08-13,Дорожная,6713,6713,e24643f3-883b-4c7d-b632-c75f96883e54,,66238815010,66638494120,20,eb91546a-5768-4476-a264-78f820d5fbd9,122,670170001220004,216730,5e19b1c0-92f4-4416-a9e7-446b1d1750b0,67,ул,2020-08-12,0004,,,2020-08-16,000,0000,000,0,,0000,,0
1,bd9c4618-93a1-4f3a-a8ca-e588fbcb5845,e24643f3-883b-4c7d-b632-c75f96883e54,7,017,0,0,000,67017000122000400,0.0,2079-06-06,Дорожная,6713,6713,,,66238815010,66638494129,20,eb91546a-5768-4476-a264-78f820d5fbd9,122,670170001220004,216730,1d4d7e5c-b0e1-4183-a478-091faba9ec7a,67,ул,2020-08-13,0004,,,2020-08-16,000,0000,000,1,,0000,,0
0,e055ac69-d823-4219-bd0b-f0130339ab98,e055ac69-d823-4219-bd0b-f0130339ab98,91,020,0,0,000,,,2016-09-28,Можайский,6722,6722,83ccb81c-60e4-4d1b-b297-9014132ab77b,,66248825002,66648425106,10,e42d679d-9446-4438-82af-971c91b3e961,011,,215363,,67,проезд,2010-12-20,0000,6716,6716,2020-08-16,000,0000,000,0,5419eeb5-07dd-4bab-a831-f5532ec28e5d,0000,,0
0,e055ac69-d823-4219-bd0b-f0130339ab98,83ccb81c-60e4-4d1b-b297-9014132ab77b,7,020,0,0,000,67020000011001051,51.0,2079-06-06,Можайский,6722,6722,2c074c10-e982-4ac2-add0-385ff338c51f,,66248825000,66648425,51,e42d679d-9446-4438-82af-971c91b3e961,011,670200000110010,215363,e055ac69-d823-4219-bd0b-f0130339ab98,67,проезд,2016-09-28,0010,6716,6716,2020-08-16,000,0000,000,0,,0001,,0
0,e055ac69-d823-4219-bd0b-f0130339ab98,2c074c10-e982-4ac2-add0-385ff338c51f,7,020,0,0,000,67020000000001101,1.0,2018-04-20,Можайский,6722,6722,b646417d-514c-4d14-b670-ff356601234d,,66248825000,66648425,50,f3bcd8ad-e1df-4f55-963a-d0e17e25d618,000,670200000000011,215363,83ccb81c-60e4-4d1b-b297-9014132ab77b,67,проезд,2016-09-28,0011,6716,6716,2020-08-16,000,0000,000,0,e524b391-3808-439f-b56d-c1f7dd025af1,0003,,0
0,e055ac69-d823-4219-bd0b-f0130339ab98,b646417d-514c-4d14-b670-ff356601234d,7,020,0,0,000,67020000000001100,0.0,2020-08-14,Можайский,6722,6722,1d072846-0ce9-403a-a37a-946f41b010af,,66248825000,66648410,21,f3bcd8ad-e1df-4f55-963a-d0e17e25d618,000,670200000000011,215363,2c074c10-e982-4ac2-add0-385ff338c51f,67,проезд,2018-04-20,0011,6716,6716,2020-08-16,000,0000,000,0,543d8b85-e2f2-43ed-993c-709ef064ba93,0003,,0
1,e055ac69-d823-4219-bd0b-f0130339ab98,1d072846-0ce9-403a-a37a-946f41b010af,7,020,0,0,000,67020000000001100,0.0,2079-06-06,Можайский,6722,6722,,,66248810000,66648410,20,f3bcd8ad-e1df-4f55-963a-d0e17e25d618,000,670200000000011,215363,b646417d-514c-4d14-b670-ff356601234d,67,проезд,2020-08-14,0011,6716,6716,2020-08-16,000,0000,000,1,,0003,,0
0,cb080aec-e6c7-497d-9d4d-616138a730c8,cb080aec-e6c7-497d-9d4d-616138a730c8,91,020,0,0,000,,,2016-09-28,Большая Семеновская,6722,6722,1c85a9e0-477b-4044-9aa7-659d99aa2e68,,66248825002,66648425106,10,e42d679d-9446-4438-82af-971c91b3e961,011,,215363,,67,ул,2010-12-20,0000,6716,6716,2020-08-16,000,0000,000,0,f48d6db7-bd4e-4187-b373-f2fdc2c368e3,0000,,0
0,cb080aec-e6c7-497d-9d4d-616138a730c8,1c85a9e0-477b-4044-9aa7-659d99aa2e68,7,020,0,0,000,67020000011002251,51.0,2079-06-06,Большая Семеновская,6722,6722,f079470d-517e-4c7f-b0cb-ab903dba77df,,66248825000,66648425,51,e42d679d-9446-4438-82af-971c91b3e961,011,670200000110022,215363,cb080aec-e6c7-497d-9d4d-616138a730c8,67,ул,2016-09-28,0022,6716,6716,2020-08-16,000,0000,000,0,,0001,,0
0,cb080aec-e6c7-497d-9d4d-616138a730c8,f079470d-517e-4c7f-b0cb-ab903dba77df,7,020,0,0,000,67020000000003801,1.0,2018-04-20,Большая Семеновская,6722,6722,cafff0a7-554a-4906-bf4e-6c660d184564,,66248825000,66648425,50,f3bcd8ad-e1df-4f55-963a-d0e17e25d618,000,670200000000038,215363,1c85a9e0-477b-4044-9aa7-659d99aa2e68,67,ул,2016-09-28,0038,6716,6716,2020-08-16,000,0000,000,0,e524b391-3808-439f-b56d-c1f7dd025af1,0003,,0
0,cb080aec-e6c7-497d-9d4d-616138a730c8,cafff0a7-554a-4906-bf4e-6c660d184564,7,020,0,0,000,67020000000003800,0.0,2020-08-14,Большая Семеновская,6722,6722,86044c45-269f-4d0e-857b-1d6fa129339d,,66248825000,66648410,21,f3bcd8ad-e1df-4f55-963a-d0e17e25d618,000,670200000000038,215363,f079470d-517e-4c7f-b0cb-ab903dba77df,67,ул,2018-04-20,0038,6716,6716,2020-08-16,000,0000,000,0,543d8b85-e2f2-43ed-993c-709ef064ba93,0003,,0
1,cb080aec-e6c7-497d-9d4d-616138a730c8,86044c45-269f-4d0e-857b-1d6fa129339d,7,020,0,0,000,67020000000003800,0.0,2079-06-06,Большая Семеновская,6722,6722,,,66248810000,66648410,20,f3bcd8ad-e1df-4f55-963a-d0e17e25d618,000,670200000000038,215363,cafff0a7-554a-4906-bf4e-6c660d184564,67,ул,2020-08-14,0038,6716,6716,2020-08-16,000,0000,000,1,,0003,,0
0,556075cc-cf76-4dc6-8b6f-3e4d2339c252,556075cc-cf76-4dc6-8b6f-3e4d2339c252,91,020,0,0,000,,,2016-09-29,Бородинская 2-я,6722,6722,e3b2c9d2-b144-4ae8-9dcd-ab06da392062,,66248825002,66648425106,10,e42d679d-9446-4438-82af-971c91b3e961,011,,215363,,67,ул,2016-09-28,0000,6716,6716,2020-08-16,000,0000,000,0,2696ef69-3a59-48db-8bcf-73d4a77610cc,0000,,0
0,556075cc-cf76-4dc6-8b6f-3e4d2339c252,e3b2c9d2-b144-4ae8-9dcd-ab06da392062,7,020,0,0,000,67020000011001351,51.0,2016-09-30,Бородинская 2-я,6722,6722,66041afe-ec7d-4752-bffb-c32355e7cd2e,,66248825000,66648425,51,e42d679d-9446-4438-82af-971c91b3e961,011,670200000110013,215363,556075cc-cf76-4dc6-8b6f-3e4d2339c252,67,ул,2016-09-29,0013,6716,6716,2020-08-16,000,0000,000,0,,0001,,0
0,556075cc-cf76-4dc6-8b6f-3e4d2339c252,66041afe-ec7d-4752-bffb-c32355e7cd2e,7,020,0,0,000,67020000000002801,1.0,2079-06-06,2-я Бородинская,6722,6722,d200f94c-f08b-49be-88d9-f0303ce272e4,,66248825000,66648425,50,f3bcd8ad-e1df-4f55-963a-d0e17e25d618,000,670200000000028,215363,e3b2c9d2-b144-4ae8-9dcd-ab06da392062,67,ул,2016-09-30,0028,6716,6716,2020-08-16,000,0000,000,0,e524b391-3808-439f-b56d-c1f7dd025af1,0003,,0
0,556075cc-cf76-4dc6-8b6f-3e4d2339c252,d200f94c-f08b-49be-88d9-f0303ce272e4,7,020,0,0,000,67020000000002800,0.0,2020-08-14,2-я Бородинская,6722,6722,51c94d1f-359a-4d86-8a21-c878a19dd881,,66248825000,66648410,21,f3bcd8ad-e1df-4f55-963a-d0e17e25d618,000,670200000000028,215363,66041afe-ec7d-4752-bffb-c32355e7cd2e,67,ул,2018-04-20,0028,6716,6716,2020-08-16,000,0000,000,0,543d8b85-e2f2-43ed-993c-709ef064ba93,0003,,0
1,556075cc-cf76-4dc6-8b6f-3e4d2339c252,51c94d1f-359a-4d86-8a21-c878a19dd881,7,020,0,0,000,67020000000002800,0.0,2079-06-06,2-я Бородинская,6722,6722,,,66248810000,66648410,20,f3bcd8ad-e1df-4f55-963a-d0e17e25d618,000,670200000000028,215363,d200f94c-f08b-49be-88d9-f0303ce272e4,67,ул,2020-08-14,0028,6716,6716,2020-08-16,000,0000,000,1,,0003,,0
0,1e41a524-792b-43d5-bcea-62d93088fa3d,1e41a524-792b-43d5-bcea-62d93088fa3d,91,020,0,0,000,,,2016-09-29,Бородинская 1-я,6722,6722,c913695a-251b-41c4-a6a1-b20954523c0e,,66248825002,66648425106,10,e42d679d-9446-4438-82af-971c91b3e961,011,,215363,,67,ул,2016-09-28,0000,6716,6716,2020-08-16,000,0000,000,0,fbfd69f1-617f-4a07-86d0-cfa3b181d79e,0000,,0
0,1e41a524-792b-43d5-bcea-62d93088fa3d,c913695a-251b-41c4-a6a1-b20954523c0e,7,020,0,0,000,67020000011001251,51.0,2016-09-30,Бородинская 1-я,6722,6722,dd7914b7-749f-4092-8b09-8f716089b403,,66248825000,66648425,51,e42d679d-9446-4438-82af-971c91b3e961,011,670200000110012,215363,1e41a524-792b-43d5-bcea-62d93088fa3d,67,ул,2016-09-29,0012,6716,6716,2020-08-16,000,0000,000,0,,0001,,0
0,1e41a524-792b-43d5-bcea-62d93088fa3d,dd7914b7-749f-4092-8b09-8f716089b403,7,020,0,0,000,67020000000002901,1.0,2079-06-06,1-я Бородинская,6722,6722,6326416a-a2ea-4241-b23b-4a979f521db5,,66248825000,66648425,50,f3bcd8ad-e1df-4f55-963a-d0e17e25d618,000,670200000000029,215363,c913695a-251b-41c4-a6a1-b20954523c0e,67,ул,2016-09-30,0029,6716,6716,2020-08-16,000,0000,000,0,e524b391-3808-439f-b56d-c1f7dd025af1,0003,,0
0,1e41a524-792b-43d5-bcea-62d93088fa3d,6326416a-a2ea-4241-b23b-4a979f521db5,7,020,0,0,000,67020000000002900,0.0,2020-08-14,1-я Бородинская,6722,6722,5dc23758-3f48-4554-8e38-ea5017f3bbdb,,66248825000,66648410,21,f3bcd8ad-e1df-4f55-963a-d0e17e25d618,000,670200000000029,215363,dd7914b7-749f-4092-8b09-8f716089b403,67,ул,2018-04-20,0029,6716,6716,2020-08-16,000,0000,000,0,543d8b85-e2f2-43ed-993c-709ef064ba93,0003,,0
1,1e41a524-792b-43d5-bcea-62d93088fa3d,5dc23758-3f48-4554-8e38-ea5017f3bbdb,7,020,0,0,000,67020000000002900,0.0,2079-06-06,1-я Бородинская,6722,6722,,,66248810000,66648410,20,f3bcd8ad-e1df-4f55-963a-d0e17e25d618,000,670200000000029,215363,6326416a-a2ea-4241-b23b-4a979f521db5,67,ул,2020-08-14,0029,6716,6716,2020-08-16,000,0000,000,1,,0003,,0
0,95ec8e4e-8182-4c08-88c4-aba5b001a06e,95ec8e4e-8182-4c08-88c4-aba5b001a06e,91,020,0,0,000,,,2016-09-29,Бородинская 10-я,6722,6722,3bed186e-fd15-4ca7-9ae1-133f7b2230dc,,66248825002,66648425106,10,e42d679d-9446-4438-82af-971c91b3e961,011,,215363,,67,ул,2016-09-28,0000,6716,6716,2020-08-16,000,0000,000,0,16d4feea-7c6c-4234-9652-aa086aa33189,0000,,0
0,95ec8e4e-8182-4c08-88c4-aba5b001a06e,3bed186e-fd15-4ca7-9ae1-133f7b2230dc,7,020,0,0,000,67020000011001951,51.0,2016-09-30,Бородинская 10-я,6722,6722,47c12133-b368-4227-b21b-f6975490b2d1,,66248825000,66648425,51,e42d679d-9446-4438-82af-971c91b3e961,011,670200000110019,215363,95ec8e4e-8182-4c08-88c4-aba5b001a06e,67,ул,2016-09-29,0019,6716,6716,2020-08-16,000,0000,000,0,,0001,,0
0,95ec8e4e-8182-4c08-88c4-aba5b001a06e,47c12133-b368-4227-b21b-f6975490b2d1,7,020,0,0,000,67020000000003101,1.0,2079-06-06,10-я Бородинская,6722,6722,001aedf4-dac2-4313-a536-95c2bd7d5da1,,66248825000,66648425,50,f3bcd8ad-e1df-4f55-963a-d0e17e25d618,000,670200000000031,215363,3bed186e-fd15-4ca7-9ae1-133f7b2230dc,67,ул,2016-09-30,0031,6716,6716,2020-08-16,000,0000,000,0,e524b391-3808-439f-b56d-c1f7dd025af1,0003,,0
0,95ec8e4e-8182-4c08-88c4-aba5b001a06e,001aedf4-dac2-4313-a536-95c2bd7d5da1,7,020,0,0,000,67020000000003100,0.0,2020-08-14,10-я Бородинская,6722,6722,0c424c0e-802e-4a01-b3b7-ccf905936436,,66248825000,66648410,21,f3bcd8ad-e1df-4f55-963a-d0e17e25d618,000,670200000000031,215363,47c12133-b368-4227-b21b-f6975490b2d1,67,ул,2018-04-20,0031,6716,6716,2020-08-16,000,0000,000,0,543d8b85-e2f2-43ed-993c-709ef064ba93,0003,,0
1,95ec8e4e-8182-4c08-88c4-aba5b001a06e,0c424c0e-802e-4a01-b3b7-ccf905936436,7,020,0,0,000,67020000000003100,0.0,2079-06-06,10-я Бородинская,6722,6722,,,66248810000,66648410,20,f3bcd8ad-e1df-4f55-963a-d0e17e25d618,000,670200000000031,215363,001aedf4-dac2-4313-a536-95c2bd7d5da1,67,ул,2020-08-14,0031,6716,6716,2020-08-16,000,0000,000,1,,0003,,0
0,56cb4fd3-87d8-42ea-8892-a50e9198ec52,56cb4fd3-87d8-42ea-8892-a50e9198ec52,91,020,0,0,000,,,2016-09-29,Можайская 2-я,6722,6722,32d98a61-12d6-4c8c-bf7b-af3d5afa3a7f,,66248825002,66648425106,10,e42d679d-9446-4438-82af-971c91b3e961,011,,215363,,67,ул,2016-09-28,0000,6716,6716,2020-08-16,000,0000,000,0,1cc3a783-d07c-48fd-8641-85f8bc65c734,0000,,0
0,56cb4fd3-87d8-42ea-8892-a50e9198ec52,32d98a61-12d6-4c8c-bf7b-af3d5afa3a7f,7,020,0,0,000,67020000011003151,51.0,2016-09-30,Можайская 2-я,6722,6722,5299e87c-5905-4621-aee7-1fa5771dc0d4,,66248825000,66648425,51,e42d679d-9446-4438-82af-971c91b3e961,011,670200000110031,215363,56cb4fd3-87d8-42ea-8892-a50e9198ec52,67,ул,2016-09-29,0031,6716,6716,2020-08-16,000,0000,000,0,,0001,,0
0,56cb4fd3-87d8-42ea-8892-a50e9198ec52,5299e87c-5905-4621-aee7-1fa5771dc0d4,7,020,0,0,000,67020000000001501,1.0,2079-06-06,2-я Можайская,6722,6722,f60bde4f-cc67-4a2e-aa31-b2c3e90533cf,,66248825000,66648425,50,f3bcd8ad-e1df-4f55-963a-d0e17e25d618,000,670200000000015,215363,32d98a61-12d6-4c8c-bf7b-af3d5afa3a7f,67,ул,2016-09-30,0015,6716,6716,2020-08-16,000,0000,000,0,e524b391-3808-439f-b56d-c1f7dd025af1,0003,,0
0,56cb4fd3-87d8-42ea-8892-a50e9198ec52,f60bde4f-cc67-4a2e-aa31-b2c3e90533cf,7,020,0,0,000,67020000000001500,0.0,2020-08-14,2-я Можайская,6722,6722,42dba6d4-e71b-4994-bd03-0a447eaba896,,66248825000,66648410,21,f3bcd8ad-e1df-4f55-963a-d0e17e25d618,000,670200000000015,215363,5299e87c-5905-4621-aee7-1fa5771dc0d4,67,ул,2018-04-20,0015,6716,6716,2020-08-16,000,0000,000,0,543d8b85-e2f2-43ed-993c-709ef064ba93,0003,,0
1,56cb4fd3-87d8-42ea-8892-a50e9198ec52,42dba6d4-e71b-4994-bd03-0a447eaba896,7,020,0,0,000,67020000000001500,0.0,2079-06-06,2-я Можайская,6722,6722,,,66248810000,66648410,20,f3bcd8ad-e1df-4f55-963a-d0e17e25d618,000,670200000000015,215363,f60bde4f-cc67-4a2e-aa31-b2c3e90533cf,67,ул,2020-08-14,0015,6716,6716,2020-08-16,000,0000,000,1,,0003,,0
0,7a54e222-e69d-4d8d-ae8b-8f4db3106a37,7a54e222-e69d-4d8d-ae8b-8f4db3106a37,91,020,0,0,000,,,2016-09-29,Можайская 3-я,6722,6722,667ccffc-bab8-4e83-8ecb-5711b3c48b4b,,66248825002,66648425106,10,e42d679d-9446-4438-82af-971c91b3e961,011,,215363,,67,ул,2016-09-28,0000,6716,6716,2020-08-16,000,0000,000,0,870e94dc-da65-4585-9160-c7ac8c206d63,0000,,0
0,7a54e222-e69d-4d8d-ae8b-8f4db3106a37,667ccffc-bab8-4e83-8ecb-5711b3c48b4b,7,020,0,0,000,67020000011003251,51.0,2016-09-30,Можайская 3-я,6722,6722,1e75b0cc-7bbf-45b6-9d2b-d2fe72b602d9,,66248825000,66648425,51,e42d679d-9446-4438-82af-971c91b3e961,011,670200000110032,215363,7a54e222-e69d-4d8d-ae8b-8f4db3106a37,67,ул,2016-09-29,0032,6716,6716,2020-08-16,000,0000,000,0,,0001,,0
0,7a54e222-e69d-4d8d-ae8b-8f4db3106a37,1e75b0cc-7bbf-45b6-9d2b-d2fe72b602d9,7,020,0,0,000,67020000000001401,1.0,2079-06-06,3-я Можайская,6722,6722,8629b4e7-27dd-4f0e-8175-6919679ed35c,,66248825000,66648425,50,f3bcd8ad-e1df-4f55-963a-d0e17e25d618,000,670200000000014,215363,667ccffc-bab8-4e83-8ecb-5711b3c48b4b,67,ул,2016-09-30,0014,6716,6716,2020-08-16,000,0000,000,0,e524b391-3808-439f-b56d-c1f7dd025af1,0003,,0
0,7a54e222-e69d-4d8d-ae8b-8f4db3106a37,8629b4e7-27dd-4f0e-8175-6919679ed35c,7,020,0,0,000,67020000000001400,0.0,2020-08-14,3-я Можайская,6722,6722,192195cd-070e-4ad9-9ffe-94cfa6694d1b,,66248825000,66648410,21,f3bcd8ad-e1df-4f55-963a-d0e17e25d618,000,670200000000014,215363,1e75b0cc-7bbf-45b6-9d2b-d2fe72b602d9,67,ул,2018-04-20,0014,6716,6716,2020-08-16,000,0000,000,0,543d8b85-e2f2-43ed-993c-709ef064ba93,0003,,0
1,7a54e222-e69d-4d8d-ae8b-8f4db3106a37,192195cd-070e-4ad9-9ffe-94cfa6694d1b,7,020,0,0,000,67020000000001400,0.0,2079-06-06,3-я Можайская,6722,6722,,,66248810000,66648410,20,f3bcd8ad-e1df-4f55-963a-d0e17e25d618,000,670200000000014,215363,8629b4e7-27dd-4f0e-8175-6919679ed35c,67,ул,2020-08-14,0014,6716,6716,2020-08-16,000,0000,000,1,,0003,,0
0,84cb1f46-e760-4b9b-bca5-96220648f833,84cb1f46-e760-4b9b-bca5-96220648f833,91,020,0,0,000,,,2016-09-29,Бородинская 5-я,6722,6722,7aa68fa4-ddb8-42e6-abeb-c79a005bc869,,66248825002,66648425106,10,e42d679d-9446-4438-82af-971c91b3e961,011,,215363,,67,ул,2016-09-28,0000,6716,6716,2020-08-16,000,0000,000,0,76d142f1-f6d4-476a-b7b3-3d944e455cb8,0000,,0
0,84cb1f46-e760-4b9b-bca5-96220648f833,7aa68fa4-ddb8-42e6-abeb-c79a005bc869,7,020,0,0,000,67020000011001651,51.0,2016-09-30,Бородинская 5-я,6722,6722,9adc1247-e12b-4c5f-96a6-0baf5050e9a5,,66248825000,66648425,51,e42d679d-9446-4438-82af-971c91b3e961,011,670200000110016,215363,84cb1f46-e760-4b9b-bca5-96220648f833,67,ул,2016-09-29,0016,6716,6716,2020-08-16,000,0000,000,0,,0001,,0
0,84cb1f46-e760-4b9b-bca5-96220648f833,9adc1247-e12b-4c5f-96a6-0baf5050e9a5,7,020,0,0,000,67020000000002501,1.0,2079-06-06,5-я Бородинская,6722,6722,af274538-2347-4357-b9be-827e99d5e39b,,66248825000,66648425,50,f3bcd8ad-e1df-4f55-963a-d0e17e25d618,000,670200000000025,215363,7aa68fa4-ddb8-42e6-abeb-c79a005bc869,67,ул,2016-09-30,0025,6716,6716,2020-08-16,000,0000,000,0,e524b391-3808-439f-b56d-c1f7dd025af1,0003,,0
0,84cb1f46-e760-4b9b-bca5-96220648f833,af274538-2347-4357-b9be-827e99d5e39b,7,020,0,0,000,67020000000002500,0.0,2020-08-14,5-я Бородинская,6722,6722,82d1eefa-f377-4c03-ba64-cbf3a9667119,,66248825000,66648410,21,f3bcd8ad-e1df-4f55-963a-d0e17e25d618,000,670200000000025,215363,9adc1247-e12b-4c5f-96a6-0baf5050e9a5,67,ул,2018-04-20,0025,6716,6716,2020-08-16,000,0000,000,0,543d8b85-e2f2-43ed-993c-709ef064ba93,0003,,0
1,84cb1f46-e760-4b9b-bca5-96220648f833,82d1eefa-f377-4c03-ba64-cbf3a9667119,7,020,0,0,000,67020000000002500,0.0,2079-06-06,5-я Бородинская,6722,6722,,,66248810000,66648410,20,f3bcd8ad-e1df-4f55-963a-d0e17e25d618,000,670200000000025,215363,af274538-2347-4357-b9be-827e99d5e39b,67,ул,2020-08-14,0025,6716,6716,2020-08-16,000,0000,000,1,,0003,,0
1,c261dfc6-7fd1-4a96-b358-b75f7de55790,c261dfc6-7fd1-4a96-b358-b75f7de55790,7,003,0,0,000,67003000033000300,0.0,2079-06-06,Солнечная,6722,6722,,,66205856003,66605456111,10,fb56d6b3-34fe-4219-90e5-8c36b93fc2ce,033,670030000330003,215119,,67,ул,2020-08-13,0003,,,2020-08-16,000,0000,000,1,,0000,,0
0,071916c4-1b74-420a-b28e-15a80f106ea7,071916c4-1b74-420a-b28e-15a80f106ea7,91,020,0,0,000,,,2016-09-29,Семеновская 1-я,6722,6722,38999b33-cab4-4447-b396-873fc711225f,,66248825002,66648425106,10,e42d679d-9446-4438-82af-971c91b3e961,011,,215363,,67,ул,2016-09-28,0000,6716,6716,2020-08-16,000,0000,000,0,ab9eace6-d6e5-453b-8931-2d2c548e8b7b,0000,,0
0,071916c4-1b74-420a-b28e-15a80f106ea7,38999b33-cab4-4447-b396-873fc711225f,7,020,0,0,000,67020000011002151,51.0,2016-09-30,Семеновская 1-я,6722,6722,690be903-23fc-4b79-a6a9-22e6ee70eece,,66248825000,66648425,51,e42d679d-9446-4438-82af-971c91b3e961,011,670200000110021,215363,071916c4-1b74-420a-b28e-15a80f106ea7,67,ул,2016-09-29,0021,6716,6716,2020-08-16,000,0000,000,0,,0001,,0
0,071916c4-1b74-420a-b28e-15a80f106ea7,690be903-23fc-4b79-a6a9-22e6ee70eece,7,020,0,0,000,67020000000000701,1.0,2079-06-06,1-я Семеновская,6722,6722,6105e0fb-4d90-4ad3-adae-8649e57662f7,,66248825000,66648425,50,f3bcd8ad-e1df-4f55-963a-d0e17e25d618,000,670200000000007,215363,38999b33-cab4-4447-b396-873fc711225f,67,ул,2016-09-30,0007,6716,6716,2020-08-16,000,0000,000,0,e524b391-3808-439f-b56d-c1f7dd025af1,0003,,0
0,071916c4-1b74-420a-b28e-15a80f106ea7,6105e0fb-4d90-4ad3-adae-8649e57662f7,7,020,0,0,000,67020000000000700,0.0,2020-08-14,1-я Семеновская,6722,6722,95fc52bc-dc1e-4456-a980-8c5d338462b6,,66248825000,66648410,21,f3bcd8ad-e1df-4f55-963a-d0e17e25d618,000,670200000000007,215363,690be903-23fc-4b79-a6a9-22e6ee70eece,67,ул,2018-04-20,0007,6716,6716,2020-08-16,000,0000,000,0,543d8b85-e2f2-43ed-993c-709ef064ba93,0003,,0
1,071916c4-1b74-420a-b28e-15a80f106ea7,95fc52bc-dc1e-4456-a980-8c5d338462b6,7,020,0,0,000,67020000000000700,0.0,2079-06-06,1-я Семеновская,6722,6722,,,66248810000,66648410,20,f3bcd8ad-e1df-4f55-963a-d0e17e25d618,000,670200000000007,215363,6105e0fb-4d90-4ad3-adae-8649e57662f7,67,ул,2020-08-14,0007,6716,6716,2020-08-16,000,0000,000,1,,0003,,0
0,e54d8820-e89e-4b79-8ff7-1527fb0abe27,e54d8820-e89e-4b79-8ff7-1527fb0abe27,91,020,0,0,000,,,2016-09-29,Басманная 2-я,6722,6722,051ffcaa-061d-4e42-876e-8fb3841a8072,,66248825002,66648425106,10,e42d679d-9446-4438-82af-971c91b3e961,011,,215363,,67,ул,2016-09-28,0000,6716,6716,2020-08-16,000,0000,000,0,2759a66e-18b7-4548-b661-4b117de8667a,0000,,0
0,e54d8820-e89e-4b79-8ff7-1527fb0abe27,051ffcaa-061d-4e42-876e-8fb3841a8072,7,020,0,0,000,67020000011003651,51.0,2016-09-30,Басманная 2-я,6722,6722,ac6fa1b0-9c6f-4337-b223-cc19834a1ecc,,66248825000,66648425,51,e42d679d-9446-4438-82af-971c91b3e961,011,670200000110036,215363,e54d8820-e89e-4b79-8ff7-1527fb0abe27,67,ул,2016-09-29,0036,6716,6716,2020-08-16,000,0000,000,0,,0001,,0
0,e54d8820-e89e-4b79-8ff7-1527fb0abe27,ac6fa1b0-9c6f-4337-b223-cc19834a1ecc,7,020,0,0,000,67020000000003501,1.0,2079-06-06,2-я Басманная,6722,6722,c7eb2823-8d05-42b8-9d45-7da406cf94de,,66248825000,66648425,50,f3bcd8ad-e1df-4f55-963a-d0e17e25d618,000,670200000000035,215363,051ffcaa-061d-4e42-876e-8fb3841a8072,67,ул,2016-09-30,0035,6716,6716,2020-08-16,000,0000,000,0,e524b391-3808-439f-b56d-c1f7dd025af1,0003,,0
0,e54d8820-e89e-4b79-8ff7-1527fb0abe27,c7eb2823-8d05-42b8-9d45-7da406cf94de,7,020,0,0,000,67020000000003500,0.0,2020-08-14,2-я Басманная,6722,6722,5879faee-6f63-4e2d-9e68-507536e2ee9d,,66248825000,66648410,21,f3bcd8ad-e1df-4f55-963a-d0e17e25d618,000,670200000000035,215363,ac6fa1b0-9c6f-4337-b223-cc19834a1ecc,67,ул,2018-04-20,0035,6716,6716,2020-08-16,000,0000,000,0,543d8b85-e2f2-43ed-993c-709ef064ba93,0003,,0
1,e54d8820-e89e-4b79-8ff7-1527fb0abe27,5879faee-6f63-4e2d-9e68-507536e2ee9d,7,020,0,0,000,67020000000003500,0.0,2079-06-06,2-я Басманная,6722,6722,,,66248810000,66648410,20,f3bcd8ad-e1df-4f55-963a-d0e17e25d618,000,670200000000035,215363,c7eb2823-8d05-42b8-9d45-7da406cf94de,67,ул,2020-08-14,0035,6716,6716,2020-08-16,000,0000,000,1,,0003,,0
0,06ac3832-5e6e-441a-9264-cc01462bf428,06ac3832-5e6e-441a-9264-cc01462bf428,91,020,0,0,000,,,2016-09-28,7-я Бородинская,6722,6722,05e8703e-27d5-46a4-b7e1-b59086c1ef10,,66248825002,66648425106,10,e42d679d-9446-4438-82af-971c91b3e961,011,,215363,,67,ул,2001-01-01,0000,6716,6716,2020-08-16,000,0000,000,0,fd6806aa-e701-4dc8-b0d1-f7d89c681fee,0000,,0
0,06ac3832-5e6e-441a-9264-cc01462bf428,05e8703e-27d5-46a4-b7e1-b59086c1ef10,7,020,0,0,000,67020000011000551,51.0,2079-06-06,7-я Бородинская,6722,6722,745d7fb8-6052-4185-83a5-0da451ea96bb,,66248825000,66648425,51,e42d679d-9446-4438-82af-971c91b3e961,011,670200000110005,215363,06ac3832-5e6e-441a-9264-cc01462bf428,67,ул,2016-09-28,0005,6716,6716,2020-08-16,000,0000,000,0,,0001,,0
0,06ac3832-5e6e-441a-9264-cc01462bf428,745d7fb8-6052-4185-83a5-0da451ea96bb,7,020,0,0,000,67020000000003901,1.0,2018-04-20,7-я Бородинская,6722,6722,51c37705-2faf-41ba-9668-caf63fd04d4e,,66248825000,66648425,50,f3bcd8ad-e1df-4f55-963a-d0e17e25d618,000,670200000000039,215363,05e8703e-27d5-46a4-b7e1-b59086c1ef10,67,ул,2016-09-28,0039,6716,6716,2020-08-16,000,0000,000,0,e524b391-3808-439f-b56d-c1f7dd025af1,0003,,0
0,06ac3832-5e6e-441a-9264-cc01462bf428,51c37705-2faf-41ba-9668-caf63fd04d4e,7,020,0,0,000,67020000000003900,0.0,2020-08-14,7-я Бородинская,6722,6722,3f85477e-0286-43a1-8e0c-c58190878634,,66248825000,66648410,21,f3bcd8ad-e1df-4f55-963a-d0e17e25d618,000,670200000000039,215363,745d7fb8-6052-4185-83a5-0da451ea96bb,67,ул,2018-04-20,0039,6716,6716,2020-08-16,000,0000,000,0,543d8b85-e2f2-43ed-993c-709ef064ba93,0003,,0
1,06ac3832-5e6e-441a-9264-cc01462bf428,3f85477e-0286-43a1-8e0c-c58190878634,7,020,0,0,000,67020000000003900,0.0,2079-06-06,7-я Бородинская,6722,6722,,,66248810000,66648410,20,f3bcd8ad-e1df-4f55-963a-d0e17e25d618,000,670200000000039,215363,51c37705-2faf-41ba-9668-caf63fd04d4e,67,ул,2020-08-14,0039,6716,6716,2020-08-16,000,0000,000,1,,0003,,0
0,4945d491-f751-41a4-aa3e-e7aa79942af4,4945d491-f751-41a4-aa3e-e7aa79942af4,91,020,0,0,000,,,2016-09-29,Лесная 5-я,6722,6722,30971cd9-15fb-4bbc-a400-349b12307b74,,66248825002,66648425106,10,e42d679d-9446-4438-82af-971c91b3e961,011,,215363,,67,ул,2016-09-28,0000,6716,6716,2020-08-16,000,0000,000,0,0fade957-356a-4c5e-adef-623f7b4f86d9,0000,,0
0,4945d491-f751-41a4-aa3e-e7aa79942af4,30971cd9-15fb-4bbc-a400-349b12307b74,7,020,0,0,000,67020000011002951,51.0,2016-09-30,Лесная 5-я,6722,6722,d160344c-3be2-4564-89e8-677de4e3bdcd,,66248825000,66648425,51,e42d679d-9446-4438-82af-971c91b3e961,011,670200000110029,215363,4945d491-f751-41a4-aa3e-e7aa79942af4,67,ул,2016-09-29,0029,6716,6716,2020-08-16,000,0000,000,0,,0001,,0
0,4945d491-f751-41a4-aa3e-e7aa79942af4,d160344c-3be2-4564-89e8-677de4e3bdcd,7,020,0,0,000,67020000000004001,1.0,2079-06-06,5-я Лесная,6722,6722,0fe91fa9-49b8-4432-9d99-ed7b8085102a,,66248825000,66648425,50,f3bcd8ad-e1df-4f55-963a-d0e17e25d618,000,670200000000040,215363,30971cd9-15fb-4bbc-a400-349b12307b74,67,ул,2016-09-30,0040,6716,6716,2020-08-16,000,0000,000,0,e524b391-3808-439f-b56d-c1f7dd025af1,0003,,0
0,4945d491-f751-41a4-aa3e-e7aa79942af4,0fe91fa9-49b8-4432-9d99-ed7b8085102a,7,020,0,0,000,67020000000004000,0.0,2020-08-14,5-я Лесная,6722,6722,1f8ad4c4-ed90-4257-8d9c-a1036f93248b,,66248825000,66648410,21,f3bcd8ad-e1df-4f55-963a-d0e17e25d618,000,670200000000040,215363,d160344c-3be2-4564-89e8-677de4e3bdcd,67,ул,2018-04-20,0040,6716,6716,2020-08-16,000,0000,000,0,543d8b85-e2f2-43ed-993c-709ef064ba93,0003,,0
1,4945d491-f751-41a4-aa3e-e7aa79942af4,1f8ad4c4-ed90-4257-8d9c-a1036f93248b,7,020,0,0,000,67020000000004000,0.0,2079-06-06,5-я Лесная,6722,6722,,,66248810000,66648410,20,f3bcd8ad-e1df-4f55-963a-d0e17e25d618,000,670200000000040,215363,0fe91fa9-49b8-4432-9d99-ed7b8085102a,67,ул,2020-08-14,0040,6716,6716,2020-08-16,000,0000,000,1,,0003,,0
0,6606a190-2d54-4ae6-b5bc-626d63bcd8f7,6606a190-2d54-4ae6-b5bc-626d63bcd8f7,91,020,0,0,000,,,2016-09-28,Малая Семеновская,6722,6722,098ccee4-ff43-483c-9f16-d483ef041aff,,66248825002,66648425106,10,e42d679d-9446-4438-82af-971c91b3e961,011,,215363,,67,ул,2010-12-20,0000,6716,6716,2020-08-16,000,0000,000,0,2f044c97-4d39-48c5-8ed1-f0ea1c27398b,0000,,0
0,6606a190-2d54-4ae6-b5bc-626d63bcd8f7,098ccee4-ff43-483c-9f16-d483ef041aff,7,020,0,0,000,67020000011002351,51.0,2079-06-06,Малая Семеновская,6722,6722,3af82bf7-6073-46e6-bdaf-63fca10f23b6,,66248825000,66648425,51,e42d679d-9446-4438-82af-971c91b3e961,011,670200000110023,215363,6606a190-2d54-4ae6-b5bc-626d63bcd8f7,67,ул,2016-09-28,0023,6716,6716,2020-08-16,000,0000,000,0,,0001,,0
0,6606a190-2d54-4ae6-b5bc-626d63bcd8f7,3af82bf7-6073-46e6-bdaf-63fca10f23b6,7,020,0,0,000,67020000000001701,1.0,2018-04-20,Малая Семеновская,6722,6722,d1fab15b-4a69-47fd-b905-8878ab44811c,,66248825000,66648425,50,f3bcd8ad-e1df-4f55-963a-d0e17e25d618,000,670200000000017,215363,098ccee4-ff43-483c-9f16-d483ef041aff,67,ул,2016-09-28,0017,6716,6716,2020-08-16,000,0000,000,0,e524b391-3808-439f-b56d-c1f7dd025af1,0003,,0
0,6606a190-2d54-4ae6-b5bc-626d63bcd8f7,d1fab15b-4a69-47fd-b905-8878ab44811c,7,020,0,0,000,67020000000001700,0.0,2020-08-14,Малая Семеновская,6722,6722,819f9a5b-59dd-4c98-8cf3-d292377926c0,,66248825000,66648410,21,f3bcd8ad-e1df-4f55-963a-d0e17e25d618,000,670200000000017,215363,3af82bf7-6073-46e6-bdaf-63fca10f23b6,67,ул,2018-04-20,0017,6716,6716,2020-08-16,000,0000,000,0,543d8b85-e2f2-43ed-993c-709ef064ba93,0003,,0
1,6606a190-2d54-4ae6-b5bc-626d63bcd8f7,819f9a5b-59dd-4c98-8cf3-d292377926c0,7,020,0,0,000,67020000000001700,0.0,2079-06-06,Малая Семеновская,6722,6722,,,66248810000,66648410,20,f3bcd8ad-e1df-4f55-963a-d0e17e25d618,000,670200000000017,215363,d1fab15b-4a69-47fd-b905-8878ab44811c,67,ул,2020-08-14,0017,6716,6716,2020-08-16,000,0000,000,1,,0003,,0
0,b50a55b0-0076-4398-8744-a1ed972afd6d,b50a55b0-0076-4398-8744-a1ed972afd6d,91,020,0,0,000,,,2016-09-29,Бородинская 9-я,6722,6722,6e3a8c58-e8a6-4d96-b661-925420a17d15,,66248825002,66648425106,10,e42d679d-9446-4438-82af-971c91b3e961,011,,215363,,67,ул,2016-09-28,0000,6716,6716,2020-08-16,000,0000,000,0,0799837d-59f7-46d9-a926-5ad2e7200071,0000,,0
0,b50a55b0-0076-4398-8744-a1ed972afd6d,6e3a8c58-e8a6-4d96-b661-925420a17d15,7,020,0,0,000,67020000011001851,51.0,2016-09-30,Бородинская 9-я,6722,6722,6410cec1-9e26-40dc-83f8-347ae6571783,,66248825000,66648425,51,e42d679d-9446-4438-82af-971c91b3e961,011,670200000110018,215363,b50a55b0-0076-4398-8744-a1ed972afd6d,67,ул,2016-09-29,0018,6716,6716,2020-08-16,000,0000,000,0,,0001,,0
0,b50a55b0-0076-4398-8744-a1ed972afd6d,6410cec1-9e26-40dc-83f8-347ae6571783,7,020,0,0,000,67020000000002301,1.0,2079-06-06,9-я Бородинская,6722,6722,1ac2daa8-d82a-461b-98a0-0aaf1cc28a63,,66248825000,66648425,50,f3bcd8ad-e1df-4f55-963a-d0e17e25d618,000,670200000000023,215363,6e3a8c58-e8a6-4d96-b661-925420a17d15,67,ул,2016-09-30,0023,6716,6716,2020-08-16,000,0000,000,0,e524b391-3808-439f-b56d-c1f7dd025af1,0003,,0
0,b50a55b0-0076-4398-8744-a1ed972afd6d,1ac2daa8-d82a-461b-98a0-0aaf1cc28a63,7,020,0,0,000,67020000000002300,0.0,2020-08-14,9-я Бородинская,6722,6722,12c59aa4-2119-4e9c-8ab0-42adb077880c,,66248825000,66648410,21,f3bcd8ad-e1df-4f55-963a-d0e17e25d618,000,670200000000023,215363,6410cec1-9e26-40dc-83f8-347ae6571783,67,ул,2018-04-20,0023,6716,6716,2020-08-16,000,0000,000,0,543d8b85-e2f2-43ed-993c-709ef064ba93,0003,,0
1,b50a55b0-0076-4398-8744-a1ed972afd6d,12c59aa4-2119-4e9c-8ab0-42adb077880c,7,020,0,0,000,67020000000002300,0.0,2079-06-06,9-я Бородинская,6722,6722,,,66248810000,66648410,20,f3bcd8ad-e1df-4f55-963a-d0e17e25d618,000,670200000000023,215363,1ac2daa8-d82a-461b-98a0-0aaf1cc28a63,67,ул,2020-08-14,0023,6716,6716,2020-08-16,000,0000,000,1,,0003,,0
0,fca36b1b-dbd5-46fa-9529-8bf9e63aae91,fca36b1b-dbd5-46fa-9529-8bf9e63aae91,91,020,0,0,000,,,2016-09-29,Басманная 3-я,6722,6722,f4eefa0b-f022-4c28-8f67-f0fe1e0c9acc,,66248825002,66648425106,10,e42d679d-9446-4438-82af-971c91b3e961,011,,215363,,67,ул,2016-09-28,0000,6716,6716,2020-08-16,000,0000,000,0,af662d8f-50bd-41a1-aec4-9a689ae8fd49,0000,,0
0,fca36b1b-dbd5-46fa-9529-8bf9e63aae91,f4eefa0b-f022-4c28-8f67-f0fe1e0c9acc,7,020,0,0,000,67020000011003751,51.0,2016-09-30,Басманная 3-я,6722,6722,b79ffe89-de85-416f-a973-8665afe67070,,66248825000,66648425,51,e42d679d-9446-4438-82af-971c91b3e961,011,670200000110037,215363,fca36b1b-dbd5-46fa-9529-8bf9e63aae91,67,ул,2016-09-29,0037,6716,6716,2020-08-16,000,0000,000,0,,0001,,0
0,fca36b1b-dbd5-46fa-9529-8bf9e63aae91,b79ffe89-de85-416f-a973-8665afe67070,7,020,0,0,000,67020000000003401,1.0,2079-06-06,3-я Басманная,6722,6722,58d1c3c7-5396-4151-af49-ab4f61fde3d4,,66248825000,66648425,50,f3bcd8ad-e1df-4f55-963a-d0e17e25d618,000,670200000000034,215363,f4eefa0b-f022-4c28-8f67-f0fe1e0c9acc,67,ул,2016-09-30,0034,6716,6716,2020-08-16,000,0000,000,0,e524b391-3808-439f-b56d-c1f7dd025af1,0003,,0
0,fca36b1b-dbd5-46fa-9529-8bf9e63aae91,58d1c3c7-5396-4151-af49-ab4f61fde3d4,7,020,0,0,000,67020000000003400,0.0,2020-08-14,3-я Басманная,6722,6722,b2fe68fa-66f6-4f8c-bfb4-f526012ebe8d,,66248825000,66648410,21,f3bcd8ad-e1df-4f55-963a-d0e17e25d618,000,670200000000034,215363,b79ffe89-de85-416f-a973-8665afe67070,67,ул,2018-04-20,0034,6716,6716,2020-08-16,000,0000,000,0,543d8b85-e2f2-43ed-993c-709ef064ba93,0003,,0
1,fca36b1b-dbd5-46fa-9529-8bf9e63aae91,b2fe68fa-66f6-4f8c-bfb4-f526012ebe8d,7,020,0,0,000,67020000000003400,0.0,2079-06-06,3-я Басманная,6722,6722,,,66248810000,66648410,20,f3bcd8ad-e1df-4f55-963a-d0e17e25d618,000,670200000000034,215363,58d1c3c7-5396-4151-af49-ab4f61fde3d4,67,ул,2020-08-14,0034,6716,6716,2020-08-16,000,0000,000,1,,0003,,0
0,32146cce-020f-4360-bb38-283a077f7867,32146cce-020f-4360-bb38-283a077f7867,91,020,0,0,000,,,2016-09-28,Проезд,6722,6722,82f5b48f-4073-4680-bbbf-b409d9d85d10,,66248825002,66648425106,10,e42d679d-9446-4438-82af-971c91b3e961,011,,215363,,67,ул,2010-12-20,0000,6716,6716,2020-08-16,000,0000,000,0,ee088709-fa46-4cb5-93d3-c3d55b6ed7f6,0000,,0
0,32146cce-020f-4360-bb38-283a077f7867,82f5b48f-4073-4680-bbbf-b409d9d85d10,7,020,0,0,000,67020000011004051,51.0,2079-06-06,Проезд,6722,6722,25ad75dd-43e8-45cb-ae1b-9d36203c7717,,66248825000,66648425,51,e42d679d-9446-4438-82af-971c91b3e961,011,670200000110040,215363,32146cce-020f-4360-bb38-283a077f7867,67,ул,2016-09-28,0040,6716,6716,2020-08-16,000,0000,000,0,,0001,,0
0,32146cce-020f-4360-bb38-283a077f7867,25ad75dd-43e8-45cb-ae1b-9d36203c7717,7,020,0,0,000,67020000000000801,1.0,2018-04-20,Проезд,6722,6722,dcf53bbd-f4ae-4f8a-8f2f-36aad7ecefb0,,66248825000,66648425,50,f3bcd8ad-e1df-4f55-963a-d0e17e25d618,000,670200000000008,215363,82f5b48f-4073-4680-bbbf-b409d9d85d10,67,ул,2016-09-28,0008,6716,6716,2020-08-16,000,0000,000,0,e524b391-3808-439f-b56d-c1f7dd025af1,0003,,0
0,32146cce-020f-4360-bb38-283a077f7867,dcf53bbd-f4ae-4f8a-8f2f-36aad7ecefb0,7,020,0,0,000,67020000000000800,0.0,2020-08-14,Проезд,6722,6722,0430c80f-2aa8-466d-a2e6-bb44bde2c341,,66248825000,66648410,21,f3bcd8ad-e1df-4f55-963a-d0e17e25d618,000,670200000000008,215363,25ad75dd-43e8-45cb-ae1b-9d36203c7717,67,ул,2018-04-20,0008,6716,6716,2020-08-16,000,0000,000,0,543d8b85-e2f2-43ed-993c-709ef064ba93,0003,,0
1,32146cce-020f-4360-bb38-283a077f7867,0430c80f-2aa8-466d-a2e6-bb44bde2c341,7,020,0,0,000,67020000000000800,0.0,2079-06-06,Проезд,6722,6722,,,66248810000,66648410,20,f3bcd8ad-e1df-4f55-963a-d0e17e25d618,000,670200000000008,215363,dcf53bbd-f4ae-4f8a-8f2f-36aad7ecefb0,67,ул,2020-08-14,0008,6716,6716,2020-08-16,000,0000,000,1,,0003,,0
0,554d8f1b-0cf6-4f5e-a20c-f6289e2ddaef,554d8f1b-0cf6-4f5e-a20c-f6289e2ddaef,91,020,0,0,000,,,2016-09-28,Московское,6722,6722,3d2560e3-500a-42d6-b230-c63225f07528,,66248825002,66648425106,10,e42d679d-9446-4438-82af-971c91b3e961,011,,215363,,67,ш,2001-01-01,0000,6716,6716,2020-08-16,000,0000,000,0,cc364400-1fbf-42b3-8ca6-69348a07e976,0000,,0
0,554d8f1b-0cf6-4f5e-a20c-f6289e2ddaef,3d2560e3-500a-42d6-b230-c63225f07528,7,020,0,0,000,67020000011000451,51.0,2079-06-06,Московское,6722,6722,90ccd291-1d45-47c4-9953-6fe07191725d,,66248825002,66648425,51,e42d679d-9446-4438-82af-971c91b3e961,011,670200000110004,215363,554d8f1b-0cf6-4f5e-a20c-f6289e2ddaef,67,ш,2016-09-28,0004,6716,6716,2020-08-16,000,0000,000,0,,0001,,0
0,554d8f1b-0cf6-4f5e-a20c-f6289e2ddaef,90ccd291-1d45-47c4-9953-6fe07191725d,7,020,0,0,000,67020000000001001,1.0,2018-04-20,Московское,6722,6722,7978d3fd-eed0-41d6-aa42-b1283cf2e73b,,66248825002,66648425,50,f3bcd8ad-e1df-4f55-963a-d0e17e25d618,000,670200000000010,215363,3d2560e3-500a-42d6-b230-c63225f07528,67,ш,2016-09-28,0010,6716,6716,2020-08-16,000,0000,000,0,e524b391-3808-439f-b56d-c1f7dd025af1,0003,,0
0,554d8f1b-0cf6-4f5e-a20c-f6289e2ddaef,7978d3fd-eed0-41d6-aa42-b1283cf2e73b,7,020,0,0,000,67020000000001000,0.0,2020-08-14,Московское,6722,6722,f9d6594e-08c0-4a2f-a340-ac946b8f1a44,,66248825002,66648410,21,f3bcd8ad-e1df-4f55-963a-d0e17e25d618,000,670200000000010,215363,90ccd291-1d45-47c4-9953-6fe07191725d,67,ш,2018-04-20,0010,6716,6716,2020-08-16,000,0000,000,0,543d8b85-e2f2-43ed-993c-709ef064ba93,0003,,0
1,554d8f1b-0cf6-4f5e-a20c-f6289e2ddaef,f9d6594e-08c0-4a2f-a340-ac946b8f1a44,7,020,0,0,000,67020000000001000,0.0,2079-06-06,Московское,6722,6722,,,66248810000,66648410,20,f3bcd8ad-e1df-4f55-963a-d0e17e25d618,000,670200000000010,215363,7978d3fd-eed0-41d6-aa42-b1283cf2e73b,67,ш,2020-08-14,0010,6716,6716,2020-08-16,000,0000,000,1,,0003,,0
0,12140980-2008-4225-8035-9133dec53394,12140980-2008-4225-8035-9133dec53394,91,020,0,0,000,,,2016-09-28,6-я Бородинская,6722,6722,d6fac364-ffd9-4588-8e86-2640d6f11917,,66248825002,66648425106,10,e42d679d-9446-4438-82af-971c91b3e961,011,,215363,,67,ул,2001-01-01,0000,6716,6716,2020-08-16,000,0000,000,0,a4471c29-eaeb-4d76-b2d3-eab0448ec218,0000,,0
0,12140980-2008-4225-8035-9133dec53394,d6fac364-ffd9-4588-8e86-2640d6f11917,7,020,0,0,000,67020000011000651,51.0,2079-06-06,6-я Бородинская,6722,6722,cc4d3219-3c66-443b-927f-cd2b49b71cb1,,66248825000,66648425,51,e42d679d-9446-4438-82af-971c91b3e961,011,670200000110006,215363,12140980-2008-4225-8035-9133dec53394,67,ул,2016-09-28,0006,6716,6716,2020-08-16,000,0000,000,0,,0001,,0
0,12140980-2008-4225-8035-9133dec53394,cc4d3219-3c66-443b-927f-cd2b49b71cb1,7,020,0,0,000,67020000000000501,1.0,2018-04-20,6-я Бородинская,6722,6722,425f0be5-f056-4027-8c54-a6215783f391,,66248825000,66648425,50,f3bcd8ad-e1df-4f55-963a-d0e17e25d618,000,670200000000005,215363,d6fac364-ffd9-4588-8e86-2640d6f11917,67,ул,2016-09-28,0005,6716,6716,2020-08-16,000,0000,000,0,e524b391-3808-439f-b56d-c1f7dd025af1,0003,,0
0,12140980-2008-4225-8035-9133dec53394,425f0be5-f056-4027-8c54-a6215783f391,7,020,0,0,000,67020000000000500,0.0,2020-08-14,6-я Бородинская,6722,6722,28f1fbfc-4ea3-4cf2-9f35-482239e25b4f,,66248825000,66648410,21,f3bcd8ad-e1df-4f55-963a-d0e17e25d618,000,670200000000005,215363,cc4d3219-3c66-443b-927f-cd2b49b71cb1,67,ул,2018-04-20,0005,6716,6716,2020-08-16,000,0000,000,0,543d8b85-e2f2-43ed-993c-709ef064ba93,0003,,0
1,12140980-2008-4225-8035-9133dec53394,28f1fbfc-4ea3-4cf2-9f35-482239e25b4f,7,020,0,0,000,67020000000000500,0.0,2079-06-06,6-я Бородинская,6722,6722,,,66248810000,66648410,20,f3bcd8ad-e1df-4f55-963a-d0e17e25d618,000,670200000000005,215363,425f0be5-f056-4027-8c54-a6215783f391,67,ул,2020-08-14,0005,6716,6716,2020-08-16,000,0000,000,1,,0003,,0
0,08900634-cb78-4fa5-865a-ad24cd43bf6a,08900634-cb78-4fa5-865a-ad24cd43bf6a,91,020,0,0,000,,,2016-09-29,Можайская 4-я,6722,6722,0e4cea80-84ce-4dac-be39-38bc294b551a,,66248825002,66648425106,10,e42d679d-9446-4438-82af-971c91b3e961,011,,215363,,67,ул,2016-09-28,0000,6716,6716,2020-08-16,000,0000,000,0,9e4a714c-5e61-48b4-aa77-7a5db118bb25,0000,,0
0,08900634-cb78-4fa5-865a-ad24cd43bf6a,0e4cea80-84ce-4dac-be39-38bc294b551a,7,020,0,0,000,67020000011003351,51.0,2016-09-30,Можайская 4-я,6722,6722,1b06144a-f504-4889-a3be-77b65d7f4680,,66248825000,66648425,51,e42d679d-9446-4438-82af-971c91b3e961,011,670200000110033,215363,08900634-cb78-4fa5-865a-ad24cd43bf6a,67,ул,2016-09-29,0033,6716,6716,2020-08-16,000,0000,000,0,,0001,,0
0,08900634-cb78-4fa5-865a-ad24cd43bf6a,1b06144a-f504-4889-a3be-77b65d7f4680,7,020,0,0,000,67020000000001301,1.0,2079-06-06,4-я Можайская,6722,6722,a9552671-e855-4eea-86ef-eb1a90045a8d,,66248825000,66648425,50,f3bcd8ad-e1df-4f55-963a-d0e17e25d618,000,670200000000013,215363,0e4cea80-84ce-4dac-be39-38bc294b551a,67,ул,2016-09-30,0013,6716,6716,2020-08-16,000,0000,000,0,e524b391-3808-439f-b56d-c1f7dd025af1,0003,,0
0,08900634-cb78-4fa5-865a-ad24cd43bf6a,a9552671-e855-4eea-86ef-eb1a90045a8d,7,020,0,0,000,67020000000001300,0.0,2020-08-14,4-я Можайская,6722,6722,6e86fbba-017b-4eb8-96bd-42d0dd797656,,66248825000,66648410,21,f3bcd8ad-e1df-4f55-963a-d0e17e25d618,000,670200000000013,215363,1b06144a-f504-4889-a3be-77b65d7f4680,67,ул,2018-04-20,0013,6716,6716,2020-08-16,000,0000,000,0,543d8b85-e2f2-43ed-993c-709ef064ba93,0003,,0
1,08900634-cb78-4fa5-865a-ad24cd43bf6a,6e86fbba-017b-4eb8-96bd-42d0dd797656,7,020,0,0,000,67020000000001300,0.0,2079-06-06,4-я Можайская,6722,6722,,,66248810000,66648410,20,f3bcd8ad-e1df-4f55-963a-d0e17e25d618,000,670200000000013,215363,a9552671-e855-4eea-86ef-eb1a90045a8d,67,ул,2020-08-14,0013,6716,6716,2020-08-16,000,0000,000,1,,0003,,0
0,005feb6b-fc0f-4eae-ac03-6c0e6bcd6536,005feb6b-fc0f-4eae-ac03-6c0e6bcd6536,91,020,0,0,000,,,2016-09-28,Смоленский,6722,6722,8d189e54-baf2-47a1-8ebc-da2296c69ea4,,66248825002,66648425106,10,e42d679d-9446-4438-82af-971c91b3e961,011,,215363,,67,тракт,2001-01-01,0000,6716,6716,2020-08-16,000,0000,000,0,804d01ee-04b8-4f30-81dd-9ee7579992e7,0000,,0
0,005feb6b-fc0f-4eae-ac03-6c0e6bcd6536,8d189e54-baf2-47a1-8ebc-da2296c69ea4,7,020,0,0,000,67020000011000751,51.0,2079-06-06,Смоленский,6722,6722,b5a64ec8-4048-4e8d-a343-7543d4c7b62b,,66248825000,66648425,51,e42d679d-9446-4438-82af-971c91b3e961,011,670200000110007,215363,005feb6b-fc0f-4eae-ac03-6c0e6bcd6536,67,тракт,2016-09-28,0007,6716,6716,2020-08-16,000,0000,000,0,,0001,,0
0,005feb6b-fc0f-4eae-ac03-6c0e6bcd6536,b5a64ec8-4048-4e8d-a343-7543d4c7b62b,7,020,0,0,000,67020000000000601,1.0,2018-04-20,Смоленский,6722,6722,f1d03d1f-d093-49b6-af3b-1266cbeb4fe1,,66248825000,66648425,50,f3bcd8ad-e1df-4f55-963a-d0e17e25d618,000,670200000000006,215363,8d189e54-baf2-47a1-8ebc-da2296c69ea4,67,тракт,2016-09-28,0006,6716,6716,2020-08-16,000,0000,000,0,e524b391-3808-439f-b56d-c1f7dd025af1,0003,,0
0,005feb6b-fc0f-4eae-ac03-6c0e6bcd6536,f1d03d1f-d093-49b6-af3b-1266cbeb4fe1,7,020,0,0,000,67020000000000600,0.0,2020-08-14,Смоленский,6722,6722,e36cc5e4-1f0f-451c-a5f6-307d25a3e052,,66248825000,66648410,21,f3bcd8ad-e1df-4f55-963a-d0e17e25d618,000,670200000000006,215363,b5a64ec8-4048-4e8d-a343-7543d4c7b62b,67,тракт,2018-04-20,0006,6716,6716,2020-08-16,000,0000,000,0,543d8b85-e2f2-43ed-993c-709ef064ba93,0003,,0
1,005feb6b-fc0f-4eae-ac03-6c0e6bcd6536,e36cc5e4-1f0f-451c-a5f6-307d25a3e052,7,020,0,0,000,67020000000000600,0.0,2079-06-06,Смоленский,6722,6722,,,66248810000,66648410,20,f3bcd8ad-e1df-4f55-963a-d0e17e25d618,000,670200000000006,215363,f1d03d1f-d093-49b6-af3b-1266cbeb4fe1,67,тракт,2020-08-14,0006,6716,6716,2020-08-16,000,0000,000,1,,0003,,0
0,ecdb6d97-904c-43c4-90e4-d6d910656c82,ecdb6d97-904c-43c4-90e4-d6d910656c82,91,020,0,0,000,,,2016-09-29,Лесная 1-я,6722,6722,b86b851f-4026-4676-bf8e-d3337b61ade7,,66248825002,66648425106,10,e42d679d-9446-4438-82af-971c91b3e961,011,,215363,,67,ул,2016-09-28,0000,6716,6716,2020-08-16,000,0000,000,0,43d4aaaf-de06-4f64-b25f-414730fe1565,0000,,0
0,ecdb6d97-904c-43c4-90e4-d6d910656c82,b86b851f-4026-4676-bf8e-d3337b61ade7,7,020,0,0,000,67020000011002551,51.0,2016-09-30,Лесная 1-я,6722,6722,d8a506d4-d92e-4df6-ac72-aa0591c977e0,,66248825000,66648425,51,e42d679d-9446-4438-82af-971c91b3e961,011,670200000110025,215363,ecdb6d97-904c-43c4-90e4-d6d910656c82,67,ул,2016-09-29,0025,6716,6716,2020-08-16,000,0000,000,0,,0001,,0
0,ecdb6d97-904c-43c4-90e4-d6d910656c82,d8a506d4-d92e-4df6-ac72-aa0591c977e0,7,020,0,0,000,67020000000002201,1.0,2079-06-06,1-я Лесная,6722,6722,6a05805a-5a6e-425d-9f4e-e265573a2da8,,66248825000,66648425,50,f3bcd8ad-e1df-4f55-963a-d0e17e25d618,000,670200000000022,215363,b86b851f-4026-4676-bf8e-d3337b61ade7,67,ул,2016-09-30,0022,6716,6716,2020-08-16,000,0000,000,0,e524b391-3808-439f-b56d-c1f7dd025af1,0003,,0
0,ecdb6d97-904c-43c4-90e4-d6d910656c82,6a05805a-5a6e-425d-9f4e-e265573a2da8,7,020,0,0,000,67020000000002200,0.0,2020-08-14,1-я Лесная,6722,6722,bbc2f4a5-73ab-4ff3-a242-ef76f5af66e2,,66248825000,66648410,21,f3bcd8ad-e1df-4f55-963a-d0e17e25d618,000,670200000000022,215363,d8a506d4-d92e-4df6-ac72-aa0591c977e0,67,ул,2018-04-20,0022,6716,6716,2020-08-16,000,0000,000,0,543d8b85-e2f2-43ed-993c-709ef064ba93,0003,,0
1,ecdb6d97-904c-43c4-90e4-d6d910656c82,bbc2f4a5-73ab-4ff3-a242-ef76f5af66e2,7,020,0,0,000,67020000000002200,0.0,2079-06-06,1-я Лесная,6722,6722,,,66248810000,66648410,20,f3bcd8ad-e1df-4f55-963a-d0e17e25d618,000,670200000000022,215363,6a05805a-5a6e-425d-9f4e-e265573a2da8,67,ул,2020-08-14,0022,6716,6716,2020-08-16,000,0000,000,1,,0003,,0
0,39a01115-8ac8-4f33-8077-c0fe56a35f20,39a01115-8ac8-4f33-8077-c0fe56a35f20,91,020,0,0,000,,,2016-09-28,Кусковский,6722,6722,1912a317-7d61-4379-ac5a-ff013ed020ff,,66248825002,66648425106,10,e42d679d-9446-4438-82af-971c91b3e961,011,,215363,,67,пр-кт,2010-12-20,0000,6716,6716,2020-08-16,000,0000,000,0,376bc25f-5d07-4f30-9a1e-81b1c6500d2c,0000,,0
0,39a01115-8ac8-4f33-8077-c0fe56a35f20,1912a317-7d61-4379-ac5a-ff013ed020ff,7,020,0,0,000,67020000011000951,51.0,2079-06-06,Кусковский,6722,6722,49107c02-92c6-4034-b17e-084d34ca5e72,,66248825000,66648425,51,e42d679d-9446-4438-82af-971c91b3e961,011,670200000110009,215363,39a01115-8ac8-4f33-8077-c0fe56a35f20,67,пр-кт,2016-09-28,0009,6716,6716,2020-08-16,000,0000,000,0,,0001,,0
0,39a01115-8ac8-4f33-8077-c0fe56a35f20,49107c02-92c6-4034-b17e-084d34ca5e72,7,020,0,0,000,67020000000003601,1.0,2018-04-20,Кусковский,6722,6722,39ea7be1-bc73-4a95-ab7f-b05d2b7284cd,,66248825000,66648425,50,f3bcd8ad-e1df-4f55-963a-d0e17e25d618,000,670200000000036,215363,1912a317-7d61-4379-ac5a-ff013ed020ff,67,пр-кт,2016-09-28,0036,6716,6716,2020-08-16,000,0000,000,0,e524b391-3808-439f-b56d-c1f7dd025af1,0003,,0
0,39a01115-8ac8-4f33-8077-c0fe56a35f20,39ea7be1-bc73-4a95-ab7f-b05d2b7284cd,7,020,0,0,000,67020000000003600,0.0,2020-08-14,Кусковский,6722,6722,2600bc47-4531-464f-a9d4-cf44774aaa1e,,66248825000,66648410,21,f3bcd8ad-e1df-4f55-963a-d0e17e25d618,000,670200000000036,215363,49107c02-92c6-4034-b17e-084d34ca5e72,67,пр-кт,2018-04-20,0036,6716,6716,2020-08-16,000,0000,000,0,543d8b85-e2f2-43ed-993c-709ef064ba93,0003,,0
1,39a01115-8ac8-4f33-8077-c0fe56a35f20,2600bc47-4531-464f-a9d4-cf44774aaa1e,7,020,0,0,000,67020000000003600,0.0,2079-06-06,Кусковский,6722,6722,,,66248810000,66648410,20,f3bcd8ad-e1df-4f55-963a-d0e17e25d618,000,670200000000036,215363,39ea7be1-bc73-4a95-ab7f-b05d2b7284cd,67,пр-кт,2020-08-14,0036,6716,6716,2020-08-16,000,0000,000,1,,0003,,0
0,d89c3f7c-3fc6-4e2f-bb54-6506fed5c3b4,d89c3f7c-3fc6-4e2f-bb54-6506fed5c3b4,91,020,0,0,000,,,2016-09-29,Бородинская 8-я,6722,6722,7a416161-b6b3-4850-95a5-a4f717612db5,,66248825002,66648425106,10,e42d679d-9446-4438-82af-971c91b3e961,011,,215363,,67,ул,2016-09-28,0000,6716,6716,2020-08-16,000,0000,000,0,6d869149-8f07-4452-8e0b-0e71670f2fa0,0000,,0
0,d89c3f7c-3fc6-4e2f-bb54-6506fed5c3b4,7a416161-b6b3-4850-95a5-a4f717612db5,7,020,0,0,000,67020000011001751,51.0,2016-09-30,Бородинская 8-я,6722,6722,5c3ae661-7fba-467a-b003-d9f3ebb6eae7,,66248825000,66648425,51,e42d679d-9446-4438-82af-971c91b3e961,011,670200000110017,215363,d89c3f7c-3fc6-4e2f-bb54-6506fed5c3b4,67,ул,2016-09-29,0017,6716,6716,2020-08-16,000,0000,000,0,,0001,,0
0,d89c3f7c-3fc6-4e2f-bb54-6506fed5c3b4,5c3ae661-7fba-467a-b003-d9f3ebb6eae7,7,020,0,0,000,67020000000002401,1.0,2079-06-06,8-я Бородинская,6722,6722,a9d588e5-5fad-4318-ad1d-bd72f79f0cc4,,66248825000,66648425,50,f3bcd8ad-e1df-4f55-963a-d0e17e25d618,000,670200000000024,215363,7a416161-b6b3-4850-95a5-a4f717612db5,67,ул,2016-09-30,0024,6716,6716,2020-08-16,000,0000,000,0,e524b391-3808-439f-b56d-c1f7dd025af1,0003,,0
0,d89c3f7c-3fc6-4e2f-bb54-6506fed5c3b4,a9d588e5-5fad-4318-ad1d-bd72f79f0cc4,7,020,0,0,000,67020000000002400,0.0,2020-08-14,8-я Бородинская,6722,6722,aa05fd06-75b7-4abd-bf4f-f514f82ee1ba,,66248825000,66648410,21,f3bcd8ad-e1df-4f55-963a-d0e17e25d618,000,670200000000024,215363,5c3ae661-7fba-467a-b003-d9f3ebb6eae7,67,ул,2018-04-20,0024,6716,6716,2020-08-16,000,0000,000,0,543d8b85-e2f2-43ed-993c-709ef064ba93,0003,,0
1,d89c3f7c-3fc6-4e2f-bb54-6506fed5c3b4,aa05fd06-75b7-4abd-bf4f-f514f82ee1ba,7,020,0,0,000,67020000000002400,0.0,2079-06-06,8-я Бородинская,6722,6722,,,66248810000,66648410,20,f3bcd8ad-e1df-4f55-963a-d0e17e25d618,000,670200000000024,215363,a9d588e5-5fad-4318-ad1d-bd72f79f0cc4,67,ул,2020-08-14,0024,6716,6716,2020-08-16,000,0000,000,1,,0003,,0
0,39bcda5f-a99b-469d-b01e-26aab453e8fd,39bcda5f-a99b-469d-b01e-26aab453e8fd,91,020,0,0,000,,,2016-09-29,Бородинская 4-я,6722,6722,23777cbb-0b60-4b84-8772-081c7caaf1ff,,66248825002,66648425106,10,e42d679d-9446-4438-82af-971c91b3e961,011,,215363,,67,ул,2016-09-28,0000,6716,6716,2020-08-16,000,0000,000,0,7a63c4a1-3543-498b-a428-77336d7ae8ee,0000,,0
0,39bcda5f-a99b-469d-b01e-26aab453e8fd,23777cbb-0b60-4b84-8772-081c7caaf1ff,7,020,0,0,000,67020000011001551,51.0,2016-09-30,Бородинская 4-я,6722,6722,786291cd-351f-455b-b58c-afd55ccce357,,66248825000,66648425,51,e42d679d-9446-4438-82af-971c91b3e961,011,670200000110015,215363,39bcda5f-a99b-469d-b01e-26aab453e8fd,67,ул,2016-09-29,0015,6716,6716,2020-08-16,000,0000,000,0,,0001,,0
0,39bcda5f-a99b-469d-b01e-26aab453e8fd,786291cd-351f-455b-b58c-afd55ccce357,7,020,0,0,000,67020000000002601,1.0,2079-06-06,4-я Бородинская,6722,6722,b1a93b1e-e6b9-4989-9093-de23a363d056,,66248825000,66648425,50,f3bcd8ad-e1df-4f55-963a-d0e17e25d618,000,670200000000026,215363,23777cbb-0b60-4b84-8772-081c7caaf1ff,67,ул,2016-09-30,0026,6716,6716,2020-08-16,000,0000,000,0,e524b391-3808-439f-b56d-c1f7dd025af1,0003,,0
0,39bcda5f-a99b-469d-b01e-26aab453e8fd,b1a93b1e-e6b9-4989-9093-de23a363d056,7,020,0,0,000,67020000000002600,0.0,2020-08-14,4-я Бородинская,6722,6722,12bb3c0b-fb1f-4aa3-8bb0-033bc8c94922,,66248825000,66648410,21,f3bcd8ad-e1df-4f55-963a-d0e17e25d618,000,670200000000026,215363,786291cd-351f-455b-b58c-afd55ccce357,67,ул,2018-04-20,0026,6716,6716,2020-08-16,000,0000,000,0,543d8b85-e2f2-43ed-993c-709ef064ba93,0003,,0
1,39bcda5f-a99b-469d-b01e-26aab453e8fd,12bb3c0b-fb1f-4aa3-8bb0-033bc8c94922,7,020,0,0,000,67020000000002600,0.0,2079-06-06,4-я Бородинская,6722,6722,,,66248810000,66648410,20,f3bcd8ad-e1df-4f55-963a-d0e17e25d618,000,670200000000026,215363,b1a93b1e-e6b9-4989-9093-de23a363d056,67,ул,2020-08-14,0026,6716,6716,2020-08-16,000,0000,000,1,,0003,,0
0,a8841b0d-66c7-4564-8b6e-5d90648b8af1,a8841b0d-66c7-4564-8b6e-5d90648b8af1,91,020,0,0,000,,,2016-09-29,Басманная 4-я,6722,6722,3b21d2df-e075-4221-b763-10cb10d323cc,,66248825002,66648425106,10,e42d679d-9446-4438-82af-971c91b3e961,011,,215363,,67,ул,2016-09-28,0000,6716,6716,2020-08-16,000,0000,000,0,415fcf58-0b9a-441b-9b25-844906876d89,0000,,0
0,a8841b0d-66c7-4564-8b6e-5d90648b8af1,3b21d2df-e075-4221-b763-10cb10d323cc,7,020,0,0,000,67020000011003851,51.0,2016-09-30,Басманная 4-я,6722,6722,2dae3f45-bea2-4444-8900-cb1ba6a4c8f6,,66248825000,66648425,51,e42d679d-9446-4438-82af-971c91b3e961,011,670200000110038,215363,a8841b0d-66c7-4564-8b6e-5d90648b8af1,67,ул,2016-09-29,0038,6716,6716,2020-08-16,000,0000,000,0,,0001,,0
0,a8841b0d-66c7-4564-8b6e-5d90648b8af1,2dae3f45-bea2-4444-8900-cb1ba6a4c8f6,7,020,0,0,000,67020000000003301,1.0,2079-06-06,4-я Басманная,6722,6722,2d1740d5-a458-4766-abf7-b3b7fd9d29c2,,66248825000,66648425,50,f3bcd8ad-e1df-4f55-963a-d0e17e25d618,000,670200000000033,215363,3b21d2df-e075-4221-b763-10cb10d323cc,67,ул,2016-09-30,0033,6716,6716,2020-08-16,000,0000,000,0,e524b391-3808-439f-b56d-c1f7dd025af1,0003,,0
0,a8841b0d-66c7-4564-8b6e-5d90648b8af1,2d1740d5-a458-4766-abf7-b3b7fd9d29c2,7,020,0,0,000,67020000000003300,0.0,2020-08-14,4-я Басманная,6722,6722,d80b1c14-2bd7-4dfc-b170-7a7b6429ad30,,66248825000,66648410,21,f3bcd8ad-e1df-4f55-963a-d0e17e25d618,000,670200000000033,215363,2dae3f45-bea2-4444-8900-cb1ba6a4c8f6,67,ул,2018-04-20,0033,6716,6716,2020-08-16,000,0000,000,0,543d8b85-e2f2-43ed-993c-709ef064ba93,0003,,0
1,a8841b0d-66c7-4564-8b6e-5d90648b8af1,d80b1c14-2bd7-4dfc-b170-7a7b6429ad30,7,020,0,0,000,67020000000003300,0.0,2079-06-06,4-я Басманная,6722,6722,,,66248810000,66648410,20,f3bcd8ad-e1df-4f55-963a-d0e17e25d618,000,670200000000033,215363,2d1740d5-a458-4766-abf7-b3b7fd9d29c2,67,ул,2020-08-14,0033,6716,6716,2020-08-16,000,0000,000,1,,0003,,0
0,5076be7f-58c4-4b07-b7e4-b33fa8f9bec5,5076be7f-58c4-4b07-b7e4-b33fa8f9bec5,91,020,0,0,000,,,2016-09-28,Кривой,6722,6722,2f010959-c8df-4652-a1e9-b31fffdc2eb5,,66248825002,66648425106,10,e42d679d-9446-4438-82af-971c91b3e961,011,,215363,,67,проезд,2010-12-20,0000,6716,6716,2020-08-16,000,0000,000,0,cccc9e90-46ba-4e69-8542-ba2bb1ee2468,0000,,0
0,5076be7f-58c4-4b07-b7e4-b33fa8f9bec5,2f010959-c8df-4652-a1e9-b31fffdc2eb5,7,020,0,0,000,67020000011001151,51.0,2079-06-06,Кривой,6722,6722,ac1a7de0-9d9b-4b5f-98cc-b8741f11825f,,66248825000,66648425,51,e42d679d-9446-4438-82af-971c91b3e961,011,670200000110011,215363,5076be7f-58c4-4b07-b7e4-b33fa8f9bec5,67,проезд,2016-09-28,0011,6716,6716,2020-08-16,000,0000,000,0,,0001,,0
0,5076be7f-58c4-4b07-b7e4-b33fa8f9bec5,ac1a7de0-9d9b-4b5f-98cc-b8741f11825f,7,020,0,0,000,67020000000003701,1.0,2018-04-20,Кривой,6722,6722,c97f922b-72cd-4fc3-99eb-813c1392dd94,,66248825000,66648425,50,f3bcd8ad-e1df-4f55-963a-d0e17e25d618,000,670200000000037,215363,2f010959-c8df-4652-a1e9-b31fffdc2eb5,67,проезд,2016-09-28,0037,6716,6716,2020-08-16,000,0000,000,0,e524b391-3808-439f-b56d-c1f7dd025af1,0003,,0
0,5076be7f-58c4-4b07-b7e4-b33fa8f9bec5,c97f922b-72cd-4fc3-99eb-813c1392dd94,7,020,0,0,000,67020000000003700,0.0,2020-08-14,Кривой,6722,6722,f540747b-4aae-4905-821f-edc01a489c42,,66248825000,66648410,21,f3bcd8ad-e1df-4f55-963a-d0e17e25d618,000,670200000000037,215363,ac1a7de0-9d9b-4b5f-98cc-b8741f11825f,67,проезд,2018-04-20,0037,6716,6716,2020-08-16,000,0000,000,0,543d8b85-e2f2-43ed-993c-709ef064ba93,0003,,0
1,5076be7f-58c4-4b07-b7e4-b33fa8f9bec5,f540747b-4aae-4905-821f-edc01a489c42,7,020,0,0,000,67020000000003700,0.0,2079-06-06,Кривой,6722,6722,,,66248810000,66648410,20,f3bcd8ad-e1df-4f55-963a-d0e17e25d618,000,670200000000037,215363,c97f922b-72cd-4fc3-99eb-813c1392dd94,67,проезд,2020-08-14,0037,6716,6716,2020-08-16,000,0000,000,1,,0003,,0
0,f3072b91-a7fb-4654-a818-58138ad941b3,f3072b91-a7fb-4654-a818-58138ad941b3,91,020,0,0,000,,,2016-09-28,Пограничное,6722,6722,888ae58e-20e6-41ae-9fdc-5fa4865d978c,,66248825002,66648425106,10,e42d679d-9446-4438-82af-971c91b3e961,011,,215363,,67,ш,2010-12-20,0000,6716,6716,2020-08-16,000,0000,000,0,39505f84-f5ce-4fb9-8f75-3ca0be501457,0000,,0
0,f3072b91-a7fb-4654-a818-58138ad941b3,888ae58e-20e6-41ae-9fdc-5fa4865d978c,7,020,0,0,000,67020000011000851,51.0,2079-06-06,Пограничное,6722,6722,b3fa07db-3bab-449a-a2a4-df33fbfdcb2d,,66248825000,66648425,51,e42d679d-9446-4438-82af-971c91b3e961,011,670200000110008,215363,f3072b91-a7fb-4654-a818-58138ad941b3,67,ш,2016-09-28,0008,6716,6716,2020-08-16,000,0000,000,0,,0001,,0
0,f3072b91-a7fb-4654-a818-58138ad941b3,b3fa07db-3bab-449a-a2a4-df33fbfdcb2d,7,020,0,0,000,67020000000000901,1.0,2018-04-20,Пограничное,6722,6722,a3b4a188-b053-4b79-bbef-f04e78e46e91,,66248825000,66648425,50,f3bcd8ad-e1df-4f55-963a-d0e17e25d618,000,670200000000009,215363,888ae58e-20e6-41ae-9fdc-5fa4865d978c,67,ш,2016-09-28,0009,6716,6716,2020-08-16,000,0000,000,0,e524b391-3808-439f-b56d-c1f7dd025af1,0003,,0
0,f3072b91-a7fb-4654-a818-58138ad941b3,a3b4a188-b053-4b79-bbef-f04e78e46e91,7,020,0,0,000,67020000000000900,0.0,2020-08-14,Пограничное,6722,6722,a8dfeb96-bb17-424f-888a-4b04f2ba11fa,,66248825000,66648410,21,f3bcd8ad-e1df-4f55-963a-d0e17e25d618,000,670200000000009,215363,b3fa07db-3bab-449a-a2a4-df33fbfdcb2d,67,ш,2018-04-20,0009,6716,6716,2020-08-16,000,0000,000,0,543d8b85-e2f2-43ed-993c-709ef064ba93,0003,,0
1,f3072b91-a7fb-4654-a818-58138ad941b3,a8dfeb96-bb17-424f-888a-4b04f2ba11fa,7,020,0,0,000,67020000000000900,0.0,2079-06-06,Пограничное,6722,6722,,,66248810000,66648410,20,f3bcd8ad-e1df-4f55-963a-d0e17e25d618,000,670200000000009,215363,a3b4a188-b053-4b79-bbef-f04e78e46e91,67,ш,2020-08-14,0009,6716,6716,2020-08-16,000,0000,000,1,,0003,,0
0,fee20a68-cac6-413b-b696-8b67d3c75cbf,fee20a68-cac6-413b-b696-8b67d3c75cbf,91,020,0,0,000,,,2016-09-29,Лесная 2-я,6722,6722,0b1701e3-2f02-46a6-956f-2eb030a2ec47,,66248825002,66648425106,10,e42d679d-9446-4438-82af-971c91b3e961,011,,215363,,67,ул,2016-09-28,0000,6716,6716,2020-08-16,000,0000,000,0,398d9fcc-ad9e-46a1-830d-71da1568182a,0000,,0
0,fee20a68-cac6-413b-b696-8b67d3c75cbf,0b1701e3-2f02-46a6-956f-2eb030a2ec47,7,020,0,0,000,67020000011002651,51.0,2016-09-30,Лесная 2-я,6722,6722,70f3ee1c-ba56-4851-85c2-a248a819799b,,66248825000,66648425,51,e42d679d-9446-4438-82af-971c91b3e961,011,670200000110026,215363,fee20a68-cac6-413b-b696-8b67d3c75cbf,67,ул,2016-09-29,0026,6716,6716,2020-08-16,000,0000,000,0,,0001,,0
0,fee20a68-cac6-413b-b696-8b67d3c75cbf,70f3ee1c-ba56-4851-85c2-a248a819799b,7,020,0,0,000,67020000000002101,1.0,2079-06-06,2-я Лесная,6722,6722,632a0f05-c151-4c80-bf6b-e0094c277b33,,66248825000,66648425,50,f3bcd8ad-e1df-4f55-963a-d0e17e25d618,000,670200000000021,215363,0b1701e3-2f02-46a6-956f-2eb030a2ec47,67,ул,2016-09-30,0021,6716,6716,2020-08-16,000,0000,000,0,e524b391-3808-439f-b56d-c1f7dd025af1,0003,,0
0,fee20a68-cac6-413b-b696-8b67d3c75cbf,632a0f05-c151-4c80-bf6b-e0094c277b33,7,020,0,0,000,67020000000002100,0.0,2020-08-14,2-я Лесная,6722,6722,4ea33729-54e0-4f0a-aaaa-defda18808d8,,66248825000,66648410,21,f3bcd8ad-e1df-4f55-963a-d0e17e25d618,000,670200000000021,215363,70f3ee1c-ba56-4851-85c2-a248a819799b,67,ул,2018-04-20,0021,6716,6716,2020-08-16,000,0000,000,0,543d8b85-e2f2-43ed-993c-709ef064ba93,0003,,0
1,fee20a68-cac6-413b-b696-8b67d3c75cbf,4ea33729-54e0-4f0a-aaaa-defda18808d8,7,020,0,0,000,67020000000002100,0.0,2079-06-06,2-я Лесная,6722,6722,,,66248810000,66648410,20,f3bcd8ad-e1df-4f55-963a-d0e17e25d618,000,670200000000021,215363,632a0f05-c151-4c80-bf6b-e0094c277b33,67,ул,2020-08-14,0021,6716,6716,2020-08-16,000,0000,000,1,,0003,,0
0,77aa55a0-70f7-4884-9a9f-224317c39bd6,77aa55a0-70f7-4884-9a9f-224317c39bd6,91,020,0,0,000,,,2016-09-29,Можайская 5-я,6722,6722,ac313ff1-6f57-4e40-a48f-c36529545dcc,,66248825002,66648425106,10,e42d679d-9446-4438-82af-971c91b3e961,011,,215363,,67,ул,2016-09-28,0000,6716,6716,2020-08-16,000,0000,000,0,ca459d56-3400-4b78-b0c0-56afe4bf83c2,0000,,0
0,77aa55a0-70f7-4884-9a9f-224317c39bd6,ac313ff1-6f57-4e40-a48f-c36529545dcc,7,020,0,0,000,67020000011003451,51.0,2016-09-30,Можайская 5-я,6722,6722,f9776e7b-28b0-480c-9d2c-b05e8b48815a,,66248825000,66648425,51,e42d679d-9446-4438-82af-971c91b3e961,011,670200000110034,215363,77aa55a0-70f7-4884-9a9f-224317c39bd6,67,ул,2016-09-29,0034,6716,6716,2020-08-16,000,0000,000,0,,0001,,0
0,77aa55a0-70f7-4884-9a9f-224317c39bd6,f9776e7b-28b0-480c-9d2c-b05e8b48815a,7,020,0,0,000,67020000000001201,1.0,2079-06-06,5-я Можайская,6722,6722,57e07939-90a7-47d4-9198-7c89e076d12a,,66248825000,66648425,50,f3bcd8ad-e1df-4f55-963a-d0e17e25d618,000,670200000000012,215363,ac313ff1-6f57-4e40-a48f-c36529545dcc,67,ул,2016-09-30,0012,6716,6716,2020-08-16,000,0000,000,0,e524b391-3808-439f-b56d-c1f7dd025af1,0003,,0
0,77aa55a0-70f7-4884-9a9f-224317c39bd6,57e07939-90a7-47d4-9198-7c89e076d12a,7,020,0,0,000,67020000000001200,0.0,2020-08-14,5-я Можайская,6722,6722,bec43b93-5d65-4eef-b178-938b47aeaf26,,66248825000,66648410,21,f3bcd8ad-e1df-4f55-963a-d0e17e25d618,000,670200000000012,215363,f9776e7b-28b0-480c-9d2c-b05e8b48815a,67,ул,2018-04-20,0012,6716,6716,2020-08-16,000,0000,000,0,543d8b85-e2f2-43ed-993c-709ef064ba93,0003,,0
1,77aa55a0-70f7-4884-9a9f-224317c39bd6,bec43b93-5d65-4eef-b178-938b47aeaf26,7,020,0,0,000,67020000000001200,0.0,2079-06-06,5-я Можайская,6722,6722,,,66248810000,66648410,20,f3bcd8ad-e1df-4f55-963a-d0e17e25d618,000,670200000000012,215363,57e07939-90a7-47d4-9198-7c89e076d12a,67,ул,2020-08-14,0012,6716,6716,2020-08-16,000,0000,000,1,,0003,,0
0,fe5f9bcf-1388-4f34-9eaf-b47327804a39,fe5f9bcf-1388-4f34-9eaf-b47327804a39,91,020,0,0,000,,,2016-09-29,Лесная 4-я,6722,6722,0192f799-90c3-4862-ba8b-29afd27a0d08,,66248825002,66648425106,10,e42d679d-9446-4438-82af-971c91b3e961,011,,215363,,67,ул,2016-09-28,0000,6716,6716,2020-08-16,000,0000,000,0,95a126f0-e449-4c71-a19d-a8c072cafded,0000,,0
0,fe5f9bcf-1388-4f34-9eaf-b47327804a39,0192f799-90c3-4862-ba8b-29afd27a0d08,7,020,0,0,000,67020000011002851,51.0,2016-09-30,Лесная 4-я,6722,6722,6946b408-8213-4b04-aecd-2f63853b7624,,66248825000,66648425,51,e42d679d-9446-4438-82af-971c91b3e961,011,670200000110028,215363,fe5f9bcf-1388-4f34-9eaf-b47327804a39,67,ул,2016-09-29,0028,6716,6716,2020-08-16,000,0000,000,0,,0001,,0
0,fe5f9bcf-1388-4f34-9eaf-b47327804a39,6946b408-8213-4b04-aecd-2f63853b7624,7,020,0,0,000,67020000000001901,1.0,2079-06-06,4-я Лесная,6722,6722,0d3253f5-7537-40c9-b8c5-6e8186a0e6b1,,66248825000,66648425,50,f3bcd8ad-e1df-4f55-963a-d0e17e25d618,000,670200000000019,215363,0192f799-90c3-4862-ba8b-29afd27a0d08,67,ул,2016-09-30,0019,6716,6716,2020-08-16,000,0000,000,0,e524b391-3808-439f-b56d-c1f7dd025af1,0003,,0
0,fe5f9bcf-1388-4f34-9eaf-b47327804a39,0d3253f5-7537-40c9-b8c5-6e8186a0e6b1,7,020,0,0,000,67020000000001900,0.0,2020-08-14,4-я Лесная,6722,6722,29d4972c-c86c-4c0f-b207-ff881a62d974,,66248825000,66648410,21,f3bcd8ad-e1df-4f55-963a-d0e17e25d618,000,670200000000019,215363,6946b408-8213-4b04-aecd-2f63853b7624,67,ул,2018-04-20,0019,6716,6716,2020-08-16,000,0000,000,0,543d8b85-e2f2-43ed-993c-709ef064ba93,0003,,0
1,fe5f9bcf-1388-4f34-9eaf-b47327804a39,29d4972c-c86c-4c0f-b207-ff881a62d974,7,020,0,0,000,67020000000001900,0.0,2079-06-06,4-я Лесная,6722,6722,,,66248810000,66648410,20,f3bcd8ad-e1df-4f55-963a-d0e17e25d618,000,670200000000019,215363,0d3253f5-7537-40c9-b8c5-6e8186a0e6b1,67,ул,2020-08-14,0019,6716,6716,2020-08-16,000,0000,000,1,,0003,,0
0,d929b5ab-411d-4040-baf7-3c8f62631c69,d929b5ab-411d-4040-baf7-3c8f62631c69,91,020,0,0,000,,,2016-09-28,Лесная,6722,6722,12cd6d27-246b-42e0-b82a-19f934524bb7,,66248825002,66648425106,10,e42d679d-9446-4438-82af-971c91b3e961,011,,215363,,67,ул,2010-12-20,0000,6716,6716,2020-08-16,000,0000,000,0,f0af9551-882e-41f2-bb9c-80657d97e7f2,0000,,0
0,d929b5ab-411d-4040-baf7-3c8f62631c69,12cd6d27-246b-42e0-b82a-19f934524bb7,7,020,0,0,000,67020000011002451,51.0,2079-06-06,Лесная,6722,6722,b21e8d77-4d7e-49cc-b5ae-854a109723fe,,66248825000,66648425,51,e42d679d-9446-4438-82af-971c91b3e961,011,670200000110024,215363,d929b5ab-411d-4040-baf7-3c8f62631c69,67,ул,2016-09-28,0024,6716,6716,2020-08-16,000,0000,000,0,,0001,,0
0,d929b5ab-411d-4040-baf7-3c8f62631c69,b21e8d77-4d7e-49cc-b5ae-854a109723fe,7,020,0,0,000,67020000000001801,1.0,2018-04-20,Лесная,6722,6722,1f10b27a-3c7c-405c-97de-bf941074ab7a,,66248825000,66648425,50,f3bcd8ad-e1df-4f55-963a-d0e17e25d618,000,670200000000018,215363,12cd6d27-246b-42e0-b82a-19f934524bb7,67,ул,2016-09-28,0018,6716,6716,2020-08-16,000,0000,000,0,e524b391-3808-439f-b56d-c1f7dd025af1,0003,,0
0,d929b5ab-411d-4040-baf7-3c8f62631c69,1f10b27a-3c7c-405c-97de-bf941074ab7a,7,020,0,0,000,67020000000001800,0.0,2020-08-14,Лесная,6722,6722,1d1c8ae4-fd97-41dc-aa12-75bdbd781f78,,66248825000,66648410,21,f3bcd8ad-e1df-4f55-963a-d0e17e25d618,000,670200000000018,215363,b21e8d77-4d7e-49cc-b5ae-854a109723fe,67,ул,2018-04-20,0018,6716,6716,2020-08-16,000,0000,000,0,543d8b85-e2f2-43ed-993c-709ef064ba93,0003,,0
1,d929b5ab-411d-4040-baf7-3c8f62631c69,1d1c8ae4-fd97-41dc-aa12-75bdbd781f78,7,020,0,0,000,67020000000001800,0.0,2079-06-06,Лесная,6722,6722,,,66248810000,66648410,20,f3bcd8ad-e1df-4f55-963a-d0e17e25d618,000,670200000000018,215363,1f10b27a-3c7c-405c-97de-bf941074ab7a,67,ул,2020-08-14,0018,6716,6716,2020-08-16,000,0000,000,1,,0003,,0
0,5046d25c-ad03-40ee-8080-59a9a16e3086,505ae7fd-222b-40d3-b357-04bb17936d67,6,015,0,0,000,6701500019001,1.0,2020-08-17,Слобода-Полуево (Васьковское с/пос),6712,6712,a5b9adae-ba62-48dd-a271-2e009e4e129d,,66233815010,66633415,1,6829228d-ba24-45c2-af67-87972e5c5622,190,67015000190,216470,,67,д,1900-01-01,0000,,,2020-08-17,000,0000,000,0,,0000,,0
0,5046d25c-ad03-40ee-8080-59a9a16e3086,a5b9adae-ba62-48dd-a271-2e009e4e129d,6,015,0,0,000,6701500019002,2.0,2019-10-25,Слобода-Полуево (Васьковское с/пос),6712,6712,b3d51f23-d295-44b1-97aa-cca4363ea779,,66233815010,66633415171,21,6829228d-ba24-45c2-af67-87972e5c5622,190,67015000190,216470,505ae7fd-222b-40d3-b357-04bb17936d67,67,д,2014-01-10,0000,,,2020-08-17,000,0000,000,0,,0000,,0
0,5046d25c-ad03-40ee-8080-59a9a16e3086,b3d51f23-d295-44b1-97aa-cca4363ea779,6,015,0,0,000,6701500019003,3.0,2017-05-05,Слобода-Полуево (Васьковское с/пос),6725,6725,8361d98d-91b9-42ff-8a49-a57b8adb657d,,66233815010,66633415171,21,6829228d-ba24-45c2-af67-87972e5c5622,190,67015000190,216470,a5b9adae-ba62-48dd-a271-2e009e4e129d,67,д,2017-05-04,0000,,,2020-08-17,000,0000,000,0,,0000,,0
0,5046d25c-ad03-40ee-8080-59a9a16e3086,8361d98d-91b9-42ff-8a49-a57b8adb657d,6,015,0,0,000,6701500019004,4.0,2019-10-25,Слобода-Полуево (Васьковское с/пос),6725,6725,3cc5f85f-b0c1-4ec1-97b8-81317e0af580,,66233815010,66633415171,21,6829228d-ba24-45c2-af67-87972e5c5622,190,67015000190,216470,b3d51f23-d295-44b1-97aa-cca4363ea779,67,д,2017-05-05,0000,6712,6712,2020-08-17,000,0000,000,0,,0000,,0
0,5046d25c-ad03-40ee-8080-59a9a16e3086,3cc5f85f-b0c1-4ec1-97b8-81317e0af580,6,015,0,0,000,6701500019005,5.0,2020-08-17,Слобода-Полуево (Васьковское с/пос),6725,6725,6ad5f589-861b-47b2-acc6-6584d8a9cccb,,66233815010,66633495186,21,6829228d-ba24-45c2-af67-87972e5c5622,190,67015000190,,8361d98d-91b9-42ff-8a49-a57b8adb657d,67,д,2019-10-25,0000,6712,6712,2020-08-17,000,0000,000,0,,0000,,0
1,5046d25c-ad03-40ee-8080-59a9a16e3086,6ad5f589-861b-47b2-acc6-6584d8a9cccb,6,015,0,0,000,6701500019000,0.0,2079-06-06,Слобода-Полуево,6725,6725,,,66233815010,66633495186,20,6829228d-ba24-45c2-af67-87972e5c5622,190,67015000190,,3cc5f85f-b0c1-4ec1-97b8-81317e0af580,67,д,2020-08-17,0000,6712,6712,2020-08-17,000,0000,000,1,,0000,,0
0,f9b52729-b820-46c3-b83c-62ce64275047,d4fc94d0-3a9b-4848-93de-930d21144a35,6,015,0,0,000,6701500025101,1.0,2020-08-17,Елки,6712,6712,3a98c20d-102c-4bf1-a0cb-e594775d3b22,,66233501000,66633101,1,6829228d-ba24-45c2-af67-87972e5c5622,251,67015000251,216450,,67,п,1900-01-01,0000,,,2020-08-17,000,0000,000,0,,0000,,0
0,f9b52729-b820-46c3-b83c-62ce64275047,3a98c20d-102c-4bf1-a0cb-e594775d3b22,6,015,0,0,000,6701500025102,2.0,2017-05-05,Елки,6725,6725,ca1f3833-6a5d-4ed1-81a7-eb53a17d137a,,66233501000,66633101,21,6829228d-ba24-45c2-af67-87972e5c5622,251,67015000251,216450,d4fc94d0-3a9b-4848-93de-930d21144a35,67,п,2017-05-04,0000,,,2020-08-17,000,0000,000,0,,0000,,0
0,f9b52729-b820-46c3-b83c-62ce64275047,ca1f3833-6a5d-4ed1-81a7-eb53a17d137a,6,015,0,0,000,6701500025199,99.0,2020-08-17,Елки,6725,6725,c566cfdb-bfda-48ab-8441-84b2a64255c9,,66233501000,66633101,21,6829228d-ba24-45c2-af67-87972e5c5622,251,67015000251,216450,3a98c20d-102c-4bf1-a0cb-e594775d3b22,67,п,2017-05-05,0000,6712,6712,2020-08-17,000,0000,000,0,,0000,,0
1,f9b52729-b820-46c3-b83c-62ce64275047,c566cfdb-bfda-48ab-8441-84b2a64255c9,6,015,0,0,000,6701500025199,99.0,2079-06-06,Елки,6725,6725,,,66233501000,66633101,30,6829228d-ba24-45c2-af67-87972e5c5622,251,67015000251,216450,ca1f3833-6a5d-4ed1-81a7-eb53a17d137a,67,п,2020-08-17,0000,6712,6712,2020-08-17,000,0000,000,0,,0000,,0
0,767fbfc7-a997-4235-8e9e-1e968dee3733,706d5d2c-517a-488c-8d2d-e413223a78cf,6,015,0,0,000,6701500001701,1.0,2020-08-17,Васильево (Княжинское с/пос),6712,6712,910f3ece-adb8-4c9f-ae32-5b799d16a9c6,,66233835018,66633435116,1,6829228d-ba24-45c2-af67-87972e5c5622,017,67015000017,216462,,67,д,1900-01-01,0000,,,2020-08-17,000,0000,000,0,,0000,,0
0,767fbfc7-a997-4235-8e9e-1e968dee3733,910f3ece-adb8-4c9f-ae32-5b799d16a9c6,6,015,0,0,000,6701500001702,2.0,2015-08-21,Васильево (Княжинское с/пос),6712,6712,a51fe688-e719-45c2-8876-8b3652b6461e,,66233835018,66633435,20,6829228d-ba24-45c2-af67-87972e5c5622,017,67015000017,216462,706d5d2c-517a-488c-8d2d-e413223a78cf,67,д,1900-01-01,0000,,,2020-08-17,000,0000,000,0,82de9083-6a5b-4db2-98e5-cf10dd5e82fe,0000,,0
0,767fbfc7-a997-4235-8e9e-1e968dee3733,a51fe688-e719-45c2-8876-8b3652b6461e,6,015,0,0,000,6701500001703,3.0,2019-10-25,Васильево (Княжинское с/пос),6712,6712,c6d6dc3f-d11b-4dfe-82da-5c034838d566,,66233835018,66633435116,21,6829228d-ba24-45c2-af67-87972e5c5622,017,67015000017,216462,910f3ece-adb8-4c9f-ae32-5b799d16a9c6,67,д,2015-08-21,0000,,,2020-08-17,000,0000,000,0,82de9083-6a5b-4db2-98e5-cf10dd5e82fe,0000,,0
0,767fbfc7-a997-4235-8e9e-1e968dee3733,c6d6dc3f-d11b-4dfe-82da-5c034838d566,6,015,0,0,000,6701500001704,4.0,2017-05-05,Васильево (Княжинское с/пос),6725,6725,739e2d55-1959-48fb-9b6e-029f035b34e0,,66233835018,66633435116,21,6829228d-ba24-45c2-af67-87972e5c5622,017,67015000017,216462,a51fe688-e719-45c2-8876-8b3652b6461e,67,д,2017-05-04,0000,,,2020-08-17,000,0000,000,0,82de9083-6a5b-4db2-98e5-cf10dd5e82fe,0000,,0
0,767fbfc7-a997-4235-8e9e-1e968dee3733,739e2d55-1959-48fb-9b6e-029f035b34e0,6,015,0,0,000,6701500001705,5.0,2019-10-25,Васильево (Княжинское с/пос),6725,6725,89d64a05-2bc7-4c61-895b-039791af9321,,66233835018,66633435116,21,6829228d-ba24-45c2-af67-87972e5c5622,017,67015000017,216462,c6d6dc3f-d11b-4dfe-82da-5c034838d566,67,д,2017-05-05,0000,6712,6712,2020-08-17,000,0000,000,0,82de9083-6a5b-4db2-98e5-cf10dd5e82fe,0000,,0
0,767fbfc7-a997-4235-8e9e-1e968dee3733,89d64a05-2bc7-4c61-895b-039791af9321,6,015,0,0,000,6701500001706,6.0,2020-08-17,Васильево (Княжинское с/пос),6725,6725,444928f2-1c22-4287-ae37-f319599a1981,,66233835018,66633465112,21,6829228d-ba24-45c2-af67-87972e5c5622,017,67015000017,216462,739e2d55-1959-48fb-9b6e-029f035b34e0,67,д,2019-10-25,0000,6712,6712,2020-08-17,000,0000,000,0,82de9083-6a5b-4db2-98e5-cf10dd5e82fe,0000,,0
1,767fbfc7-a997-4235-8e9e-1e968dee3733,444928f2-1c22-4287-ae37-f319599a1981,6,015,0,0,000,6701500001700,0.0,2079-06-06,Васильево,6725,6725,,,66233835018,66633465112,20,6829228d-ba24-45c2-af67-87972e5c5622,017,67015000017,216462,89d64a05-2bc7-4c61-895b-039791af9321,67,д,2020-08-17,0000,6712,6712,2020-08-17,000,0000,000,1,,0000,,0
0,04d0b38e-ad76-4f00-9204-260541f274cf,1fb0971e-f728-4b10-bc27-77c381598132,6,015,0,0,000,6701500026601,1.0,2020-08-17,Бояды (Прудковское с/пос),6712,6712,18f9a7e6-433f-4a27-93e9-fdaadeebd37c,,66233865009,66633465,1,6829228d-ba24-45c2-af67-87972e5c5622,266,67015000266,216486,,67,д,1900-01-01,0000,,,2020-08-17,000,0000,000,0,,0000,,0
0,04d0b38e-ad76-4f00-9204-260541f274cf,18f9a7e6-433f-4a27-93e9-fdaadeebd37c,6,015,0,0,000,6701500026602,2.0,2015-08-22,Бояды (Прудковское с/пос),6712,6712,61b04f74-3653-4889-ba13-936c3128b3de,,66233865009,66633465101,21,6829228d-ba24-45c2-af67-87972e5c5622,266,67015000266,216486,1fb0971e-f728-4b10-bc27-77c381598132,67,д,2014-01-10,0000,,,2020-08-17,000,0000,000,0,,0000,,0
0,04d0b38e-ad76-4f00-9204-260541f274cf,61b04f74-3653-4889-ba13-936c3128b3de,6,015,0,0,000,6701500026603,3.0,2017-05-05,Бояды (Прудковское с/пос),6712,6712,d275bcc2-32d6-4ae5-bd34-cda64550486c,,66233865003,66633465111,21,6829228d-ba24-45c2-af67-87972e5c5622,266,67015000266,216486,18f9a7e6-433f-4a27-93e9-fdaadeebd37c,67,д,2015-08-22,0000,,,2020-08-17,000,0000,000,0,,0000,,0
0,04d0b38e-ad76-4f00-9204-260541f274cf,d275bcc2-32d6-4ae5-bd34-cda64550486c,6,015,0,0,000,6701500026604,4.0,2017-05-05,Бояды (Прудковское с/пос),6725,6725,50d78e99-7f34-4a31-a3c7-7ed4d545a07c,,66233865003,66633465111,21,6829228d-ba24-45c2-af67-87972e5c5622,266,67015000266,216486,61b04f74-3653-4889-ba13-936c3128b3de,67,д,2017-05-04,0000,,,2020-08-17,000,0000,000,0,,0000,,0
0,04d0b38e-ad76-4f00-9204-260541f274cf,50d78e99-7f34-4a31-a3c7-7ed4d545a07c,6,015,0,0,000,6701500026605,5.0,2020-08-17,Бояды (Прудковское с/пос),6725,6725,a0eeb3d0-0550-4f2b-a7f7-3ac39b5f4fff,,66233865003,66633465111,21,6829228d-ba24-45c2-af67-87972e5c5622,266,67015000266,216450,d275bcc2-32d6-4ae5-bd34-cda64550486c,67,д,2017-05-05,0000,6712,6712,2020-08-17,000,0000,000,0,,0000,,0
1,04d0b38e-ad76-4f00-9204-260541f274cf,a0eeb3d0-0550-4f2b-a7f7-3ac39b5f4fff,6,015,0,0,000,6701500026600,0.0,2079-06-06,Бояды,6725,6725,,,66233865003,66633465111,20,6829228d-ba24-45c2-af67-87972e5c5622,266,67015000266,216450,50d78e99-7f34-4a31-a3c7-7ed4d545a07c,67,д,2020-08-17,0000,6712,6712,2020-08-17,000,0000,000,1,,0000,,0
0,38e24ae7-fe72-4745-9e11-c91bf1fffd69,a4478366-ebe3-4b5e-922b-b8eb73c590c8,6,015,0,0,000,6701500001501,1.0,2020-08-17,Барсуки (Стодолищенское с/пос),6712,6712,6b898cb1-0420-44b3-96f5-fc4de19928de,,66233885002,66633155,1,6829228d-ba24-45c2-af67-87972e5c5622,015,67015000015,216470,,67,д,1900-01-01,0000,,,2020-08-17,000,0000,000,0,,0000,,0
0,38e24ae7-fe72-4745-9e11-c91bf1fffd69,6b898cb1-0420-44b3-96f5-fc4de19928de,6,015,0,0,000,6701500001502,2.0,2017-05-05,Барсуки (Стодолищенское с/пос),6712,6712,6521782e-b01e-4a12-afec-dfa1572d4ee8,,66233885002,66633485106,21,6829228d-ba24-45c2-af67-87972e5c5622,015,67015000015,216470,a4478366-ebe3-4b5e-922b-b8eb73c590c8,67,д,2015-08-22,0000,,,2020-08-17,000,0000,000,0,,0000,,0
0,38e24ae7-fe72-4745-9e11-c91bf1fffd69,6521782e-b01e-4a12-afec-dfa1572d4ee8,6,015,0,0,000,6701500001503,3.0,2017-05-05,Барсуки (Стодолищенское с/пос),6725,6725,991cdaf3-b6ae-4c30-bb06-925b3bc94f23,,66233885002,66633485106,21,6829228d-ba24-45c2-af67-87972e5c5622,015,67015000015,216470,6b898cb1-0420-44b3-96f5-fc4de19928de,67,д,2017-05-04,0000,,,2020-08-17,000,0000,000,0,,0000,,0
0,38e24ae7-fe72-4745-9e11-c91bf1fffd69,991cdaf3-b6ae-4c30-bb06-925b3bc94f23,6,015,0,0,000,6701500001504,4.0,2020-08-17,Барсуки (Стодолищенское с/пос),6725,6725,800039b0-2a07-4eb3-a2a5-5ad2cc5eefe0,,66233885002,66633485106,21,6829228d-ba24-45c2-af67-87972e5c5622,015,67015000015,,6521782e-b01e-4a12-afec-dfa1572d4ee8,67,д,2017-05-05,0000,6712,6712,2020-08-17,000,0000,000,0,,0000,,0
1,38e24ae7-fe72-4745-9e11-c91bf1fffd69,800039b0-2a07-4eb3-a2a5-5ad2cc5eefe0,6,015,0,0,000,6701500001500,0.0,2079-06-06,Барсуки,6725,6725,,,66233885002,66633485106,20,6829228d-ba24-45c2-af67-87972e5c5622,015,67015000015,,991cdaf3-b6ae-4c30-bb06-925b3bc94f23,67,д,2020-08-17,0000,6712,6712,2020-08-17,000,0000,000,1,,0000,,0
0,dc017fc4-a743-4fd8-a805-42755e2c4aa0,6ea8ad60-54ce-4944-aed1-7fa2193ba1a3,6,015,0,0,000,6701500026401,1.0,2020-08-17,Васильево (Мурыгинское с/пос),6712,6712,bc9d113d-b38d-459a-b81c-de648ffac794,,66233850002,66633450,1,6829228d-ba24-45c2-af67-87972e5c5622,264,67015000264,216466,,67,д,1900-01-01,0000,,,2020-08-17,000,0000,000,0,,0000,,0
0,dc017fc4-a743-4fd8-a805-42755e2c4aa0,bc9d113d-b38d-459a-b81c-de648ffac794,6,015,0,0,000,6701500026402,2.0,2017-05-05,Васильево (Мурыгинское с/пос),6712,6712,e61758a8-e94e-436c-9229-c013c0f6deba,,66233850002,66633450111,21,6829228d-ba24-45c2-af67-87972e5c5622,264,67015000264,216466,6ea8ad60-54ce-4944-aed1-7fa2193ba1a3,67,д,2014-01-10,0000,,,2020-08-17,000,0000,000,0,,0000,,0
0,dc017fc4-a743-4fd8-a805-42755e2c4aa0,e61758a8-e94e-436c-9229-c013c0f6deba,6,015,0,0,000,6701500026403,3.0,2017-05-05,Васильево (Мурыгинское с/пос),6725,6725,d78df928-a3b6-4290-87c8-92a6f3a614a9,,66233850002,66633450111,21,6829228d-ba24-45c2-af67-87972e5c5622,264,67015000264,216466,bc9d113d-b38d-459a-b81c-de648ffac794,67,д,2017-05-04,0000,,,2020-08-17,000,0000,000,0,,0000,,0
0,dc017fc4-a743-4fd8-a805-42755e2c4aa0,d78df928-a3b6-4290-87c8-92a6f3a614a9,6,015,0,0,000,6701500026404,4.0,2020-08-17,Васильево (Мурыгинское с/пос),6725,6725,1a4ab4c7-69f2-4698-b533-6dd83f0f1c72,,66233850002,66633450111,21,6829228d-ba24-45c2-af67-87972e5c5622,264,67015000264,216466,e61758a8-e94e-436c-9229-c013c0f6deba,67,д,2017-05-05,0000,6712,6712,2020-08-17,000,0000,000,0,,0000,,0
1,dc017fc4-a743-4fd8-a805-42755e2c4aa0,1a4ab4c7-69f2-4698-b533-6dd83f0f1c72,6,015,0,0,000,6701500026400,0.0,2079-06-06,Васильево,6725,6725,,,66233850002,66633450111,20,6829228d-ba24-45c2-af67-87972e5c5622,264,67015000264,216466,d78df928-a3b6-4290-87c8-92a6f3a614a9,67,д,2020-08-17,0000,6712,6712,2020-08-17,000,0000,000,1,,0000,,0
0,6872f7b1-e1a5-4d97-82f5-3181c2529af6,1c5c71ab-6dca-44e7-a3ca-cbc41d743d33,6,015,0,0,000,6701500028101,1.0,2020-08-17,Слобода (Даньковское с/пос),6712,6712,f29f9689-9263-4ddc-9d0b-51d80aecd313,,66233822006,66633422141,1,6829228d-ba24-45c2-af67-87972e5c5622,281,67015000281,216461,,67,д,1900-01-01,0000,,,2020-08-17,000,0000,000,0,,0000,,0
0,6872f7b1-e1a5-4d97-82f5-3181c2529af6,f29f9689-9263-4ddc-9d0b-51d80aecd313,6,015,0,0,000,6701500028102,2.0,2015-08-21,Слобода (Даньковское с/пос),6712,6712,5d6be475-37ea-4c18-bd55-23bbbfc4127b,,66233822006,66633422,20,6829228d-ba24-45c2-af67-87972e5c5622,281,67015000281,216461,1c5c71ab-6dca-44e7-a3ca-cbc41d743d33,67,д,1900-01-01,0000,,,2020-08-17,000,0000,000,0,d35f2e60-fcf9-4ec1-abcf-187648c7de01,0000,,0
0,6872f7b1-e1a5-4d97-82f5-3181c2529af6,5d6be475-37ea-4c18-bd55-23bbbfc4127b,6,015,0,0,000,6701500028103,3.0,2019-10-25,Слобода (Даньковское с/пос),6712,6712,86df7bb3-728d-4d3d-99a4-7923d5a1de2f,,66233822006,66633422141,21,6829228d-ba24-45c2-af67-87972e5c5622,281,67015000281,216461,f29f9689-9263-4ddc-9d0b-51d80aecd313,67,д,2015-08-21,0000,,,2020-08-17,000,0000,000,0,d35f2e60-fcf9-4ec1-abcf-187648c7de01,0000,,0
0,6872f7b1-e1a5-4d97-82f5-3181c2529af6,86df7bb3-728d-4d3d-99a4-7923d5a1de2f,6,015,0,0,000,6701500028104,4.0,2017-05-05,Слобода (Даньковское с/пос),6725,6725,f43397e6-b552-4dfa-9ea7-a84b142270fa,,66233822006,66633422141,21,6829228d-ba24-45c2-af67-87972e5c5622,281,67015000281,216461,5d6be475-37ea-4c18-bd55-23bbbfc4127b,67,д,2017-05-04,0000,,,2020-08-17,000,0000,000,0,d35f2e60-fcf9-4ec1-abcf-187648c7de01,0000,,0
0,6872f7b1-e1a5-4d97-82f5-3181c2529af6,f43397e6-b552-4dfa-9ea7-a84b142270fa,6,015,0,0,000,6701500028105,5.0,2019-10-25,Слобода (Даньковское с/пос),6725,6725,ad53344a-f2cd-4363-9e4c-89b2c063f7b8,,66233822006,66633422141,21,6829228d-ba24-45c2-af67-87972e5c5622,281,67015000281,216461,86df7bb3-728d-4d3d-99a4-7923d5a1de2f,67,д,2017-05-05,0000,6712,6712,2020-08-17,000,0000,000,0,d35f2e60-fcf9-4ec1-abcf-187648c7de01,0000,,0
0,6872f7b1-e1a5-4d97-82f5-3181c2529af6,ad53344a-f2cd-4363-9e4c-89b2c063f7b8,6,015,0,0,000,6701500028106,6.0,2020-08-17,Слобода (Даньковское с/пос),6725,6725,802b379a-64cf-4ed6-b5f2-0de350b2cebe,,66233822006,66633495145,21,6829228d-ba24-45c2-af67-87972e5c5622,281,67015000281,216461,f43397e6-b552-4dfa-9ea7-a84b142270fa,67,д,2019-10-25,0000,6712,6712,2020-08-17,000,0000,000,0,d35f2e60-fcf9-4ec1-abcf-187648c7de01,0000,,0
1,6872f7b1-e1a5-4d97-82f5-3181c2529af6,802b379a-64cf-4ed6-b5f2-0de350b2cebe,6,015,0,0,000,6701500028100,0.0,2079-06-06,Слобода,6725,6725,,,66233822006,66633495145,20,6829228d-ba24-45c2-af67-87972e5c5622,281,67015000281,216461,ad53344a-f2cd-4363-9e4c-89b2c063f7b8,67,д,2020-08-17,0000,6712,6712,2020-08-17,000,0000,000,1,,0000,,0
0,21a11cb3-b34d-4dda-99cf-d99c92d76456,7a173381-8ae9-4f0c-adb9-58d4e8d1c40f,6,015,0,0,000,6701500011601,1.0,2020-08-17,Льнозавод (Стодолищенское с/пос),6712,6712,a8ea71d4-01a3-40b9-8449-76d54eb6554c,,66233885012,66633155,1,6829228d-ba24-45c2-af67-87972e5c5622,116,67015000116,216471,,67,д,1900-01-01,0000,,,2020-08-17,000,0000,000,0,,0000,,0
0,21a11cb3-b34d-4dda-99cf-d99c92d76456,a8ea71d4-01a3-40b9-8449-76d54eb6554c,6,015,0,0,000,6701500011602,2.0,2017-05-05,Льнозавод (Стодолищенское с/пос),6712,6712,76a826ca-7070-453a-909a-026a06cfe96f,,66233885012,66633485141,21,6829228d-ba24-45c2-af67-87972e5c5622,116,67015000116,216471,7a173381-8ae9-4f0c-adb9-58d4e8d1c40f,67,д,2015-08-22,0000,,,2020-08-17,000,0000,000,0,,0000,,0
0,21a11cb3-b34d-4dda-99cf-d99c92d76456,76a826ca-7070-453a-909a-026a06cfe96f,6,015,0,0,000,6701500011603,3.0,2017-05-05,Льнозавод (Стодолищенское с/пос),6725,6725,83704a32-b3c4-4cc1-90e2-f91d7b739cfd,,66233885012,66633485141,21,6829228d-ba24-45c2-af67-87972e5c5622,116,67015000116,216471,a8ea71d4-01a3-40b9-8449-76d54eb6554c,67,д,2017-05-04,0000,,,2020-08-17,000,0000,000,0,,0000,,0
0,21a11cb3-b34d-4dda-99cf-d99c92d76456,83704a32-b3c4-4cc1-90e2-f91d7b739cfd,6,015,0,0,000,6701500011604,4.0,2020-08-17,Льнозавод (Стодолищенское с/пос),6725,6725,3fa3f1d6-2acc-4557-9f6a-133ae8b22f6a,,66233885012,66633485141,21,6829228d-ba24-45c2-af67-87972e5c5622,116,67015000116,,76a826ca-7070-453a-909a-026a06cfe96f,67,д,2017-05-05,0000,6712,6712,2020-08-17,000,0000,000,0,,0000,,0
1,21a11cb3-b34d-4dda-99cf-d99c92d76456,3fa3f1d6-2acc-4557-9f6a-133ae8b22f6a,6,015,0,0,000,6701500011600,0.0,2079-06-06,Льнозавод,6725,6725,,,66233885012,66633485141,20,6829228d-ba24-45c2-af67-87972e5c5622,116,67015000116,,83704a32-b3c4-4cc1-90e2-f91d7b739cfd,67,д,2020-08-17,0000,6712,6712,2020-08-17,000,0000,000,1,,0000,,0
0,7c44759d-f815-4a67-840d-67d994ea053d,7c44759d-f815-4a67-840d-67d994ea053d,65,004,0,0,000,67004000000000400,0.0,2079-06-06,187 км Московской железной дороги,6722,6722,838cffa6-4a25-4a3c-bd8d-720dcf8122ec,,66208860000,66608460,10,23d70e81-cb1c-45d7-8b74-b89b67864b8c,000,670040000000004,,,67,тер.,2017-12-04,0000,6723,6723,2020-08-20,000,0000,000,0,6287221c-2bdb-4729-a4ea-f3ccfe4d5c0c,0004,,0
0,7c44759d-f815-4a67-840d-67d994ea053d,838cffa6-4a25-4a3c-bd8d-720dcf8122ec,65,004,0,0,000,67004000000000400,0.0,2020-08-19,187 км Московской железной дороги,6722,6722,41cd4c0b-6a1d-4a0a-b272-c1f1b68ffc48,,66208860000,66608416,20,23d70e81-cb1c-45d7-8b74-b89b67864b8c,000,670040000000004,,7c44759d-f815-4a67-840d-67d994ea053d,67,тер.,2020-08-03,0000,6723,6723,2020-08-20,000,0000,000,0,,0004,,0
1,7c44759d-f815-4a67-840d-67d994ea053d,41cd4c0b-6a1d-4a0a-b272-c1f1b68ffc48,65,004,0,0,000,67004000000000400,0.0,2079-06-06,187 км Московской железной дороги,6722,6722,,,66208816000,66608416,20,23d70e81-cb1c-45d7-8b74-b89b67864b8c,000,670040000000004,,838cffa6-4a25-4a3c-bd8d-720dcf8122ec,67,тер.,2020-08-19,0000,6723,6723,2020-08-20,000,0000,000,1,,0004,,0
1,59c03d6a-1057-4c6e-bd7f-01da8f834f91,59c03d6a-1057-4c6e-bd7f-01da8f834f91,7,011,0,0,000,67011000041000100,0.0,2079-06-06,усадьба Янича,6727,6727,,,66223828003,66623428106,10,83a7954a-7655-46f0-b682-b95a613d69dc,041,670110000410001,215865,,67,ул,2020-08-19,0001,6708,6708,2020-08-20,000,0000,000,1,,0000,,0
0,4e769c60-153b-4888-b74a-10652f5978c3,4e769c60-153b-4888-b74a-10652f5978c3,65,004,0,0,000,67004000000000500,0.0,2079-06-06,Агротехнический комплекс,6722,6722,f99317f8-175a-47ef-a883-9bedf08cca86,,66208844001,66608444,10,23d70e81-cb1c-45d7-8b74-b89b67864b8c,000,670040000000005,,,67,тер.,2018-05-08,0000,6723,6723,2020-08-20,000,0000,000,0,79fc18a5-f758-44ea-afaa-0c08bf299eae,0005,,0
0,4e769c60-153b-4888-b74a-10652f5978c3,f99317f8-175a-47ef-a883-9bedf08cca86,65,004,0,0,000,67004000000000500,0.0,2020-08-19,Агротехнический комплекс,6722,6722,47147d4a-eba1-46d9-9469-be48889dd559,,66208844001,66608416,20,23d70e81-cb1c-45d7-8b74-b89b67864b8c,000,670040000000005,,4e769c60-153b-4888-b74a-10652f5978c3,67,тер.,2020-08-03,0000,6723,6723,2020-08-20,000,0000,000,0,,0005,,0
1,4e769c60-153b-4888-b74a-10652f5978c3,47147d4a-eba1-46d9-9469-be48889dd559,65,004,0,0,000,67004000000000500,0.0,2079-06-06,Агротехнический комплекс,6722,6722,,,66208816000,66608416,20,23d70e81-cb1c-45d7-8b74-b89b67864b8c,000,670040000000005,,f99317f8-175a-47ef-a883-9bedf08cca86,67,тер.,2020-08-19,0000,6723,6723,2020-08-20,000,0000,000,1,,0005,,0
1,e8d1f5b0-b021-4297-97a4-469c46337f62,e8d1f5b0-b021-4297-97a4-469c46337f62,7,004,0,0,000,67004000208000400,0.0,2079-06-06,Дружбы,6722,6722,,,66208860010,66608416356,10,ee7e68c2-f7ed-46e0-8b3d-54f3af19ed28,208,670040002080004,215030,,67,ул,2020-08-19,0004,6723,6723,2020-08-20,000,0000,000,1,,0000,,0
1,8d3b5e04-036a-4f6e-b137-9a8f91c8352b,8d3b5e04-036a-4f6e-b137-9a8f91c8352b,7,004,0,0,000,67004000228000300,0.0,2079-06-06,Авиационная,6722,6722,,,66208808011,66608416376,10,28c8c940-95c0-4508-a8b4-2859924e0b61,228,670040002280003,215051,,67,ул,2020-08-19,0003,6723,6723,2020-08-20,000,0000,000,1,,0000,,0
0,e9b58187-1f6b-4905-b540-2265729c50fa,f7514c55-94a5-49d0-95e7-ffe674a5ef9f,6,015,0,0,000,6701500027901,1.0,2020-08-18,Семиново,6712,6712,f08614c1-d7e3-4a10-b4d8-e075da73011d,,66233815017,66633415166,1,6829228d-ba24-45c2-af67-87972e5c5622,279,67015000279,216476,,67,нп,1900-01-01,0000,,,2020-08-20,000,0000,000,0,,0000,,0
0,e9b58187-1f6b-4905-b540-2265729c50fa,f08614c1-d7e3-4a10-b4d8-e075da73011d,6,015,0,0,000,6701500027902,2.0,2015-08-21,Семиново,6712,6712,4bea3d8a-4797-4086-9c2d-41ae6eef1163,,66233815017,66633415,20,6829228d-ba24-45c2-af67-87972e5c5622,279,67015000279,216476,f7514c55-94a5-49d0-95e7-ffe674a5ef9f,67,нп,1900-01-01,0000,,,2020-08-20,000,0000,000,0,83b56564-e4f3-4691-9ec3-7266fc2a469d,0000,,0
0,e9b58187-1f6b-4905-b540-2265729c50fa,4bea3d8a-4797-4086-9c2d-41ae6eef1163,6,015,0,0,000,6701500027903,3.0,2019-10-25,Семиново,6712,6712,0ee57df9-29ac-4d0b-a94c-3a028a61efda,,66233815017,66633415166,21,6829228d-ba24-45c2-af67-87972e5c5622,279,67015000279,216476,f08614c1-d7e3-4a10-b4d8-e075da73011d,67,нп,2015-08-21,0000,,,2020-08-20,000,0000,000,0,83b56564-e4f3-4691-9ec3-7266fc2a469d,0000,,0
0,e9b58187-1f6b-4905-b540-2265729c50fa,0ee57df9-29ac-4d0b-a94c-3a028a61efda,6,015,0,0,000,6701500027904,4.0,2017-05-05,Семиново,6725,6725,8ccf79b5-8ae3-44a2-bf36-36462b1e9455,,66233815017,66633415166,21,6829228d-ba24-45c2-af67-87972e5c5622,279,67015000279,216476,4bea3d8a-4797-4086-9c2d-41ae6eef1163,67,нп,2017-05-04,0000,,,2020-08-20,000,0000,000,0,83b56564-e4f3-4691-9ec3-7266fc2a469d,0000,,0
0,e9b58187-1f6b-4905-b540-2265729c50fa,8ccf79b5-8ae3-44a2-bf36-36462b1e9455,6,015,0,0,000,6701500027905,5.0,2019-10-25,Семиново,6725,6725,c2951bc3-bf6a-44b0-b18a-b79f757e9d4e,,66233815017,66633415166,21,6829228d-ba24-45c2-af67-87972e5c5622,279,67015000279,216476,0ee57df9-29ac-4d0b-a94c-3a028a61efda,67,нп,2017-05-05,0000,6712,6712,2020-08-20,000,0000,000,0,83b56564-e4f3-4691-9ec3-7266fc2a469d,0000,,0
0,e9b58187-1f6b-4905-b540-2265729c50fa,c2951bc3-bf6a-44b0-b18a-b79f757e9d4e,6,015,0,0,000,6701500027906,6.0,2020-08-18,Семиново,6725,6725,ac30fd61-3840-43d7-b5c9-375146214ae0,,66233815017,66633495144,21,6829228d-ba24-45c2-af67-87972e5c5622,279,67015000279,216476,8ccf79b5-8ae3-44a2-bf36-36462b1e9455,67,нп,2019-10-25,0000,6712,6712,2020-08-20,000,0000,000,0,83b56564-e4f3-4691-9ec3-7266fc2a469d,0000,,0
1,e9b58187-1f6b-4905-b540-2265729c50fa,ac30fd61-3840-43d7-b5c9-375146214ae0,6,015,0,0,000,6701500027900,0.0,2079-06-06,Семиново,6725,6725,,,66233815017,66633495144,20,6829228d-ba24-45c2-af67-87972e5c5622,279,67015000279,216476,c2951bc3-bf6a-44b0-b18a-b79f757e9d4e,67,д,2020-08-18,0000,6712,6712,2020-08-20,000,0000,000,1,,0000,,0
1,ddef6117-61db-4aac-9707-817b279bba19,ddef6117-61db-4aac-9707-817b279bba19,7,004,0,0,000,67004000156001100,0.0,2079-06-06,Свободы,6722,6722,,,66208860015,66608416296,10,cea16c37-03ef-4981-9e5d-af4bdc1b21f3,156,670040001560011,,,67,пер,2020-08-19,0011,6723,6723,2020-08-20,000,0000,000,1,,0000,,0
1,4c654205-9ed3-4d8f-8fa7-1705f9e69d25,4c654205-9ed3-4d8f-8fa7-1705f9e69d25,7,001,0,0,000,67001000408000100,0.0,2079-06-06,Лучистая,6714,6714,,,66244876007,66644476201,10,769d03b1-d5d3-440a-99bc-08792f23bdb5,408,670010004080001,214518,,67,ул,2020-08-21,0001,,,2020-08-22,000,0000,000,1,,0000,,0
1,7114fb88-8eab-4e1f-b89b-6f80719b4606,7114fb88-8eab-4e1f-b89b-6f80719b4606,7,004,0,0,000,67004000208000500,0.0,2079-06-06,Песчаный,6722,6722,,,66208860010,66608416356,10,ee7e68c2-f7ed-46e0-8b3d-54f3af19ed28,208,670040002080005,215030,,67,пер,2020-08-21,0005,6723,6723,2020-08-22,000,0000,000,1,,0000,,0
1,d4f94250-8dfa-4bb7-88e0-a7406a5fe44f,d4f94250-8dfa-4bb7-88e0-a7406a5fe44f,7,001,0,0,000,67001000351002000,0.0,2079-06-06,Луговая,6714,6714,,,66244892001,66644492101,10,fe0b204b-427a-4c9c-930b-fa4968526542,351,670010003510020,214512,,67,ул,2020-08-21,0020,,,2020-08-22,000,0000,000,1,,0000,,0
0,ad670fc6-8961-4c09-a43e-a12dc5913adc,ad670fc6-8961-4c09-a43e-a12dc5913adc,90,003,0,0,000,67003000305001001,1.0,2016-09-29,Энтузиаст,6722,6722,93cc0875-699f-4a54-ba91-43007bbff18f,,66205864020,66605464,10,91fcc505-03ee-481e-95d6-867b49d98459,305,670030003050010,215116,,67,снт,1988-05-23,0000,,,2020-08-22,000,0000,000,0,,0010,,0
0,ad670fc6-8961-4c09-a43e-a12dc5913adc,93cc0875-699f-4a54-ba91-43007bbff18f,90,003,0,0,000,67003000305001051,51.0,2018-03-30,Энтузиаст,6722,6722,5a0e86ee-a03d-44a3-b6ca-94d401ac15de,,66205864020,66605464186,21,91fcc505-03ee-481e-95d6-867b49d98459,305,670030003050010,215116,ad670fc6-8961-4c09-a43e-a12dc5913adc,67,снт,2014-01-10,0000,,,2020-08-22,000,0000,000,0,,0010,,0
0,ad670fc6-8961-4c09-a43e-a12dc5913adc,5a0e86ee-a03d-44a3-b6ca-94d401ac15de,65,003,0,0,000,67003000305001002,2.0,2020-08-21,Энтузиаст,6722,6722,a3a71828-c064-4fba-9ea7-eb4998d81b64,,66205864020,66605464186,50,91fcc505-03ee-481e-95d6-867b49d98459,305,670030003050010,215116,93cc0875-699f-4a54-ba91-43007bbff18f,67,снт,2016-09-29,0000,,,2020-08-22,000,0000,000,0,,0010,,0
0,ad670fc6-8961-4c09-a43e-a12dc5913adc,a3a71828-c064-4fba-9ea7-eb4998d81b64,65,003,0,0,000,67003000305001003,3.0,2020-08-21,Энтузиаст,6722,6722,868f4fb1-0321-49ff-809f-3112168548cb,,66205864020,66605472180,21,91fcc505-03ee-481e-95d6-867b49d98459,305,670030003050010,215116,5a0e86ee-a03d-44a3-b6ca-94d401ac15de,67,снт,2018-03-30,0000,,,2020-08-22,000,0000,000,0,,0010,,0
1,ad670fc6-8961-4c09-a43e-a12dc5913adc,868f4fb1-0321-49ff-809f-3112168548cb,65,003,0,0,000,67003000305001000,0.0,2079-06-06,Энтузиаст,6722,6722,,,66205864020,66605472180,20,91fcc505-03ee-481e-95d6-867b49d98459,305,670030003050010,215116,a3a71828-c064-4fba-9ea7-eb4998d81b64,67,тер. ДПК,2020-08-21,0000,,,2020-08-22,000,0000,000,1,,0010,,0
1,01c7228d-a6f0-42ce-b29b-4defa1ccca9c,01c7228d-a6f0-42ce-b29b-4defa1ccca9c,65,001,0,0,000,67001000012002000,0.0,2079-06-06,СНТ Луч,6714,6714,,,66244865003,66644465111,10,b64ce8ae-0355-41fa-b9c0-132a39ce2c5b,012,670010000120020,,,67,тер.,2020-08-25,0000,,,2020-08-27,000,0000,000,1,,0020,,0
