ACTSTATUS,AOGUID,AOID,AOLEVEL,AREACODE,AUTOCODE,CENTSTATUS,CITYCODE,CODE,CURRSTATUS,ENDDATE,FORMALNAME,IFNSFL,IFNSUL,NEXTID,OFFNAME,OKATO,OKTMO,OPERSTATUS,PARENTGUID,PLACECODE,PLAINCODE,POSTALCODE,PREVID,REGIONCODE,SHORTNAME,STARTDATE,STREETCODE,TERRIFNSFL,TERRIFNSUL,UPDATEDATE,CTARCODE,EXTRCODE,SEXTCODE,LIVESTATUS,NORMDOC,PLANCODE,CADNUM,DIVTYPE
1,fb5f9e83-3dfa-40e7-a869-085b54345ebc,fb5f9e83-3dfa-40e7-a869-085b54345ebc,7,001,0,0,000,68001000108006400,0.0,2079-06-06,Б,6820,6820,,,68240899001,68640499101,10,c7b468cd-a8a2-4b2d-a07b-8fd542ae51f2,108,680010001080064,392525,,68,ряд,2020-09-02,0064,,,2020-09-03,000,0000,000,1,,0019,,0
1,23aa8710-9200-46ba-b8cb-69ae50f2f7c9,23aa8710-9200-46ba-b8cb-69ae50f2f7c9,7,001,0,0,000,68001000108005800,0.0,2079-06-06,4-й,6820,6820,,,68240899001,68640499101,10,c7b468cd-a8a2-4b2d-a07b-8fd542ae51f2,108,680010001080058,392525,,68,ряд,2020-09-02,0058,,,2020-09-03,000,0000,000,1,,0019,,0
1,d1cd3057-17a5-4d20-bdcf-e164341c85eb,d1cd3057-17a5-4d20-bdcf-e164341c85eb,7,001,0,0,000,68001000108006200,0.0,2079-06-06,8-й,6820,6820,,,68240899001,68640499101,10,c7b468cd-a8a2-4b2d-a07b-8fd542ae51f2,108,680010001080062,392525,,68,ряд,2020-09-02,0062,,,2020-09-03,000,0000,000,1,,0019,,0
1,d6675909-cf7e-462f-b3ec-b501141176da,d6675909-cf7e-462f-b3ec-b501141176da,7,001,0,0,000,68001000108006000,0.0,2079-06-06,6-й,6820,6820,,,68240899001,68640499101,10,c7b468cd-a8a2-4b2d-a07b-8fd542ae51f2,108,680010001080060,392525,,68,ряд,2020-09-02,0060,,,2020-09-03,000,0000,000,1,,0019,,0
1,bf887586-141a-4fe2-8446-f19eacddcbe9,bf887586-141a-4fe2-8446-f19eacddcbe9,7,001,0,0,000,68001000108006600,0.0,2079-06-06,Г,6820,6820,,,68240899001,68640499101,10,c7b468cd-a8a2-4b2d-a07b-8fd542ae51f2,108,680010001080066,392525,,68,ряд,2020-09-02,0066,,,2020-09-03,000,0000,000,1,,0019,,0
1,7ce126c9-8692-4ccc-98ae-a5b3e8424121,7ce126c9-8692-4ccc-98ae-a5b3e8424121,7,001,0,0,000,68001000108006100,0.0,2079-06-06,7-й,6820,6820,,,68240899001,68640499101,10,c7b468cd-a8a2-4b2d-a07b-8fd542ae51f2,108,680010001080061,392525,,68,ряд,2020-09-02,0061,,,2020-09-03,000,0000,000,1,,0019,,0
1,6d2b0eee-2344-405b-ab19-e0ee790c95b0,6d2b0eee-2344-405b-ab19-e0ee790c95b0,7,001,0,0,000,68001000108006500,0.0,2079-06-06,В,6820,6820,,,68240899001,68640499101,10,c7b468cd-a8a2-4b2d-a07b-8fd542ae51f2,108,680010001080065,392525,,68,ряд,2020-09-02,0065,,,2020-09-03,000,0000,000,1,,0019,,0
1,f2537540-9954-4885-822e-f9171c045ccd,f2537540-9954-4885-822e-f9171c045ccd,7,001,0,0,000,68001000108005600,0.0,2079-06-06,2-й,6820,6820,,,68240899001,68640499101,10,c7b468cd-a8a2-4b2d-a07b-8fd542ae51f2,108,680010001080056,392525,,68,ряд,2020-09-02,0056,,,2020-09-03,000,0000,000,1,,0019,,0
1,7c8dea84-d4e0-4e20-98fb-2e2334c9a511,7c8dea84-d4e0-4e20-98fb-2e2334c9a511,7,001,0,0,000,68001000108005700,0.0,2079-06-06,3-й,6820,6820,,,68240899001,68640499101,10,c7b468cd-a8a2-4b2d-a07b-8fd542ae51f2,108,680010001080057,392525,,68,ряд,2020-09-02,0057,,,2020-09-03,000,0000,000,1,,0019,,0
1,31dec7d9-a552-498b-92a4-2937ec3bbd4e,31dec7d9-a552-498b-92a4-2937ec3bbd4e,7,001,0,0,000,68001000108005900,0.0,2079-06-06,5-й,6820,6820,,,68240899001,68640499101,10,c7b468cd-a8a2-4b2d-a07b-8fd542ae51f2,108,680010001080059,392525,,68,ряд,2020-09-02,0059,,,2020-09-03,000,0000,000,1,,0019,,0
1,a7d601d9-c2da-4cdf-b0e1-efa12c07add8,a7d601d9-c2da-4cdf-b0e1-efa12c07add8,7,001,0,0,000,68001000108005500,0.0,2079-06-06,1-й,6820,6820,,,68240899001,68640499101,10,c7b468cd-a8a2-4b2d-a07b-8fd542ae51f2,108,680010001080055,392525,,68,ряд,2020-09-02,0055,,,2020-09-03,000,0000,000,1,,0019,,0
1,f35f0d62-8a5a-4fe3-9e6f-a1c1743d7a7a,f35f0d62-8a5a-4fe3-9e6f-a1c1743d7a7a,7,001,0,0,000,68001000108006300,0.0,2079-06-06,А,6820,6820,,,68240899001,68640499101,10,c7b468cd-a8a2-4b2d-a07b-8fd542ae51f2,108,680010001080063,392525,,68,ряд,2020-09-02,0063,,,2020-09-03,000,0000,000,1,,0019,,0
1,9b5d10d4-238b-4e35-adca-8512934b7118,9b5d10d4-238b-4e35-adca-8512934b7118,65,000,0,0,004,68000004000086600,0.0,2079-06-06,Патриот,6829,6829,,,68401000000,68701000001,10,ea2a1270-1e19-4224-b1a0-4228b9de3c7a,000,680000040000866,,,68,сквер,2020-08-14,0000,,,2020-08-16,000,0000,000,1,,0866,,0
0,0bdd71ac-db55-4070-a101-a91cd832dceb,0bdd71ac-db55-4070-a101-a91cd832dceb,90,000,0,0,004,68000004000081801,1.0,2016-09-28,Радуга-3,6829,6829,2b3455b6-7f50-4ffd-b589-88bce32a4f90,,68401000000,68701000,10,9f07d81a-9096-4e12-b4cb-5cf051d339b3,000,680000040000818,392000,,68,снт,1980-07-24,0211,,,2020-08-17,000,0000,000,0,,0000,,0
0,0bdd71ac-db55-4070-a101-a91cd832dceb,2b3455b6-7f50-4ffd-b589-88bce32a4f90,90,000,0,0,004,68000004000081802,2.0,2014-04-23,Радуга-3,6829,6829,9952a55a-96dc-4958-a0d1-9133caec2230,,68401360000,68701000,21,ea2a1270-1e19-4224-b1a0-4228b9de3c7a,000,680000040000818,392000,0bdd71ac-db55-4070-a101-a91cd832dceb,68,снт,2014-04-14,0000,,,2020-08-17,000,0000,000,0,,0818,,0
0,0bdd71ac-db55-4070-a101-a91cd832dceb,9952a55a-96dc-4958-a0d1-9133caec2230,90,000,0,0,004,68000004000081803,3.0,2016-09-28,Радуга-3,6829,6829,6dc0b67d-21ac-4810-90aa-2bfdc61a07ba,,68401000000,68701000001,21,ea2a1270-1e19-4224-b1a0-4228b9de3c7a,000,680000040000818,392000,2b3455b6-7f50-4ffd-b589-88bce32a4f90,68,снт,2014-04-23,0000,,,2020-08-17,000,0000,000,0,,0818,,0
0,0bdd71ac-db55-4070-a101-a91cd832dceb,6dc0b67d-21ac-4810-90aa-2bfdc61a07ba,90,000,0,0,004,68000004000081851,51.0,2016-09-28,Радуга-3,6829,6829,dfa08120-974a-4dce-b0f2-e78b683bc237,,68401000000,68701000001,20,ea2a1270-1e19-4224-b1a0-4228b9de3c7a,000,680000040000818,392000,9952a55a-96dc-4958-a0d1-9133caec2230,68,снт,2015-11-01,0000,,,2020-08-17,000,0000,000,0,f3cbbf88-cf5d-481f-aa3e-446979d6e5bf,0818,,0
0,0bdd71ac-db55-4070-a101-a91cd832dceb,dfa08120-974a-4dce-b0f2-e78b683bc237,65,000,0,0,004,68000004000081804,4.0,2020-08-17,Радуга-3,6829,6829,c6d6d4ff-97e1-4c21-9b4b-e710f16a1f79,,68401000000,68701000001,50,ea2a1270-1e19-4224-b1a0-4228b9de3c7a,000,680000040000818,392000,6dc0b67d-21ac-4810-90aa-2bfdc61a07ba,68,снт,2016-09-28,0000,,,2020-08-17,000,0000,000,0,,0818,,0
1,0bdd71ac-db55-4070-a101-a91cd832dceb,c6d6d4ff-97e1-4c21-9b4b-e710f16a1f79,65,000,0,0,004,68000004000081800,0.0,2079-06-06,Радуга 3,6829,6829,,,68401000000,68701000001,20,ea2a1270-1e19-4224-b1a0-4228b9de3c7a,000,680000040000818,392000,dfa08120-974a-4dce-b0f2-e78b683bc237,68,тер. СНТ,2020-08-17,0000,,,2020-08-17,000,0000,000,1,,0818,,0
1,88b789f0-a377-4221-bb64-3a38e89c9a95,88b789f0-a377-4221-bb64-3a38e89c9a95,65,001,0,0,000,68001000000014600,0.0,2079-06-06,Автодорога М6-Каспий-Р22,6820,6820,,,68240810000,68640410,10,70adc4a8-0c93-4940-9605-cf2e772c4133,000,680010000000146,,,68,тер.,2020-08-18,0000,,,2020-08-20,000,0000,000,1,,0146,,0
1,3de5ea07-ebc3-4252-9d84-4b60ab248502,3de5ea07-ebc3-4252-9d84-4b60ab248502,7,001,0,0,000,68001000000014700,0.0,2079-06-06,436-й,6820,6820,,,68240810000,68640410,10,88b789f0-a377-4221-bb64-3a38e89c9a95,000,680010000000147,,,68,км,2020-08-18,0147,,,2020-08-20,000,0000,000,1,,0146,,0
