ACTSTATUS,AOGUID,AOID,AOLEVEL,AREACODE,AUTOCODE,CENTSTATUS,CITYCODE,CODE,CURRSTATUS,ENDDATE,FORMALNAME,IFNSFL,IFNSUL,NEXTID,OFFNAME,OKATO,OKTMO,OPERSTATUS,PARENTGUID,PLACECODE,PLAINCODE,POSTALCODE,PREVID,REGIONCODE,SHORTNAME,STARTDATE,STREETCODE,TERRIFNSFL,TERRIFNSUL,UPDATEDATE,CTARCODE,EXTRCODE,SEXTCODE,LIVESTATUS,NORMDOC,PLANCODE,CADNUM,DIVTYPE
0,1b28c347-ec06-4741-a218-dd92b5e27c64,1b28c347-ec06-4741-a218-dd92b5e27c64,7,035,0,0,000,69035000000012751,51.0,2079-06-06,Берёзовая,6908,6908,53565969-3489-4ae7-9da5-6b0ed6d42975,,28256840002,28751000,10,749f0149-659a-4535-8749-cb250f1a8e82,000,690350000000127,171843,,69,ул,2020-02-28,0127,,,2020-08-30,000,0000,000,0,,0122,,0
1,1b28c347-ec06-4741-a218-dd92b5e27c64,53565969-3489-4ae7-9da5-6b0ed6d42975,7,000,0,0,007,69000007000025700,0.0,2079-06-06,Берёзовая,6908,6908,,,28256840002,28751000,50,749f0149-659a-4535-8749-cb250f1a8e82,000,690000070000257,171843,1b28c347-ec06-4741-a218-dd92b5e27c64,69,ул,2020-08-28,0257,,,2020-08-30,000,0000,000,1,dab05fd4-1fdf-4df2-a194-2345858e9a47,0256,,0
0,dc932be3-ef8b-4ee7-bdd4-0701d551caf8,02fa306f-4e3c-49d3-9e0f-a47e89f3a910,3,024,0,0,000,6902400000001,1.0,2020-08-27,Осташковский,6913,6913,81293dcf-df48-416d-ae6b-6ca6ddaade1c,,28245000000,,1,61723327-1c20-42fe-8dfa-402638d9b396,000,69024000000,,,69,р-н,1900-01-01,0000,,,2020-08-30,000,0000,000,0,,0000,,0
0,dc932be3-ef8b-4ee7-bdd4-0701d551caf8,81293dcf-df48-416d-ae6b-6ca6ddaade1c,3,024,0,0,000,6902400000099,99.0,2020-08-27,Осташковский,6913,6913,1aff4725-4436-4be9-a92f-3d682867b025,,28245000000,28645000,20,61723327-1c20-42fe-8dfa-402638d9b396,000,69024000000,,02fa306f-4e3c-49d3-9e0f-a47e89f3a910,69,р-н,2017-04-25,0000,,,2020-08-30,000,0000,000,0,196ee5c4-c9ba-4b97-aea4-164c54e7eea8,0000,,0
1,dc932be3-ef8b-4ee7-bdd4-0701d551caf8,1aff4725-4436-4be9-a92f-3d682867b025,3,024,0,0,000,6902400000099,99.0,2079-06-06,Осташковский,6913,6913,,,28245000000,28645000,30,61723327-1c20-42fe-8dfa-402638d9b396,000,69024000000,,81293dcf-df48-416d-ae6b-6ca6ddaade1c,69,р-н,2020-08-27,0000,,,2020-08-30,000,0000,000,0,8d6a6b54-c75a-41da-8351-6c0d3e4700d8,0000,,0
0,ef2f3f3a-ecfe-408d-8b76-28abbdc8214b,53e17c54-53be-40bd-818a-52a217629d35,7,003,0,0,000,69003000251000201,1.0,2079-06-06,Цветочная,6906,6906,d12e8f61-58da-4d29-845c-e2e2d9dd8aea,,28204808019,28604408,1,86ca4c6b-af5e-4bbf-93d4-914b96767de7,251,690030002510002,171949,,69,ул,1900-01-01,0002,,,2020-08-30,000,0000,000,0,,0000,,0
0,ef2f3f3a-ecfe-408d-8b76-28abbdc8214b,d12e8f61-58da-4d29-845c-e2e2d9dd8aea,7,003,0,0,000,69003000251000200,0.0,2079-06-06,Цветочная,6906,6906,25acda66-aa12-4253-bc24-18e9505bd4d8,,28204808019,28604408176,21,86ca4c6b-af5e-4bbf-93d4-914b96767de7,251,690030002510002,171949,53e17c54-53be-40bd-818a-52a217629d35,69,ул,2014-01-10,0002,,,2020-08-30,000,0000,000,0,,0000,,0
1,ef2f3f3a-ecfe-408d-8b76-28abbdc8214b,25acda66-aa12-4253-bc24-18e9505bd4d8,7,003,0,0,000,69003000251000200,0.0,2079-06-06,Цветочная,6906,6906,,,28204808019,28604408176,21,86ca4c6b-af5e-4bbf-93d4-914b96767de7,251,690030002510002,171949,d12e8f61-58da-4d29-845c-e2e2d9dd8aea,69,ул,2020-08-27,0002,,,2020-08-30,000,0000,000,1,,0000,,0
0,749f0149-659a-4535-8749-cb250f1a8e82,749f0149-659a-4535-8749-cb250f1a8e82,65,000,0,0,007,69035000000012251,51.0,2079-06-06,Бочурино,6908,6908,9b2a8efc-2eb3-4339-bbd7-02ec7bb91f0b,,28256840002,28751000,10,5bbf246a-6ff4-4050-9ea6-6d0b0a746651,000,690350000000122,171843,,69,тер,2019-11-01,0000,,,2020-08-30,000,0000,000,0,dab05fd4-1fdf-4df2-a194-2345858e9a47,0256,,0
1,749f0149-659a-4535-8749-cb250f1a8e82,9b2a8efc-2eb3-4339-bbd7-02ec7bb91f0b,65,000,0,0,007,69000007000025600,0.0,2079-06-06,Бочурино,6908,6908,,,28256840002,28751000,50,5bbf246a-6ff4-4050-9ea6-6d0b0a746651,000,690000070000256,171843,749f0149-659a-4535-8749-cb250f1a8e82,69,тер,2020-08-28,0000,,,2020-08-30,000,0000,000,1,dab05fd4-1fdf-4df2-a194-2345858e9a47,0256,,0
0,7e487558-3a51-4e52-bafc-d53d1ea2e5e0,7e487558-3a51-4e52-bafc-d53d1ea2e5e0,7,035,0,0,000,69035000000008551,51.0,2079-06-06,Таежная,6908,6908,b9e7f422-ccaf-45a9-9b2a-0b77a2002562,,28455000000,28751000,10,5a06593c-5fbb-44ab-b926-620124a7e074,000,690350000000085,171843,,69,ул,2018-11-22,0085,,,2020-09-03,000,0000,000,0,1da5bde9-7ba6-44e5-a56d-d6e1cc47ed17,0082,,0
1,7e487558-3a51-4e52-bafc-d53d1ea2e5e0,b9e7f422-ccaf-45a9-9b2a-0b77a2002562,7,000,0,0,007,69000007000025900,0.0,2079-06-06,Таежная,6908,6908,,,28455000000,28751000,50,5a06593c-5fbb-44ab-b926-620124a7e074,000,690000070000259,171843,7e487558-3a51-4e52-bafc-d53d1ea2e5e0,69,ул,2020-08-31,0259,,,2020-09-03,000,0000,000,1,85dfdfa8-1635-4af8-a746-395f2277b9c7,0258,,0
0,30b75dbf-d0d9-4859-9790-f9d50b18a331,30b75dbf-d0d9-4859-9790-f9d50b18a331,65,022,0,0,000,69022000000000501,1.0,2020-08-31,Нива,6912,6912,fe9efc08-2cf5-4443-8cf1-8de86edf9726,,28243820019,28643420181,10,a0dd8ac9-c407-4cf0-9c0b-825b99db92b4,000,690220000000005,172521,,69,тер. СНТ,2018-05-29,0000,,,2020-09-03,000,0000,000,0,2e84b355-201f-4281-88c0-a8f0d0b81fc0,0005,,0
0,30b75dbf-d0d9-4859-9790-f9d50b18a331,fe9efc08-2cf5-4443-8cf1-8de86edf9726,65,022,0,0,000,69022000000000599,99.0,2079-06-06,Нива,6912,6912,eac0df1d-d93b-46da-8d41-19e25c20003d,,28243820019,28759000641,21,a0dd8ac9-c407-4cf0-9c0b-825b99db92b4,000,690220000000005,172521,30b75dbf-d0d9-4859-9790-f9d50b18a331,69,тер. СНТ,2019-01-14,0000,,,2020-09-03,000,0000,000,0,2e84b355-201f-4281-88c0-a8f0d0b81fc0,0005,,0
1,30b75dbf-d0d9-4859-9790-f9d50b18a331,eac0df1d-d93b-46da-8d41-19e25c20003d,65,022,0,0,000,69022000000000599,99.0,2079-06-06,Нива,6912,6912,,,28243820019,28759000641,30,a0dd8ac9-c407-4cf0-9c0b-825b99db92b4,000,690220000000005,172521,fe9efc08-2cf5-4443-8cf1-8de86edf9726,69,тер. СНТ,2020-08-31,0000,,,2020-09-03,000,0000,000,0,,0005,,0
0,77a0361c-12d3-48b5-8a70-c1392bf9342d,77a0361c-12d3-48b5-8a70-c1392bf9342d,65,000,0,0,007,69035000000011351,51.0,2079-06-06,Гидротехнические сооружения КАЭС,6908,6908,e4ff3495-fd7d-489c-a848-f44cac39a4ec,,28256806001,28751000,10,5bbf246a-6ff4-4050-9ea6-6d0b0a746651,000,690350000000113,171854,,69,тер,2019-05-20,0000,,,2020-09-03,000,0000,000,0,ff56e709-5ad3-4c53-ba2c-c38bae73e2ee,0280,,0
1,77a0361c-12d3-48b5-8a70-c1392bf9342d,e4ff3495-fd7d-489c-a848-f44cac39a4ec,65,000,0,0,007,69000007000028000,0.0,2079-06-06,Гидротехнические сооружения КАЭС,6908,6908,,,28256806001,28751000,50,5bbf246a-6ff4-4050-9ea6-6d0b0a746651,000,690000070000280,171854,77a0361c-12d3-48b5-8a70-c1392bf9342d,69,тер,2020-08-31,0000,,,2020-09-03,000,0000,000,1,400cc52a-c878-4622-96cb-64f4ba0fe102,0280,,0
0,02e3d22c-0c83-47fa-b5bc-126a5b44a48a,02e3d22c-0c83-47fa-b5bc-126a5b44a48a,7,035,0,0,000,69035000000012051,51.0,2079-06-06,Цветочная,6908,6908,f87a3226-b065-4764-ad73-e6da8f92f8a1,,28455000000,28751000,10,fa4d43a1-afea-4a4f-93b3-955090b0e895,000,690350000000120,171843,,69,ул,2019-08-20,0120,,,2020-09-03,000,0000,000,0,3945a1a9-8dd5-4d2d-83b3-99b6f26857bf,0118,,0
1,02e3d22c-0c83-47fa-b5bc-126a5b44a48a,f87a3226-b065-4764-ad73-e6da8f92f8a1,7,000,0,0,007,69000007000026400,0.0,2079-06-06,Цветочная,6908,6908,,,28455000000,28751000,50,fa4d43a1-afea-4a4f-93b3-955090b0e895,000,690000070000264,171843,02e3d22c-0c83-47fa-b5bc-126a5b44a48a,69,ул,2020-08-31,0264,,,2020-09-03,000,0000,000,1,fe8bc034-2715-4e41-ad33-6e56f69aa5f3,0263,,0
0,9034e1b8-35da-4aec-915e-b48331428314,9034e1b8-35da-4aec-915e-b48331428314,65,000,0,0,007,69035000000008351,51.0,2079-06-06,Бриллиант,6908,6908,eb165c67-dcb4-431c-8d31-afda3a30740d,,28455000000,28751000,10,5bbf246a-6ff4-4050-9ea6-6d0b0a746651,000,690350000000083,171843,,69,тер. ДНП,2018-11-15,0000,,,2020-09-03,000,0000,000,0,c0c85db0-77d6-4f6e-92e9-9803ea6ad1d8,0278,,0
1,9034e1b8-35da-4aec-915e-b48331428314,eb165c67-dcb4-431c-8d31-afda3a30740d,65,000,0,0,007,69000007000027800,0.0,2079-06-06,Бриллиант,6908,6908,,,28455000000,28751000,50,5bbf246a-6ff4-4050-9ea6-6d0b0a746651,000,690000070000278,171843,9034e1b8-35da-4aec-915e-b48331428314,69,тер. ДНП,2020-08-31,0000,,,2020-09-03,000,0000,000,1,c0c85db0-77d6-4f6e-92e9-9803ea6ad1d8,0278,,0
0,9c6d97f0-e7b7-4510-a90a-1ef62b901e0c,9c6d97f0-e7b7-4510-a90a-1ef62b901e0c,65,000,0,0,007,69035000000009151,51.0,2079-06-06,Элегия 2,6908,6908,b949e1bf-1a60-4a81-a87a-d43ba923b3a6,,28455000000,28751000,10,5bbf246a-6ff4-4050-9ea6-6d0b0a746651,000,690350000000091,171843,,69,тер. ДНТ,2018-12-14,0000,,,2020-09-03,000,0000,000,0,8486a6fa-ff48-4fb9-9c33-86e1ea1f5795,0269,,0
1,9c6d97f0-e7b7-4510-a90a-1ef62b901e0c,b949e1bf-1a60-4a81-a87a-d43ba923b3a6,65,000,0,0,007,69000007000026900,0.0,2079-06-06,Элегия 2,6908,6908,,,28455000000,28751000,50,5bbf246a-6ff4-4050-9ea6-6d0b0a746651,000,690000070000269,171843,9c6d97f0-e7b7-4510-a90a-1ef62b901e0c,69,тер. ДНТ,2020-08-31,0000,,,2020-09-03,000,0000,000,1,8486a6fa-ff48-4fb9-9c33-86e1ea1f5795,0269,,0
0,a0dd8ac9-c407-4cf0-9c0b-825b99db92b4,ceddaec5-0813-4e62-b66b-dcf8a81c5509,3,022,0,0,000,6902200000099,99.0,2020-09-02,Нелидовский,6912,6912,81796d04-6b12-4c7a-80de-a233b185e0be,,28243000000,,1,61723327-1c20-42fe-8dfa-402638d9b396,000,69022000000,,,69,р-н,1900-01-01,0000,,,2020-09-03,000,0000,000,0,,0000,,0
1,a0dd8ac9-c407-4cf0-9c0b-825b99db92b4,81796d04-6b12-4c7a-80de-a233b185e0be,3,022,0,0,000,6902200000099,99.0,2079-06-06,Нелидовский,6912,6912,,,28243000000,,30,61723327-1c20-42fe-8dfa-402638d9b396,000,69022000000,,ceddaec5-0813-4e62-b66b-dcf8a81c5509,69,р-н,2020-09-02,0000,,,2020-09-03,000,0000,000,0,ae6940b3-79ab-4f72-ba6a-9558199f7a71,0000,,0
0,5efac72f-119e-4bb8-bf75-86c2f0a0c45b,5efac72f-119e-4bb8-bf75-86c2f0a0c45b,65,000,0,0,007,69035000000011251,51.0,2079-06-06,Подъездной ж/д путь к КАЭС,6908,6908,f3444538-2d8f-4047-be97-78a80f7c936b,,28256806001,28751000,10,5bbf246a-6ff4-4050-9ea6-6d0b0a746651,000,690350000000112,171854,,69,тер,2019-05-20,0000,,,2020-09-03,000,0000,000,0,28dd926d-23b1-409f-9c5e-d77bb3495876,0282,,0
1,5efac72f-119e-4bb8-bf75-86c2f0a0c45b,f3444538-2d8f-4047-be97-78a80f7c936b,65,000,0,0,007,69000007000028200,0.0,2079-06-06,Подъездной ж/д путь к КАЭС,6908,6908,,,28256806001,28751000,50,5bbf246a-6ff4-4050-9ea6-6d0b0a746651,000,690000070000282,171854,5efac72f-119e-4bb8-bf75-86c2f0a0c45b,69,тер,2020-08-31,0000,,,2020-09-03,000,0000,000,1,400cc52a-c878-4622-96cb-64f4ba0fe102,0282,,0
1,8d63ebd1-6f26-408b-8aa4-827401421c35,8d63ebd1-6f26-408b-8aa4-827401421c35,65,001,0,0,000,69001000000022900,0.0,2079-06-06,Петровская Горка,6949,6949,,,28220810014,28620410,10,df5569f0-3033-423a-89cd-d48cd95e14f3,000,690010000000229,,,69,тер.,2020-09-02,0000,,,2020-09-03,000,0000,000,1,,0229,,0
0,74374f19-1f85-4cc4-97a8-702fd8f7a710,74374f19-1f85-4cc4-97a8-702fd8f7a710,65,000,0,0,007,69035000000011651,51.0,2079-06-06,Полигон промышленных нерадиоактивных отходов КАЭС,6908,6908,6ff5a3fa-0eed-4a2b-ad4c-fbb4f7d69bf8,,28256806001,28751000,10,5bbf246a-6ff4-4050-9ea6-6d0b0a746651,000,690350000000116,171854,,69,тер,2019-05-20,0000,,,2020-09-03,000,0000,000,0,cc67a4be-d281-4fc2-b257-b3fe2ec51bf8,0283,,0
1,74374f19-1f85-4cc4-97a8-702fd8f7a710,6ff5a3fa-0eed-4a2b-ad4c-fbb4f7d69bf8,65,000,0,0,007,69000007000028300,0.0,2079-06-06,Полигон промышленных нерадиоактивных отходов КАЭС,6908,6908,,,28256806001,28751000,50,5bbf246a-6ff4-4050-9ea6-6d0b0a746651,000,690000070000283,171854,74374f19-1f85-4cc4-97a8-702fd8f7a710,69,тер,2020-08-31,0000,,,2020-09-03,000,0000,000,1,400cc52a-c878-4622-96cb-64f4ba0fe102,0283,,0
0,7c89efe6-0816-4abf-90ce-5f8f04fdcec3,7c89efe6-0816-4abf-90ce-5f8f04fdcec3,7,035,0,0,000,69035000000008751,51.0,2079-06-06,Придорожная,6908,6908,92fe7ebd-d0dc-4200-ac96-77c57888c92d,,28455000000,28751000,10,5a06593c-5fbb-44ab-b926-620124a7e074,000,690350000000087,171843,,69,ул,2018-11-22,0087,,,2020-09-03,000,0000,000,0,1cfd927c-17b1-4188-9a6f-f19f317085da,0082,,0
1,7c89efe6-0816-4abf-90ce-5f8f04fdcec3,92fe7ebd-d0dc-4200-ac96-77c57888c92d,7,000,0,0,007,69000007000026100,0.0,2079-06-06,Придорожная,6908,6908,,,28455000000,28751000,50,5a06593c-5fbb-44ab-b926-620124a7e074,000,690000070000261,171843,7c89efe6-0816-4abf-90ce-5f8f04fdcec3,69,ул,2020-08-31,0261,,,2020-09-03,000,0000,000,1,85dfdfa8-1635-4af8-a746-395f2277b9c7,0258,,0
0,6e772b6e-414f-4d9d-a13d-8175248b38e7,6e772b6e-414f-4d9d-a13d-8175248b38e7,65,000,0,0,007,69035000000011051,51.0,2079-06-06,Стрельбище КАЭС,6908,6908,7e63d44c-d866-45f6-86e6-7c55fba1f00a,,28256806001,28751000,10,5bbf246a-6ff4-4050-9ea6-6d0b0a746651,000,690350000000110,171854,,69,тер,2019-05-20,0000,,,2020-09-03,000,0000,000,0,12d7ab4e-f9f3-42d1-92ac-7857a1824e66,0284,,0
1,6e772b6e-414f-4d9d-a13d-8175248b38e7,7e63d44c-d866-45f6-86e6-7c55fba1f00a,65,000,0,0,007,69000007000028400,0.0,2079-06-06,Стрельбище КАЭС,6908,6908,,,28256806001,28751000,50,5bbf246a-6ff4-4050-9ea6-6d0b0a746651,000,690000070000284,171854,6e772b6e-414f-4d9d-a13d-8175248b38e7,69,тер,2020-08-31,0000,,,2020-09-03,000,0000,000,1,400cc52a-c878-4622-96cb-64f4ba0fe102,0284,,0
0,485a3b11-2576-4917-8a41-1c47e0bd4392,485a3b11-2576-4917-8a41-1c47e0bd4392,65,000,0,0,007,69035000000011451,51.0,2079-06-06,Электросетевое хозяйство КАЭС,6908,6908,37fa6b58-dee0-4e42-b4bf-9b5fc38f800f,,28256806001,28751000,10,5bbf246a-6ff4-4050-9ea6-6d0b0a746651,000,690350000000114,171854,,69,тер.,2019-05-20,0000,,,2020-09-03,000,0000,000,0,36ac0f91-071f-45e3-a912-88d22f12dd59,0285,,0
1,485a3b11-2576-4917-8a41-1c47e0bd4392,37fa6b58-dee0-4e42-b4bf-9b5fc38f800f,65,000,0,0,007,69000007000028500,0.0,2079-06-06,Электросетевое хозяйство КАЭС,6908,6908,,,28256806001,28751000,50,5bbf246a-6ff4-4050-9ea6-6d0b0a746651,000,690000070000285,171854,485a3b11-2576-4917-8a41-1c47e0bd4392,69,тер.,2020-08-31,0000,,,2020-09-03,000,0000,000,1,400cc52a-c878-4622-96cb-64f4ba0fe102,0285,,0
0,0d810a34-aac0-48a2-9f5a-4124769afac5,0d810a34-aac0-48a2-9f5a-4124769afac5,65,000,0,0,007,69035000000012351,51.0,2079-06-06,СОТ Отдых,6908,6908,8c756567-6e79-4797-88d8-d28ed95a561a,,28256830037,28751000,10,5bbf246a-6ff4-4050-9ea6-6d0b0a746651,000,690350000000123,171868,,69,тер,2019-11-20,0000,,,2020-09-03,000,0000,000,0,049124ab-f7f2-4473-8321-fe78b73e86e5,0275,,0
1,0d810a34-aac0-48a2-9f5a-4124769afac5,8c756567-6e79-4797-88d8-d28ed95a561a,65,000,0,0,007,69000007000027500,0.0,2079-06-06,СОТ Отдых,6908,6908,,,28256830037,28751000,50,5bbf246a-6ff4-4050-9ea6-6d0b0a746651,000,690000070000275,171868,0d810a34-aac0-48a2-9f5a-4124769afac5,69,тер,2020-08-31,0000,,,2020-09-03,000,0000,000,1,049124ab-f7f2-4473-8321-fe78b73e86e5,0275,,0
0,3681bbdc-4305-4620-a304-0ef8a2adf50b,3681bbdc-4305-4620-a304-0ef8a2adf50b,7,035,0,0,000,69035000000010051,51.0,2079-06-06,Счастливая,6908,6908,17e0cc37-c81d-46f9-ab26-367c4d65380e,,28455000000,28751000,10,9c6d97f0-e7b7-4510-a90a-1ef62b901e0c,000,690350000000100,171843,,69,ул,2019-04-16,0100,,,2020-09-03,000,0000,000,0,88e7b9be-ab05-4298-bbd2-1be2075c30cd,0091,,0
1,3681bbdc-4305-4620-a304-0ef8a2adf50b,17e0cc37-c81d-46f9-ab26-367c4d65380e,7,000,0,0,007,69000007000027000,0.0,2079-06-06,Счастливая,6908,6908,,,28455000000,28751000,50,9c6d97f0-e7b7-4510-a90a-1ef62b901e0c,000,690000070000270,171843,3681bbdc-4305-4620-a304-0ef8a2adf50b,69,ул,2020-08-31,0270,,,2020-09-03,000,0000,000,1,8486a6fa-ff48-4fb9-9c33-86e1ea1f5795,0269,,0
1,ddc02c98-5b7b-4f5d-8ab7-9dc324736076,ddc02c98-5b7b-4f5d-8ab7-9dc324736076,65,000,0,0,006,69000006000001500,0.0,2079-06-06,СНТ Зеркальце,6908,6908,,,28414000000,28714000,10,ac45dd91-33c1-4689-a48c-226c75dc752d,000,690000060000015,,,69,тер.,2020-08-31,0000,,,2020-09-03,000,0000,000,1,,0015,,0
0,12d4cf55-42b1-419e-878c-2391850c86ca,12d4cf55-42b1-419e-878c-2391850c86ca,7,035,0,0,000,69035000000008451,51.0,2079-06-06,Светлая,6908,6908,a94676a3-2d0f-440d-9d9b-7b63170d9ad9,,28455000000,28751000,10,5a06593c-5fbb-44ab-b926-620124a7e074,000,690350000000084,171843,,69,ул,2018-11-22,0084,,,2020-09-03,000,0000,000,0,8dcdbcb7-3e98-4e13-8886-0ee2d3818083,0082,,0
1,12d4cf55-42b1-419e-878c-2391850c86ca,a94676a3-2d0f-440d-9d9b-7b63170d9ad9,7,000,0,0,007,69000007000026200,0.0,2079-06-06,Светлая,6908,6908,,,28455000000,28751000,50,5a06593c-5fbb-44ab-b926-620124a7e074,000,690000070000262,171843,12d4cf55-42b1-419e-878c-2391850c86ca,69,ул,2020-08-31,0262,,,2020-09-03,000,0000,000,1,85dfdfa8-1635-4af8-a746-395f2277b9c7,0258,,0
0,1d795a18-7a35-46c0-858e-d6d271a90c97,1d795a18-7a35-46c0-858e-d6d271a90c97,7,035,0,0,000,69035000000008851,51.0,2079-06-06,Береговая,6908,6908,94e3f973-f185-4c95-ba07-efcef28ac194,,28455000000,28751000,10,9034e1b8-35da-4aec-915e-b48331428314,000,690350000000088,171843,,69,ул,2018-11-23,0088,,,2020-09-03,000,0000,000,0,f46b6835-230c-4758-9a91-4fadbcd26d3d,0083,,0
1,1d795a18-7a35-46c0-858e-d6d271a90c97,94e3f973-f185-4c95-ba07-efcef28ac194,7,000,0,0,007,69000007000027900,0.0,2079-06-06,Береговая,6908,6908,,,28455000000,28751000,50,9034e1b8-35da-4aec-915e-b48331428314,000,690000070000279,171843,1d795a18-7a35-46c0-858e-d6d271a90c97,69,ул,2020-08-31,0279,,,2020-09-03,000,0000,000,1,c0c85db0-77d6-4f6e-92e9-9803ea6ad1d8,0278,,0
0,fa4d43a1-afea-4a4f-93b3-955090b0e895,fa4d43a1-afea-4a4f-93b3-955090b0e895,65,000,0,0,007,69035000000011851,51.0,2079-06-06,Ясная Поляна,6908,6908,14d77897-719f-4a70-8540-e1fbf8a3778a,,28455000000,28751000,10,5bbf246a-6ff4-4050-9ea6-6d0b0a746651,000,690350000000118,171843,,69,тер,2019-08-07,0000,,,2020-09-03,000,0000,000,0,fe8bc034-2715-4e41-ad33-6e56f69aa5f3,0263,,0
1,fa4d43a1-afea-4a4f-93b3-955090b0e895,14d77897-719f-4a70-8540-e1fbf8a3778a,65,000,0,0,007,69000007000026300,0.0,2079-06-06,Ясная Поляна,6908,6908,,,28455000000,28751000,50,5bbf246a-6ff4-4050-9ea6-6d0b0a746651,000,690000070000263,171843,fa4d43a1-afea-4a4f-93b3-955090b0e895,69,тер,2020-08-31,0000,,,2020-09-03,000,0000,000,1,fe8bc034-2715-4e41-ad33-6e56f69aa5f3,0263,,0
0,5a06593c-5fbb-44ab-b926-620124a7e074,5a06593c-5fbb-44ab-b926-620124a7e074,65,000,0,0,007,69035000000008251,51.0,2079-06-06,Колос,6908,6908,0b488e33-ba05-44b5-a595-4776539d1860,,28455000000,28751000,10,5bbf246a-6ff4-4050-9ea6-6d0b0a746651,000,690350000000082,171843,,69,тер. ДНТ,2018-11-13,0000,,,2020-09-03,000,0000,000,0,85dfdfa8-1635-4af8-a746-395f2277b9c7,0258,,0
1,5a06593c-5fbb-44ab-b926-620124a7e074,0b488e33-ba05-44b5-a595-4776539d1860,65,000,0,0,007,69000007000025800,0.0,2079-06-06,Колос,6908,6908,,,28455000000,28751000,50,5bbf246a-6ff4-4050-9ea6-6d0b0a746651,000,690000070000258,171843,5a06593c-5fbb-44ab-b926-620124a7e074,69,тер. ДНТ,2020-08-31,0000,,,2020-09-03,000,0000,000,1,85dfdfa8-1635-4af8-a746-395f2277b9c7,0258,,0
0,0ad14ddd-d8e0-48aa-afd6-15410bef9a30,0ad14ddd-d8e0-48aa-afd6-15410bef9a30,65,000,0,0,007,69035000000010151,51.0,2079-06-06,Голубые озера,6908,6908,64a4c4c0-8c37-48eb-adcf-7d53cd7d16cd,,28256834007,28751000,10,5bbf246a-6ff4-4050-9ea6-6d0b0a746651,000,690350000000101,171852,,69,тер,2019-05-06,0000,,,2020-09-03,000,0000,000,0,b6c3f574-066c-4384-a3ad-5f7011e92b89,0273,,0
1,0ad14ddd-d8e0-48aa-afd6-15410bef9a30,64a4c4c0-8c37-48eb-adcf-7d53cd7d16cd,65,000,0,0,007,69000007000027300,0.0,2079-06-06,Голубые озера,6908,6908,,,28256834007,28751000,50,5bbf246a-6ff4-4050-9ea6-6d0b0a746651,000,690000070000273,171852,0ad14ddd-d8e0-48aa-afd6-15410bef9a30,69,тер,2020-08-31,0000,,,2020-09-03,000,0000,000,1,b6c3f574-066c-4384-a3ad-5f7011e92b89,0273,,0
0,907babcc-00ea-4952-b197-44dee70afd94,907babcc-00ea-4952-b197-44dee70afd94,65,000,0,0,007,69035000000011751,51.0,2079-06-06,Лесопитомник,6908,6908,35912bd0-b5b4-4d2f-a6b7-728115962cdb,,28455000000,28751000,10,5bbf246a-6ff4-4050-9ea6-6d0b0a746651,000,690350000000117,171843,,69,тер,2019-07-26,0000,,,2020-09-03,000,0000,000,0,9831d42b-4e04-40fb-80b6-de8cd3678fd6,0267,,0
1,907babcc-00ea-4952-b197-44dee70afd94,35912bd0-b5b4-4d2f-a6b7-728115962cdb,65,000,0,0,007,69000007000026700,0.0,2079-06-06,Лесопитомник,6908,6908,,,28455000000,28751000,50,5bbf246a-6ff4-4050-9ea6-6d0b0a746651,000,690000070000267,171843,907babcc-00ea-4952-b197-44dee70afd94,69,тер,2020-08-31,0000,,,2020-09-03,000,0000,000,1,9831d42b-4e04-40fb-80b6-de8cd3678fd6,0267,,0
0,8957ac39-472b-41fb-8d41-d372511ef704,8957ac39-472b-41fb-8d41-d372511ef704,65,000,0,0,007,69035000000009351,51.0,2079-06-06,Райский остров,6908,6908,089cb545-bcc7-489e-ac52-8e5b073e15f1,,28455000000,28751000,10,5bbf246a-6ff4-4050-9ea6-6d0b0a746651,000,690350000000093,171843,,69,тер. ДНП,2018-12-14,0000,,,2020-09-03,000,0000,000,0,33a01460-f204-46d2-aa2a-11af5296aee3,0272,,0
1,8957ac39-472b-41fb-8d41-d372511ef704,089cb545-bcc7-489e-ac52-8e5b073e15f1,65,000,0,0,007,69000007000027200,0.0,2079-06-06,Райский остров,6908,6908,,,28455000000,28751000,50,5bbf246a-6ff4-4050-9ea6-6d0b0a746651,000,690000070000272,171843,8957ac39-472b-41fb-8d41-d372511ef704,69,тер. ДНП,2020-08-31,0000,,,2020-09-03,000,0000,000,1,33a01460-f204-46d2-aa2a-11af5296aee3,0272,,0
0,4613face-d56f-486c-a6a8-f6980d24300f,4613face-d56f-486c-a6a8-f6980d24300f,7,035,0,0,000,69035000000008651,51.0,2079-06-06,Благодатная,6908,6908,3c686bdd-a6db-45d1-b439-543a62e20430,,28455000000,28751000,10,5a06593c-5fbb-44ab-b926-620124a7e074,000,690350000000086,171843,,69,ул,2018-11-22,0086,,,2020-09-03,000,0000,000,0,f1416fa9-cbd6-4000-a837-1cbfdfbdc6e5,0082,,0
1,4613face-d56f-486c-a6a8-f6980d24300f,3c686bdd-a6db-45d1-b439-543a62e20430,7,000,0,0,007,69000007000026000,0.0,2079-06-06,Благодатная,6908,6908,,,28455000000,28751000,50,5a06593c-5fbb-44ab-b926-620124a7e074,000,690000070000260,171843,4613face-d56f-486c-a6a8-f6980d24300f,69,ул,2020-08-31,0260,,,2020-09-03,000,0000,000,1,85dfdfa8-1635-4af8-a746-395f2277b9c7,0258,,0
0,43832af6-a2d8-4b78-949d-7b2971e07378,43832af6-a2d8-4b78-949d-7b2971e07378,65,000,0,0,007,69035000000012151,51.0,2079-06-06,Атомгидромонтаж,6908,6908,b8781576-698b-4c1d-a9ba-5b43b7bcf649,,28455000000,28751000,10,5bbf246a-6ff4-4050-9ea6-6d0b0a746651,000,690350000000121,,,69,тер.,2019-10-04,0000,,,2020-09-03,000,0000,000,0,a9b6b7b6-6d0c-4cc2-aca0-b1d8d25ad539,0276,,0
1,43832af6-a2d8-4b78-949d-7b2971e07378,b8781576-698b-4c1d-a9ba-5b43b7bcf649,65,000,0,0,007,69000007000027600,0.0,2079-06-06,Атомгидромонтаж,6908,6908,,,28455000000,28751000,50,5bbf246a-6ff4-4050-9ea6-6d0b0a746651,000,690000070000276,,43832af6-a2d8-4b78-949d-7b2971e07378,69,тер.,2020-08-31,0000,,,2020-09-03,000,0000,000,1,a9b6b7b6-6d0c-4cc2-aca0-b1d8d25ad539,0276,,0
0,29f831da-3873-45bf-ba69-8664cde7d6ee,29f831da-3873-45bf-ba69-8664cde7d6ee,7,035,0,0,000,69035000000011951,51.0,2079-06-06,Солнечная,6908,6908,a2c33b70-086e-44f8-b3d7-6c39493e9491,,28455000000,28751000,10,fa4d43a1-afea-4a4f-93b3-955090b0e895,000,690350000000119,171843,,69,ул,2019-08-20,0119,,,2020-09-03,000,0000,000,0,3fd42392-c6ec-4de1-8d42-d39dc5395361,0118,,0
1,29f831da-3873-45bf-ba69-8664cde7d6ee,a2c33b70-086e-44f8-b3d7-6c39493e9491,7,000,0,0,007,69000007000026500,0.0,2079-06-06,Солнечная,6908,6908,,,28455000000,28751000,50,fa4d43a1-afea-4a4f-93b3-955090b0e895,000,690000070000265,171843,29f831da-3873-45bf-ba69-8664cde7d6ee,69,ул,2020-08-31,0265,,,2020-09-03,000,0000,000,1,fe8bc034-2715-4e41-ad33-6e56f69aa5f3,0263,,0
0,6bbcfcaa-6efb-48ae-b4da-a94b1c1dc490,6bbcfcaa-6efb-48ae-b4da-a94b1c1dc490,65,000,0,0,007,69035000000011551,51.0,2079-06-06,Водозаборные сооружения КАЭС,6908,6908,96e240f4-c027-408b-833a-29df208aa163,,28256806001,28751000,10,5bbf246a-6ff4-4050-9ea6-6d0b0a746651,000,690350000000115,171854,,69,тер,2019-05-20,0000,,,2020-09-03,000,0000,000,0,cafa4b2f-de72-454c-8b53-8aca1a7c685b,0277,,0
1,6bbcfcaa-6efb-48ae-b4da-a94b1c1dc490,96e240f4-c027-408b-833a-29df208aa163,65,000,0,0,007,69000007000027700,0.0,2079-06-06,Водозаборные сооружения КАЭС,6908,6908,,,28256806001,28751000,50,5bbf246a-6ff4-4050-9ea6-6d0b0a746651,000,690000070000277,171854,6bbcfcaa-6efb-48ae-b4da-a94b1c1dc490,69,тер,2020-08-31,0000,,,2020-09-03,000,0000,000,1,400cc52a-c878-4622-96cb-64f4ba0fe102,0277,,0
0,cdfeb453-3cbe-4701-8e1f-338aa5ae7b25,cdfeb453-3cbe-4701-8e1f-338aa5ae7b25,65,000,0,0,007,69035000000012451,51.0,2079-06-06,Металлист,6908,6908,248f607f-eec0-49fb-ae38-5a43103c5f15,,28256830000,28751000,10,5bbf246a-6ff4-4050-9ea6-6d0b0a746651,000,690350000000124,171868,,69,тер,2019-12-03,0000,,,2020-09-03,000,0000,000,0,4a655081-74f4-4007-8e6f-7885d70c41aa,0274,,0
1,cdfeb453-3cbe-4701-8e1f-338aa5ae7b25,248f607f-eec0-49fb-ae38-5a43103c5f15,65,000,0,0,007,69000007000027400,0.0,2079-06-06,Металлист,6908,6908,,,28256830000,28751000,50,5bbf246a-6ff4-4050-9ea6-6d0b0a746651,000,690000070000274,171868,cdfeb453-3cbe-4701-8e1f-338aa5ae7b25,69,тер,2020-08-31,0000,,,2020-09-03,000,0000,000,1,4a655081-74f4-4007-8e6f-7885d70c41aa,0274,,0
1,d63d1293-1be7-48ba-91ac-dec1485cbf6d,d63d1293-1be7-48ba-91ac-dec1485cbf6d,65,000,0,0,006,69000006000001400,0.0,2079-06-06,СНТ Глубинка,6908,6908,,,28414000000,28714000,10,ac45dd91-33c1-4689-a48c-226c75dc752d,000,690000060000014,,,69,тер.,2020-08-31,0000,,,2020-09-03,000,0000,000,1,,0014,,0
0,4b1c9a4b-e8a8-46f7-9aa3-862ce0cdf55a,4b1c9a4b-e8a8-46f7-9aa3-862ce0cdf55a,65,000,0,0,007,69035000000012551,51.0,2079-06-06,кладбища п. Брусово,6908,6908,6ed24a71-eead-4b51-ac7c-676fc85c0e1a,,28256804000,28751000,10,5bbf246a-6ff4-4050-9ea6-6d0b0a746651,000,690350000000125,171870,,69,тер.,2020-03-11,0000,,,2020-09-03,000,0000,000,0,,0266,,0
1,4b1c9a4b-e8a8-46f7-9aa3-862ce0cdf55a,6ed24a71-eead-4b51-ac7c-676fc85c0e1a,65,000,0,0,007,69000007000026600,0.0,2079-06-06,кладбища п. Брусово,6908,6908,,,28256804000,28751000,50,5bbf246a-6ff4-4050-9ea6-6d0b0a746651,000,690000070000266,171870,4b1c9a4b-e8a8-46f7-9aa3-862ce0cdf55a,69,тер.,2020-08-31,0000,,,2020-09-03,000,0000,000,1,,0266,,0
0,8f32113e-aaea-421c-bebe-9c7052f6d987,49946fbc-3a8e-45ba-9cb8-ecd982f2959f,7,012,0,0,008,69012008029000201,1.0,2079-06-06,Садовая,6910,6910,da014c2e-8ff6-4641-a680-12bc0ff70372,,28224819030,28624419,1,1561c55d-3df9-44d2-b8a9-f7a540279f71,029,690120080290002,171638,,69,ул,1900-01-01,0002,6909,6909,2020-09-03,000,0000,000,0,,0000,,0
0,8f32113e-aaea-421c-bebe-9c7052f6d987,da014c2e-8ff6-4641-a680-12bc0ff70372,7,000,0,0,009,69012008029000202,2.0,2019-01-14,Садовая,6910,6910,8287984d-2a17-48cd-9e67-dd761f3b6bf5,,28224819030,28624419241,21,1561c55d-3df9-44d2-b8a9-f7a540279f71,268,690120080290002,,49946fbc-3a8e-45ba-9cb8-ecd982f2959f,69,ул,2014-01-10,0002,,,2020-09-03,000,0000,000,0,,0000,,0
0,8f32113e-aaea-421c-bebe-9c7052f6d987,8287984d-2a17-48cd-9e67-dd761f3b6bf5,7,000,0,0,009,69012008029000251,51.0,2019-01-30,Садовая,6910,6910,cd9d9ab5-f742-4ff5-aa98-31ca0fa27ded,,28224819030,28758000329,21,1561c55d-3df9-44d2-b8a9-f7a540279f71,268,690120080290002,,da014c2e-8ff6-4641-a680-12bc0ff70372,69,ул,2019-01-14,0002,,,2020-09-03,000,0000,000,0,,0000,,0
0,8f32113e-aaea-421c-bebe-9c7052f6d987,cd9d9ab5-f742-4ff5-aa98-31ca0fa27ded,7,000,0,0,009,69000009268000200,0.0,2020-09-01,Садовая,6910,6910,4735b058-fd5a-4497-bd41-1f51dd7b1031,,28224819030,28758000329,51,1561c55d-3df9-44d2-b8a9-f7a540279f71,268,690000092680002,,8287984d-2a17-48cd-9e67-dd761f3b6bf5,69,ул,2019-01-30,0002,,,2020-09-03,000,0000,000,0,42e1c84d-8e3e-45b2-afe9-abacd2d70c74,0000,,0
1,8f32113e-aaea-421c-bebe-9c7052f6d987,4735b058-fd5a-4497-bd41-1f51dd7b1031,7,000,0,0,009,69000009268000200,0.0,2079-06-06,Садовая,6910,6910,,,28224819030,28758000329,20,1561c55d-3df9-44d2-b8a9-f7a540279f71,268,690000092680002,,cd9d9ab5-f742-4ff5-aa98-31ca0fa27ded,69,ул,2020-09-01,0002,,,2020-09-03,000,0000,000,1,,0000,,0
0,e5811463-5eaf-4846-87d8-dfe4e9db0027,e5811463-5eaf-4846-87d8-dfe4e9db0027,65,022,0,0,000,69022000000001501,1.0,2020-09-01,Нива,6912,6912,8bd8b4e6-65d4-4ac1-b545-2de7ebf3d583,,28243820006,28643420126,10,a0dd8ac9-c407-4cf0-9c0b-825b99db92b4,000,690220000000015,172521,,69,тер. СНТ,2018-06-06,0000,,,2020-09-03,000,0000,000,0,2e84b355-201f-4281-88c0-a8f0d0b81fc0,0015,,0
0,e5811463-5eaf-4846-87d8-dfe4e9db0027,8bd8b4e6-65d4-4ac1-b545-2de7ebf3d583,65,022,0,0,000,69022000000001599,99.0,2079-06-06,Нива,6912,6912,c69cf1f5-cc25-44d9-be93-142f87e99d15,,28243820006,28759000221,21,a0dd8ac9-c407-4cf0-9c0b-825b99db92b4,000,690220000000015,172521,e5811463-5eaf-4846-87d8-dfe4e9db0027,69,тер. СНТ,2019-01-14,0000,,,2020-09-03,000,0000,000,0,2e84b355-201f-4281-88c0-a8f0d0b81fc0,0015,,0
1,e5811463-5eaf-4846-87d8-dfe4e9db0027,c69cf1f5-cc25-44d9-be93-142f87e99d15,65,022,0,0,000,69022000000001599,99.0,2079-06-06,Нива,6912,6912,,,28243820006,28759000221,30,a0dd8ac9-c407-4cf0-9c0b-825b99db92b4,000,690220000000015,172521,8bd8b4e6-65d4-4ac1-b545-2de7ebf3d583,69,тер. СНТ,2020-09-01,0000,,,2020-09-03,000,0000,000,0,,0015,,0
0,1fe9d4b1-8aff-4f33-be66-3cb1dfe39953,1fe9d4b1-8aff-4f33-be66-3cb1dfe39953,65,000,0,0,007,69035000000009251,51.0,2079-06-06,Федневское,6908,6908,f73e8e99-1444-44d6-982a-4dd2ebbe2745,,28455000000,28751000,10,5bbf246a-6ff4-4050-9ea6-6d0b0a746651,000,690350000000092,171843,,69,тер. ДНП,2018-12-14,0000,,,2020-09-03,000,0000,000,0,1cf863bf-7e6b-4288-98ed-712e5b94e42d,0271,,0
1,1fe9d4b1-8aff-4f33-be66-3cb1dfe39953,f73e8e99-1444-44d6-982a-4dd2ebbe2745,65,000,0,0,007,69000007000027100,0.0,2079-06-06,Федневское,6908,6908,,,28455000000,28751000,50,5bbf246a-6ff4-4050-9ea6-6d0b0a746651,000,690000070000271,171843,1fe9d4b1-8aff-4f33-be66-3cb1dfe39953,69,тер. ДНП,2020-08-31,0000,,,2020-09-03,000,0000,000,1,1cf863bf-7e6b-4288-98ed-712e5b94e42d,0271,,0
0,95c4923c-6136-4611-b063-88a6943a2e96,95c4923c-6136-4611-b063-88a6943a2e96,65,000,0,0,007,69035000000011151,51.0,2079-06-06,Подъездная автодорога Удомля-КАЭС,6908,6908,50b2a67d-0704-4229-9708-9a7692fc08dd,,28256806001,28751000,10,5bbf246a-6ff4-4050-9ea6-6d0b0a746651,000,690350000000111,171854,,69,тер,2019-05-20,0000,,,2020-09-03,000,0000,000,0,400cc52a-c878-4622-96cb-64f4ba0fe102,0281,,0
1,95c4923c-6136-4611-b063-88a6943a2e96,50b2a67d-0704-4229-9708-9a7692fc08dd,65,000,0,0,007,69000007000028100,0.0,2079-06-06,Подъездная автодорога Удомля-КАЭС,6908,6908,,,28256806001,28751000,50,5bbf246a-6ff4-4050-9ea6-6d0b0a746651,000,690000070000281,171854,95c4923c-6136-4611-b063-88a6943a2e96,69,тер,2020-08-31,0000,,,2020-09-03,000,0000,000,1,400cc52a-c878-4622-96cb-64f4ba0fe102,0281,,0
0,187c08bb-c716-4eba-8250-96a3dc3b37f9,52acd1f7-2335-4e53-a25d-7c9669287626,6,011,0,0,013,6901101302401,1.0,2079-06-06,Буян,6910,6910,392666c3-2ed1-4b24-b4b9-8ffe9b06e77e,,28222824003,28622424,1,1c887301-5768-47b3-afbc-5ee2aca3f01a,024,69011013024,171560,,69,д,1900-01-01,0000,6925,6925,2020-09-03,000,0000,000,0,,0000,,0
0,187c08bb-c716-4eba-8250-96a3dc3b37f9,392666c3-2ed1-4b24-b4b9-8ffe9b06e77e,6,011,0,0,013,6901100033451,51.0,1900-01-01,Буян,6925,6925,,,28222824003,28622424,1,1c887301-5768-47b3-afbc-5ee2aca3f01a,024,69011000334,171560,52acd1f7-2335-4e53-a25d-7c9669287626,69,д,1900-01-01,0000,,,2020-09-03,000,0000,000,0,,0000,,0
1,187c08bb-c716-4eba-8250-96a3dc3b37f9,fb04415c-e180-4b6f-8021-b64f455b9212,6,011,0,0,013,6901101302400,0.0,2079-06-06,Буян,6910,6910,,,28222824003,28622424116,21,1c887301-5768-47b3-afbc-5ee2aca3f01a,024,69011013024,171560,52acd1f7-2335-4e53-a25d-7c9669287626,69,д,2014-01-10,0000,6925,6925,2020-09-03,000,0000,000,1,,0000,,0
0,5e67263c-2f03-413e-92b5-b668f1d56b46,5e67263c-2f03-413e-92b5-b668f1d56b46,65,000,0,0,007,69035000000008951,51.0,2079-06-06,м. Найденка,6908,6908,633cdcfa-44bf-484b-9c8f-25339b196c2d,,28455000000,28751000,10,5bbf246a-6ff4-4050-9ea6-6d0b0a746651,000,690350000000089,171843,,69,тер,2018-12-11,0000,,,2020-09-03,000,0000,000,0,05a9c266-8b2b-4109-a3ac-2d5000c6703d,0268,,0
1,5e67263c-2f03-413e-92b5-b668f1d56b46,633cdcfa-44bf-484b-9c8f-25339b196c2d,65,000,0,0,007,69000007000026800,0.0,2079-06-06,м. Найденка,6908,6908,,,28455000000,28751000,50,5bbf246a-6ff4-4050-9ea6-6d0b0a746651,000,690000070000268,171843,5e67263c-2f03-413e-92b5-b668f1d56b46,69,тер,2020-08-31,0000,,,2020-09-03,000,0000,000,1,05a9c266-8b2b-4109-a3ac-2d5000c6703d,0268,,0
0,ee6c4e35-8148-4d53-b18f-ad4a5bb3e59d,ee6c4e35-8148-4d53-b18f-ad4a5bb3e59d,90,000,0,0,001,69000001000003851,51.0,2016-09-29,Тверца,6952,6952,a19d57be-2df4-480c-815e-d83c1b3e8464,,28401000000,28701000,10,c52ea942-555e-45c6-9751-58897717b02f,000,690000010000038,170000,,69,снт,1900-01-01,0000,,,2020-09-03,000,0000,000,0,,0000,,0
0,ee6c4e35-8148-4d53-b18f-ad4a5bb3e59d,a19d57be-2df4-480c-815e-d83c1b3e8464,65,000,0,0,001,69000001000003801,1.0,2020-08-31,Тверца,6952,6952,51f36948-e876-4b18-949b-8de0e2ee968f,,28401000000,28701000,50,c52ea942-555e-45c6-9751-58897717b02f,000,690000010000038,170000,ee6c4e35-8148-4d53-b18f-ad4a5bb3e59d,69,снт,2016-09-29,0000,,,2020-09-03,000,0000,000,0,,0038,,0
1,ee6c4e35-8148-4d53-b18f-ad4a5bb3e59d,51f36948-e876-4b18-949b-8de0e2ee968f,65,000,0,0,001,69000001000003800,0.0,2079-06-06,Тверца,6952,6952,,,28401000000,28701000001,20,c52ea942-555e-45c6-9751-58897717b02f,000,690000010000038,170000,a19d57be-2df4-480c-815e-d83c1b3e8464,69,тер. СНТ,2020-08-31,0000,,,2020-09-03,000,0000,000,1,,0038,,0
0,08eeb734-3f53-489a-b65d-ff558dcb8bc3,08eeb734-3f53-489a-b65d-ff558dcb8bc3,65,009,0,0,000,69009000033000199,99.0,2020-08-14,Дорога Москва Балтия 372 км.,6912,6912,7bdf41a5-dac0-4bc7-a5de-fbce3a2d1dd1,,28216826030,28616426246,10,9cc30384-477a-4357-9ecb-843d550bd18e,033,690090000330001,172620,,69,тер.,2017-06-20,0000,,,2020-08-16,000,0000,000,0,8d38fc18-609f-4594-8dba-58c73d2032e3,0001,,0
1,08eeb734-3f53-489a-b65d-ff558dcb8bc3,7bdf41a5-dac0-4bc7-a5de-fbce3a2d1dd1,65,009,0,0,000,69009000033000199,99.0,2079-06-06,Дорога Москва Балтия 372 км.,6912,6912,,,28216826030,28616426246,30,9cc30384-477a-4357-9ecb-843d550bd18e,033,690090000330001,172620,08eeb734-3f53-489a-b65d-ff558dcb8bc3,69,тер.,2020-08-14,0000,,,2020-08-16,000,0000,000,0,,0001,,0
1,2ef63c8b-ba1c-412f-a877-4b27cc5a80a6,2ef63c8b-ba1c-412f-a877-4b27cc5a80a6,7,001,0,0,000,69001000069000700,0.0,2079-06-06,Барабанный,6949,6949,,,28220840004,28620440116,10,48ea65b9-a7e6-4f19-a205-1d20483939ff,069,690010000690007,,,69,пер,2020-08-18,0007,,,2020-08-20,000,0000,000,1,,0000,,0
1,05103004-8115-468e-8ee5-25d418900136,05103004-8115-468e-8ee5-25d418900136,7,000,0,0,003,69000003000032600,0.0,2079-06-06,Ягодная,6914,6914,,,28445000000,28745000001,10,2553804d-14b9-4f5b-8bd0-25c0fc7315ae,000,690000030000326,,,69,ул,2020-08-18,0326,,,2020-08-20,000,0000,000,1,,0000,,0
1,a1c588de-f525-4191-b481-b6e90635fc52,a1c588de-f525-4191-b481-b6e90635fc52,7,000,0,0,003,69000003000032700,0.0,2079-06-06,Парковая,6914,6914,,,28445000000,28745000001,10,2553804d-14b9-4f5b-8bd0-25c0fc7315ae,000,690000030000327,,,69,ул,2020-08-18,0327,,,2020-08-20,000,0000,000,1,,0000,,0
1,fbab9ee3-f71e-4f06-9310-37413d081d69,fbab9ee3-f71e-4f06-9310-37413d081d69,7,001,0,0,000,69001000405000300,0.0,2079-06-06,Яблочная,6949,6949,,,28220826021,28620426196,10,0c695ee6-1ef7-4e94-afaa-d29da1bd37e1,405,690010004050003,170552,,69,ул,2020-08-19,0003,,,2020-08-20,000,0000,000,1,,0000,,0
1,d0cb1c7a-e9c7-4c84-8f8f-9e568fa4406d,d0cb1c7a-e9c7-4c84-8f8f-9e568fa4406d,7,001,0,0,000,69001000231001900,0.0,2079-06-06,Невская,6949,6949,,,28220848009,28620448131,10,f41a98d0-6ba6-4f6d-813c-6fa7ed13bff8,231,690010002310019,,,69,ул,2020-08-20,0019,,,2020-08-22,000,0000,000,1,,0000,,0
1,c4dc91f4-6e1e-46aa-b172-67fab7265fa8,c4dc91f4-6e1e-46aa-b172-67fab7265fa8,65,015,0,0,000,69015000000042000,0.0,2079-06-06,СХП Партнер,6949,6949,,,28230804000,28630404,10,e0c911ee-c77a-4719-a5e3-09e99b683570,000,690150000000420,,,69,тер.,2020-08-20,0000,,,2020-08-22,000,0000,000,1,,0420,,0
1,62d5230e-8d13-45b6-92a4-80f22b2102f4,62d5230e-8d13-45b6-92a4-80f22b2102f4,65,000,0,0,007,69000007000025500,0.0,2079-06-06,Тараки,6908,6908,,,28455000000,28751000,10,5bbf246a-6ff4-4050-9ea6-6d0b0a746651,000,690000070000255,,,69,тер.,2020-08-21,0000,,,2020-08-22,000,0000,000,1,,0255,,0
1,55f22df6-77ad-4c9d-8434-239ac7e3f865,55f22df6-77ad-4c9d-8434-239ac7e3f865,65,015,0,0,000,69015000024000300,0.0,2079-06-06,Комплекс КРС,6949,6949,,,28230812004,28630412116,10,befe238d-eeaf-4c2b-884e-a93c9975e774,024,690150000240003,,,69,тер.,2020-08-24,0000,,,2020-08-27,000,0000,000,1,,0003,,0
0,27de51be-c0f7-4971-b323-95e3d2668493,a45dec05-81f1-4273-bfb8-e12799f50b56,6,009,0,0,000,6900900028599,99.0,2020-08-25,Поздняково,6912,6912,b10be8ab-68e5-401f-b32a-3210803b8172,,28216800000,,1,8ebf6e4d-22da-4b42-95be-934125432bfa,285,69009000285,172640,,69,д,1900-01-01,0000,6922,6922,2020-08-27,000,0000,000,0,,0000,,0
1,27de51be-c0f7-4971-b323-95e3d2668493,b10be8ab-68e5-401f-b32a-3210803b8172,6,009,0,0,000,6900900028599,99.0,2079-06-06,Поздняково,6912,6912,,,28216800000,,30,8ebf6e4d-22da-4b42-95be-934125432bfa,285,69009000285,172640,a45dec05-81f1-4273-bfb8-e12799f50b56,69,д,2020-08-25,0000,6922,6922,2020-08-27,000,0000,000,0,,0000,,0
0,3a0f242d-e729-4fe3-b1eb-ce2db43155cc,0220713e-9b6c-404b-9b3c-9407c4e0cc12,6,029,0,0,000,6902900045799,99.0,2020-08-26,Лукома,6913,6913,3257acb3-6541-4948-968a-0b7ac2096bb8,,28250800000,,1,7cd8b4c8-4053-4124-a1e2-c6d98cb6d8fb,457,69029000457,172230,,69,нп,1900-01-01,0000,6939,6939,2020-08-27,000,0000,000,0,,0000,,0
1,3a0f242d-e729-4fe3-b1eb-ce2db43155cc,3257acb3-6541-4948-968a-0b7ac2096bb8,6,029,0,0,000,6902900045799,99.0,2079-06-06,Лукома,6913,6913,,,28250800000,,30,7cd8b4c8-4053-4124-a1e2-c6d98cb6d8fb,457,69029000457,172230,0220713e-9b6c-404b-9b3c-9407c4e0cc12,69,нп,2020-08-26,0000,6939,6939,2020-08-27,000,0000,000,0,65bdff34-eb70-4bc9-8f5e-b2703b907ad7,0000,,0
0,00cc3378-16e4-4374-b662-93efffe641d7,a46ef215-aea3-4cdc-8fa7-218c4e529247,6,008,0,0,000,6900800003101,1.0,2079-06-06,Гряда,6912,6912,64ee832a-df94-4650-b1dc-89280ab3114c,,28214832003,28614432,1,5ae0d543-700a-4f80-ab60-5bd1560059ff,031,69008000031,172461,,69,д,1900-01-01,0000,6921,6921,2020-08-27,000,0000,000,0,,0000,,0
0,00cc3378-16e4-4374-b662-93efffe641d7,64ee832a-df94-4650-b1dc-89280ab3114c,6,008,0,0,000,6900800003100,0.0,2020-08-26,Гряда,6912,6912,a80561fa-be47-4db1-ab62-fea4e4367ff8,,28214832003,28614432,21,5ae0d543-700a-4f80-ab60-5bd1560059ff,031,69008000031,,a46ef215-aea3-4cdc-8fa7-218c4e529247,69,д,2014-10-31,0000,6921,6921,2020-08-27,000,0000,000,0,,0000,,0
1,00cc3378-16e4-4374-b662-93efffe641d7,a80561fa-be47-4db1-ab62-fea4e4367ff8,6,008,0,0,000,6900800003100,0.0,2079-06-06,Гряда,6912,6912,,,28214832003,28614440122,20,5ae0d543-700a-4f80-ab60-5bd1560059ff,031,69008000031,,64ee832a-df94-4650-b1dc-89280ab3114c,69,д,2020-08-26,0000,6921,6921,2020-08-27,000,0000,000,1,,0000,,0
1,6a0950c5-363f-4118-b046-704d83bcd2ef,6a0950c5-363f-4118-b046-704d83bcd2ef,7,001,0,0,000,69001000313003400,0.0,2079-06-06,Придорожная,6949,6949,,,28220808034,28620408266,10,bc8df59d-872d-4820-ba2b-e79a84abfee1,313,690010003130034,,,69,ул,2020-08-24,0034,,,2020-08-27,000,0000,000,1,,0000,,0
0,2ea336a2-d00f-4708-b672-4cb530f60de9,f4d12faa-8a5e-4081-949c-efc0bbaaea42,6,009,0,0,000,6900900028499,99.0,2020-08-25,Казачково,6912,6912,69106513-1520-45d4-af1e-58192e4f66f4,,28216800000,,1,8ebf6e4d-22da-4b42-95be-934125432bfa,284,69009000284,172632,,69,д,1900-01-01,0000,6922,6922,2020-08-27,000,0000,000,0,,0000,,0
1,2ea336a2-d00f-4708-b672-4cb530f60de9,69106513-1520-45d4-af1e-58192e4f66f4,6,009,0,0,000,6900900028499,99.0,2079-06-06,Казачково,6912,6912,,,28216800000,,30,8ebf6e4d-22da-4b42-95be-934125432bfa,284,69009000284,172632,f4d12faa-8a5e-4081-949c-efc0bbaaea42,69,д,2020-08-25,0000,6922,6922,2020-08-27,000,0000,000,0,,0000,,0
1,34f0d866-dfad-4b56-acc1-35ea31a3b92c,34f0d866-dfad-4b56-acc1-35ea31a3b92c,7,001,0,0,000,69001000085000800,0.0,2079-06-06,Тихая,6949,6949,,,28220808025,28620408221,10,555b4f00-aed9-4325-8950-712fe5f637c5,085,690010000850008,170540,,69,ул,2020-08-24,0008,,,2020-08-27,000,0000,000,1,,0000,,0
0,c450bf1e-c794-4585-ac1a-66becd15caf5,5ae5dd47-da6a-4d29-83f3-be9b6b0e9097,6,024,0,0,000,6902400005801,1.0,2020-08-26,Дубье,6913,6913,5fd8d279-93a5-4b60-9d45-3336d90e4bc4,,28245806001,28645406,1,dc932be3-ef8b-4ee7-bdd4-0701d551caf8,058,69024000058,172765,,69,х,1900-01-01,0000,,,2020-08-27,000,0000,000,0,,0000,,0
0,c450bf1e-c794-4585-ac1a-66becd15caf5,5fd8d279-93a5-4b60-9d45-3336d90e4bc4,6,024,0,0,000,6902400005802,2.0,2018-01-16,Дубье,6913,6913,66a106f5-b0b6-4e53-91b2-7725653508cb,,28245806001,28645406101,21,dc932be3-ef8b-4ee7-bdd4-0701d551caf8,058,69024000058,172765,5ae5dd47-da6a-4d29-83f3-be9b6b0e9097,69,х,2014-01-10,0000,,,2020-08-27,000,0000,000,0,,0000,,0
0,c450bf1e-c794-4585-ac1a-66becd15caf5,66a106f5-b0b6-4e53-91b2-7725653508cb,6,024,0,0,000,6902400005899,99.0,2020-08-26,Дубье,6913,6913,eaa7f106-e2a9-4a9d-a9b3-3e49e8a9877e,,28245806001,28752000323,21,dc932be3-ef8b-4ee7-bdd4-0701d551caf8,058,69024000058,172765,5fd8d279-93a5-4b60-9d45-3336d90e4bc4,69,х,2018-01-16,0000,,,2020-08-27,000,0000,000,0,,0000,,0
1,c450bf1e-c794-4585-ac1a-66becd15caf5,eaa7f106-e2a9-4a9d-a9b3-3e49e8a9877e,6,024,0,0,000,6902400005899,99.0,2079-06-06,Дубье,6913,6913,,,28245806001,28752000323,30,dc932be3-ef8b-4ee7-bdd4-0701d551caf8,058,69024000058,172765,66a106f5-b0b6-4e53-91b2-7725653508cb,69,х,2020-08-26,0000,,,2020-08-27,000,0000,000,0,8d6a6b54-c75a-41da-8351-6c0d3e4700d8,0000,,0
