ACTSTATUS,AOGUID,AOID,AOLEVEL,AREACODE,AUTOCODE,CENTSTATUS,CITYCODE,CODE,CURRSTATUS,ENDDATE,FORMALNAME,IFNSFL,IFNSUL,NEXTID,OFFNAME,OKATO,OKTMO,OPERSTATUS,PARENTGUID,PLACECODE,PLAINCODE,POSTALCODE,PREVID,REGIONCODE,SHORTNAME,STARTDATE,STREETCODE,TERRIFNSFL,TERRIFNSUL,UPDATEDATE,CTARCODE,EXTRCODE,SEXTCODE,LIVESTATUS,NORMDOC,PLANCODE,CADNUM,DIVTYPE
0,8f48d560-88ce-4ca0-ab3a-460a820b59ec,8e5e4925-0a04-4ed1-8523-9c4379a0e385,7,000,0,0,001,73000001000057101,1.0,2079-06-06,Свияжная,7326,7326,f0d13175-344f-46c0-91a7-f09aa8213e52,,73401365000,73701000,1,bebfd75d-a0da-4bf9-8307-2e2c85eac463,000,730000010000571,,,73,ул,1900-01-01,0571,,,2020-08-30,000,0000,000,0,,0000,,0
0,8f48d560-88ce-4ca0-ab3a-460a820b59ec,f0d13175-344f-46c0-91a7-f09aa8213e52,7,000,0,0,001,73000001000057100,0.0,2079-06-06,Свияжная,7321,7321,1335ae65-5cc9-4022-961e-45205d44926b,,73401365000,73701000,21,bebfd75d-a0da-4bf9-8307-2e2c85eac463,000,730000010000571,,8e5e4925-0a04-4ed1-8523-9c4379a0e385,73,ул,2018-06-15,0571,,,2020-08-30,000,0000,000,0,350ddcc6-6abf-4427-b95f-aebf4b4f1e02,0000,,0
1,8f48d560-88ce-4ca0-ab3a-460a820b59ec,1335ae65-5cc9-4022-961e-45205d44926b,7,000,0,0,001,73000001000057100,0.0,2079-06-06,Свияжная,7321,7321,,,73401365000,73701000001,21,bebfd75d-a0da-4bf9-8307-2e2c85eac463,000,730000010000571,,f0d13175-344f-46c0-91a7-f09aa8213e52,73,ул,2020-08-28,0571,,,2020-08-30,000,0000,000,1,,0000,,0
0,4bfa00b0-f88f-4f17-8d6f-4fffbe5fc2ad,4bfa00b0-f88f-4f17-8d6f-4fffbe5fc2ad,7,017,0,0,000,73017000033001501,1.0,2020-08-27,Большая дачная,7329,7329,23be7e26-123e-457a-84c0-a7cf25eef3d7,,73242830003,73642430116,10,be6b7831-4d04-4d8a-81b2-94fa894ad7c4,033,730170000330015,433450,,73,ул,2006-01-01,0015,,,2020-08-30,000,0000,000,0,,0000,,0
0,4bfa00b0-f88f-4f17-8d6f-4fffbe5fc2ad,23be7e26-123e-457a-84c0-a7cf25eef3d7,7,017,0,0,000,73017000033001502,2.0,2020-08-27,Большая дачная,7329,7329,ff689f34-2762-4720-a2a9-940e04726f67,,73242830003,73642430116,21,be6b7831-4d04-4d8a-81b2-94fa894ad7c4,033,730170000330015,433460,4bfa00b0-f88f-4f17-8d6f-4fffbe5fc2ad,73,ул,2015-11-25,0015,,,2020-08-30,000,0000,000,0,8d5f93b3-ae28-474e-9a2c-e6a721ed84ef,0000,,0
1,4bfa00b0-f88f-4f17-8d6f-4fffbe5fc2ad,ff689f34-2762-4720-a2a9-940e04726f67,7,017,0,0,000,73017000033001500,0.0,2079-06-06,Большая Дачная,7329,7329,,,73242830003,73642430116,20,be6b7831-4d04-4d8a-81b2-94fa894ad7c4,033,730170000330015,433460,23be7e26-123e-457a-84c0-a7cf25eef3d7,73,ул,2020-08-27,0015,,,2020-08-30,000,0000,000,1,,0000,,0
0,75302797-3aea-4009-bcda-7f3da86c0e31,930d8603-e337-4825-9ad1-f76c7fd889dc,7,000,0,0,003,73000003000001701,1.0,2079-06-06,ГАТП,7306,7306,bcd59fd4-d803-4a94-95e8-431c12c36187,,73204501000,73604101,1,52cccd1a-84fd-448a-a91e-36f113b9946f,000,730000030000017,433751,,73,мкр,1900-01-01,0017,7301,7301,2020-09-03,000,0000,000,0,,0000,,0
0,75302797-3aea-4009-bcda-7f3da86c0e31,bcd59fd4-d803-4a94-95e8-431c12c36187,7,000,0,0,003,73000003000001702,2.0,2014-11-20,ГАТП,7309,7309,1bfbcd6a-eea9-425d-b3c7-ae1dfa920e8b,,73204501000,73604101,21,52cccd1a-84fd-448a-a91e-36f113b9946f,000,730000030000017,433751,930d8603-e337-4825-9ad1-f76c7fd889dc,73,мкр,2013-01-10,0017,7301,7301,2020-09-03,000,0000,000,0,,0000,,0
0,75302797-3aea-4009-bcda-7f3da86c0e31,1bfbcd6a-eea9-425d-b3c7-ae1dfa920e8b,7,000,0,0,003,73000003000001700,0.0,2079-06-06,ГАТП,7309,7309,c162181f-95d5-4468-9c37-e1cb1558e911,,73204501000,73604101,21,52cccd1a-84fd-448a-a91e-36f113b9946f,000,730000030000017,433751,bcd59fd4-d803-4a94-95e8-431c12c36187,73,мкр,2014-11-20,0017,,,2020-09-03,000,0000,000,0,,0000,,0
1,75302797-3aea-4009-bcda-7f3da86c0e31,c162181f-95d5-4468-9c37-e1cb1558e911,7,000,0,0,003,73000003000001700,0.0,2079-06-06,ГАТП,7309,7309,,,73204501000,73604101001,21,52cccd1a-84fd-448a-a91e-36f113b9946f,000,730000030000017,433751,1bfbcd6a-eea9-425d-b3c7-ae1dfa920e8b,73,мкр,2020-08-31,0017,,,2020-09-03,000,0000,000,1,,0000,,0
0,350009f1-8043-4dbb-b5a6-6ce6cbb3a2ea,07a66483-fbf4-484e-8b02-c076f78f409f,7,000,0,0,001,73000001000094101,1.0,2079-06-06,Скочилова,7325,7325,74af37d3-cc53-4b66-aec8-0fe249c6e8ae,,73401384000,73701000,1,bebfd75d-a0da-4bf9-8307-2e2c85eac463,000,730000010000941,432030,,73,ул,1900-01-01,0941,,,2020-09-03,000,0000,000,0,,0000,,0
0,350009f1-8043-4dbb-b5a6-6ce6cbb3a2ea,74af37d3-cc53-4b66-aec8-0fe249c6e8ae,7,000,0,0,001,73000001000094100,0.0,2079-06-06,Скочилова,7325,7325,cd545a1a-4e43-4d7c-a0d2-78bde85239ad,,73401384000,73701000,21,bebfd75d-a0da-4bf9-8307-2e2c85eac463,000,730000010000941,432026,07a66483-fbf4-484e-8b02-c076f78f409f,73,ул,2015-11-16,0941,,,2020-09-03,000,0000,000,0,5c66e55a-9af5-4a4d-a0e8-6b98aca124c0,0000,,0
1,350009f1-8043-4dbb-b5a6-6ce6cbb3a2ea,cd545a1a-4e43-4d7c-a0d2-78bde85239ad,7,000,0,0,001,73000001000094100,0.0,2079-06-06,Скочилова,7325,7325,,,73401384000,73701000001,21,bebfd75d-a0da-4bf9-8307-2e2c85eac463,000,730000010000941,432026,74af37d3-cc53-4b66-aec8-0fe249c6e8ae,73,ул,2020-08-31,0941,,,2020-09-03,000,0000,000,1,,0000,,0
0,24adea73-9df0-49a7-bb03-a7694217d53c,34a33bf5-41a3-4d3a-a5b5-9e02edeb2c2c,7,000,0,0,003,73000003000005001,1.0,2079-06-06,Лесной,7306,7306,807b96ab-306d-4054-ae71-bb4562772155,,73204501000,73604101,1,52cccd1a-84fd-448a-a91e-36f113b9946f,000,730000030000050,433752,,73,пер,1900-01-01,0050,7301,7301,2020-08-16,000,0000,000,0,,0000,,0
0,24adea73-9df0-49a7-bb03-a7694217d53c,807b96ab-306d-4054-ae71-bb4562772155,7,000,0,0,003,73000003000005002,2.0,2014-12-02,Лесной,7309,7309,58dfb9cc-cf05-4a21-a469-54c07dcec9c3,,73204501000,73604101,21,52cccd1a-84fd-448a-a91e-36f113b9946f,000,730000030000050,433752,34a33bf5-41a3-4d3a-a5b5-9e02edeb2c2c,73,пер,2013-01-10,0050,7301,7301,2020-08-16,000,0000,000,0,,0000,,0
0,24adea73-9df0-49a7-bb03-a7694217d53c,58dfb9cc-cf05-4a21-a469-54c07dcec9c3,7,000,0,0,003,73000003000005000,0.0,2079-06-06,Лесной,7309,7309,cc17f734-d521-4b5a-bab2-47195df35aee,,73204501000,73604101,21,52cccd1a-84fd-448a-a91e-36f113b9946f,000,730000030000050,433752,807b96ab-306d-4054-ae71-bb4562772155,73,пер,2014-12-02,0050,,,2020-08-16,000,0000,000,0,,0000,,0
1,24adea73-9df0-49a7-bb03-a7694217d53c,cc17f734-d521-4b5a-bab2-47195df35aee,7,000,0,0,003,73000003000005000,0.0,2079-06-06,Лесной,7309,7309,,,73204501000,73604101001,21,52cccd1a-84fd-448a-a91e-36f113b9946f,000,730000030000050,433752,58dfb9cc-cf05-4a21-a469-54c07dcec9c3,73,пер,2020-08-13,0050,,,2020-08-16,000,0000,000,1,,0000,,0
0,ee8bd973-8e9b-4149-b2f7-c82f0f550e84,46159e00-6c19-4409-a130-d362b2be15c9,7,000,0,0,001,73000001000012901,1.0,2079-06-06,Кирова 2-й,7326,7326,dd22676f-a603-46c9-be5a-dfff74e91ed1,,73401365000,73701000,1,bebfd75d-a0da-4bf9-8307-2e2c85eac463,000,730000010000129,432048,,73,пер,1900-01-01,0129,,,2020-08-16,000,0000,000,0,,0000,,0
0,ee8bd973-8e9b-4149-b2f7-c82f0f550e84,dd22676f-a603-46c9-be5a-dfff74e91ed1,7,000,0,0,001,73000001000012900,0.0,2079-06-06,Кирова 2-й,7321,7321,47e817d0-5067-486a-985d-8705de9dd4d3,,73401365000,73701000,21,bebfd75d-a0da-4bf9-8307-2e2c85eac463,000,730000010000129,432048,46159e00-6c19-4409-a130-d362b2be15c9,73,пер,2018-06-15,0129,,,2020-08-16,000,0000,000,0,350ddcc6-6abf-4427-b95f-aebf4b4f1e02,0000,,0
1,ee8bd973-8e9b-4149-b2f7-c82f0f550e84,47e817d0-5067-486a-985d-8705de9dd4d3,7,000,0,0,001,73000001000012900,0.0,2079-06-06,Кирова 2-й,7321,7321,,,73401365000,73701000001,21,bebfd75d-a0da-4bf9-8307-2e2c85eac463,000,730000010000129,432048,dd22676f-a603-46c9-be5a-dfff74e91ed1,73,пер,2020-08-14,0129,,,2020-08-16,000,0000,000,1,,0000,,0
0,a9f5a6bd-b4eb-4d78-bdc7-898d58bf3904,1d075113-a2a4-4537-b4f5-07b5066ebc26,7,000,0,0,001,73000001000016701,1.0,2079-06-06,Кирова 3-й,7326,7326,fd2ae76d-0b2c-483f-8360-8d5beca7a6f3,,73401365000,73701000,1,bebfd75d-a0da-4bf9-8307-2e2c85eac463,000,730000010000167,432048,,73,пер,1900-01-01,0167,,,2020-08-16,000,0000,000,0,,0000,,0
0,a9f5a6bd-b4eb-4d78-bdc7-898d58bf3904,fd2ae76d-0b2c-483f-8360-8d5beca7a6f3,7,000,0,0,001,73000001000016700,0.0,2079-06-06,Кирова 3-й,7321,7321,eb286398-679a-4c4a-b132-9c7f781fab3a,,73401365000,73701000,21,bebfd75d-a0da-4bf9-8307-2e2c85eac463,000,730000010000167,432048,1d075113-a2a4-4537-b4f5-07b5066ebc26,73,пер,2018-06-15,0167,,,2020-08-16,000,0000,000,0,350ddcc6-6abf-4427-b95f-aebf4b4f1e02,0000,,0
1,a9f5a6bd-b4eb-4d78-bdc7-898d58bf3904,eb286398-679a-4c4a-b132-9c7f781fab3a,7,000,0,0,001,73000001000016700,0.0,2079-06-06,Кирова 3-й,7321,7321,,,73401365000,73701000001,21,bebfd75d-a0da-4bf9-8307-2e2c85eac463,000,730000010000167,432048,fd2ae76d-0b2c-483f-8360-8d5beca7a6f3,73,пер,2020-08-14,0167,,,2020-08-16,000,0000,000,1,,0000,,0
0,c0edcb6e-9225-4692-a2cb-74501e710ad8,774c23cd-442a-4350-bb55-c966ff0c0486,7,000,0,0,003,73000003000010201,1.0,2079-06-06,Чапаева,7306,7306,71fd4906-d35f-4b8f-be62-83c18a2301dc,,73204501000,73604101,1,52cccd1a-84fd-448a-a91e-36f113b9946f,000,730000030000102,433754,,73,ул,1900-01-01,0102,7301,7301,2020-08-16,000,0000,000,0,,0000,,0
0,c0edcb6e-9225-4692-a2cb-74501e710ad8,71fd4906-d35f-4b8f-be62-83c18a2301dc,7,000,0,0,003,73000003000010202,2.0,2014-11-20,Чапаева,7309,7309,56a9ec0e-78bb-4e78-921c-5400d73770c4,,73204501000,73604101,21,52cccd1a-84fd-448a-a91e-36f113b9946f,000,730000030000102,433754,774c23cd-442a-4350-bb55-c966ff0c0486,73,ул,2013-01-10,0102,7301,7301,2020-08-16,000,0000,000,0,,0000,,0
0,c0edcb6e-9225-4692-a2cb-74501e710ad8,56a9ec0e-78bb-4e78-921c-5400d73770c4,7,000,0,0,003,73000003000010200,0.0,2079-06-06,Чапаева,7309,7309,f2d6427c-6d6b-4475-9074-5a9db60169b9,,73204501000,73604101,21,52cccd1a-84fd-448a-a91e-36f113b9946f,000,730000030000102,433754,71fd4906-d35f-4b8f-be62-83c18a2301dc,73,ул,2014-11-20,0102,,,2020-08-16,000,0000,000,0,,0000,,0
1,c0edcb6e-9225-4692-a2cb-74501e710ad8,f2d6427c-6d6b-4475-9074-5a9db60169b9,7,000,0,0,003,73000003000010200,0.0,2079-06-06,Чапаева,7309,7309,,,73204501000,73604101001,21,52cccd1a-84fd-448a-a91e-36f113b9946f,000,730000030000102,433754,56a9ec0e-78bb-4e78-921c-5400d73770c4,73,ул,2020-08-13,0102,,,2020-08-16,000,0000,000,1,,0000,,0
0,9fa8da5a-2bc8-4f86-81e4-7bc2e8268c0f,c00ef411-e26e-463a-8b43-be26890de682,7,000,0,0,001,73000001000075001,1.0,2079-06-06,Кирова 1-й,7326,7326,ed8ac90f-56c5-4dd2-ba23-1f5a5ec98155,,73401365000,73701000,1,bebfd75d-a0da-4bf9-8307-2e2c85eac463,000,730000010000750,,,73,пер,1900-01-01,0750,,,2020-08-16,000,0000,000,0,,0000,,0
0,9fa8da5a-2bc8-4f86-81e4-7bc2e8268c0f,ed8ac90f-56c5-4dd2-ba23-1f5a5ec98155,7,000,0,0,001,73000001000075000,0.0,2079-06-06,Кирова 1-й,7321,7321,b5b88348-ea31-4080-8861-c3ae1da16a73,,73401365000,73701000,21,bebfd75d-a0da-4bf9-8307-2e2c85eac463,000,730000010000750,,c00ef411-e26e-463a-8b43-be26890de682,73,пер,2018-06-15,0750,,,2020-08-16,000,0000,000,0,350ddcc6-6abf-4427-b95f-aebf4b4f1e02,0000,,0
1,9fa8da5a-2bc8-4f86-81e4-7bc2e8268c0f,b5b88348-ea31-4080-8861-c3ae1da16a73,7,000,0,0,001,73000001000075000,0.0,2079-06-06,Кирова 1-й,7321,7321,,,73401365000,73701000001,21,bebfd75d-a0da-4bf9-8307-2e2c85eac463,000,730000010000750,,ed8ac90f-56c5-4dd2-ba23-1f5a5ec98155,73,пер,2020-08-14,0750,,,2020-08-16,000,0000,000,1,,0000,,0
0,f743d5f8-48f1-482d-8c65-bd6be40a027c,7d431d70-db7f-44c1-9313-204e8a75bd18,7,000,0,0,003,73000003000007101,1.0,2079-06-06,Полевая,7306,7306,1f25061d-6271-415b-8649-22b9691e256c,,73204501000,73604101,1,52cccd1a-84fd-448a-a91e-36f113b9946f,000,730000030000071,433750,,73,ул,1900-01-01,0071,7301,7301,2020-08-16,000,0000,000,0,,0000,,0
0,f743d5f8-48f1-482d-8c65-bd6be40a027c,1f25061d-6271-415b-8649-22b9691e256c,7,000,0,0,003,73000003000007102,2.0,2014-11-20,Полевая,7309,7309,1fa2585f-463e-4cd8-bb4f-855375a7cadb,,73204501000,73604101,21,52cccd1a-84fd-448a-a91e-36f113b9946f,000,730000030000071,433750,7d431d70-db7f-44c1-9313-204e8a75bd18,73,ул,2013-01-10,0071,7301,7301,2020-08-16,000,0000,000,0,,0000,,0
0,f743d5f8-48f1-482d-8c65-bd6be40a027c,1fa2585f-463e-4cd8-bb4f-855375a7cadb,7,000,0,0,003,73000003000007100,0.0,2079-06-06,Полевая,7309,7309,9997f202-bed1-47e9-b785-44fb0bf82b2f,,73204501000,73604101,21,52cccd1a-84fd-448a-a91e-36f113b9946f,000,730000030000071,433750,1f25061d-6271-415b-8649-22b9691e256c,73,ул,2014-11-20,0071,,,2020-08-16,000,0000,000,0,,0000,,0
1,f743d5f8-48f1-482d-8c65-bd6be40a027c,9997f202-bed1-47e9-b785-44fb0bf82b2f,7,000,0,0,003,73000003000007100,0.0,2079-06-06,Полевая,7309,7309,,,73204501000,73604101001,21,52cccd1a-84fd-448a-a91e-36f113b9946f,000,730000030000071,433750,1fa2585f-463e-4cd8-bb4f-855375a7cadb,73,ул,2020-08-13,0071,,,2020-08-16,000,0000,000,1,,0000,,0
0,6a683f9a-5456-4992-af81-a52e2f4d9660,452da829-af52-41f5-a70a-d1e2cfaffe6d,7,000,0,0,003,73000003000005101,1.0,2079-06-06,Ломоносова,7306,7306,433cda80-1651-4684-8928-fc678c04951a,,73204501000,73604101,1,52cccd1a-84fd-448a-a91e-36f113b9946f,000,730000030000051,433750,,73,ул,1900-01-01,0051,7301,7301,2020-08-16,000,0000,000,0,,0000,,0
0,6a683f9a-5456-4992-af81-a52e2f4d9660,433cda80-1651-4684-8928-fc678c04951a,7,000,0,0,003,73000003000005102,2.0,2014-11-20,Ломоносова,7309,7309,63aa5975-aa12-4a52-aff3-1ad9490f10a2,,73204501000,73604101,21,52cccd1a-84fd-448a-a91e-36f113b9946f,000,730000030000051,433750,452da829-af52-41f5-a70a-d1e2cfaffe6d,73,ул,2013-01-10,0051,7301,7301,2020-08-16,000,0000,000,0,,0000,,0
0,6a683f9a-5456-4992-af81-a52e2f4d9660,63aa5975-aa12-4a52-aff3-1ad9490f10a2,7,000,0,0,003,73000003000005100,0.0,2079-06-06,Ломоносова,7309,7309,ca448e37-745a-4a5a-bd66-274d54026f73,,73204501000,73604101,21,52cccd1a-84fd-448a-a91e-36f113b9946f,000,730000030000051,433750,433cda80-1651-4684-8928-fc678c04951a,73,ул,2014-11-20,0051,,,2020-08-16,000,0000,000,0,,0000,,0
1,6a683f9a-5456-4992-af81-a52e2f4d9660,ca448e37-745a-4a5a-bd66-274d54026f73,7,000,0,0,003,73000003000005100,0.0,2079-06-06,Ломоносова,7309,7309,,,73204501000,73604101001,21,52cccd1a-84fd-448a-a91e-36f113b9946f,000,730000030000051,433750,63aa5975-aa12-4a52-aff3-1ad9490f10a2,73,ул,2020-08-13,0051,,,2020-08-16,000,0000,000,1,,0000,,0
0,5039fb84-8522-4e54-8cff-4c0f077bd712,458d7e2b-f2bb-4409-98e8-ee030a49b60a,7,000,0,0,003,73000003000009901,1.0,2079-06-06,Фабричная,7306,7306,54f808b3-1646-47aa-87a6-c6d58c294023,,73204501000,73604101,1,52cccd1a-84fd-448a-a91e-36f113b9946f,000,730000030000099,,,73,ул,1900-01-01,0099,7301,7301,2020-08-16,000,0000,000,0,,0000,,0
0,5039fb84-8522-4e54-8cff-4c0f077bd712,54f808b3-1646-47aa-87a6-c6d58c294023,7,000,0,0,003,73000003000009902,2.0,2013-01-10,Фабричная,7306,7306,5e55d5d2-a891-45b4-bd20-4c21918cc858,,73204501000,73604101,20,52cccd1a-84fd-448a-a91e-36f113b9946f,000,730000030000099,,458d7e2b-f2bb-4409-98e8-ee030a49b60a,73,ул,2009-03-26,0099,,,2020-08-16,000,0000,000,0,,0000,,0
0,5039fb84-8522-4e54-8cff-4c0f077bd712,5e55d5d2-a891-45b4-bd20-4c21918cc858,7,000,0,0,003,73000003000009903,3.0,2014-09-22,Фабричная,7309,7309,2728811d-623f-4a13-9386-da8d4353068f,,73204501000,73604101,21,52cccd1a-84fd-448a-a91e-36f113b9946f,000,730000030000099,,54f808b3-1646-47aa-87a6-c6d58c294023,73,ул,2013-01-10,0099,,,2020-08-16,000,0000,000,0,,0000,,0
0,5039fb84-8522-4e54-8cff-4c0f077bd712,2728811d-623f-4a13-9386-da8d4353068f,7,000,0,0,003,73000003000009904,4.0,2019-03-28,Фабричная,7309,7309,ef60222d-3ee6-4e0f-9202-816445e4e2b0,,73204501000,73604101,21,52cccd1a-84fd-448a-a91e-36f113b9946f,000,730000030000099,,5e55d5d2-a891-45b4-bd20-4c21918cc858,73,ул,2014-09-22,0099,,,2020-08-16,000,0000,000,0,,0000,,0
0,5039fb84-8522-4e54-8cff-4c0f077bd712,ef60222d-3ee6-4e0f-9202-816445e4e2b0,7,000,0,0,003,73000003000009900,0.0,2079-06-06,Фабричная,7309,7309,5920a4fe-9b87-44b4-8764-3684ab97c079,,73204501000,73604101,21,52cccd1a-84fd-448a-a91e-36f113b9946f,000,730000030000099,,2728811d-623f-4a13-9386-da8d4353068f,73,ул,2019-03-28,0099,,,2020-08-16,000,0000,000,0,5eedf476-2fbe-43d8-a7f3-8f6da0a298f4,0000,,0
1,5039fb84-8522-4e54-8cff-4c0f077bd712,5920a4fe-9b87-44b4-8764-3684ab97c079,7,000,0,0,003,73000003000009900,0.0,2079-06-06,Фабричная,7309,7309,,,73204501000,73604101001,21,52cccd1a-84fd-448a-a91e-36f113b9946f,000,730000030000099,,ef60222d-3ee6-4e0f-9202-816445e4e2b0,73,ул,2020-08-13,0099,,,2020-08-16,000,0000,000,1,,0000,,0
0,bbbf6782-305c-4637-9be5-d91064dc0665,602f8015-2e87-49a1-891e-450d74bf3b13,7,000,0,0,003,73000003000006701,1.0,2079-06-06,Первомайская,7306,7306,852ab60a-9162-4244-be29-65e392d339ee,,73204501000,73604101,1,52cccd1a-84fd-448a-a91e-36f113b9946f,000,730000030000067,433750,,73,ул,1900-01-01,0067,7301,7301,2020-08-16,000,0000,000,0,,0000,,0
0,bbbf6782-305c-4637-9be5-d91064dc0665,852ab60a-9162-4244-be29-65e392d339ee,7,000,0,0,003,73000003000006702,2.0,2014-11-20,Первомайская,7309,7309,179817d4-ad35-4fc2-8ada-e19c027c4a2e,,73204501000,73604101,21,52cccd1a-84fd-448a-a91e-36f113b9946f,000,730000030000067,433750,602f8015-2e87-49a1-891e-450d74bf3b13,73,ул,2013-01-10,0067,7301,7301,2020-08-16,000,0000,000,0,,0000,,0
0,bbbf6782-305c-4637-9be5-d91064dc0665,179817d4-ad35-4fc2-8ada-e19c027c4a2e,7,000,0,0,003,73000003000006700,0.0,2079-06-06,Первомайская,7309,7309,4828a01a-d597-474f-85ea-52f1ca14cae7,,73204501000,73604101,21,52cccd1a-84fd-448a-a91e-36f113b9946f,000,730000030000067,433750,852ab60a-9162-4244-be29-65e392d339ee,73,ул,2014-11-20,0067,,,2020-08-16,000,0000,000,0,,0000,,0
1,bbbf6782-305c-4637-9be5-d91064dc0665,4828a01a-d597-474f-85ea-52f1ca14cae7,7,000,0,0,003,73000003000006700,0.0,2079-06-06,Первомайская,7309,7309,,,73204501000,73604101001,21,52cccd1a-84fd-448a-a91e-36f113b9946f,000,730000030000067,433750,179817d4-ad35-4fc2-8ada-e19c027c4a2e,73,ул,2020-08-13,0067,,,2020-08-16,000,0000,000,1,,0000,,0
0,b6fbfed6-2909-42b2-b880-57cea611f6e8,af58162c-0bd0-4cb2-b47d-72fb3b9d5dc1,7,000,0,0,003,73000003000000201,1.0,2079-06-06,Аптечная,7306,7306,accce2b2-64ca-4243-9fcb-310951b00987,,73204501000,73604101,1,52cccd1a-84fd-448a-a91e-36f113b9946f,000,730000030000002,,,73,ул,1900-01-01,0002,7301,7301,2020-08-16,000,0000,000,0,,0000,,0
0,b6fbfed6-2909-42b2-b880-57cea611f6e8,accce2b2-64ca-4243-9fcb-310951b00987,7,000,0,0,003,73000003000000202,2.0,2013-01-10,Аптечная,7306,7306,ea827460-0d3c-474f-b938-26965c4e1b36,,73204501000,73604101,20,52cccd1a-84fd-448a-a91e-36f113b9946f,000,730000030000002,,af58162c-0bd0-4cb2-b47d-72fb3b9d5dc1,73,ул,2009-03-26,0002,,,2020-08-16,000,0000,000,0,,0000,,0
0,b6fbfed6-2909-42b2-b880-57cea611f6e8,ea827460-0d3c-474f-b938-26965c4e1b36,7,000,0,0,003,73000003000000203,3.0,2014-09-22,Аптечная,7309,7309,88c2e092-1ddc-4b9b-899a-c6bb6b11640e,,73204501000,73604101,21,52cccd1a-84fd-448a-a91e-36f113b9946f,000,730000030000002,,accce2b2-64ca-4243-9fcb-310951b00987,73,ул,2013-01-10,0002,,,2020-08-16,000,0000,000,0,,0000,,0
0,b6fbfed6-2909-42b2-b880-57cea611f6e8,88c2e092-1ddc-4b9b-899a-c6bb6b11640e,7,000,0,0,003,73000003000000200,0.0,2079-06-06,Аптечная,7309,7309,7e18a223-a891-4d36-a8ba-a05e8274e315,,73204501000,73604101,21,52cccd1a-84fd-448a-a91e-36f113b9946f,000,730000030000002,,ea827460-0d3c-474f-b938-26965c4e1b36,73,ул,2014-09-22,0002,,,2020-08-16,000,0000,000,0,,0000,,0
1,b6fbfed6-2909-42b2-b880-57cea611f6e8,7e18a223-a891-4d36-a8ba-a05e8274e315,7,000,0,0,003,73000003000000200,0.0,2079-06-06,Аптечная,7309,7309,,,73204501000,73604101001,21,52cccd1a-84fd-448a-a91e-36f113b9946f,000,730000030000002,,88c2e092-1ddc-4b9b-899a-c6bb6b11640e,73,ул,2020-08-13,0002,,,2020-08-16,000,0000,000,1,,0000,,0
0,27ed4982-13ee-4a06-b436-10a9a5724abb,13afc756-d517-4763-b38c-19c6500f9aba,7,000,0,0,003,73000003000008501,1.0,2079-06-06,Советская,7306,7306,ebec9b9b-a8b4-4f91-89b7-33981be4fd78,,73204501000,73604101,1,52cccd1a-84fd-448a-a91e-36f113b9946f,000,730000030000085,433750,,73,ул,1900-01-01,0085,7301,7301,2020-08-16,000,0000,000,0,,0000,,0
0,27ed4982-13ee-4a06-b436-10a9a5724abb,ebec9b9b-a8b4-4f91-89b7-33981be4fd78,7,000,0,0,003,73000003000008502,2.0,2014-11-20,Советская,7309,7309,eeb27688-df80-4ff8-a7fa-cc904c923409,,73204501000,73604101,21,52cccd1a-84fd-448a-a91e-36f113b9946f,000,730000030000085,433750,13afc756-d517-4763-b38c-19c6500f9aba,73,ул,2013-01-10,0085,7301,7301,2020-08-16,000,0000,000,0,,0000,,0
0,27ed4982-13ee-4a06-b436-10a9a5724abb,eeb27688-df80-4ff8-a7fa-cc904c923409,7,000,0,0,003,73000003000008500,0.0,2079-06-06,Советская,7309,7309,ff732b8f-7861-4439-b610-be2811bc5267,,73204501000,73604101,21,52cccd1a-84fd-448a-a91e-36f113b9946f,000,730000030000085,433750,ebec9b9b-a8b4-4f91-89b7-33981be4fd78,73,ул,2014-11-20,0085,,,2020-08-16,000,0000,000,0,,0000,,0
1,27ed4982-13ee-4a06-b436-10a9a5724abb,ff732b8f-7861-4439-b610-be2811bc5267,7,000,0,0,003,73000003000008500,0.0,2079-06-06,Советская,7309,7309,,,73204501000,73604101001,21,52cccd1a-84fd-448a-a91e-36f113b9946f,000,730000030000085,433750,eeb27688-df80-4ff8-a7fa-cc904c923409,73,ул,2020-08-13,0085,,,2020-08-16,000,0000,000,1,,0000,,0
0,9532035f-9a7f-4def-a1ef-56e023ff06f3,280ca962-8c92-4d4c-8ef9-bdac22f2ca58,7,000,0,0,003,73000003000009401,1.0,2079-06-06,Строителей,7306,7306,bf029e56-e932-4366-b2ca-7417462e3eeb,,73204501000,73604101,1,52cccd1a-84fd-448a-a91e-36f113b9946f,000,730000030000094,433752,,73,ул,1900-01-01,0094,7301,7301,2020-08-16,000,0000,000,0,,0000,,0
0,9532035f-9a7f-4def-a1ef-56e023ff06f3,bf029e56-e932-4366-b2ca-7417462e3eeb,7,000,0,0,003,73000003000009402,2.0,2014-11-20,Строителей,7309,7309,19959519-8105-4909-a830-612cee584454,,73204501000,73604101,21,52cccd1a-84fd-448a-a91e-36f113b9946f,000,730000030000094,433752,280ca962-8c92-4d4c-8ef9-bdac22f2ca58,73,ул,2013-01-10,0094,7301,7301,2020-08-16,000,0000,000,0,,0000,,0
0,9532035f-9a7f-4def-a1ef-56e023ff06f3,19959519-8105-4909-a830-612cee584454,7,000,0,0,003,73000003000009400,0.0,2079-06-06,Строителей,7309,7309,43ff460a-bc28-4579-af27-6274acc54e43,,73204501000,73604101,21,52cccd1a-84fd-448a-a91e-36f113b9946f,000,730000030000094,433752,bf029e56-e932-4366-b2ca-7417462e3eeb,73,ул,2014-11-20,0094,,,2020-08-16,000,0000,000,0,,0000,,0
1,9532035f-9a7f-4def-a1ef-56e023ff06f3,43ff460a-bc28-4579-af27-6274acc54e43,7,000,0,0,003,73000003000009400,0.0,2079-06-06,Строителей,7309,7309,,,73204501000,73604101001,21,52cccd1a-84fd-448a-a91e-36f113b9946f,000,730000030000094,433752,19959519-8105-4909-a830-612cee584454,73,ул,2020-08-13,0094,,,2020-08-16,000,0000,000,1,,0000,,0
0,667e7085-8a9c-4900-a168-4b72b0c47a8c,4bcd7bb1-6ea9-4adb-aa27-9a3227b2c1c9,7,000,0,0,003,73000003000005701,1.0,2079-06-06,Механизаторов,7306,7306,125c819f-6cbc-4bba-9dc6-5dc16d170f57,,73204501000,73604101,1,52cccd1a-84fd-448a-a91e-36f113b9946f,000,730000030000057,433754,,73,ул,1900-01-01,0057,7301,7301,2020-08-16,000,0000,000,0,,0000,,0
0,667e7085-8a9c-4900-a168-4b72b0c47a8c,125c819f-6cbc-4bba-9dc6-5dc16d170f57,7,000,0,0,003,73000003000005702,2.0,2014-12-02,Механизаторов,7309,7309,66d4ff39-477d-4e7c-955c-ea1ba25e210f,,73204501000,73604101,21,52cccd1a-84fd-448a-a91e-36f113b9946f,000,730000030000057,433754,4bcd7bb1-6ea9-4adb-aa27-9a3227b2c1c9,73,ул,2013-01-10,0057,7301,7301,2020-08-16,000,0000,000,0,,0000,,0
0,667e7085-8a9c-4900-a168-4b72b0c47a8c,66d4ff39-477d-4e7c-955c-ea1ba25e210f,7,000,0,0,003,73000003000005700,0.0,2079-06-06,Механизаторов,7309,7309,ed943846-9bec-45a9-a0fb-a2988eb71712,,73204501000,73604101,21,52cccd1a-84fd-448a-a91e-36f113b9946f,000,730000030000057,433754,125c819f-6cbc-4bba-9dc6-5dc16d170f57,73,ул,2014-12-02,0057,,,2020-08-16,000,0000,000,0,,0000,,0
1,667e7085-8a9c-4900-a168-4b72b0c47a8c,ed943846-9bec-45a9-a0fb-a2988eb71712,7,000,0,0,003,73000003000005700,0.0,2079-06-06,Механизаторов,7309,7309,,,73204501000,73604101001,21,52cccd1a-84fd-448a-a91e-36f113b9946f,000,730000030000057,433754,66d4ff39-477d-4e7c-955c-ea1ba25e210f,73,ул,2020-08-13,0057,,,2020-08-16,000,0000,000,1,,0000,,0
0,8519438b-720d-414b-ab1a-ccff879c1180,e0d3eead-fe1c-4f66-b561-5b3ea50a4157,7,000,0,0,003,73000003000011601,1.0,2079-06-06,Кооперативная,7306,7306,45269202-43f8-4e14-9325-f85edd08b434,,73204501000,73604101,1,52cccd1a-84fd-448a-a91e-36f113b9946f,000,730000030000116,433750,,73,ул,1900-01-01,0116,7301,7301,2020-08-16,000,0000,000,0,,0000,,0
0,8519438b-720d-414b-ab1a-ccff879c1180,45269202-43f8-4e14-9325-f85edd08b434,7,000,0,0,003,73000003000011602,2.0,2014-11-20,Кооперативная,7309,7309,c48a7faa-e650-48e6-aa4d-78d2a040eba9,,73204501000,73604101,21,52cccd1a-84fd-448a-a91e-36f113b9946f,000,730000030000116,433750,e0d3eead-fe1c-4f66-b561-5b3ea50a4157,73,ул,2013-01-10,0116,7301,7301,2020-08-16,000,0000,000,0,,0000,,0
0,8519438b-720d-414b-ab1a-ccff879c1180,c48a7faa-e650-48e6-aa4d-78d2a040eba9,7,000,0,0,003,73000003000011600,0.0,2079-06-06,Кооперативная,7309,7309,476a2361-49c2-4995-b007-954706000f34,,73204501000,73604101,21,52cccd1a-84fd-448a-a91e-36f113b9946f,000,730000030000116,433750,45269202-43f8-4e14-9325-f85edd08b434,73,ул,2014-11-20,0116,,,2020-08-16,000,0000,000,0,,0000,,0
1,8519438b-720d-414b-ab1a-ccff879c1180,476a2361-49c2-4995-b007-954706000f34,7,000,0,0,003,73000003000011600,0.0,2079-06-06,Кооперативная,7309,7309,,,73204501000,73604101001,21,52cccd1a-84fd-448a-a91e-36f113b9946f,000,730000030000116,433750,c48a7faa-e650-48e6-aa4d-78d2a040eba9,73,ул,2020-08-13,0116,,,2020-08-16,000,0000,000,1,,0000,,0
0,efd58c21-0be2-424e-a7bc-133877996d0e,641e4dbf-2683-4fa9-a686-09f8014dc2d5,7,000,0,0,003,73000003000007001,1.0,2079-06-06,Победы,7306,7306,1572908c-f810-47e5-b680-15d270dd9c9e,,73204501000,73604101,1,52cccd1a-84fd-448a-a91e-36f113b9946f,000,730000030000070,433751,,73,пер,1900-01-01,0070,7301,7301,2020-08-16,000,0000,000,0,,0000,,0
0,efd58c21-0be2-424e-a7bc-133877996d0e,1572908c-f810-47e5-b680-15d270dd9c9e,7,000,0,0,003,73000003000007002,2.0,2014-11-20,Победы,7309,7309,52a7126a-7cc5-4431-89e8-8ae5465312e9,,73204501000,73604101,21,52cccd1a-84fd-448a-a91e-36f113b9946f,000,730000030000070,433751,641e4dbf-2683-4fa9-a686-09f8014dc2d5,73,пер,2013-01-10,0070,7301,7301,2020-08-16,000,0000,000,0,,0000,,0
0,efd58c21-0be2-424e-a7bc-133877996d0e,52a7126a-7cc5-4431-89e8-8ae5465312e9,7,000,0,0,003,73000003000007000,0.0,2079-06-06,Победы,7309,7309,423d907c-57ea-47a9-99ba-142892242dd8,,73204501000,73604101,21,52cccd1a-84fd-448a-a91e-36f113b9946f,000,730000030000070,433751,1572908c-f810-47e5-b680-15d270dd9c9e,73,пер,2014-11-20,0070,,,2020-08-16,000,0000,000,0,,0000,,0
1,efd58c21-0be2-424e-a7bc-133877996d0e,423d907c-57ea-47a9-99ba-142892242dd8,7,000,0,0,003,73000003000007000,0.0,2079-06-06,Победы,7309,7309,,,73204501000,73604101001,21,52cccd1a-84fd-448a-a91e-36f113b9946f,000,730000030000070,433751,52a7126a-7cc5-4431-89e8-8ae5465312e9,73,пер,2020-08-13,0070,,,2020-08-16,000,0000,000,1,,0000,,0
0,60ce6c94-b0a6-4f9e-96f0-71eeb22d11bd,1af407e1-d186-4c1b-ac1f-bdabd0b1356d,7,000,0,0,003,73000003000010801,1.0,2079-06-06,Энтузиастов,7306,7306,a90c2360-ee70-4712-b756-7f51d1393b0e,,73204501000,73604101,1,52cccd1a-84fd-448a-a91e-36f113b9946f,000,730000030000108,433751,,73,кв-л,1900-01-01,0108,7301,7301,2020-08-16,000,0000,000,0,,0000,,0
0,60ce6c94-b0a6-4f9e-96f0-71eeb22d11bd,a90c2360-ee70-4712-b756-7f51d1393b0e,7,000,0,0,003,73000003000010802,2.0,2014-11-20,Энтузиастов,7309,7309,0e96511d-67f5-4d8d-bd04-f7e83ce3bb7a,,73204501000,73604101,21,52cccd1a-84fd-448a-a91e-36f113b9946f,000,730000030000108,433751,1af407e1-d186-4c1b-ac1f-bdabd0b1356d,73,кв-л,2013-01-10,0108,7301,7301,2020-08-16,000,0000,000,0,,0000,,0
0,60ce6c94-b0a6-4f9e-96f0-71eeb22d11bd,0e96511d-67f5-4d8d-bd04-f7e83ce3bb7a,7,000,0,0,003,73000003000010800,0.0,2079-06-06,Энтузиастов,7309,7309,5f0afee8-0d46-4d08-8284-1e25baf0901c,,73204501000,73604101,21,52cccd1a-84fd-448a-a91e-36f113b9946f,000,730000030000108,433751,a90c2360-ee70-4712-b756-7f51d1393b0e,73,кв-л,2014-11-20,0108,,,2020-08-16,000,0000,000,0,,0000,,0
1,60ce6c94-b0a6-4f9e-96f0-71eeb22d11bd,5f0afee8-0d46-4d08-8284-1e25baf0901c,7,000,0,0,003,73000003000010800,0.0,2079-06-06,Энтузиастов,7309,7309,,,73204501000,73604101001,21,52cccd1a-84fd-448a-a91e-36f113b9946f,000,730000030000108,433751,0e96511d-67f5-4d8d-bd04-f7e83ce3bb7a,73,кв-л,2020-08-13,0108,,,2020-08-16,000,0000,000,1,,0000,,0
0,31c82cb9-193b-4f10-9982-28cd62c81670,118a860c-12fe-412b-ae06-c86e5bb18e4f,7,000,0,0,003,73000003000000101,1.0,2079-06-06,45 Стрелковой Дивизии,7306,7306,afed24ec-d212-48e7-8c78-79d3850c1102,,73204501000,73604101,1,52cccd1a-84fd-448a-a91e-36f113b9946f,000,730000030000001,433750,,73,ул,1900-01-01,0001,7301,7301,2020-08-16,000,0000,000,0,,0000,,0
0,31c82cb9-193b-4f10-9982-28cd62c81670,afed24ec-d212-48e7-8c78-79d3850c1102,7,000,0,0,003,73000003000000102,2.0,2014-11-20,45 Стрелковой Дивизии,7309,7309,f1f2dcd9-3751-4579-bed7-24175cf7f7fa,,73204501000,73604101,21,52cccd1a-84fd-448a-a91e-36f113b9946f,000,730000030000001,433750,118a860c-12fe-412b-ae06-c86e5bb18e4f,73,ул,2013-01-10,0001,7301,7301,2020-08-16,000,0000,000,0,,0000,,0
0,31c82cb9-193b-4f10-9982-28cd62c81670,f1f2dcd9-3751-4579-bed7-24175cf7f7fa,7,000,0,0,003,73000003000000100,0.0,2079-06-06,45 Стрелковой Дивизии,7309,7309,51ae2528-d985-459c-920b-d4ddc9c41f4f,,73204501000,73604101,21,52cccd1a-84fd-448a-a91e-36f113b9946f,000,730000030000001,433750,afed24ec-d212-48e7-8c78-79d3850c1102,73,ул,2014-11-20,0001,,,2020-08-16,000,0000,000,0,,0000,,0
1,31c82cb9-193b-4f10-9982-28cd62c81670,51ae2528-d985-459c-920b-d4ddc9c41f4f,7,000,0,0,003,73000003000000100,0.0,2079-06-06,45 Стрелковой Дивизии,7309,7309,,,73204501000,73604101001,21,52cccd1a-84fd-448a-a91e-36f113b9946f,000,730000030000001,433750,f1f2dcd9-3751-4579-bed7-24175cf7f7fa,73,ул,2020-08-13,0001,,,2020-08-16,000,0000,000,1,,0000,,0
0,62d8e638-64c4-4727-98d1-a911b358f681,458cabea-1b4e-44b1-806a-24e5215df6f1,7,000,0,0,003,73000003000007701,1.0,2079-06-06,Радищева,7306,7306,91c5a468-ae50-4641-b85b-d6fb33d28d04,,73204501000,73604101,1,52cccd1a-84fd-448a-a91e-36f113b9946f,000,730000030000077,433750,,73,ул,1900-01-01,0077,7301,7301,2020-08-16,000,0000,000,0,,0000,,0
0,62d8e638-64c4-4727-98d1-a911b358f681,91c5a468-ae50-4641-b85b-d6fb33d28d04,7,000,0,0,003,73000003000007702,2.0,2014-11-20,Радищева,7309,7309,9ea023ba-54c8-4766-854f-cf7da5a4ac1a,,73204501000,73604101,21,52cccd1a-84fd-448a-a91e-36f113b9946f,000,730000030000077,433750,458cabea-1b4e-44b1-806a-24e5215df6f1,73,ул,2013-01-10,0077,7301,7301,2020-08-16,000,0000,000,0,,0000,,0
0,62d8e638-64c4-4727-98d1-a911b358f681,9ea023ba-54c8-4766-854f-cf7da5a4ac1a,7,000,0,0,003,73000003000007700,0.0,2079-06-06,Радищева,7309,7309,73028900-7179-4c4e-86af-884b0f927b3a,,73204501000,73604101,21,52cccd1a-84fd-448a-a91e-36f113b9946f,000,730000030000077,433750,91c5a468-ae50-4641-b85b-d6fb33d28d04,73,ул,2014-11-20,0077,,,2020-08-16,000,0000,000,0,,0000,,0
1,62d8e638-64c4-4727-98d1-a911b358f681,73028900-7179-4c4e-86af-884b0f927b3a,7,000,0,0,003,73000003000007700,0.0,2079-06-06,Радищева,7309,7309,,,73204501000,73604101001,21,52cccd1a-84fd-448a-a91e-36f113b9946f,000,730000030000077,433750,9ea023ba-54c8-4766-854f-cf7da5a4ac1a,73,ул,2020-08-13,0077,,,2020-08-16,000,0000,000,1,,0000,,0
0,ab6af3b9-85df-463a-8971-ff3b6cadcd42,056d08cc-0a76-4335-98c6-67893204fee9,7,000,0,0,003,73000003000004401,1.0,2079-06-06,Куйбышева,7306,7306,4845ad35-647a-47c6-ae25-9186cb8e3863,,73204501000,73604101,1,52cccd1a-84fd-448a-a91e-36f113b9946f,000,730000030000044,433751,,73,ул,1900-01-01,0044,7301,7301,2020-08-16,000,0000,000,0,,0000,,0
0,ab6af3b9-85df-463a-8971-ff3b6cadcd42,4845ad35-647a-47c6-ae25-9186cb8e3863,7,000,0,0,003,73000003000004402,2.0,2014-11-20,Куйбышева,7309,7309,01db952d-4090-4cf8-89da-29420f671ba1,,73204501000,73604101,21,52cccd1a-84fd-448a-a91e-36f113b9946f,000,730000030000044,433751,056d08cc-0a76-4335-98c6-67893204fee9,73,ул,2013-01-10,0044,7301,7301,2020-08-16,000,0000,000,0,,0000,,0
0,ab6af3b9-85df-463a-8971-ff3b6cadcd42,01db952d-4090-4cf8-89da-29420f671ba1,7,000,0,0,003,73000003000004400,0.0,2079-06-06,Куйбышева,7309,7309,babb46ae-0060-4430-bcb0-b92ce8e49361,,73204501000,73604101,21,52cccd1a-84fd-448a-a91e-36f113b9946f,000,730000030000044,433751,4845ad35-647a-47c6-ae25-9186cb8e3863,73,ул,2014-11-20,0044,,,2020-08-16,000,0000,000,0,,0000,,0
1,ab6af3b9-85df-463a-8971-ff3b6cadcd42,babb46ae-0060-4430-bcb0-b92ce8e49361,7,000,0,0,003,73000003000004400,0.0,2079-06-06,Куйбышева,7309,7309,,,73204501000,73604101001,21,52cccd1a-84fd-448a-a91e-36f113b9946f,000,730000030000044,433751,01db952d-4090-4cf8-89da-29420f671ba1,73,ул,2020-08-13,0044,,,2020-08-16,000,0000,000,1,,0000,,0
0,06049be3-1730-4de5-95de-a2e5fa017fe1,5f3500ed-0500-4dcd-a4df-11d2f4e18df0,7,000,0,0,003,73000003000001301,1.0,2079-06-06,Бумажников,7306,7306,f61a2eee-0cde-4a85-9639-8d13b2c130fe,,73204501000,73604101,1,52cccd1a-84fd-448a-a91e-36f113b9946f,000,730000030000013,433752,,73,ул,1900-01-01,0013,7301,7301,2020-08-16,000,0000,000,0,,0000,,0
0,06049be3-1730-4de5-95de-a2e5fa017fe1,f61a2eee-0cde-4a85-9639-8d13b2c130fe,7,000,0,0,003,73000003000001302,2.0,2014-11-20,Бумажников,7309,7309,80272b98-681e-44ce-a5a6-d6c95acf72d2,,73204501000,73604101,21,52cccd1a-84fd-448a-a91e-36f113b9946f,000,730000030000013,433752,5f3500ed-0500-4dcd-a4df-11d2f4e18df0,73,ул,2013-01-10,0013,7301,7301,2020-08-16,000,0000,000,0,,0000,,0
0,06049be3-1730-4de5-95de-a2e5fa017fe1,80272b98-681e-44ce-a5a6-d6c95acf72d2,7,000,0,0,003,73000003000001300,0.0,2079-06-06,Бумажников,7309,7309,f0307549-85b2-4e56-9a07-7bf4a58e7d19,,73204501000,73604101,21,52cccd1a-84fd-448a-a91e-36f113b9946f,000,730000030000013,433752,f61a2eee-0cde-4a85-9639-8d13b2c130fe,73,ул,2014-11-20,0013,,,2020-08-16,000,0000,000,0,,0000,,0
1,06049be3-1730-4de5-95de-a2e5fa017fe1,f0307549-85b2-4e56-9a07-7bf4a58e7d19,7,000,0,0,003,73000003000001300,0.0,2079-06-06,Бумажников,7309,7309,,,73204501000,73604101001,21,52cccd1a-84fd-448a-a91e-36f113b9946f,000,730000030000013,433752,80272b98-681e-44ce-a5a6-d6c95acf72d2,73,ул,2020-08-13,0013,,,2020-08-16,000,0000,000,1,,0000,,0
0,c2cc798e-7505-4cfa-9cd6-4e88f00806ed,60eefefe-15df-40db-ba30-cca22a3950ce,7,000,0,0,003,73000003000008101,1.0,2079-06-06,Садовый,7306,7306,48bf836b-8175-4cc4-9f0f-46405e55db80,,73204501000,73604101,1,52cccd1a-84fd-448a-a91e-36f113b9946f,000,730000030000081,433751,,73,пер,1900-01-01,0081,7301,7301,2020-08-16,000,0000,000,0,,0000,,0
0,c2cc798e-7505-4cfa-9cd6-4e88f00806ed,48bf836b-8175-4cc4-9f0f-46405e55db80,7,000,0,0,003,73000003000008102,2.0,2014-11-20,Садовый,7309,7309,2c847cf6-ef1c-4d50-b0f9-98f27d3185f6,,73204501000,73604101,21,52cccd1a-84fd-448a-a91e-36f113b9946f,000,730000030000081,433751,60eefefe-15df-40db-ba30-cca22a3950ce,73,пер,2013-01-10,0081,7301,7301,2020-08-16,000,0000,000,0,,0000,,0
0,c2cc798e-7505-4cfa-9cd6-4e88f00806ed,2c847cf6-ef1c-4d50-b0f9-98f27d3185f6,7,000,0,0,003,73000003000008100,0.0,2079-06-06,Садовый,7309,7309,eb01b8fb-b72e-48c1-b5d3-5cd2d6c0e4a1,,73204501000,73604101,21,52cccd1a-84fd-448a-a91e-36f113b9946f,000,730000030000081,433751,48bf836b-8175-4cc4-9f0f-46405e55db80,73,пер,2014-11-20,0081,,,2020-08-16,000,0000,000,0,,0000,,0
1,c2cc798e-7505-4cfa-9cd6-4e88f00806ed,eb01b8fb-b72e-48c1-b5d3-5cd2d6c0e4a1,7,000,0,0,003,73000003000008100,0.0,2079-06-06,Садовый,7309,7309,,,73204501000,73604101001,21,52cccd1a-84fd-448a-a91e-36f113b9946f,000,730000030000081,433751,2c847cf6-ef1c-4d50-b0f9-98f27d3185f6,73,пер,2020-08-13,0081,,,2020-08-16,000,0000,000,1,,0000,,0
0,a402e081-29fc-492c-9442-276b9a7b9f99,a026512d-2a2e-41c5-87fa-83405d9874fa,7,000,0,0,003,73000003000003701,1.0,2079-06-06,Кирова,7306,7306,71ddae05-dfec-4538-9a18-35ae8069e93d,,73204501000,73604101,1,52cccd1a-84fd-448a-a91e-36f113b9946f,000,730000030000037,,,73,ул,1900-01-01,0037,7301,7301,2020-08-16,000,0000,000,0,,0000,,0
0,a402e081-29fc-492c-9442-276b9a7b9f99,71ddae05-dfec-4538-9a18-35ae8069e93d,7,000,0,0,003,73000003000003702,2.0,2013-01-10,Кирова,7306,7306,d79eab52-a787-482b-b5f0-5cbabaa5fbdc,,73204501000,73604101,20,52cccd1a-84fd-448a-a91e-36f113b9946f,000,730000030000037,,a026512d-2a2e-41c5-87fa-83405d9874fa,73,ул,2009-03-26,0037,,,2020-08-16,000,0000,000,0,,0000,,0
0,a402e081-29fc-492c-9442-276b9a7b9f99,d79eab52-a787-482b-b5f0-5cbabaa5fbdc,7,000,0,0,003,73000003000003703,3.0,2014-09-22,Кирова,7309,7309,fdc39712-8ed7-4521-bb01-3339827996a7,,73204501000,73604101,21,52cccd1a-84fd-448a-a91e-36f113b9946f,000,730000030000037,,71ddae05-dfec-4538-9a18-35ae8069e93d,73,ул,2013-01-10,0037,,,2020-08-16,000,0000,000,0,,0000,,0
0,a402e081-29fc-492c-9442-276b9a7b9f99,fdc39712-8ed7-4521-bb01-3339827996a7,7,000,0,0,003,73000003000003700,0.0,2079-06-06,Кирова,7309,7309,40784b19-bfd5-4f75-b4f0-912634cb805d,,73204501000,73604101,21,52cccd1a-84fd-448a-a91e-36f113b9946f,000,730000030000037,,d79eab52-a787-482b-b5f0-5cbabaa5fbdc,73,ул,2014-09-22,0037,,,2020-08-16,000,0000,000,0,,0000,,0
1,a402e081-29fc-492c-9442-276b9a7b9f99,40784b19-bfd5-4f75-b4f0-912634cb805d,7,000,0,0,003,73000003000003700,0.0,2079-06-06,Кирова,7309,7309,,,73204501000,73604101001,21,52cccd1a-84fd-448a-a91e-36f113b9946f,000,730000030000037,,fdc39712-8ed7-4521-bb01-3339827996a7,73,ул,2020-08-13,0037,,,2020-08-16,000,0000,000,1,,0000,,0
1,e3405e83-f9de-4165-bbff-7175a1006b9f,e3405e83-f9de-4165-bbff-7175a1006b9f,65,000,0,0,001,73000001000071800,0.0,2079-06-06,ГСК Солярис,7328,7328,,,73401368000,73701000001,10,bebfd75d-a0da-4bf9-8307-2e2c85eac463,000,730000010000718,,,73,тер.,2020-08-17,0000,,,2020-08-17,000,0000,000,1,,0718,,0
1,0cb7fed0-c875-4f08-a0d3-d8b91ac25735,0cb7fed0-c875-4f08-a0d3-d8b91ac25735,7,017,0,0,000,73017000000004900,0.0,2079-06-06,4,7329,7329,,,73242835000,73642435,10,affc9205-f73b-426b-b78c-9f94aec6794c,000,730170000000049,,,73,линия,2020-08-17,0049,,,2020-08-17,000,0000,000,1,,0048,,0
0,4a552f18-664c-46be-8d23-467ccd70273b,509ccf04-14c7-463b-bfad-24790498d02c,7,000,0,0,001,73000001000033500,0.0,2079-06-06,Ипподромная,7325,7325,7259020e-3e23-4e3e-a1f4-8cf0035bd648,,73401384000,73701000,1,bebfd75d-a0da-4bf9-8307-2e2c85eac463,000,730000010000335,432030,,73,ул,1900-01-01,0335,,,2020-08-20,000,0000,000,0,,0000,,0
1,4a552f18-664c-46be-8d23-467ccd70273b,7259020e-3e23-4e3e-a1f4-8cf0035bd648,7,000,0,0,001,73000001000033500,0.0,2079-06-06,Ипподромная,7325,7325,,,73401384000,73701000001,21,bebfd75d-a0da-4bf9-8307-2e2c85eac463,000,730000010000335,432030,509ccf04-14c7-463b-bfad-24790498d02c,73,ул,2020-08-18,0335,,,2020-08-20,000,0000,000,1,,0000,,0
1,c8f38972-d384-4252-94bd-c179964c040f,c8f38972-d384-4252-94bd-c179964c040f,65,008,0,0,000,73008000000000400,0.0,2079-06-06,Родники,7309,7309,,,73220870000,73620470,10,357909d8-3934-4057-8ab4-f56e7bb5b9a3,000,730080000000004,,,73,тер. ДНТ,2020-08-19,0000,,,2020-08-20,000,0000,000,1,,0004,,0
1,84db813a-774e-42ce-9255-84b0bfa1836d,84db813a-774e-42ce-9255-84b0bfa1836d,65,008,0,0,000,73008000000000300,0.0,2079-06-06,Родники рабочих и служащих МСУ Отделспецстрой г.Ульяновска,7309,7309,,,73220870000,73620470,10,357909d8-3934-4057-8ab4-f56e7bb5b9a3,000,730080000000003,,,73,тер. СНТ,2020-08-19,0000,,,2020-08-20,000,0000,000,1,,0003,,0
0,beebf4b7-3a7a-431f-a1d4-9cbc3cd52321,b0428e84-c896-42e3-931b-4858ed42332b,7,000,0,0,004,73000004000000200,0.0,2079-06-06,Ульяновская,7321,7321,58e3dd06-77ce-4dd3-b50d-215a6a5c7e29,,73415000000,73715000,1,c21a50ef-de67-477c-887b-a1202730ee8e,000,730000040000002,433300,,73,ул,1900-01-01,0002,,,2020-08-20,000,0000,000,0,,0000,,0
1,beebf4b7-3a7a-431f-a1d4-9cbc3cd52321,58e3dd06-77ce-4dd3-b50d-215a6a5c7e29,7,000,0,0,004,73000004000000200,0.0,2079-06-06,Ульяновская,7321,7321,,,73415000000,73715000001,21,c21a50ef-de67-477c-887b-a1202730ee8e,000,730000040000002,433300,b0428e84-c896-42e3-931b-4858ed42332b,73,ул,2020-08-18,0002,,,2020-08-20,000,0000,000,1,,0000,,0
0,62b62fe3-0ec9-4e1d-a874-65a4d029ba13,62b62fe3-0ec9-4e1d-a874-65a4d029ba13,90,000,0,0,002,73000002000035951,51.0,2016-09-29,Химмаш-3 (ПО),7329,7329,53b4fbc5-7d33-4b2b-a73c-f6990631f91c,,73405000000,73705000,10,73b29372-242c-42c5-89cd-8814bc2368af,000,730000020000359,433510,,73,сад,1994-01-27,0000,,,2020-08-20,000,0000,000,0,,0000,,0
0,62b62fe3-0ec9-4e1d-a874-65a4d029ba13,53b4fbc5-7d33-4b2b-a73c-f6990631f91c,65,000,0,0,002,73000002000035901,1.0,2020-08-19,Химмаш-3 (ПО),7329,7329,bf6fc8a7-2921-45f9-a3ae-c29eac975386,,73405000000,73705000,50,73b29372-242c-42c5-89cd-8814bc2368af,000,730000020000359,433510,62b62fe3-0ec9-4e1d-a874-65a4d029ba13,73,сад,2016-09-29,0000,,,2020-08-20,000,0000,000,0,,0359,,0
1,62b62fe3-0ec9-4e1d-a874-65a4d029ba13,bf6fc8a7-2921-45f9-a3ae-c29eac975386,65,000,0,0,002,73000002000035900,0.0,2079-06-06,СО Химмаш-3,7329,7329,,,73405000000,73705000001,20,73b29372-242c-42c5-89cd-8814bc2368af,000,730000020000359,433510,53b4fbc5-7d33-4b2b-a73c-f6990631f91c,73,тер.,2020-08-19,0000,,,2020-08-20,000,0000,000,1,,0359,,0
1,34c87069-9a19-4e07-aeb8-93bb1ab3caab,34c87069-9a19-4e07-aeb8-93bb1ab3caab,65,005,0,0,000,73005000059001200,0.0,2079-06-06,Промзона,7309,7309,,,73210880001,73610480101,10,1fcba0b6-9316-48ba-a993-e44e15b56db3,059,730050000590012,433010,,73,тер.,2020-08-18,0000,,,2020-08-20,000,0000,000,1,,0012,,0
0,d01743fe-1c8d-4cef-91ac-0381d6e90e4d,e12b210e-ce7e-4528-86ed-cf0a80d65575,7,000,0,0,001,73000001000067000,0.0,2079-06-06,Чайковского,7325,7325,7416ad69-6a19-4791-ba65-eec75f5de0c6,,73401384000,73701000,1,bebfd75d-a0da-4bf9-8307-2e2c85eac463,000,730000010000670,,,73,ул,1900-01-01,0670,,,2020-08-20,000,0000,000,0,,0000,,0
1,d01743fe-1c8d-4cef-91ac-0381d6e90e4d,7416ad69-6a19-4791-ba65-eec75f5de0c6,7,000,0,0,001,73000001000067000,0.0,2079-06-06,Чайковского,7325,7325,,,73401384000,73701000001,21,bebfd75d-a0da-4bf9-8307-2e2c85eac463,000,730000010000670,,e12b210e-ce7e-4528-86ed-cf0a80d65575,73,ул,2020-08-18,0670,,,2020-08-20,000,0000,000,1,,0000,,0
0,0b7618e7-bf34-4a42-87c2-3a33829b88c0,9090ce35-83e7-4736-a16d-4b4951fd96f7,7,000,0,0,001,73000001000012001,1.0,2079-06-06,Береговой 2-й,7326,7326,fade5f01-1788-4854-8ffe-e7bb98e11a31,,73401365000,73701000,1,bebfd75d-a0da-4bf9-8307-2e2c85eac463,000,730000010000120,432044,,73,пер,1900-01-01,0120,,,2020-08-22,000,0000,000,0,,0000,,0
0,0b7618e7-bf34-4a42-87c2-3a33829b88c0,fade5f01-1788-4854-8ffe-e7bb98e11a31,7,000,0,0,001,73000001000012000,0.0,2079-06-06,Береговой 2-й,7321,7321,dccabcd8-cc6a-4fb4-80b2-a0bf70c51148,,73401365000,73701000,21,bebfd75d-a0da-4bf9-8307-2e2c85eac463,000,730000010000120,432044,9090ce35-83e7-4736-a16d-4b4951fd96f7,73,пер,2018-06-15,0120,,,2020-08-22,000,0000,000,0,350ddcc6-6abf-4427-b95f-aebf4b4f1e02,0000,,0
1,0b7618e7-bf34-4a42-87c2-3a33829b88c0,dccabcd8-cc6a-4fb4-80b2-a0bf70c51148,7,000,0,0,001,73000001000012000,0.0,2079-06-06,Береговой 2-й,7321,7321,,,73401365000,73701000001,21,bebfd75d-a0da-4bf9-8307-2e2c85eac463,000,730000010000120,432044,fade5f01-1788-4854-8ffe-e7bb98e11a31,73,пер,2020-08-20,0120,,,2020-08-22,000,0000,000,1,,0000,,0
0,2dc6fd97-757c-4eca-83f7-bb0dd4514456,2dc6fd97-757c-4eca-83f7-bb0dd4514456,7,000,0,0,001,73000001000110701,1.0,2015-12-30,им Илюшина,7328,7328,dbf7fa51-1f11-4833-92a7-6c932b0a404f,,73401368000,73701000,10,bebfd75d-a0da-4bf9-8307-2e2c85eac463,000,730000010001107,432067,,73,б-р,2013-11-12,1107,,,2020-08-22,000,0000,000,0,,0000,,0
0,2dc6fd97-757c-4eca-83f7-bb0dd4514456,dbf7fa51-1f11-4833-92a7-6c932b0a404f,7,000,0,0,001,73000001000110702,2.0,2015-12-30,им Илюшина,7328,7328,a213decf-91e9-474b-a2a3-d578cf5b213a,,73401000000,73701000,20,bebfd75d-a0da-4bf9-8307-2e2c85eac463,000,730000010001107,432067,2dc6fd97-757c-4eca-83f7-bb0dd4514456,73,б-р,2015-11-18,1107,,,2020-08-22,000,0000,000,0,a96e1f6e-fd96-4fd5-8801-c144bb52afbe,0000,,0
0,2dc6fd97-757c-4eca-83f7-bb0dd4514456,a213decf-91e9-474b-a2a3-d578cf5b213a,7,000,0,0,001,73000001000110700,0.0,2079-06-06,им Ильюшина,7328,7328,e72b4c01-1d9b-4c13-954b-eb689db8584b,,73401000000,73701000,20,bebfd75d-a0da-4bf9-8307-2e2c85eac463,000,730000010001107,432051,dbf7fa51-1f11-4833-92a7-6c932b0a404f,73,б-р,2015-12-30,1107,,,2020-08-22,000,0000,000,0,fb7a5c12-bd14-43c5-9cf0-1ad97360869f,0000,,0
1,2dc6fd97-757c-4eca-83f7-bb0dd4514456,e72b4c01-1d9b-4c13-954b-eb689db8584b,7,000,0,0,001,73000001000110700,0.0,2079-06-06,им Ильюшина,7328,7328,,,73401000000,73701000001,21,bebfd75d-a0da-4bf9-8307-2e2c85eac463,000,730000010001107,432051,a213decf-91e9-474b-a2a3-d578cf5b213a,73,б-р,2020-08-20,1107,,,2020-08-22,000,0000,000,1,,0000,,0
0,9c2b9128-024d-4335-adfd-b9988fc5a183,fe5c899f-8573-42a5-9685-08894ec36909,7,000,0,0,001,73000001000000101,1.0,2079-06-06,9 Мая 1-й,7328,7328,10b3940b-d58d-4271-a26b-3bed023a698f,,73401368000,73701000,1,bebfd75d-a0da-4bf9-8307-2e2c85eac463,000,730000010000001,432067,,73,пер,1900-01-01,0001,,,2020-08-22,000,0000,000,0,,0000,,0
0,9c2b9128-024d-4335-adfd-b9988fc5a183,10b3940b-d58d-4271-a26b-3bed023a698f,7,000,0,0,001,73000001000000100,0.0,2079-06-06,9 Мая 1-й,7328,7328,cc42f6f7-af1c-4dab-97f0-65ca88dab648,,73401000000,73701000,21,bebfd75d-a0da-4bf9-8307-2e2c85eac463,000,730000010000001,432057,fe5c899f-8573-42a5-9685-08894ec36909,73,пер,2015-11-18,0001,,,2020-08-22,000,0000,000,0,,0000,,0
1,9c2b9128-024d-4335-adfd-b9988fc5a183,cc42f6f7-af1c-4dab-97f0-65ca88dab648,7,000,0,0,001,73000001000000100,0.0,2079-06-06,9 Мая 1-й,7328,7328,,,73401000000,73701000001,21,bebfd75d-a0da-4bf9-8307-2e2c85eac463,000,730000010000001,432057,10b3940b-d58d-4271-a26b-3bed023a698f,73,пер,2020-08-20,0001,,,2020-08-22,000,0000,000,1,,0000,,0
0,df8dbf63-be8f-4c78-ab80-6ed7dba30640,f99dfd40-9dfc-47cc-ba65-8e91dbde2663,7,000,0,0,001,73000001000014301,1.0,2079-06-06,9 Мая 3-й,7328,7328,19a944ad-26d0-497b-81dd-f0ed8b16385b,,73401368000,73701000,1,bebfd75d-a0da-4bf9-8307-2e2c85eac463,000,730000010000143,432010,,73,пер,1900-01-01,0143,,,2020-08-22,000,0000,000,0,,0000,,0
0,df8dbf63-be8f-4c78-ab80-6ed7dba30640,19a944ad-26d0-497b-81dd-f0ed8b16385b,7,000,0,0,001,73000001000014300,0.0,2079-06-06,9 Мая 3-й,7328,7328,b510d706-4848-43ea-b5d6-f30c75dd89db,,73401000000,73701000,21,bebfd75d-a0da-4bf9-8307-2e2c85eac463,000,730000010000143,432057,f99dfd40-9dfc-47cc-ba65-8e91dbde2663,73,пер,2015-11-18,0143,,,2020-08-22,000,0000,000,0,,0000,,0
1,df8dbf63-be8f-4c78-ab80-6ed7dba30640,b510d706-4848-43ea-b5d6-f30c75dd89db,7,000,0,0,001,73000001000014300,0.0,2079-06-06,9 Мая 3-й,7328,7328,,,73401000000,73701000001,21,bebfd75d-a0da-4bf9-8307-2e2c85eac463,000,730000010000143,432057,19a944ad-26d0-497b-81dd-f0ed8b16385b,73,пер,2020-08-20,0143,,,2020-08-22,000,0000,000,1,,0000,,0
0,ca5221e7-b3ed-4d4f-b9d9-9540ac2ff076,7912ab58-a5fd-4e09-93a8-4edf27b25154,7,000,0,0,001,73000001000004801,1.0,2079-06-06,Береговой 1-й,7326,7326,741d1b14-d7af-452f-b8b0-8810007bb2cc,,73401365000,73701000,1,bebfd75d-a0da-4bf9-8307-2e2c85eac463,000,730000010000048,432044,,73,пер,1900-01-01,0048,,,2020-08-22,000,0000,000,0,,0000,,0
0,ca5221e7-b3ed-4d4f-b9d9-9540ac2ff076,741d1b14-d7af-452f-b8b0-8810007bb2cc,7,000,0,0,001,73000001000004800,0.0,2079-06-06,Береговой 1-й,7321,7321,3c4b9c4e-482d-47e9-88f4-b64b26de9712,,73401365000,73701000,21,bebfd75d-a0da-4bf9-8307-2e2c85eac463,000,730000010000048,432044,7912ab58-a5fd-4e09-93a8-4edf27b25154,73,пер,2018-06-15,0048,,,2020-08-22,000,0000,000,0,350ddcc6-6abf-4427-b95f-aebf4b4f1e02,0000,,0
1,ca5221e7-b3ed-4d4f-b9d9-9540ac2ff076,3c4b9c4e-482d-47e9-88f4-b64b26de9712,7,000,0,0,001,73000001000004800,0.0,2079-06-06,Береговой 1-й,7321,7321,,,73401365000,73701000001,21,bebfd75d-a0da-4bf9-8307-2e2c85eac463,000,730000010000048,432044,741d1b14-d7af-452f-b8b0-8810007bb2cc,73,пер,2020-08-20,0048,,,2020-08-22,000,0000,000,1,,0000,,0
0,fc44b165-9052-4564-96da-e5577f2fcc1a,1eeb60d4-7356-4a3d-be5f-5be489e90cb8,7,000,0,0,001,73000001000069101,1.0,2079-06-06,Энергетиков,7326,7326,4d0e7291-76c7-4055-9ad1-2be7addfdbfe,,73401365000,73701000,1,bebfd75d-a0da-4bf9-8307-2e2c85eac463,000,730000010000691,432035,,73,проезд,1900-01-01,0691,,,2020-08-22,000,0000,000,0,,0000,,0
0,fc44b165-9052-4564-96da-e5577f2fcc1a,4d0e7291-76c7-4055-9ad1-2be7addfdbfe,7,000,0,0,001,73000001000069100,0.0,2079-06-06,Энергетиков,7321,7321,fefb5109-1b51-4258-8890-0853210ddbcd,,73401365000,73701000,21,bebfd75d-a0da-4bf9-8307-2e2c85eac463,000,730000010000691,432035,1eeb60d4-7356-4a3d-be5f-5be489e90cb8,73,проезд,2018-06-15,0691,,,2020-08-22,000,0000,000,0,350ddcc6-6abf-4427-b95f-aebf4b4f1e02,0000,,0
1,fc44b165-9052-4564-96da-e5577f2fcc1a,fefb5109-1b51-4258-8890-0853210ddbcd,7,000,0,0,001,73000001000069100,0.0,2079-06-06,Энергетиков,7321,7321,,,73401365000,73701000001,21,bebfd75d-a0da-4bf9-8307-2e2c85eac463,000,730000010000691,432035,4d0e7291-76c7-4055-9ad1-2be7addfdbfe,73,проезд,2020-08-20,0691,,,2020-08-22,000,0000,000,1,,0000,,0
1,6750ac4a-11c9-421b-824d-ea97afb28cc4,6750ac4a-11c9-421b-824d-ea97afb28cc4,65,000,0,0,001,73000001000072000,0.0,2079-06-06,ГСК Памир,7325,7325,,,73401384000,73701000001,10,bebfd75d-a0da-4bf9-8307-2e2c85eac463,000,730000010000720,,,73,тер.,2020-08-20,0000,,,2020-08-22,000,0000,000,1,,0720,,0
0,6cff1e96-c973-4185-937a-24c37b6f0989,38d2ca63-cd4a-417c-9a41-289ac7c950ba,7,000,0,0,001,73000001000046101,1.0,2079-06-06,Нефтяников,7326,7326,364eb87b-08ad-4cdf-afa7-523a47b9635a,,73401365000,73701000,1,bebfd75d-a0da-4bf9-8307-2e2c85eac463,000,730000010000461,432035,,73,проезд,1900-01-01,0461,,,2020-08-22,000,0000,000,0,,0000,,0
0,6cff1e96-c973-4185-937a-24c37b6f0989,364eb87b-08ad-4cdf-afa7-523a47b9635a,7,000,0,0,001,73000001000046100,0.0,2079-06-06,Нефтяников,7321,7321,0be13a84-0399-4886-a529-3d80c2a173f4,,73401365000,73701000,21,bebfd75d-a0da-4bf9-8307-2e2c85eac463,000,730000010000461,432035,38d2ca63-cd4a-417c-9a41-289ac7c950ba,73,проезд,2018-06-15,0461,,,2020-08-22,000,0000,000,0,350ddcc6-6abf-4427-b95f-aebf4b4f1e02,0000,,0
1,6cff1e96-c973-4185-937a-24c37b6f0989,0be13a84-0399-4886-a529-3d80c2a173f4,7,000,0,0,001,73000001000046100,0.0,2079-06-06,Нефтяников,7321,7321,,,73401365000,73701000001,21,bebfd75d-a0da-4bf9-8307-2e2c85eac463,000,730000010000461,432035,364eb87b-08ad-4cdf-afa7-523a47b9635a,73,проезд,2020-08-20,0461,,,2020-08-22,000,0000,000,1,,0000,,0
0,796f4132-6b28-4865-8cdb-255afdb5fe28,513626f2-0542-446a-bb8c-3431fb6f67fa,7,000,0,0,001,73000001000007401,1.0,2079-06-06,9 Мая 2-й,7328,7328,9f6cbabd-a219-42f0-b2c7-16cbcafb189b,,73401368000,73701000,1,bebfd75d-a0da-4bf9-8307-2e2c85eac463,000,730000010000074,432010,,73,пер,1900-01-01,0074,,,2020-08-22,000,0000,000,0,,0000,,0
0,796f4132-6b28-4865-8cdb-255afdb5fe28,9f6cbabd-a219-42f0-b2c7-16cbcafb189b,7,000,0,0,001,73000001000007400,0.0,2079-06-06,9 Мая 2-й,7328,7328,184a12d3-0aa7-4abf-8c3f-2e0344320c4c,,73401000000,73701000,21,bebfd75d-a0da-4bf9-8307-2e2c85eac463,000,730000010000074,432057,513626f2-0542-446a-bb8c-3431fb6f67fa,73,пер,2015-11-18,0074,,,2020-08-22,000,0000,000,0,,0000,,0
1,796f4132-6b28-4865-8cdb-255afdb5fe28,184a12d3-0aa7-4abf-8c3f-2e0344320c4c,7,000,0,0,001,73000001000007400,0.0,2079-06-06,9 Мая 2-й,7328,7328,,,73401000000,73701000001,21,bebfd75d-a0da-4bf9-8307-2e2c85eac463,000,730000010000074,432057,9f6cbabd-a219-42f0-b2c7-16cbcafb189b,73,пер,2020-08-20,0074,,,2020-08-22,000,0000,000,1,,0000,,0
0,a9a03a74-84c4-4d2f-a3ca-4e1e1c351878,a9a03a74-84c4-4d2f-a3ca-4e1e1c351878,65,000,0,0,001,73000001000119100,0.0,2079-06-06,Олимп-2,7328,7328,94ded07a-137f-4465-b163-f64666204f6e,,73401000000,73701000,10,bebfd75d-a0da-4bf9-8307-2e2c85eac463,000,730000010001191,432000,,73,тер. ГСК,2016-12-29,0000,,,2020-08-27,000,0000,000,0,8be791ef-5ed2-4b89-8c48-716d7f86816e,1191,,0
0,a9a03a74-84c4-4d2f-a3ca-4e1e1c351878,94ded07a-137f-4465-b163-f64666204f6e,65,000,0,0,001,73000001000119100,0.0,2079-06-06,Олимп-2,7328,7328,c20cab77-192c-4c62-850d-244ce9022ff4,,73401000000,73701000001,21,bebfd75d-a0da-4bf9-8307-2e2c85eac463,000,730000010001191,432000,a9a03a74-84c4-4d2f-a3ca-4e1e1c351878,73,тер. ГСК,2020-08-25,0000,,,2020-08-27,000,0000,000,0,,1191,,0
1,a9a03a74-84c4-4d2f-a3ca-4e1e1c351878,c20cab77-192c-4c62-850d-244ce9022ff4,65,000,0,0,001,73000001000119100,0.0,2079-06-06,Олимп-2,7328,7328,,,73401368000,73701000001,21,bebfd75d-a0da-4bf9-8307-2e2c85eac463,000,730000010001191,432000,94ded07a-137f-4465-b163-f64666204f6e,73,тер. ГСК,2020-08-26,0000,,,2020-08-27,000,0000,000,1,,1191,,0
0,d08acc10-cc47-410b-a138-fcf19591bbf3,d08acc10-cc47-410b-a138-fcf19591bbf3,90,000,0,0,002,73000002000036651,51.0,2016-09-29,Автомобилист,7329,7329,70215fe6-fa71-47cb-9fc2-20e1a8151a28,,73405000000,73705000,10,a515eabd-1974-4006-a915-6bb14ac4f94a,000,730000020000366,433501,,73,снт,1998-02-02,0136,,,2020-08-27,000,0000,000,0,,0000,,0
0,d08acc10-cc47-410b-a138-fcf19591bbf3,70215fe6-fa71-47cb-9fc2-20e1a8151a28,65,000,0,0,002,73000002000036601,1.0,2020-08-25,Автомобилист,7329,7329,789a4c58-2d9c-4445-9658-4ae7e543488e,,73405000000,73705000001,50,73b29372-242c-42c5-89cd-8814bc2368af,000,730000020000366,433501,d08acc10-cc47-410b-a138-fcf19591bbf3,73,снт,2016-09-29,0000,,,2020-08-27,000,0000,000,0,,0366,,0
1,d08acc10-cc47-410b-a138-fcf19591bbf3,789a4c58-2d9c-4445-9658-4ae7e543488e,65,000,0,0,002,73000002000036600,0.0,2079-06-06,СТ Автомобилист п.Дачный,7329,7329,,,73405000000,73705000001,20,73b29372-242c-42c5-89cd-8814bc2368af,000,730000020000366,433501,70215fe6-fa71-47cb-9fc2-20e1a8151a28,73,тер.,2020-08-25,0000,,,2020-08-27,000,0000,000,1,,0366,,0
0,9eb7959f-f865-4ea9-9aba-5be8c268b63f,9eb7959f-f865-4ea9-9aba-5be8c268b63f,65,000,0,0,001,73000001000125800,0.0,2079-06-06,Олимп,7328,7328,ad4a7200-5660-477e-8aca-626ed92a6355,,73401000000,73701000,10,bebfd75d-a0da-4bf9-8307-2e2c85eac463,000,730000010001258,432000,,73,тер. ГСК,2017-03-06,0000,,,2020-08-27,000,0000,000,0,bf6ac051-75be-41d1-bd5f-3900ebc78fd6,1258,,0
1,9eb7959f-f865-4ea9-9aba-5be8c268b63f,ad4a7200-5660-477e-8aca-626ed92a6355,65,000,0,0,001,73000001000125800,0.0,2079-06-06,Олимп,7328,7328,,,73401368000,73701000,21,bebfd75d-a0da-4bf9-8307-2e2c85eac463,000,730000010001258,432000,9eb7959f-f865-4ea9-9aba-5be8c268b63f,73,тер. ГСК,2020-08-26,0000,,,2020-08-27,000,0000,000,1,,1258,,0
