ACTSTATUS,AOGUID,AOID,AOLEVEL,AREACODE,AUTOCODE,CENTSTATUS,CITYCODE,CODE,CURRSTATUS,ENDDATE,FORMALNAME,IFNSFL,IFNSUL,NEXTID,OFFNAME,OKATO,OKTMO,OPERSTATUS,PARENTGUID,PLACECODE,PLAINCODE,POSTALCODE,PREVID,REGIONCODE,SHORTNAME,STARTDATE,STREETCODE,TERRIFNSFL,TERRIFNSUL,UPDATEDATE,CTARCODE,EXTRCODE,SEXTCODE,LIVESTATUS,NORMDOC,PLANCODE,CADNUM,DIVTYPE
0,a89b84ea-0150-468e-9336-34f1a08604ff,a89b84ea-0150-468e-9336-34f1a08604ff,65,001,0,0,000,76001000000019000,0.0,2079-06-06,Шиголость-2,7627,7627,89d51150-222b-439a-ad0a-63e2d50ed644,,78250000000,78650410,10,07842df6-2f70-4e43-a177-4701fb3ff10e,000,760010000000190,,,76,тер.,2020-03-05,0000,,,2020-08-30,000,0000,000,0,,0190,,0
1,a89b84ea-0150-468e-9336-34f1a08604ff,89d51150-222b-439a-ad0a-63e2d50ed644,65,001,0,0,000,76001000000019000,0.0,2079-06-06,Шиголость-2,7627,7627,,,78250000000,78650410,21,07842df6-2f70-4e43-a177-4701fb3ff10e,000,760010000000190,150027,a89b84ea-0150-468e-9336-34f1a08604ff,76,тер.,2020-08-28,0000,,,2020-08-30,000,0000,000,1,,0190,,0
1,57073218-3e3f-452e-b74f-2c804416b635,57073218-3e3f-452e-b74f-2c804416b635,7,015,0,0,001,76015001000014000,0.0,2079-06-06,Янская,7610,7610,,,78415000000,78715000001,10,292c0a6a-47ce-435d-8a75-f80e9ce67fba,000,760150010000140,,,76,ул,2020-09-02,0140,,,2020-09-03,000,0000,000,1,,0000,,0
1,21bd3139-ce97-4853-a821-20d04906cf16,21bd3139-ce97-4853-a821-20d04906cf16,7,015,0,0,001,76015001000011900,0.0,2079-06-06,Шумаровская,7610,7610,,,78415000000,78715000001,10,292c0a6a-47ce-435d-8a75-f80e9ce67fba,000,760150010000119,,,76,ул,2020-09-02,0119,,,2020-09-03,000,0000,000,1,,0000,,0
1,681274ef-7207-4989-ad1c-87c6b8f549b4,681274ef-7207-4989-ad1c-87c6b8f549b4,7,015,0,0,001,76015001000012300,0.0,2079-06-06,Афанасьевская,7610,7610,,,78415000000,78715000001,10,292c0a6a-47ce-435d-8a75-f80e9ce67fba,000,760150010000123,,,76,ул,2020-09-02,0123,,,2020-09-03,000,0000,000,1,,0000,,0
1,aaa49454-e3ab-4fc9-bc75-7b7704747ea3,aaa49454-e3ab-4fc9-bc75-7b7704747ea3,7,015,0,0,001,76015001000012600,0.0,2079-06-06,Копорьевская,7610,7610,,,78415000000,78715000001,10,292c0a6a-47ce-435d-8a75-f80e9ce67fba,000,760150010000126,,,76,ул,2020-09-02,0126,,,2020-09-03,000,0000,000,1,,0000,,0
1,138bc010-fc4a-4843-bb19-4f3af5f3314d,138bc010-fc4a-4843-bb19-4f3af5f3314d,7,015,0,0,001,76015001000013900,0.0,2079-06-06,Иловенская,7610,7610,,,78415000000,78715000001,10,292c0a6a-47ce-435d-8a75-f80e9ce67fba,000,760150010000139,,,76,ул,2020-09-02,0139,,,2020-09-03,000,0000,000,1,,0000,,0
1,e07842fc-5cef-4fe9-9f1c-0fb243ba7f66,e07842fc-5cef-4fe9-9f1c-0fb243ba7f66,7,015,0,0,001,76015001000013200,0.0,2079-06-06,Кулигская,7610,7610,,,78415000000,78715000001,10,292c0a6a-47ce-435d-8a75-f80e9ce67fba,000,760150010000132,,,76,ул,2020-09-02,0132,,,2020-09-03,000,0000,000,1,,0000,,0
1,753fa0eb-e052-4480-bf7e-df70f5450ef3,753fa0eb-e052-4480-bf7e-df70f5450ef3,7,015,0,0,001,76015001000011500,0.0,2079-06-06,Успенская,7610,7610,,,78415000000,78715000001,10,292c0a6a-47ce-435d-8a75-f80e9ce67fba,000,760150010000115,,,76,ул,2020-09-02,0115,,,2020-09-03,000,0000,000,1,,0000,,0
1,247117f0-c847-42c0-a4e5-70cba3250217,247117f0-c847-42c0-a4e5-70cba3250217,7,015,0,0,001,76015001000014100,0.0,2079-06-06,Югская,7610,7610,,,78415000000,78715000001,10,292c0a6a-47ce-435d-8a75-f80e9ce67fba,000,760150010000141,,,76,ул,2020-09-02,0141,,,2020-09-03,000,0000,000,1,,0000,,0
1,222b837e-328f-481a-9227-bab02fd99328,222b837e-328f-481a-9227-bab02fd99328,7,001,0,0,000,76001000581000500,0.0,2079-06-06,Полетаева,7627,7627,,,78250870023,78650470211,10,132314cd-b4cd-43a6-aaab-49bac0a22281,581,760010005810005,150517,,76,ул,2020-09-02,0005,,,2020-09-03,000,0000,000,1,,0000,,0
0,9aa4872a-d2ba-4e0f-a980-601c2ae9d636,b50aaeb8-2749-4dad-ac90-c4c086d0a9a9,6,001,0,0,000,7600100062801,1.0,2079-06-06,Юрьево,7627,7627,e88ec4c9-c15c-4b65-b1eb-b742712b69e6,,78250845021,78650410,1,07842df6-2f70-4e43-a177-4701fb3ff10e,628,76001000628,150515,,76,д,1900-01-01,0000,,,2020-08-16,000,0000,000,0,,0000,,0
0,9aa4872a-d2ba-4e0f-a980-601c2ae9d636,e88ec4c9-c15c-4b65-b1eb-b742712b69e6,6,001,0,0,000,7600100062800,0.0,2020-08-12,Юрьево,7627,7627,c1fe00e0-4942-45de-9075-a3b9758d63b1,,78250845021,78650410,20,07842df6-2f70-4e43-a177-4701fb3ff10e,628,76001000628,,b50aaeb8-2749-4dad-ac90-c4c086d0a9a9,76,д,1900-01-01,0000,,,2020-08-16,000,0000,000,0,8a4d62fd-939a-46a1-bc96-f286e92cdf67,0000,,0
1,9aa4872a-d2ba-4e0f-a980-601c2ae9d636,c1fe00e0-4942-45de-9075-a3b9758d63b1,6,001,0,0,000,7600100062800,0.0,2079-06-06,Юрьево,7627,7627,,,78250845021,78650410276,20,07842df6-2f70-4e43-a177-4701fb3ff10e,628,76001000628,,e88ec4c9-c15c-4b65-b1eb-b742712b69e6,76,д,2020-08-12,0000,,,2020-08-16,000,0000,000,1,5a02afbf-5f8a-44b9-b489-8db6099ac790,0000,,0
0,e711178a-8597-4ceb-846b-b200de469056,32830c0d-464b-4122-ad08-48315f366481,7,000,0,0,001,76000001000086501,1.0,2020-08-14,Поселок Сокол 20-й,7604,7604,d2d19655-549a-458b-9857-ebaaefb94b23,,78401387000,78701000,1,6b1bab7d-ee45-4168-a2a6-4ce2880d90d3,000,760000010000865,150030,,76,проезд,1900-01-01,0865,,,2020-08-16,000,0000,000,0,,0000,,0
0,e711178a-8597-4ceb-846b-b200de469056,d2d19655-549a-458b-9857-ebaaefb94b23,7,000,0,0,001,76000001000086502,2.0,2018-10-12,Поселок Сокол 20-й,7604,7604,7996d666-9e28-41b2-8b01-ab9a91da794e,,78401387000,78701000,20,6b1bab7d-ee45-4168-a2a6-4ce2880d90d3,000,760000010000865,150022,32830c0d-464b-4122-ad08-48315f366481,76,проезд,1900-01-01,0865,,,2020-08-16,000,0000,000,0,73f4e3d6-c2da-47be-a856-dd03e93cd2e5,0000,,0
0,e711178a-8597-4ceb-846b-b200de469056,7996d666-9e28-41b2-8b01-ab9a91da794e,7,000,0,0,001,76000001000086503,3.0,2020-08-14,Поселок Сокол 20-й,7604,7604,599ebd67-99ff-48cb-bf69-482f413bc4b7,,78401387000,78701000001,21,6b1bab7d-ee45-4168-a2a6-4ce2880d90d3,000,760000010000865,150022,d2d19655-549a-458b-9857-ebaaefb94b23,76,проезд,2018-10-12,0865,,,2020-08-16,000,0000,000,0,79b394f1-0e9a-43fe-91e7-9a8cb9dd4b48,0000,,0
0,e711178a-8597-4ceb-846b-b200de469056,599ebd67-99ff-48cb-bf69-482f413bc4b7,7,000,0,0,001,76000001000086503,3.0,2079-06-06,Поселок Сокол 20-й,7604,7604,4a392f2d-0d94-4ef2-9b2f-44aed46d7105,,78401000000,78701000001,21,6b1bab7d-ee45-4168-a2a6-4ce2880d90d3,000,760000010000865,150022,7996d666-9e28-41b2-8b01-ab9a91da794e,76,проезд,2020-07-08,0865,,,2020-08-16,000,0000,000,0,8a11d1a4-84ca-4c7c-8b32-5c3542dba99d,0000,,0
1,e711178a-8597-4ceb-846b-b200de469056,4a392f2d-0d94-4ef2-9b2f-44aed46d7105,7,000,0,0,001,76000001000086500,0.0,2079-06-06,20-й поселок Сокол,7604,7604,,,78401000000,78701000001,20,6b1bab7d-ee45-4168-a2a6-4ce2880d90d3,000,760000010000865,150022,599ebd67-99ff-48cb-bf69-482f413bc4b7,76,проезд,2020-08-14,0865,,,2020-08-16,000,0000,000,1,,0000,,0
0,ff1b9aae-562c-44bf-ac43-700a873f19f2,a692f0d8-7fb4-4394-9044-63fdce441c04,7,000,0,0,001,76000001000008001,1.0,2020-08-12,ст Брагино,7602,7602,8aa8ed76-a672-44ab-8611-fc8c0feac8e6,,78401362000,78701000,1,6b1bab7d-ee45-4168-a2a6-4ce2880d90d3,000,760000010000080,150044,,76,д,1900-01-01,0080,,,2020-08-16,000,0000,000,0,,0000,,0
0,ff1b9aae-562c-44bf-ac43-700a873f19f2,8aa8ed76-a672-44ab-8611-fc8c0feac8e6,7,000,0,0,001,76000001000008002,2.0,2018-10-12,ст Брагино,7602,7602,ff687f1c-73f9-4cb1-a3ff-e7f00ae390dd,,78401362000,78701000,20,6b1bab7d-ee45-4168-a2a6-4ce2880d90d3,000,760000010000080,150044,a692f0d8-7fb4-4394-9044-63fdce441c04,76,д,1900-01-01,0080,,,2020-08-16,000,0000,000,0,dbe28e72-5dfa-43bb-adea-42ae0b1cdba0,0000,,0
0,ff1b9aae-562c-44bf-ac43-700a873f19f2,ff687f1c-73f9-4cb1-a3ff-e7f00ae390dd,7,000,0,0,001,76000001000008003,3.0,2020-08-12,ст Брагино,7602,7602,7d33c41b-0ee8-4c84-9806-1d5cef8753de,,78401362000,78701000001,21,6b1bab7d-ee45-4168-a2a6-4ce2880d90d3,000,760000010000080,150044,8aa8ed76-a672-44ab-8611-fc8c0feac8e6,76,д,2018-10-12,0080,,,2020-08-16,000,0000,000,0,79b394f1-0e9a-43fe-91e7-9a8cb9dd4b48,0000,,0
0,ff1b9aae-562c-44bf-ac43-700a873f19f2,7d33c41b-0ee8-4c84-9806-1d5cef8753de,7,000,0,0,001,76000001000008003,3.0,2079-06-06,ст Брагино,7602,7602,d9e0a630-6150-4e14-9688-9ecbbf26ac81,,78401000000,78701000001,21,6b1bab7d-ee45-4168-a2a6-4ce2880d90d3,000,760000010000080,150044,ff687f1c-73f9-4cb1-a3ff-e7f00ae390dd,76,д,2020-07-08,0080,,,2020-08-16,000,0000,000,0,8a11d1a4-84ca-4c7c-8b32-5c3542dba99d,0000,,0
1,ff1b9aae-562c-44bf-ac43-700a873f19f2,d9e0a630-6150-4e14-9688-9ecbbf26ac81,7,000,0,0,001,76000001000008000,0.0,2079-06-06,деревня Старое Брагино,7602,7602,,,78401000000,78701000001,20,6b1bab7d-ee45-4168-a2a6-4ce2880d90d3,000,760000010000080,150044,7d33c41b-0ee8-4c84-9806-1d5cef8753de,76,ул,2020-08-12,0080,,,2020-08-16,000,0000,000,1,,0000,,0
0,e46b4b8e-adbd-427c-98e3-af7f39170a73,3cc09fbd-b157-48cf-bbd0-c5ee97273f60,7,000,0,0,001,76000001000020701,1.0,2020-08-14,Достоевского 2-й,7604,7604,7cb88d3b-1d47-4902-87a8-7fea1577a86d,,78401387000,78701000,1,6b1bab7d-ee45-4168-a2a6-4ce2880d90d3,000,760000010000207,150030,,76,пер,1900-01-01,0207,,,2020-08-16,000,0000,000,0,,0000,,0
0,e46b4b8e-adbd-427c-98e3-af7f39170a73,7cb88d3b-1d47-4902-87a8-7fea1577a86d,7,000,0,0,001,76000001000020702,2.0,2018-10-12,Достоевского 2-й,7604,7604,9bef65b1-183a-4db9-8ef7-c988dfeeb768,,78401387000,78701000,20,6b1bab7d-ee45-4168-a2a6-4ce2880d90d3,000,760000010000207,150030,3cc09fbd-b157-48cf-bbd0-c5ee97273f60,76,пер,1900-01-01,0207,,,2020-08-16,000,0000,000,0,73f4e3d6-c2da-47be-a856-dd03e93cd2e5,0000,,0
0,e46b4b8e-adbd-427c-98e3-af7f39170a73,9bef65b1-183a-4db9-8ef7-c988dfeeb768,7,000,0,0,001,76000001000020703,3.0,2020-08-14,Достоевского 2-й,7604,7604,ec6353b8-ef94-4513-85da-6ed4b73b5145,,78401387000,78701000001,21,6b1bab7d-ee45-4168-a2a6-4ce2880d90d3,000,760000010000207,150030,7cb88d3b-1d47-4902-87a8-7fea1577a86d,76,пер,2018-10-12,0207,,,2020-08-16,000,0000,000,0,79b394f1-0e9a-43fe-91e7-9a8cb9dd4b48,0000,,0
0,e46b4b8e-adbd-427c-98e3-af7f39170a73,ec6353b8-ef94-4513-85da-6ed4b73b5145,7,000,0,0,001,76000001000020703,3.0,2079-06-06,Достоевского 2-й,7604,7604,601e9d13-a465-422d-b074-25e8c4c44904,,78401000000,78701000001,21,6b1bab7d-ee45-4168-a2a6-4ce2880d90d3,000,760000010000207,150030,9bef65b1-183a-4db9-8ef7-c988dfeeb768,76,пер,2020-07-08,0207,,,2020-08-16,000,0000,000,0,8a11d1a4-84ca-4c7c-8b32-5c3542dba99d,0000,,0
1,e46b4b8e-adbd-427c-98e3-af7f39170a73,601e9d13-a465-422d-b074-25e8c4c44904,7,000,0,0,001,76000001000020700,0.0,2079-06-06,2-й Достоевского,7604,7604,,,78401000000,78701000001,20,6b1bab7d-ee45-4168-a2a6-4ce2880d90d3,000,760000010000207,150030,ec6353b8-ef94-4513-85da-6ed4b73b5145,76,пер,2020-08-14,0207,,,2020-08-16,000,0000,000,1,,0000,,0
0,7bc105cd-6500-40e1-9265-9c108f35f174,13bce6be-9980-4c5e-adda-124d2f438795,7,000,0,0,001,76000001000046301,1.0,2020-08-13,Маяковского 10-й,7603,7603,9020ddf2-0c89-4006-845c-041997bc1c7b,,78401364000,78701000,1,6b1bab7d-ee45-4168-a2a6-4ce2880d90d3,000,760000010000463,150007,,76,пер,1900-01-01,0463,,,2020-08-16,000,0000,000,0,,0000,,0
0,7bc105cd-6500-40e1-9265-9c108f35f174,9020ddf2-0c89-4006-845c-041997bc1c7b,7,000,0,0,001,76000001000046302,2.0,2018-10-12,Маяковского 10-й,7603,7603,f4054b1a-5386-4602-a402-3cb0f4c3e992,,78401364000,78701000,20,6b1bab7d-ee45-4168-a2a6-4ce2880d90d3,000,760000010000463,150007,13bce6be-9980-4c5e-adda-124d2f438795,76,пер,1900-01-01,0463,,,2020-08-16,000,0000,000,0,73f4e3d6-c2da-47be-a856-dd03e93cd2e5,0000,,0
0,7bc105cd-6500-40e1-9265-9c108f35f174,f4054b1a-5386-4602-a402-3cb0f4c3e992,7,000,0,0,001,76000001000046303,3.0,2020-08-13,Маяковского 10-й,7603,7603,55af5974-2c8f-4ac3-8e0f-a5e9e4d88f92,,78401364000,78701000001,21,6b1bab7d-ee45-4168-a2a6-4ce2880d90d3,000,760000010000463,150007,9020ddf2-0c89-4006-845c-041997bc1c7b,76,пер,2018-10-12,0463,,,2020-08-16,000,0000,000,0,79b394f1-0e9a-43fe-91e7-9a8cb9dd4b48,0000,,0
0,7bc105cd-6500-40e1-9265-9c108f35f174,55af5974-2c8f-4ac3-8e0f-a5e9e4d88f92,7,000,0,0,001,76000001000046303,3.0,2079-06-06,Маяковского 10-й,7603,7603,81ebc686-172b-49e5-a171-def2f2a50c7a,,78401000000,78701000001,21,6b1bab7d-ee45-4168-a2a6-4ce2880d90d3,000,760000010000463,150007,f4054b1a-5386-4602-a402-3cb0f4c3e992,76,пер,2020-07-08,0463,,,2020-08-16,000,0000,000,0,8a11d1a4-84ca-4c7c-8b32-5c3542dba99d,0000,,0
1,7bc105cd-6500-40e1-9265-9c108f35f174,81ebc686-172b-49e5-a171-def2f2a50c7a,7,000,0,0,001,76000001000046300,0.0,2079-06-06,10-й Маяковского,7603,7603,,,78401000000,78701000001,20,6b1bab7d-ee45-4168-a2a6-4ce2880d90d3,000,760000010000463,150007,55af5974-2c8f-4ac3-8e0f-a5e9e4d88f92,76,пер,2020-08-13,0463,,,2020-08-16,000,0000,000,1,,0000,,0
0,7390c214-c721-44e2-a9bf-0820b09c7441,d82600dd-d3d1-491e-966c-34bb5a4dc015,7,000,0,0,001,76000001000083601,1.0,2020-08-14,Слепнева 1-й,7604,7604,b2b67a50-b98d-41fb-8e6e-45e7005c56cf,,78401387000,78701000,1,6b1bab7d-ee45-4168-a2a6-4ce2880d90d3,000,760000010000836,150035,,76,пер,1900-01-01,0836,,,2020-08-16,000,0000,000,0,,0000,,0
0,7390c214-c721-44e2-a9bf-0820b09c7441,b2b67a50-b98d-41fb-8e6e-45e7005c56cf,7,000,0,0,001,76000001000083602,2.0,2018-10-12,Слепнева 1-й,7604,7604,142c950a-12af-4328-8d0a-7bac22c51f99,,78401387000,78701000,20,6b1bab7d-ee45-4168-a2a6-4ce2880d90d3,000,760000010000836,150035,d82600dd-d3d1-491e-966c-34bb5a4dc015,76,пер,1900-01-01,0836,,,2020-08-16,000,0000,000,0,73f4e3d6-c2da-47be-a856-dd03e93cd2e5,0000,,0
0,7390c214-c721-44e2-a9bf-0820b09c7441,142c950a-12af-4328-8d0a-7bac22c51f99,7,000,0,0,001,76000001000083603,3.0,2020-08-14,Слепнева 1-й,7604,7604,565835be-830d-4489-8456-cbac495a53e7,,78401387000,78701000001,21,6b1bab7d-ee45-4168-a2a6-4ce2880d90d3,000,760000010000836,150035,b2b67a50-b98d-41fb-8e6e-45e7005c56cf,76,пер,2018-10-12,0836,,,2020-08-16,000,0000,000,0,79b394f1-0e9a-43fe-91e7-9a8cb9dd4b48,0000,,0
0,7390c214-c721-44e2-a9bf-0820b09c7441,565835be-830d-4489-8456-cbac495a53e7,7,000,0,0,001,76000001000083603,3.0,2079-06-06,Слепнева 1-й,7604,7604,479e6cec-359b-4ac8-adf6-27cde5188884,,78401000000,78701000001,21,6b1bab7d-ee45-4168-a2a6-4ce2880d90d3,000,760000010000836,150035,142c950a-12af-4328-8d0a-7bac22c51f99,76,пер,2020-07-08,0836,,,2020-08-16,000,0000,000,0,8a11d1a4-84ca-4c7c-8b32-5c3542dba99d,0000,,0
1,7390c214-c721-44e2-a9bf-0820b09c7441,479e6cec-359b-4ac8-adf6-27cde5188884,7,000,0,0,001,76000001000083600,0.0,2079-06-06,1-й Слепнева,7604,7604,,,78401000000,78701000001,20,6b1bab7d-ee45-4168-a2a6-4ce2880d90d3,000,760000010000836,150035,565835be-830d-4489-8456-cbac495a53e7,76,пер,2020-08-14,0836,,,2020-08-16,000,0000,000,1,,0000,,0
0,f45f2cdc-0f15-4726-8d68-249ecf1f5507,f1fd9507-5f90-4f5a-a1df-281544e49ce1,7,000,0,0,001,76000001000086401,1.0,2020-08-14,Поселок Сокол 16-й,7604,7604,31239bb3-3772-4e20-b0be-c0a5b430c916,,78401387000,78701000,1,6b1bab7d-ee45-4168-a2a6-4ce2880d90d3,000,760000010000864,150030,,76,проезд,1900-01-01,0864,,,2020-08-16,000,0000,000,0,,0000,,0
0,f45f2cdc-0f15-4726-8d68-249ecf1f5507,31239bb3-3772-4e20-b0be-c0a5b430c916,7,000,0,0,001,76000001000086402,2.0,2018-10-12,Поселок Сокол 16-й,7604,7604,5717e4d3-d443-4b81-acc2-c59a0789f155,,78401387000,78701000,20,6b1bab7d-ee45-4168-a2a6-4ce2880d90d3,000,760000010000864,150022,f1fd9507-5f90-4f5a-a1df-281544e49ce1,76,проезд,1900-01-01,0864,,,2020-08-16,000,0000,000,0,73f4e3d6-c2da-47be-a856-dd03e93cd2e5,0000,,0
0,f45f2cdc-0f15-4726-8d68-249ecf1f5507,5717e4d3-d443-4b81-acc2-c59a0789f155,7,000,0,0,001,76000001000086403,3.0,2020-08-14,Поселок Сокол 16-й,7604,7604,322fc155-0174-4346-93ea-f4caae669ab1,,78401387000,78701000001,21,6b1bab7d-ee45-4168-a2a6-4ce2880d90d3,000,760000010000864,150022,31239bb3-3772-4e20-b0be-c0a5b430c916,76,проезд,2018-10-12,0864,,,2020-08-16,000,0000,000,0,79b394f1-0e9a-43fe-91e7-9a8cb9dd4b48,0000,,0
0,f45f2cdc-0f15-4726-8d68-249ecf1f5507,322fc155-0174-4346-93ea-f4caae669ab1,7,000,0,0,001,76000001000086403,3.0,2079-06-06,Поселок Сокол 16-й,7604,7604,352b9e75-5b40-4730-8dee-efeafcda25d3,,78401000000,78701000001,21,6b1bab7d-ee45-4168-a2a6-4ce2880d90d3,000,760000010000864,150022,5717e4d3-d443-4b81-acc2-c59a0789f155,76,проезд,2020-07-08,0864,,,2020-08-16,000,0000,000,0,8a11d1a4-84ca-4c7c-8b32-5c3542dba99d,0000,,0
1,f45f2cdc-0f15-4726-8d68-249ecf1f5507,352b9e75-5b40-4730-8dee-efeafcda25d3,7,000,0,0,001,76000001000086400,0.0,2079-06-06,16-й поселок Сокол,7604,7604,,,78401000000,78701000001,20,6b1bab7d-ee45-4168-a2a6-4ce2880d90d3,000,760000010000864,150022,322fc155-0174-4346-93ea-f4caae669ab1,76,проезд,2020-08-14,0864,,,2020-08-16,000,0000,000,1,,0000,,0
0,5d74d47c-2b40-4192-9452-e565c41b7eac,a3498fee-069b-4226-b9f3-542345951dff,7,000,0,0,001,76000001000065601,1.0,2020-08-14,Пожарского 2-й,7604,7604,b90e6526-0eca-4312-a973-849c95d92a8a,,78401387000,78701000,1,6b1bab7d-ee45-4168-a2a6-4ce2880d90d3,000,760000010000656,150030,,76,пер,1900-01-01,0656,,,2020-08-16,000,0000,000,0,,0000,,0
0,5d74d47c-2b40-4192-9452-e565c41b7eac,b90e6526-0eca-4312-a973-849c95d92a8a,7,000,0,0,001,76000001000065602,2.0,2018-10-12,Пожарского 2-й,7604,7604,aff1eaec-f57c-4a45-9ed6-7da2ed53e4f7,,78401387000,78701000,20,6b1bab7d-ee45-4168-a2a6-4ce2880d90d3,000,760000010000656,,a3498fee-069b-4226-b9f3-542345951dff,76,пер,1900-01-01,0656,,,2020-08-16,000,0000,000,0,73f4e3d6-c2da-47be-a856-dd03e93cd2e5,0000,,0
0,5d74d47c-2b40-4192-9452-e565c41b7eac,aff1eaec-f57c-4a45-9ed6-7da2ed53e4f7,7,000,0,0,001,76000001000065603,3.0,2020-08-14,Пожарского 2-й,7604,7604,38782a22-6aef-4641-b8b2-2a2432427b52,,78401387000,78701000001,21,6b1bab7d-ee45-4168-a2a6-4ce2880d90d3,000,760000010000656,,b90e6526-0eca-4312-a973-849c95d92a8a,76,пер,2018-10-12,0656,,,2020-08-16,000,0000,000,0,79b394f1-0e9a-43fe-91e7-9a8cb9dd4b48,0000,,0
0,5d74d47c-2b40-4192-9452-e565c41b7eac,38782a22-6aef-4641-b8b2-2a2432427b52,7,000,0,0,001,76000001000065603,3.0,2079-06-06,Пожарского 2-й,7604,7604,382539f3-d317-48e4-b7d4-7b897924a76e,,78401000000,78701000001,21,6b1bab7d-ee45-4168-a2a6-4ce2880d90d3,000,760000010000656,,aff1eaec-f57c-4a45-9ed6-7da2ed53e4f7,76,пер,2020-07-08,0656,,,2020-08-16,000,0000,000,0,8a11d1a4-84ca-4c7c-8b32-5c3542dba99d,0000,,0
1,5d74d47c-2b40-4192-9452-e565c41b7eac,382539f3-d317-48e4-b7d4-7b897924a76e,7,000,0,0,001,76000001000065600,0.0,2079-06-06,2-й Пожарского,7604,7604,,,78401000000,78701000001,20,6b1bab7d-ee45-4168-a2a6-4ce2880d90d3,000,760000010000656,,38782a22-6aef-4641-b8b2-2a2432427b52,76,пер,2020-08-14,0656,,,2020-08-16,000,0000,000,1,,0000,,0
0,e98893cc-01ea-4ac7-874a-3794ed90ffc0,a09e9299-6e34-4225-9d07-a916b8c8aefd,7,000,0,0,001,76000001000086701,1.0,2020-08-14,Поселок Сокол 3-й,7604,7604,ea2de2db-ab49-4772-add3-e94e059c8c74,,78401387000,78701000,1,6b1bab7d-ee45-4168-a2a6-4ce2880d90d3,000,760000010000867,150022,,76,проезд,1900-01-01,0867,,,2020-08-16,000,0000,000,0,,0000,,0
0,e98893cc-01ea-4ac7-874a-3794ed90ffc0,ea2de2db-ab49-4772-add3-e94e059c8c74,7,000,0,0,001,76000001000086702,2.0,2018-10-12,Поселок Сокол 3-й,7604,7604,3fe16b94-77ff-4806-b60b-88153c7c1488,,78401387000,78701000,20,6b1bab7d-ee45-4168-a2a6-4ce2880d90d3,000,760000010000867,150022,a09e9299-6e34-4225-9d07-a916b8c8aefd,76,проезд,1900-01-01,0867,,,2020-08-16,000,0000,000,0,73f4e3d6-c2da-47be-a856-dd03e93cd2e5,0000,,0
0,e98893cc-01ea-4ac7-874a-3794ed90ffc0,3fe16b94-77ff-4806-b60b-88153c7c1488,7,000,0,0,001,76000001000086703,3.0,2020-08-14,Поселок Сокол 3-й,7604,7604,1086b51f-3704-4551-949b-c49411482477,,78401387000,78701000001,21,6b1bab7d-ee45-4168-a2a6-4ce2880d90d3,000,760000010000867,150022,ea2de2db-ab49-4772-add3-e94e059c8c74,76,проезд,2018-10-12,0867,,,2020-08-16,000,0000,000,0,79b394f1-0e9a-43fe-91e7-9a8cb9dd4b48,0000,,0
0,e98893cc-01ea-4ac7-874a-3794ed90ffc0,1086b51f-3704-4551-949b-c49411482477,7,000,0,0,001,76000001000086703,3.0,2079-06-06,Поселок Сокол 3-й,7604,7604,a490971d-2520-4b96-aac3-0b3dd9363f4d,,78401000000,78701000001,21,6b1bab7d-ee45-4168-a2a6-4ce2880d90d3,000,760000010000867,150022,3fe16b94-77ff-4806-b60b-88153c7c1488,76,проезд,2020-07-08,0867,,,2020-08-16,000,0000,000,0,8a11d1a4-84ca-4c7c-8b32-5c3542dba99d,0000,,0
1,e98893cc-01ea-4ac7-874a-3794ed90ffc0,a490971d-2520-4b96-aac3-0b3dd9363f4d,7,000,0,0,001,76000001000086700,0.0,2079-06-06,3-й поселок Сокол,7604,7604,,,78401000000,78701000001,20,6b1bab7d-ee45-4168-a2a6-4ce2880d90d3,000,760000010000867,150022,1086b51f-3704-4551-949b-c49411482477,76,проезд,2020-08-14,0867,,,2020-08-16,000,0000,000,1,,0000,,0
0,fa3d8794-024f-45b7-a794-f906efbd34a8,4871e86f-7deb-47e5-979c-b7f7e572769a,7,000,0,0,001,76000001000046901,1.0,2020-08-13,Маяковского 2-й,7603,7603,172dcf1c-d2be-46cb-93a5-61c883a09c3f,,78401364000,78701000,1,6b1bab7d-ee45-4168-a2a6-4ce2880d90d3,000,760000010000469,150007,,76,пер,1900-01-01,0469,,,2020-08-16,000,0000,000,0,,0000,,0
0,fa3d8794-024f-45b7-a794-f906efbd34a8,172dcf1c-d2be-46cb-93a5-61c883a09c3f,7,000,0,0,001,76000001000046902,2.0,2018-10-12,Маяковского 2-й,7603,7603,faf709a4-96e0-4cb7-b6a7-30fd46d7a9a3,,78401364000,78701000,20,6b1bab7d-ee45-4168-a2a6-4ce2880d90d3,000,760000010000469,150007,4871e86f-7deb-47e5-979c-b7f7e572769a,76,пер,1900-01-01,0469,,,2020-08-16,000,0000,000,0,73f4e3d6-c2da-47be-a856-dd03e93cd2e5,0000,,0
0,fa3d8794-024f-45b7-a794-f906efbd34a8,faf709a4-96e0-4cb7-b6a7-30fd46d7a9a3,7,000,0,0,001,76000001000046903,3.0,2020-08-13,Маяковского 2-й,7603,7603,b820b19c-0dec-450b-9043-1bb0ff234016,,78401364000,78701000001,21,6b1bab7d-ee45-4168-a2a6-4ce2880d90d3,000,760000010000469,150007,172dcf1c-d2be-46cb-93a5-61c883a09c3f,76,пер,2018-10-12,0469,,,2020-08-16,000,0000,000,0,79b394f1-0e9a-43fe-91e7-9a8cb9dd4b48,0000,,0
0,fa3d8794-024f-45b7-a794-f906efbd34a8,b820b19c-0dec-450b-9043-1bb0ff234016,7,000,0,0,001,76000001000046903,3.0,2079-06-06,Маяковского 2-й,7603,7603,4539c28b-9996-4904-8345-f2011cc200ad,,78401000000,78701000001,21,6b1bab7d-ee45-4168-a2a6-4ce2880d90d3,000,760000010000469,150007,faf709a4-96e0-4cb7-b6a7-30fd46d7a9a3,76,пер,2020-07-08,0469,,,2020-08-16,000,0000,000,0,8a11d1a4-84ca-4c7c-8b32-5c3542dba99d,0000,,0
1,fa3d8794-024f-45b7-a794-f906efbd34a8,4539c28b-9996-4904-8345-f2011cc200ad,7,000,0,0,001,76000001000046900,0.0,2079-06-06,2-й Маяковского,7603,7603,,,78401000000,78701000001,20,6b1bab7d-ee45-4168-a2a6-4ce2880d90d3,000,760000010000469,150007,b820b19c-0dec-450b-9043-1bb0ff234016,76,пер,2020-08-13,0469,,,2020-08-16,000,0000,000,1,,0000,,0
0,4090816c-8b30-4750-adc7-f9d0a41b3461,fdb96881-8ee8-4370-8ce0-1ba40d60e62e,7,000,0,0,001,76000001000047201,1.0,2020-08-13,Маяковского 5-й,7603,7603,665a34e2-8a0c-485f-b90f-2bde22b59053,,78401364000,78701000,1,6b1bab7d-ee45-4168-a2a6-4ce2880d90d3,000,760000010000472,150007,,76,пер,1900-01-01,0472,,,2020-08-16,000,0000,000,0,,0000,,0
0,4090816c-8b30-4750-adc7-f9d0a41b3461,665a34e2-8a0c-485f-b90f-2bde22b59053,7,000,0,0,001,76000001000047202,2.0,2018-10-12,Маяковского 5-й,7603,7603,4acbccb0-65ae-4f4c-9dba-7d4c65bf970c,,78401364000,78701000,20,6b1bab7d-ee45-4168-a2a6-4ce2880d90d3,000,760000010000472,150007,fdb96881-8ee8-4370-8ce0-1ba40d60e62e,76,пер,1900-01-01,0472,,,2020-08-16,000,0000,000,0,73f4e3d6-c2da-47be-a856-dd03e93cd2e5,0000,,0
0,4090816c-8b30-4750-adc7-f9d0a41b3461,4acbccb0-65ae-4f4c-9dba-7d4c65bf970c,7,000,0,0,001,76000001000047203,3.0,2020-08-13,Маяковского 5-й,7603,7603,26febd66-7796-4e0b-baf7-5eaabfee67c2,,78401364000,78701000001,21,6b1bab7d-ee45-4168-a2a6-4ce2880d90d3,000,760000010000472,150007,665a34e2-8a0c-485f-b90f-2bde22b59053,76,пер,2018-10-12,0472,,,2020-08-16,000,0000,000,0,79b394f1-0e9a-43fe-91e7-9a8cb9dd4b48,0000,,0
0,4090816c-8b30-4750-adc7-f9d0a41b3461,26febd66-7796-4e0b-baf7-5eaabfee67c2,7,000,0,0,001,76000001000047203,3.0,2079-06-06,Маяковского 5-й,7603,7603,dd83cab6-62f4-489a-82f1-a45bc022bac6,,78401000000,78701000001,21,6b1bab7d-ee45-4168-a2a6-4ce2880d90d3,000,760000010000472,150007,4acbccb0-65ae-4f4c-9dba-7d4c65bf970c,76,пер,2020-07-08,0472,,,2020-08-16,000,0000,000,0,8a11d1a4-84ca-4c7c-8b32-5c3542dba99d,0000,,0
1,4090816c-8b30-4750-adc7-f9d0a41b3461,dd83cab6-62f4-489a-82f1-a45bc022bac6,7,000,0,0,001,76000001000047200,0.0,2079-06-06,5-й Маяковского,7603,7603,,,78401000000,78701000001,20,6b1bab7d-ee45-4168-a2a6-4ce2880d90d3,000,760000010000472,150007,26febd66-7796-4e0b-baf7-5eaabfee67c2,76,пер,2020-08-13,0472,,,2020-08-16,000,0000,000,1,,0000,,0
0,2006f6a8-cfd8-48f1-85da-75aceee3f7ec,c457c2f2-73b8-4b38-98bd-917ad40ec1ab,7,000,0,0,001,76000001000046401,1.0,2020-08-13,Маяковского 11-й,7603,7603,38445d14-6418-427a-9e58-e06bcee2943b,,78401364000,78701000,1,6b1bab7d-ee45-4168-a2a6-4ce2880d90d3,000,760000010000464,150007,,76,пер,1900-01-01,0464,,,2020-08-16,000,0000,000,0,,0000,,0
0,2006f6a8-cfd8-48f1-85da-75aceee3f7ec,38445d14-6418-427a-9e58-e06bcee2943b,7,000,0,0,001,76000001000046402,2.0,2018-10-12,Маяковского 11-й,7603,7603,16c96f2c-766b-4606-8ae1-f30b8de1fc8e,,78401364000,78701000,20,6b1bab7d-ee45-4168-a2a6-4ce2880d90d3,000,760000010000464,150007,c457c2f2-73b8-4b38-98bd-917ad40ec1ab,76,пер,1900-01-01,0464,,,2020-08-16,000,0000,000,0,73f4e3d6-c2da-47be-a856-dd03e93cd2e5,0000,,0
0,2006f6a8-cfd8-48f1-85da-75aceee3f7ec,16c96f2c-766b-4606-8ae1-f30b8de1fc8e,7,000,0,0,001,76000001000046403,3.0,2020-08-13,Маяковского 11-й,7603,7603,0ee6dcef-8c3c-4533-b411-b2ab2601e9d1,,78401364000,78701000001,21,6b1bab7d-ee45-4168-a2a6-4ce2880d90d3,000,760000010000464,150007,38445d14-6418-427a-9e58-e06bcee2943b,76,пер,2018-10-12,0464,,,2020-08-16,000,0000,000,0,79b394f1-0e9a-43fe-91e7-9a8cb9dd4b48,0000,,0
0,2006f6a8-cfd8-48f1-85da-75aceee3f7ec,0ee6dcef-8c3c-4533-b411-b2ab2601e9d1,7,000,0,0,001,76000001000046403,3.0,2079-06-06,Маяковского 11-й,7603,7603,b191a2f8-7684-4979-8c1a-0e81763c1d7b,,78401000000,78701000001,21,6b1bab7d-ee45-4168-a2a6-4ce2880d90d3,000,760000010000464,150007,16c96f2c-766b-4606-8ae1-f30b8de1fc8e,76,пер,2020-07-08,0464,,,2020-08-16,000,0000,000,0,8a11d1a4-84ca-4c7c-8b32-5c3542dba99d,0000,,0
1,2006f6a8-cfd8-48f1-85da-75aceee3f7ec,b191a2f8-7684-4979-8c1a-0e81763c1d7b,7,000,0,0,001,76000001000046400,0.0,2079-06-06,11-й Маяковского,7603,7603,,,78401000000,78701000001,20,6b1bab7d-ee45-4168-a2a6-4ce2880d90d3,000,760000010000464,150007,0ee6dcef-8c3c-4533-b411-b2ab2601e9d1,76,пер,2020-08-13,0464,,,2020-08-16,000,0000,000,1,,0000,,0
0,645a46c2-9d00-488d-9d30-bba75f67b5e2,4348d7df-93ff-44b7-9eea-33eb640dd673,7,000,0,0,001,76000001000047401,1.0,2020-08-13,Маяковского 7-й,7603,7603,c7328388-c316-4fe3-902a-ae3cf431dc23,,78401364000,78701000,1,6b1bab7d-ee45-4168-a2a6-4ce2880d90d3,000,760000010000474,150007,,76,пер,1900-01-01,0474,,,2020-08-16,000,0000,000,0,,0000,,0
0,645a46c2-9d00-488d-9d30-bba75f67b5e2,c7328388-c316-4fe3-902a-ae3cf431dc23,7,000,0,0,001,76000001000047402,2.0,2018-10-12,Маяковского 7-й,7603,7603,b8fb1fee-e7f9-46bf-870b-a880e32c4c03,,78401364000,78701000,20,6b1bab7d-ee45-4168-a2a6-4ce2880d90d3,000,760000010000474,150007,4348d7df-93ff-44b7-9eea-33eb640dd673,76,пер,1900-01-01,0474,,,2020-08-16,000,0000,000,0,73f4e3d6-c2da-47be-a856-dd03e93cd2e5,0000,,0
0,645a46c2-9d00-488d-9d30-bba75f67b5e2,b8fb1fee-e7f9-46bf-870b-a880e32c4c03,7,000,0,0,001,76000001000047403,3.0,2020-08-13,Маяковского 7-й,7603,7603,409b8eb9-82a8-4a75-8629-e646e28b366b,,78401364000,78701000001,21,6b1bab7d-ee45-4168-a2a6-4ce2880d90d3,000,760000010000474,150007,c7328388-c316-4fe3-902a-ae3cf431dc23,76,пер,2018-10-12,0474,,,2020-08-16,000,0000,000,0,79b394f1-0e9a-43fe-91e7-9a8cb9dd4b48,0000,,0
0,645a46c2-9d00-488d-9d30-bba75f67b5e2,409b8eb9-82a8-4a75-8629-e646e28b366b,7,000,0,0,001,76000001000047403,3.0,2079-06-06,Маяковского 7-й,7603,7603,bfdd3eeb-e41c-4cfd-944c-af61b360131b,,78401000000,78701000001,21,6b1bab7d-ee45-4168-a2a6-4ce2880d90d3,000,760000010000474,150007,b8fb1fee-e7f9-46bf-870b-a880e32c4c03,76,пер,2020-07-08,0474,,,2020-08-16,000,0000,000,0,8a11d1a4-84ca-4c7c-8b32-5c3542dba99d,0000,,0
1,645a46c2-9d00-488d-9d30-bba75f67b5e2,bfdd3eeb-e41c-4cfd-944c-af61b360131b,7,000,0,0,001,76000001000047400,0.0,2079-06-06,7-й Маяковского,7603,7603,,,78401000000,78701000001,20,6b1bab7d-ee45-4168-a2a6-4ce2880d90d3,000,760000010000474,150007,409b8eb9-82a8-4a75-8629-e646e28b366b,76,пер,2020-08-13,0474,,,2020-08-16,000,0000,000,1,,0000,,0
0,6e25fc5f-9247-4fdf-955a-c82209e491e9,764e0e6e-3596-4a7d-aca6-8996a0589983,7,000,0,0,001,76000001000046501,1.0,2020-08-13,Маяковского 12-й,7603,7603,0f6d084c-3f86-4794-b522-0bc9a334c3ad,,78401364000,78701000,1,6b1bab7d-ee45-4168-a2a6-4ce2880d90d3,000,760000010000465,150007,,76,пер,1900-01-01,0465,,,2020-08-16,000,0000,000,0,,0000,,0
0,6e25fc5f-9247-4fdf-955a-c82209e491e9,0f6d084c-3f86-4794-b522-0bc9a334c3ad,7,000,0,0,001,76000001000046502,2.0,2018-10-12,Маяковского 12-й,7603,7603,e9e86e00-9f94-4cba-a10b-b4af8740830c,,78401364000,78701000,20,6b1bab7d-ee45-4168-a2a6-4ce2880d90d3,000,760000010000465,150007,764e0e6e-3596-4a7d-aca6-8996a0589983,76,пер,1900-01-01,0465,,,2020-08-16,000,0000,000,0,73f4e3d6-c2da-47be-a856-dd03e93cd2e5,0000,,0
0,6e25fc5f-9247-4fdf-955a-c82209e491e9,e9e86e00-9f94-4cba-a10b-b4af8740830c,7,000,0,0,001,76000001000046503,3.0,2020-08-13,Маяковского 12-й,7603,7603,cb194de7-0668-46bb-9bf4-ac3d254b929f,,78401364000,78701000001,21,6b1bab7d-ee45-4168-a2a6-4ce2880d90d3,000,760000010000465,150007,0f6d084c-3f86-4794-b522-0bc9a334c3ad,76,пер,2018-10-12,0465,,,2020-08-16,000,0000,000,0,79b394f1-0e9a-43fe-91e7-9a8cb9dd4b48,0000,,0
0,6e25fc5f-9247-4fdf-955a-c82209e491e9,cb194de7-0668-46bb-9bf4-ac3d254b929f,7,000,0,0,001,76000001000046503,3.0,2079-06-06,Маяковского 12-й,7603,7603,31e32f2a-3300-4316-9bd2-33aeb6e8afeb,,78401000000,78701000001,21,6b1bab7d-ee45-4168-a2a6-4ce2880d90d3,000,760000010000465,150007,e9e86e00-9f94-4cba-a10b-b4af8740830c,76,пер,2020-07-08,0465,,,2020-08-16,000,0000,000,0,8a11d1a4-84ca-4c7c-8b32-5c3542dba99d,0000,,0
1,6e25fc5f-9247-4fdf-955a-c82209e491e9,31e32f2a-3300-4316-9bd2-33aeb6e8afeb,7,000,0,0,001,76000001000046500,0.0,2079-06-06,12-й Маяковского,7603,7603,,,78401000000,78701000001,20,6b1bab7d-ee45-4168-a2a6-4ce2880d90d3,000,760000010000465,150007,cb194de7-0668-46bb-9bf4-ac3d254b929f,76,пер,2020-08-13,0465,,,2020-08-16,000,0000,000,1,,0000,,0
0,82ddb4ce-951b-4cfb-9146-9adb51a423a4,19a9dbf1-b579-4e48-a328-a70fbd44d36a,7,000,0,0,001,76000001000020601,1.0,2020-08-14,Достоевского 1-й,7604,7604,1540f66c-f354-4868-846e-a7cc354a811f,,78401387000,78701000,1,6b1bab7d-ee45-4168-a2a6-4ce2880d90d3,000,760000010000206,150030,,76,пер,1900-01-01,0206,,,2020-08-16,000,0000,000,0,,0000,,0
0,82ddb4ce-951b-4cfb-9146-9adb51a423a4,1540f66c-f354-4868-846e-a7cc354a811f,7,000,0,0,001,76000001000020602,2.0,2018-10-12,Достоевского 1-й,7604,7604,d83fcf30-adf7-46a2-beac-5dfc7e9c9065,,78401387000,78701000,20,6b1bab7d-ee45-4168-a2a6-4ce2880d90d3,000,760000010000206,150030,19a9dbf1-b579-4e48-a328-a70fbd44d36a,76,пер,1900-01-01,0206,,,2020-08-16,000,0000,000,0,73f4e3d6-c2da-47be-a856-dd03e93cd2e5,0000,,0
0,82ddb4ce-951b-4cfb-9146-9adb51a423a4,d83fcf30-adf7-46a2-beac-5dfc7e9c9065,7,000,0,0,001,76000001000020603,3.0,2020-08-14,Достоевского 1-й,7604,7604,f10b5dec-ddf1-4158-aa14-b69a3bd84a65,,78401387000,78701000001,21,6b1bab7d-ee45-4168-a2a6-4ce2880d90d3,000,760000010000206,150030,1540f66c-f354-4868-846e-a7cc354a811f,76,пер,2018-10-12,0206,,,2020-08-16,000,0000,000,0,79b394f1-0e9a-43fe-91e7-9a8cb9dd4b48,0000,,0
0,82ddb4ce-951b-4cfb-9146-9adb51a423a4,f10b5dec-ddf1-4158-aa14-b69a3bd84a65,7,000,0,0,001,76000001000020603,3.0,2079-06-06,Достоевского 1-й,7604,7604,9c38f823-d95a-4c45-bc26-99f8dd3c3365,,78401000000,78701000001,21,6b1bab7d-ee45-4168-a2a6-4ce2880d90d3,000,760000010000206,150030,d83fcf30-adf7-46a2-beac-5dfc7e9c9065,76,пер,2020-07-08,0206,,,2020-08-16,000,0000,000,0,8a11d1a4-84ca-4c7c-8b32-5c3542dba99d,0000,,0
1,82ddb4ce-951b-4cfb-9146-9adb51a423a4,9c38f823-d95a-4c45-bc26-99f8dd3c3365,7,000,0,0,001,76000001000020600,0.0,2079-06-06,1-й Достоевского,7604,7604,,,78401000000,78701000001,20,6b1bab7d-ee45-4168-a2a6-4ce2880d90d3,000,760000010000206,150030,f10b5dec-ddf1-4158-aa14-b69a3bd84a65,76,пер,2020-08-14,0206,,,2020-08-16,000,0000,000,1,,0000,,0
0,f77c775a-8809-4d00-8f61-6edea8d52e3e,719ca734-5ec1-4caa-a0b8-06c5e42612d5,7,000,0,0,001,76000001000047001,1.0,2020-08-13,Маяковского 3-й,7603,7603,0d9cdd35-7e4e-45c4-bc44-ba5769320a2b,,78401364000,78701000,1,6b1bab7d-ee45-4168-a2a6-4ce2880d90d3,000,760000010000470,150007,,76,пер,1900-01-01,0470,,,2020-08-16,000,0000,000,0,,0000,,0
0,f77c775a-8809-4d00-8f61-6edea8d52e3e,0d9cdd35-7e4e-45c4-bc44-ba5769320a2b,7,000,0,0,001,76000001000047002,2.0,2018-10-12,Маяковского 3-й,7603,7603,1c53bc5d-0b19-4f21-a88d-019507227c1a,,78401364000,78701000,20,6b1bab7d-ee45-4168-a2a6-4ce2880d90d3,000,760000010000470,150007,719ca734-5ec1-4caa-a0b8-06c5e42612d5,76,пер,1900-01-01,0470,,,2020-08-16,000,0000,000,0,73f4e3d6-c2da-47be-a856-dd03e93cd2e5,0000,,0
0,f77c775a-8809-4d00-8f61-6edea8d52e3e,1c53bc5d-0b19-4f21-a88d-019507227c1a,7,000,0,0,001,76000001000047003,3.0,2020-08-13,Маяковского 3-й,7603,7603,c5c75bb9-67c1-4b0d-aefb-8da082668590,,78401364000,78701000001,21,6b1bab7d-ee45-4168-a2a6-4ce2880d90d3,000,760000010000470,150007,0d9cdd35-7e4e-45c4-bc44-ba5769320a2b,76,пер,2018-10-12,0470,,,2020-08-16,000,0000,000,0,79b394f1-0e9a-43fe-91e7-9a8cb9dd4b48,0000,,0
0,f77c775a-8809-4d00-8f61-6edea8d52e3e,c5c75bb9-67c1-4b0d-aefb-8da082668590,7,000,0,0,001,76000001000047003,3.0,2079-06-06,Маяковского 3-й,7603,7603,6c8515a6-3e47-494f-8ae5-e5ef2d248f3b,,78401000000,78701000001,21,6b1bab7d-ee45-4168-a2a6-4ce2880d90d3,000,760000010000470,150007,1c53bc5d-0b19-4f21-a88d-019507227c1a,76,пер,2020-07-08,0470,,,2020-08-16,000,0000,000,0,8a11d1a4-84ca-4c7c-8b32-5c3542dba99d,0000,,0
1,f77c775a-8809-4d00-8f61-6edea8d52e3e,6c8515a6-3e47-494f-8ae5-e5ef2d248f3b,7,000,0,0,001,76000001000047000,0.0,2079-06-06,3-й Маяковского,7603,7603,,,78401000000,78701000001,20,6b1bab7d-ee45-4168-a2a6-4ce2880d90d3,000,760000010000470,150007,c5c75bb9-67c1-4b0d-aefb-8da082668590,76,пер,2020-08-13,0470,,,2020-08-16,000,0000,000,1,,0000,,0
0,9b4074db-6c74-417b-867e-df25ad590c72,71480871-7075-4307-a19b-1ccd965cf3e0,7,000,0,0,001,76000001000001101,1.0,2020-08-12,2-е Брагино пос 29-я,7602,7602,d26df8f2-9bdc-41a6-8b19-af4f074a69e1,,78401362000,78701000,1,6b1bab7d-ee45-4168-a2a6-4ce2880d90d3,000,760000010000011,150033,,76,линия,1900-01-01,0011,,,2020-08-16,000,0000,000,0,,0000,,0
0,9b4074db-6c74-417b-867e-df25ad590c72,d26df8f2-9bdc-41a6-8b19-af4f074a69e1,7,000,0,0,001,76000001000001102,2.0,2020-08-12,2-е Брагино пос 29-я,7602,7602,04f61fb3-8732-4255-ad6b-7d847da25ee1,,78401362000,78701000001,21,6b1bab7d-ee45-4168-a2a6-4ce2880d90d3,000,760000010000011,,71480871-7075-4307-a19b-1ccd965cf3e0,76,линия,2018-10-12,0011,,,2020-08-16,000,0000,000,0,79b394f1-0e9a-43fe-91e7-9a8cb9dd4b48,0000,,0
0,9b4074db-6c74-417b-867e-df25ad590c72,04f61fb3-8732-4255-ad6b-7d847da25ee1,7,000,0,0,001,76000001000001102,2.0,2079-06-06,2-е Брагино пос 29-я,7602,7602,b9b96bb5-b69e-408a-85c9-00925b7281b2,,78401000000,78701000001,21,6b1bab7d-ee45-4168-a2a6-4ce2880d90d3,000,760000010000011,,d26df8f2-9bdc-41a6-8b19-af4f074a69e1,76,линия,2020-07-08,0011,,,2020-08-16,000,0000,000,0,8a11d1a4-84ca-4c7c-8b32-5c3542dba99d,0000,,0
1,9b4074db-6c74-417b-867e-df25ad590c72,b9b96bb5-b69e-408a-85c9-00925b7281b2,7,000,0,0,001,76000001000001100,0.0,2079-06-06,29-я поселок 2-е Брагино,7602,7602,,,78401000000,78701000001,20,6b1bab7d-ee45-4168-a2a6-4ce2880d90d3,000,760000010000011,,04f61fb3-8732-4255-ad6b-7d847da25ee1,76,линия,2020-08-12,0011,,,2020-08-16,000,0000,000,1,,0000,,0
0,de801fee-4735-4cdb-8a5b-b0abca2407e7,630cf653-b0c0-48f1-8f32-cd9ef178a900,7,000,0,0,001,76000001000046801,1.0,2020-08-13,Маяковского 15-й,7603,7603,0156bfc5-ab03-401b-9056-413b0d78b818,,78401364000,78701000,1,6b1bab7d-ee45-4168-a2a6-4ce2880d90d3,000,760000010000468,150007,,76,пер,1900-01-01,0468,,,2020-08-16,000,0000,000,0,,0000,,0
0,de801fee-4735-4cdb-8a5b-b0abca2407e7,0156bfc5-ab03-401b-9056-413b0d78b818,7,000,0,0,001,76000001000046802,2.0,2018-10-12,Маяковского 15-й,7603,7603,21364bfe-687e-4b06-b6f9-3a8af23c6297,,78401364000,78701000,20,6b1bab7d-ee45-4168-a2a6-4ce2880d90d3,000,760000010000468,150007,630cf653-b0c0-48f1-8f32-cd9ef178a900,76,пер,1900-01-01,0468,,,2020-08-16,000,0000,000,0,73f4e3d6-c2da-47be-a856-dd03e93cd2e5,0000,,0
0,de801fee-4735-4cdb-8a5b-b0abca2407e7,21364bfe-687e-4b06-b6f9-3a8af23c6297,7,000,0,0,001,76000001000046803,3.0,2020-08-13,Маяковского 15-й,7603,7603,691b85f4-9957-47dc-9758-03714bccf283,,78401364000,78701000001,21,6b1bab7d-ee45-4168-a2a6-4ce2880d90d3,000,760000010000468,150007,0156bfc5-ab03-401b-9056-413b0d78b818,76,пер,2018-10-12,0468,,,2020-08-16,000,0000,000,0,79b394f1-0e9a-43fe-91e7-9a8cb9dd4b48,0000,,0
0,de801fee-4735-4cdb-8a5b-b0abca2407e7,691b85f4-9957-47dc-9758-03714bccf283,7,000,0,0,001,76000001000046803,3.0,2079-06-06,Маяковского 15-й,7603,7603,42e35052-35b5-43e0-a69a-2e321b162b49,,78401000000,78701000001,21,6b1bab7d-ee45-4168-a2a6-4ce2880d90d3,000,760000010000468,150007,21364bfe-687e-4b06-b6f9-3a8af23c6297,76,пер,2020-07-08,0468,,,2020-08-16,000,0000,000,0,8a11d1a4-84ca-4c7c-8b32-5c3542dba99d,0000,,0
1,de801fee-4735-4cdb-8a5b-b0abca2407e7,42e35052-35b5-43e0-a69a-2e321b162b49,7,000,0,0,001,76000001000046800,0.0,2079-06-06,15-й Маяковского,7603,7603,,,78401000000,78701000001,20,6b1bab7d-ee45-4168-a2a6-4ce2880d90d3,000,760000010000468,150007,691b85f4-9957-47dc-9758-03714bccf283,76,пер,2020-08-13,0468,,,2020-08-16,000,0000,000,1,,0000,,0
0,977228af-c885-4ae6-9416-876f9a794344,78a14839-4c94-4a3b-ac1b-70a6570e6c99,7,000,0,0,001,76000001000047101,1.0,2020-08-13,Маяковского 4-й,7603,7603,c08ba54b-b8be-42b6-820b-3fb6fe11fbeb,,78401364000,78701000,1,6b1bab7d-ee45-4168-a2a6-4ce2880d90d3,000,760000010000471,150007,,76,пер,1900-01-01,0471,,,2020-08-16,000,0000,000,0,,0000,,0
0,977228af-c885-4ae6-9416-876f9a794344,c08ba54b-b8be-42b6-820b-3fb6fe11fbeb,7,000,0,0,001,76000001000047102,2.0,2018-10-12,Маяковского 4-й,7603,7603,37556a56-c885-40bd-9a57-857e36bd655c,,78401364000,78701000,20,6b1bab7d-ee45-4168-a2a6-4ce2880d90d3,000,760000010000471,150007,78a14839-4c94-4a3b-ac1b-70a6570e6c99,76,пер,1900-01-01,0471,,,2020-08-16,000,0000,000,0,73f4e3d6-c2da-47be-a856-dd03e93cd2e5,0000,,0
0,977228af-c885-4ae6-9416-876f9a794344,37556a56-c885-40bd-9a57-857e36bd655c,7,000,0,0,001,76000001000047103,3.0,2020-08-13,Маяковского 4-й,7603,7603,da8b7c30-332c-43e9-a574-a15c2bbcfbe1,,78401364000,78701000001,21,6b1bab7d-ee45-4168-a2a6-4ce2880d90d3,000,760000010000471,150007,c08ba54b-b8be-42b6-820b-3fb6fe11fbeb,76,пер,2018-10-12,0471,,,2020-08-16,000,0000,000,0,79b394f1-0e9a-43fe-91e7-9a8cb9dd4b48,0000,,0
0,977228af-c885-4ae6-9416-876f9a794344,da8b7c30-332c-43e9-a574-a15c2bbcfbe1,7,000,0,0,001,76000001000047103,3.0,2079-06-06,Маяковского 4-й,7603,7603,8c1eb20c-ccee-429d-9105-f4b12c6f018b,,78401000000,78701000001,21,6b1bab7d-ee45-4168-a2a6-4ce2880d90d3,000,760000010000471,150007,37556a56-c885-40bd-9a57-857e36bd655c,76,пер,2020-07-08,0471,,,2020-08-16,000,0000,000,0,8a11d1a4-84ca-4c7c-8b32-5c3542dba99d,0000,,0
1,977228af-c885-4ae6-9416-876f9a794344,8c1eb20c-ccee-429d-9105-f4b12c6f018b,7,000,0,0,001,76000001000047100,0.0,2079-06-06,4-й Маяковского,7603,7603,,,78401000000,78701000001,20,6b1bab7d-ee45-4168-a2a6-4ce2880d90d3,000,760000010000471,150007,da8b7c30-332c-43e9-a574-a15c2bbcfbe1,76,пер,2020-08-13,0471,,,2020-08-16,000,0000,000,1,,0000,,0
0,7f5ad250-6cf2-45af-883b-1ce4c74efc2c,7394b1c0-8afb-4bef-8578-b206d703d5fe,7,000,0,0,001,76000001000047501,1.0,2020-08-13,Маяковского 8-й,7603,7603,8b1eccbc-bfbe-4f92-b499-b96a1043d899,,78401364000,78701000,1,6b1bab7d-ee45-4168-a2a6-4ce2880d90d3,000,760000010000475,150007,,76,пер,1900-01-01,0475,,,2020-08-16,000,0000,000,0,,0000,,0
0,7f5ad250-6cf2-45af-883b-1ce4c74efc2c,8b1eccbc-bfbe-4f92-b499-b96a1043d899,7,000,0,0,001,76000001000047502,2.0,2018-10-12,Маяковского 8-й,7603,7603,a7285e17-e815-49e7-bf1c-3db8fb439890,,78401364000,78701000,20,6b1bab7d-ee45-4168-a2a6-4ce2880d90d3,000,760000010000475,150007,7394b1c0-8afb-4bef-8578-b206d703d5fe,76,пер,1900-01-01,0475,,,2020-08-16,000,0000,000,0,73f4e3d6-c2da-47be-a856-dd03e93cd2e5,0000,,0
0,7f5ad250-6cf2-45af-883b-1ce4c74efc2c,a7285e17-e815-49e7-bf1c-3db8fb439890,7,000,0,0,001,76000001000047503,3.0,2020-08-13,Маяковского 8-й,7603,7603,e7b2f56a-b4e4-4818-943e-a40bcd96dd2c,,78401364000,78701000001,21,6b1bab7d-ee45-4168-a2a6-4ce2880d90d3,000,760000010000475,150007,8b1eccbc-bfbe-4f92-b499-b96a1043d899,76,пер,2018-10-12,0475,,,2020-08-16,000,0000,000,0,79b394f1-0e9a-43fe-91e7-9a8cb9dd4b48,0000,,0
0,7f5ad250-6cf2-45af-883b-1ce4c74efc2c,e7b2f56a-b4e4-4818-943e-a40bcd96dd2c,7,000,0,0,001,76000001000047503,3.0,2079-06-06,Маяковского 8-й,7603,7603,8ec4c532-d9e4-4b8f-8f82-464469f2995d,,78401000000,78701000001,21,6b1bab7d-ee45-4168-a2a6-4ce2880d90d3,000,760000010000475,150007,a7285e17-e815-49e7-bf1c-3db8fb439890,76,пер,2020-07-08,0475,,,2020-08-16,000,0000,000,0,8a11d1a4-84ca-4c7c-8b32-5c3542dba99d,0000,,0
1,7f5ad250-6cf2-45af-883b-1ce4c74efc2c,8ec4c532-d9e4-4b8f-8f82-464469f2995d,7,000,0,0,001,76000001000047500,0.0,2079-06-06,8-й Маяковского,7603,7603,,,78401000000,78701000001,20,6b1bab7d-ee45-4168-a2a6-4ce2880d90d3,000,760000010000475,150007,e7b2f56a-b4e4-4818-943e-a40bcd96dd2c,76,пер,2020-08-13,0475,,,2020-08-16,000,0000,000,1,,0000,,0
0,6bf829a6-cf8c-4654-bed0-dcca35b8efb6,ea337882-50f8-48a6-b673-189230d47b32,7,000,0,0,001,76000001000083701,1.0,2020-08-14,Слепнева 2-й,7604,7604,93c92a0e-97d3-488e-92b5-c1280c5689c1,,78401387000,78701000,1,6b1bab7d-ee45-4168-a2a6-4ce2880d90d3,000,760000010000837,150035,,76,пер,1900-01-01,0837,,,2020-08-16,000,0000,000,0,,0000,,0
0,6bf829a6-cf8c-4654-bed0-dcca35b8efb6,93c92a0e-97d3-488e-92b5-c1280c5689c1,7,000,0,0,001,76000001000083702,2.0,2018-10-12,Слепнева 2-й,7604,7604,9f8965d3-e801-46e7-a5e7-f29819a8625c,,78401387000,78701000,20,6b1bab7d-ee45-4168-a2a6-4ce2880d90d3,000,760000010000837,150035,ea337882-50f8-48a6-b673-189230d47b32,76,пер,1900-01-01,0837,,,2020-08-16,000,0000,000,0,73f4e3d6-c2da-47be-a856-dd03e93cd2e5,0000,,0
0,6bf829a6-cf8c-4654-bed0-dcca35b8efb6,9f8965d3-e801-46e7-a5e7-f29819a8625c,7,000,0,0,001,76000001000083703,3.0,2020-08-14,Слепнева 2-й,7604,7604,ce3520f6-1a98-40e9-9d92-a95eb4b92d2b,,78401387000,78701000001,21,6b1bab7d-ee45-4168-a2a6-4ce2880d90d3,000,760000010000837,150035,93c92a0e-97d3-488e-92b5-c1280c5689c1,76,пер,2018-10-12,0837,,,2020-08-16,000,0000,000,0,79b394f1-0e9a-43fe-91e7-9a8cb9dd4b48,0000,,0
0,6bf829a6-cf8c-4654-bed0-dcca35b8efb6,ce3520f6-1a98-40e9-9d92-a95eb4b92d2b,7,000,0,0,001,76000001000083703,3.0,2079-06-06,Слепнева 2-й,7604,7604,6041b0ee-f5aa-4ac3-8e50-0ea16e97092a,,78401000000,78701000001,21,6b1bab7d-ee45-4168-a2a6-4ce2880d90d3,000,760000010000837,150035,9f8965d3-e801-46e7-a5e7-f29819a8625c,76,пер,2020-07-08,0837,,,2020-08-16,000,0000,000,0,8a11d1a4-84ca-4c7c-8b32-5c3542dba99d,0000,,0
1,6bf829a6-cf8c-4654-bed0-dcca35b8efb6,6041b0ee-f5aa-4ac3-8e50-0ea16e97092a,7,000,0,0,001,76000001000083700,0.0,2079-06-06,2-й Слепнева,7604,7604,,,78401000000,78701000001,20,6b1bab7d-ee45-4168-a2a6-4ce2880d90d3,000,760000010000837,150035,ce3520f6-1a98-40e9-9d92-a95eb4b92d2b,76,пер,2020-08-14,0837,,,2020-08-16,000,0000,000,1,,0000,,0
0,e8a6b61e-2a24-4b88-bd60-18d3b723e6f3,15604538-0414-4f95-a51d-da8991436e44,7,000,0,0,001,76000001000047301,1.0,2020-08-13,Маяковского 6-й,7603,7603,ccbe2aff-f6f3-4b94-8c5e-e8be5cfb4122,,78401364000,78701000,1,6b1bab7d-ee45-4168-a2a6-4ce2880d90d3,000,760000010000473,150007,,76,пер,1900-01-01,0473,,,2020-08-16,000,0000,000,0,,0000,,0
0,e8a6b61e-2a24-4b88-bd60-18d3b723e6f3,ccbe2aff-f6f3-4b94-8c5e-e8be5cfb4122,7,000,0,0,001,76000001000047302,2.0,2018-10-12,Маяковского 6-й,7603,7603,954cc389-fd90-4d4a-83a5-8353546013bb,,78401364000,78701000,20,6b1bab7d-ee45-4168-a2a6-4ce2880d90d3,000,760000010000473,150007,15604538-0414-4f95-a51d-da8991436e44,76,пер,1900-01-01,0473,,,2020-08-16,000,0000,000,0,73f4e3d6-c2da-47be-a856-dd03e93cd2e5,0000,,0
0,e8a6b61e-2a24-4b88-bd60-18d3b723e6f3,954cc389-fd90-4d4a-83a5-8353546013bb,7,000,0,0,001,76000001000047303,3.0,2020-08-13,Маяковского 6-й,7603,7603,ee0fd812-d8c8-4809-9998-14e01ba2e7b8,,78401364000,78701000001,21,6b1bab7d-ee45-4168-a2a6-4ce2880d90d3,000,760000010000473,150007,ccbe2aff-f6f3-4b94-8c5e-e8be5cfb4122,76,пер,2018-10-12,0473,,,2020-08-16,000,0000,000,0,79b394f1-0e9a-43fe-91e7-9a8cb9dd4b48,0000,,0
0,e8a6b61e-2a24-4b88-bd60-18d3b723e6f3,ee0fd812-d8c8-4809-9998-14e01ba2e7b8,7,000,0,0,001,76000001000047303,3.0,2079-06-06,Маяковского 6-й,7603,7603,5ec4d1e7-aca0-4188-a2a2-8498ce66e0b8,,78401000000,78701000001,21,6b1bab7d-ee45-4168-a2a6-4ce2880d90d3,000,760000010000473,150007,954cc389-fd90-4d4a-83a5-8353546013bb,76,пер,2020-07-08,0473,,,2020-08-16,000,0000,000,0,8a11d1a4-84ca-4c7c-8b32-5c3542dba99d,0000,,0
1,e8a6b61e-2a24-4b88-bd60-18d3b723e6f3,5ec4d1e7-aca0-4188-a2a2-8498ce66e0b8,7,000,0,0,001,76000001000047300,0.0,2079-06-06,6-й Маяковского,7603,7603,,,78401000000,78701000001,20,6b1bab7d-ee45-4168-a2a6-4ce2880d90d3,000,760000010000473,150007,ee0fd812-d8c8-4809-9998-14e01ba2e7b8,76,пер,2020-08-13,0473,,,2020-08-16,000,0000,000,1,,0000,,0
0,0f83be7c-af24-424d-90eb-80534271e1b2,b95e6af8-8af6-4099-a101-94ca5f399977,7,000,0,0,001,76000001000046701,1.0,2020-08-13,Маяковского 14-й,7603,7603,7e453034-64ab-4de7-92ba-b81249dbf7a6,,78401364000,78701000,1,6b1bab7d-ee45-4168-a2a6-4ce2880d90d3,000,760000010000467,150007,,76,пер,1900-01-01,0467,,,2020-08-16,000,0000,000,0,,0000,,0
0,0f83be7c-af24-424d-90eb-80534271e1b2,7e453034-64ab-4de7-92ba-b81249dbf7a6,7,000,0,0,001,76000001000046702,2.0,2018-10-12,Маяковского 14-й,7603,7603,4d506a8a-b3f3-4307-9955-50e1f3485e9b,,78401364000,78701000,20,6b1bab7d-ee45-4168-a2a6-4ce2880d90d3,000,760000010000467,150007,b95e6af8-8af6-4099-a101-94ca5f399977,76,пер,1900-01-01,0467,,,2020-08-16,000,0000,000,0,73f4e3d6-c2da-47be-a856-dd03e93cd2e5,0000,,0
0,0f83be7c-af24-424d-90eb-80534271e1b2,4d506a8a-b3f3-4307-9955-50e1f3485e9b,7,000,0,0,001,76000001000046703,3.0,2020-08-13,Маяковского 14-й,7603,7603,dcdd91df-9c8b-4b37-8ca8-8f5e89fd860d,,78401364000,78701000001,21,6b1bab7d-ee45-4168-a2a6-4ce2880d90d3,000,760000010000467,150007,7e453034-64ab-4de7-92ba-b81249dbf7a6,76,пер,2018-10-12,0467,,,2020-08-16,000,0000,000,0,79b394f1-0e9a-43fe-91e7-9a8cb9dd4b48,0000,,0
0,0f83be7c-af24-424d-90eb-80534271e1b2,dcdd91df-9c8b-4b37-8ca8-8f5e89fd860d,7,000,0,0,001,76000001000046703,3.0,2079-06-06,Маяковского 14-й,7603,7603,6f5b156f-b1af-4575-a555-bd629631bb6b,,78401000000,78701000001,21,6b1bab7d-ee45-4168-a2a6-4ce2880d90d3,000,760000010000467,150007,4d506a8a-b3f3-4307-9955-50e1f3485e9b,76,пер,2020-07-08,0467,,,2020-08-16,000,0000,000,0,8a11d1a4-84ca-4c7c-8b32-5c3542dba99d,0000,,0
1,0f83be7c-af24-424d-90eb-80534271e1b2,6f5b156f-b1af-4575-a555-bd629631bb6b,7,000,0,0,001,76000001000046700,0.0,2079-06-06,14-й Маяковского,7603,7603,,,78401000000,78701000001,20,6b1bab7d-ee45-4168-a2a6-4ce2880d90d3,000,760000010000467,150007,dcdd91df-9c8b-4b37-8ca8-8f5e89fd860d,76,пер,2020-08-13,0467,,,2020-08-16,000,0000,000,1,,0000,,0
0,faaeaa0e-136d-4078-b16a-ed5bff3f70d1,9b8dedba-6a2f-4cd4-8893-84bc34957737,7,000,0,0,001,76000001000079001,1.0,1900-01-01,С.Ковалевской 2-й,7604,7604,a6eaf6bc-8b24-49d2-b101-6c198bceed23,,78401387000,78701000,1,6b1bab7d-ee45-4168-a2a6-4ce2880d90d3,000,760000010000790,150001,,76,пер,1900-01-01,0790,,,2020-08-16,000,0000,000,0,,0000,,0
0,faaeaa0e-136d-4078-b16a-ed5bff3f70d1,a6eaf6bc-8b24-49d2-b101-6c198bceed23,7,000,0,0,001,76000001000079002,2.0,2020-08-14,Софьи Ковалевской 2-й,7604,7604,84200f5c-07d8-4f69-9f80-05b1af3fb991,,78401387000,78701000,1,6b1bab7d-ee45-4168-a2a6-4ce2880d90d3,000,760000010000790,150001,9b8dedba-6a2f-4cd4-8893-84bc34957737,76,пер,1900-01-01,0790,,,2020-08-16,000,0000,000,0,,0000,,0
0,faaeaa0e-136d-4078-b16a-ed5bff3f70d1,84200f5c-07d8-4f69-9f80-05b1af3fb991,7,000,0,0,001,76000001000079003,3.0,2018-10-12,Софьи Ковалевской 2-й,7604,7604,413107af-7e1f-41a7-9572-9ff6ad3ed2df,,78401387000,78701000,20,6b1bab7d-ee45-4168-a2a6-4ce2880d90d3,000,760000010000790,150001,a6eaf6bc-8b24-49d2-b101-6c198bceed23,76,пер,1900-01-01,0790,,,2020-08-16,000,0000,000,0,73f4e3d6-c2da-47be-a856-dd03e93cd2e5,0000,,0
0,faaeaa0e-136d-4078-b16a-ed5bff3f70d1,413107af-7e1f-41a7-9572-9ff6ad3ed2df,7,000,0,0,001,76000001000079004,4.0,2020-08-14,Софьи Ковалевской 2-й,7604,7604,0febff52-23e5-4565-bf31-32197e176226,,78401387000,78701000001,21,6b1bab7d-ee45-4168-a2a6-4ce2880d90d3,000,760000010000790,150001,84200f5c-07d8-4f69-9f80-05b1af3fb991,76,пер,2018-10-12,0790,,,2020-08-16,000,0000,000,0,79b394f1-0e9a-43fe-91e7-9a8cb9dd4b48,0000,,0
0,faaeaa0e-136d-4078-b16a-ed5bff3f70d1,0febff52-23e5-4565-bf31-32197e176226,7,000,0,0,001,76000001000079004,4.0,2079-06-06,Софьи Ковалевской 2-й,7604,7604,df3493be-4d3e-454e-bcb5-a665d431ded9,,78401000000,78701000001,21,6b1bab7d-ee45-4168-a2a6-4ce2880d90d3,000,760000010000790,150001,413107af-7e1f-41a7-9572-9ff6ad3ed2df,76,пер,2020-07-08,0790,,,2020-08-16,000,0000,000,0,8a11d1a4-84ca-4c7c-8b32-5c3542dba99d,0000,,0
1,faaeaa0e-136d-4078-b16a-ed5bff3f70d1,df3493be-4d3e-454e-bcb5-a665d431ded9,7,000,0,0,001,76000001000079000,0.0,2079-06-06,2-й Софьи Ковалевской,7604,7604,,,78401000000,78701000001,20,6b1bab7d-ee45-4168-a2a6-4ce2880d90d3,000,760000010000790,150001,0febff52-23e5-4565-bf31-32197e176226,76,пер,2020-08-14,0790,,,2020-08-16,000,0000,000,1,,0000,,0
0,329748e9-0f5c-4c63-adce-c8b70597d35d,152e481a-b9e3-4bc2-b8f4-3abd525ae317,7,000,0,0,001,76000001000047601,1.0,2020-08-13,Маяковского 9-й,7603,7603,86496e35-8870-4286-895d-93760b5620ee,,78401364000,78701000,1,6b1bab7d-ee45-4168-a2a6-4ce2880d90d3,000,760000010000476,150007,,76,пер,1900-01-01,0476,,,2020-08-16,000,0000,000,0,,0000,,0
0,329748e9-0f5c-4c63-adce-c8b70597d35d,86496e35-8870-4286-895d-93760b5620ee,7,000,0,0,001,76000001000047602,2.0,2018-10-12,Маяковского 9-й,7603,7603,f1163480-8c8c-4954-bd8f-9fafa72aac45,,78401364000,78701000,20,6b1bab7d-ee45-4168-a2a6-4ce2880d90d3,000,760000010000476,150007,152e481a-b9e3-4bc2-b8f4-3abd525ae317,76,пер,1900-01-01,0476,,,2020-08-16,000,0000,000,0,73f4e3d6-c2da-47be-a856-dd03e93cd2e5,0000,,0
0,329748e9-0f5c-4c63-adce-c8b70597d35d,f1163480-8c8c-4954-bd8f-9fafa72aac45,7,000,0,0,001,76000001000047603,3.0,2020-08-13,Маяковского 9-й,7603,7603,dd4290ee-7eb1-4965-a409-c9532ec708a8,,78401364000,78701000001,21,6b1bab7d-ee45-4168-a2a6-4ce2880d90d3,000,760000010000476,150007,86496e35-8870-4286-895d-93760b5620ee,76,пер,2018-10-12,0476,,,2020-08-16,000,0000,000,0,79b394f1-0e9a-43fe-91e7-9a8cb9dd4b48,0000,,0
0,329748e9-0f5c-4c63-adce-c8b70597d35d,dd4290ee-7eb1-4965-a409-c9532ec708a8,7,000,0,0,001,76000001000047603,3.0,2079-06-06,Маяковского 9-й,7603,7603,12643daa-9b39-45af-a867-25b0dcebe06e,,78401000000,78701000001,21,6b1bab7d-ee45-4168-a2a6-4ce2880d90d3,000,760000010000476,150007,f1163480-8c8c-4954-bd8f-9fafa72aac45,76,пер,2020-07-08,0476,,,2020-08-16,000,0000,000,0,8a11d1a4-84ca-4c7c-8b32-5c3542dba99d,0000,,0
1,329748e9-0f5c-4c63-adce-c8b70597d35d,12643daa-9b39-45af-a867-25b0dcebe06e,7,000,0,0,001,76000001000047600,0.0,2079-06-06,9-й Маяковского,7603,7603,,,78401000000,78701000001,20,6b1bab7d-ee45-4168-a2a6-4ce2880d90d3,000,760000010000476,150007,dd4290ee-7eb1-4965-a409-c9532ec708a8,76,пер,2020-08-13,0476,,,2020-08-16,000,0000,000,1,,0000,,0
0,f10b9dcb-835d-42fb-a423-895975ecb302,742f649b-765b-40ba-bc1f-0b7837074b87,6,001,0,0,000,7600100046101,1.0,2079-06-06,Семеновское,7627,7627,a248ab1e-abbc-4bf6-8114-806518c3627f,,78250845018,78650410,1,07842df6-2f70-4e43-a177-4701fb3ff10e,461,76001000461,150515,,76,д,1900-01-01,0000,,,2020-08-16,000,0000,000,0,,0000,,0
0,f10b9dcb-835d-42fb-a423-895975ecb302,a248ab1e-abbc-4bf6-8114-806518c3627f,6,001,0,0,000,7600100046100,0.0,2020-08-12,Семеновское,7627,7627,5444e9f0-4bc5-49ad-8d6c-011a17993182,,78250845018,78650410,20,07842df6-2f70-4e43-a177-4701fb3ff10e,461,76001000461,150515,742f649b-765b-40ba-bc1f-0b7837074b87,76,д,1900-01-01,0000,,,2020-08-16,000,0000,000,0,8a4d62fd-939a-46a1-bc96-f286e92cdf67,0000,,0
1,f10b9dcb-835d-42fb-a423-895975ecb302,5444e9f0-4bc5-49ad-8d6c-011a17993182,6,001,0,0,000,7600100046100,0.0,2079-06-06,Семеновское,7627,7627,,,78250845018,78650410261,20,07842df6-2f70-4e43-a177-4701fb3ff10e,461,76001000461,150515,a248ab1e-abbc-4bf6-8114-806518c3627f,76,д,2020-08-12,0000,,,2020-08-16,000,0000,000,1,5a02afbf-5f8a-44b9-b489-8db6099ac790,0000,,0
0,208ef5e9-bb36-4002-ac77-ea4acf2c77cc,03c38cc7-d8d7-4ab5-b371-cf2de696c252,7,000,0,0,001,76000001000078901,1.0,1900-01-01,С.Ковалевской 1-й,7604,7604,5e9d213a-120a-4fd9-a53e-99548b4e66cb,,78401387000,78701000,1,6b1bab7d-ee45-4168-a2a6-4ce2880d90d3,000,760000010000789,150001,,76,пер,1900-01-01,0789,,,2020-08-16,000,0000,000,0,,0000,,0
0,208ef5e9-bb36-4002-ac77-ea4acf2c77cc,5e9d213a-120a-4fd9-a53e-99548b4e66cb,7,000,0,0,001,76000001000078902,2.0,2020-08-14,Софьи Ковалевской 1-й,7604,7604,bf3dad5c-1031-4237-9d86-689fa927b3bf,,78401387000,78701000,1,6b1bab7d-ee45-4168-a2a6-4ce2880d90d3,000,760000010000789,150001,03c38cc7-d8d7-4ab5-b371-cf2de696c252,76,пер,1900-01-01,0789,,,2020-08-16,000,0000,000,0,,0000,,0
0,208ef5e9-bb36-4002-ac77-ea4acf2c77cc,bf3dad5c-1031-4237-9d86-689fa927b3bf,7,000,0,0,001,76000001000078903,3.0,2018-10-12,Софьи Ковалевской 1-й,7604,7604,09b464b4-ff8b-4d8a-a802-3bfd01b420e3,,78401387000,78701000,20,6b1bab7d-ee45-4168-a2a6-4ce2880d90d3,000,760000010000789,150001,5e9d213a-120a-4fd9-a53e-99548b4e66cb,76,пер,1900-01-01,0789,,,2020-08-16,000,0000,000,0,73f4e3d6-c2da-47be-a856-dd03e93cd2e5,0000,,0
0,208ef5e9-bb36-4002-ac77-ea4acf2c77cc,09b464b4-ff8b-4d8a-a802-3bfd01b420e3,7,000,0,0,001,76000001000078904,4.0,2020-08-14,Софьи Ковалевской 1-й,7604,7604,8af7d675-89bf-418f-99a2-9697347ea67e,,78401387000,78701000001,21,6b1bab7d-ee45-4168-a2a6-4ce2880d90d3,000,760000010000789,150001,bf3dad5c-1031-4237-9d86-689fa927b3bf,76,пер,2018-10-12,0789,,,2020-08-16,000,0000,000,0,79b394f1-0e9a-43fe-91e7-9a8cb9dd4b48,0000,,0
0,208ef5e9-bb36-4002-ac77-ea4acf2c77cc,8af7d675-89bf-418f-99a2-9697347ea67e,7,000,0,0,001,76000001000078904,4.0,2079-06-06,Софьи Ковалевской 1-й,7604,7604,641e8cd3-8558-46df-a90f-39b8821414a2,,78401000000,78701000001,21,6b1bab7d-ee45-4168-a2a6-4ce2880d90d3,000,760000010000789,150001,09b464b4-ff8b-4d8a-a802-3bfd01b420e3,76,пер,2020-07-08,0789,,,2020-08-16,000,0000,000,0,8a11d1a4-84ca-4c7c-8b32-5c3542dba99d,0000,,0
1,208ef5e9-bb36-4002-ac77-ea4acf2c77cc,641e8cd3-8558-46df-a90f-39b8821414a2,7,000,0,0,001,76000001000078900,0.0,2079-06-06,1-й Софьи Ковалевской,7604,7604,,,78401000000,78701000001,20,6b1bab7d-ee45-4168-a2a6-4ce2880d90d3,000,760000010000789,150001,8af7d675-89bf-418f-99a2-9697347ea67e,76,пер,2020-08-14,0789,,,2020-08-16,000,0000,000,1,,0000,,0
0,6769bcba-5234-4862-9b2c-78c61f4b1758,5f5a3fa5-6305-40cf-af15-520f571eab5d,7,000,0,0,001,76000001000065401,1.0,2020-08-14,Пожарского 1-й,7604,7604,d2d4d98b-ea10-4d51-a6d3-6b3bda6763d3,,78401387000,78701000,1,6b1bab7d-ee45-4168-a2a6-4ce2880d90d3,000,760000010000654,150030,,76,пер,1900-01-01,0654,,,2020-08-16,000,0000,000,0,,0000,,0
0,6769bcba-5234-4862-9b2c-78c61f4b1758,d2d4d98b-ea10-4d51-a6d3-6b3bda6763d3,7,000,0,0,001,76000001000065402,2.0,2018-10-12,Пожарского 1-й,7604,7604,99924c67-e073-45e8-8ca1-001f98de12f5,,78401387000,78701000,20,6b1bab7d-ee45-4168-a2a6-4ce2880d90d3,000,760000010000654,150066,5f5a3fa5-6305-40cf-af15-520f571eab5d,76,пер,1900-01-01,0654,,,2020-08-16,000,0000,000,0,73f4e3d6-c2da-47be-a856-dd03e93cd2e5,0000,,0
0,6769bcba-5234-4862-9b2c-78c61f4b1758,99924c67-e073-45e8-8ca1-001f98de12f5,7,000,0,0,001,76000001000065403,3.0,2020-08-14,Пожарского 1-й,7604,7604,46aee431-4278-457a-8ff0-7736027fc9fb,,78401387000,78701000001,21,6b1bab7d-ee45-4168-a2a6-4ce2880d90d3,000,760000010000654,150066,d2d4d98b-ea10-4d51-a6d3-6b3bda6763d3,76,пер,2018-10-12,0654,,,2020-08-16,000,0000,000,0,79b394f1-0e9a-43fe-91e7-9a8cb9dd4b48,0000,,0
0,6769bcba-5234-4862-9b2c-78c61f4b1758,46aee431-4278-457a-8ff0-7736027fc9fb,7,000,0,0,001,76000001000065403,3.0,2079-06-06,Пожарского 1-й,7604,7604,6deb50d7-94fb-401e-a42b-97b9377a10ad,,78401000000,78701000001,21,6b1bab7d-ee45-4168-a2a6-4ce2880d90d3,000,760000010000654,150066,99924c67-e073-45e8-8ca1-001f98de12f5,76,пер,2020-07-08,0654,,,2020-08-16,000,0000,000,0,8a11d1a4-84ca-4c7c-8b32-5c3542dba99d,0000,,0
1,6769bcba-5234-4862-9b2c-78c61f4b1758,6deb50d7-94fb-401e-a42b-97b9377a10ad,7,000,0,0,001,76000001000065400,0.0,2079-06-06,1-й Пожарского,7604,7604,,,78401000000,78701000001,20,6b1bab7d-ee45-4168-a2a6-4ce2880d90d3,000,760000010000654,150066,46aee431-4278-457a-8ff0-7736027fc9fb,76,пер,2020-08-14,0654,,,2020-08-16,000,0000,000,1,,0000,,0
0,e377ac23-8c6b-49c7-9ea8-3212a4c48196,9c7fe1e2-4af8-4bfb-ae86-35a82c3d227a,7,000,0,0,001,76000001000086601,1.0,2020-08-14,Поселок Сокол 1-й,7604,7604,40e6478d-d997-4498-8ab4-78feaedbd554,,78401387000,78701000,1,6b1bab7d-ee45-4168-a2a6-4ce2880d90d3,000,760000010000866,150022,,76,проезд,1900-01-01,0866,,,2020-08-16,000,0000,000,0,,0000,,0
0,e377ac23-8c6b-49c7-9ea8-3212a4c48196,40e6478d-d997-4498-8ab4-78feaedbd554,7,000,0,0,001,76000001000086602,2.0,2018-10-12,Поселок Сокол 1-й,7604,7604,89c61a91-b0a5-4568-a88f-93212b9fbb94,,78401387000,78701000,20,6b1bab7d-ee45-4168-a2a6-4ce2880d90d3,000,760000010000866,150022,9c7fe1e2-4af8-4bfb-ae86-35a82c3d227a,76,проезд,1900-01-01,0866,,,2020-08-16,000,0000,000,0,73f4e3d6-c2da-47be-a856-dd03e93cd2e5,0000,,0
0,e377ac23-8c6b-49c7-9ea8-3212a4c48196,89c61a91-b0a5-4568-a88f-93212b9fbb94,7,000,0,0,001,76000001000086603,3.0,2020-08-14,Поселок Сокол 1-й,7604,7604,abbba6b2-4fc2-4a1e-9233-318fa0c964d6,,78401387000,78701000001,21,6b1bab7d-ee45-4168-a2a6-4ce2880d90d3,000,760000010000866,150022,40e6478d-d997-4498-8ab4-78feaedbd554,76,проезд,2018-10-12,0866,,,2020-08-16,000,0000,000,0,79b394f1-0e9a-43fe-91e7-9a8cb9dd4b48,0000,,0
0,e377ac23-8c6b-49c7-9ea8-3212a4c48196,abbba6b2-4fc2-4a1e-9233-318fa0c964d6,7,000,0,0,001,76000001000086603,3.0,2079-06-06,Поселок Сокол 1-й,7604,7604,86856735-2fa9-4471-aaff-1ad47fb263eb,,78401000000,78701000001,21,6b1bab7d-ee45-4168-a2a6-4ce2880d90d3,000,760000010000866,150022,89c61a91-b0a5-4568-a88f-93212b9fbb94,76,проезд,2020-07-08,0866,,,2020-08-16,000,0000,000,0,8a11d1a4-84ca-4c7c-8b32-5c3542dba99d,0000,,0
1,e377ac23-8c6b-49c7-9ea8-3212a4c48196,86856735-2fa9-4471-aaff-1ad47fb263eb,7,000,0,0,001,76000001000086600,0.0,2079-06-06,1-й поселок Сокол,7604,7604,,,78401000000,78701000001,20,6b1bab7d-ee45-4168-a2a6-4ce2880d90d3,000,760000010000866,150022,abbba6b2-4fc2-4a1e-9233-318fa0c964d6,76,проезд,2020-08-14,0866,,,2020-08-16,000,0000,000,1,,0000,,0
0,a6397682-bf94-4868-8e2e-e70cf84d7c6c,a6397682-bf94-4868-8e2e-e70cf84d7c6c,7,000,0,0,001,76000001000129901,1.0,2020-08-17,Иваньковский 3-й,7602,7602,35708434-e549-41c7-a09b-2dd349c3ebc0,,78401362000,78701000,10,6b1bab7d-ee45-4168-a2a6-4ce2880d90d3,000,760000010001299,150042,,76,пер,2014-09-19,1299,,,2020-08-17,000,0000,000,0,4c1ea791-168a-4775-bb71-8437b6982a93,0000,,0
0,a6397682-bf94-4868-8e2e-e70cf84d7c6c,35708434-e549-41c7-a09b-2dd349c3ebc0,7,000,0,0,001,76000001000129902,2.0,2020-08-17,Иваньковский 3-й,7602,7602,7d346ebc-de61-4ec6-bff6-1b0cfa250196,,78401362000,78701000001,21,6b1bab7d-ee45-4168-a2a6-4ce2880d90d3,000,760000010001299,150042,a6397682-bf94-4868-8e2e-e70cf84d7c6c,76,пер,2018-10-12,1299,,,2020-08-17,000,0000,000,0,79b394f1-0e9a-43fe-91e7-9a8cb9dd4b48,0000,,0
0,a6397682-bf94-4868-8e2e-e70cf84d7c6c,7d346ebc-de61-4ec6-bff6-1b0cfa250196,7,000,0,0,001,76000001000129902,2.0,2079-06-06,Иваньковский 3-й,7602,7602,d8286476-0e05-4fc7-bbfd-0d6da2ce1414,,78401000000,78701000001,21,6b1bab7d-ee45-4168-a2a6-4ce2880d90d3,000,760000010001299,150042,35708434-e549-41c7-a09b-2dd349c3ebc0,76,пер,2020-07-08,1299,,,2020-08-17,000,0000,000,0,8a11d1a4-84ca-4c7c-8b32-5c3542dba99d,0000,,0
1,a6397682-bf94-4868-8e2e-e70cf84d7c6c,d8286476-0e05-4fc7-bbfd-0d6da2ce1414,7,000,0,0,001,76000001000129900,0.0,2079-06-06,3-й Иваньковский,7602,7602,,,78401000000,78701000001,20,6b1bab7d-ee45-4168-a2a6-4ce2880d90d3,000,760000010001299,150042,7d346ebc-de61-4ec6-bff6-1b0cfa250196,76,пер,2020-08-17,1299,,,2020-08-17,000,0000,000,1,,0000,,0
0,317de353-01f2-430a-852a-51bc3a49c57c,d920bde4-ed79-4de2-bf99-6df08b9a0b98,6,008,0,0,000,7600800026801,1.0,2079-06-06,Антеплево (Охотинское с/п),7612,7612,0a7de1b8-073e-4e06-b1c6-d16dbd8f6000,,78221830002,78621430,1,fa4c835a-3297-40c4-bc84-8ab1eeaf0213,268,76008000268,152835,,76,д,1900-01-01,0000,7619,7619,2020-08-17,000,0000,000,0,,0000,,0
0,317de353-01f2-430a-852a-51bc3a49c57c,0a7de1b8-073e-4e06-b1c6-d16dbd8f6000,6,008,0,0,000,7600800026802,2.0,2019-03-01,Антеплево (Охотинское с/п),7612,7612,bad08cbc-dc91-4ae7-873a-23b3b993683d,,78221830002,78621430106,21,fa4c835a-3297-40c4-bc84-8ab1eeaf0213,268,76008000268,,d920bde4-ed79-4de2-bf99-6df08b9a0b98,76,д,2014-01-10,0000,7619,7619,2020-08-17,000,0000,000,0,,0000,,0
0,317de353-01f2-430a-852a-51bc3a49c57c,bad08cbc-dc91-4ae7-873a-23b3b993683d,6,008,0,0,000,7600800026803,3.0,2019-12-27,Антеплево (Охотинское с/п),7612,7612,274e3985-3ecc-4785-ac96-2c418aeb558e,,78221830002,78621430106,21,fa4c835a-3297-40c4-bc84-8ab1eeaf0213,268,76008000268,,0a7de1b8-073e-4e06-b1c6-d16dbd8f6000,76,д,2019-03-01,0000,,,2020-08-17,000,0000,000,0,b6ba460a-6dff-4ed3-8021-7c60032089a1,0000,,0
0,317de353-01f2-430a-852a-51bc3a49c57c,274e3985-3ecc-4785-ac96-2c418aeb558e,6,008,0,0,000,7600800026800,0.0,2079-06-06,Антеплево (Охотинское с/п),7612,7612,4668594e-cfa5-464a-83a5-90c2784201ee,,78221830002,78621430106,20,fa4c835a-3297-40c4-bc84-8ab1eeaf0213,268,76008000268,,bad08cbc-dc91-4ae7-873a-23b3b993683d,76,д,2019-12-27,0000,,,2020-08-17,000,0000,000,0,41f35db7-c146-4622-9b6b-be03a28203ab,0000,,0
0,317de353-01f2-430a-852a-51bc3a49c57c,4668594e-cfa5-464a-83a5-90c2784201ee,6,008,0,0,000,7600800026800,0.0,2079-06-06,Антеплево (Охотинское с/п),7612,7612,5a6ee874-79ed-4dfd-aeea-e1d66f49ccdd,,78221830002,78621430106,21,fa4c835a-3297-40c4-bc84-8ab1eeaf0213,268,76008000268,152835,274e3985-3ecc-4785-ac96-2c418aeb558e,76,д,2020-03-28,0000,,,2020-08-17,000,0000,000,0,41f35db7-c146-4622-9b6b-be03a28203ab,0000,,0
1,317de353-01f2-430a-852a-51bc3a49c57c,5a6ee874-79ed-4dfd-aeea-e1d66f49ccdd,6,008,0,0,000,7600800026800,0.0,2079-06-06,Антеплево (Охотинское с/п),7612,7612,,,78221830002,78621430106,20,fa4c835a-3297-40c4-bc84-8ab1eeaf0213,268,76008000268,152835,4668594e-cfa5-464a-83a5-90c2784201ee,76,д,1900-01-01,0000,,,2020-08-17,000,0000,000,1,,0000,,0
0,8be10457-9e3a-42d0-9f4f-b3ea1d47bd16,9dc61e08-105c-4524-89c0-be41e1ed1883,7,000,0,0,001,76000001000025101,1.0,2020-08-17,Заволжский 4-й,7603,7603,4d0a18e4-5b2d-4078-ae92-dabac0568023,,78401364000,78701000,1,6b1bab7d-ee45-4168-a2a6-4ce2880d90d3,000,760000010000251,150007,,76,пер,1900-01-01,0251,,,2020-08-17,000,0000,000,0,,0000,,0
0,8be10457-9e3a-42d0-9f4f-b3ea1d47bd16,4d0a18e4-5b2d-4078-ae92-dabac0568023,7,000,0,0,001,76000001000025102,2.0,2018-10-12,Заволжский 4-й,7603,7603,85838cb3-21ec-45d5-b432-f23c0d35687c,,78401364000,78701000,20,6b1bab7d-ee45-4168-a2a6-4ce2880d90d3,000,760000010000251,150007,9dc61e08-105c-4524-89c0-be41e1ed1883,76,пер,1900-01-01,0251,,,2020-08-17,000,0000,000,0,73f4e3d6-c2da-47be-a856-dd03e93cd2e5,0000,,0
0,8be10457-9e3a-42d0-9f4f-b3ea1d47bd16,85838cb3-21ec-45d5-b432-f23c0d35687c,7,000,0,0,001,76000001000025103,3.0,2020-08-17,Заволжский 4-й,7603,7603,25548236-1301-45a0-8a26-341f2bfd94b0,,78401364000,78701000001,21,6b1bab7d-ee45-4168-a2a6-4ce2880d90d3,000,760000010000251,150007,4d0a18e4-5b2d-4078-ae92-dabac0568023,76,пер,2018-10-12,0251,,,2020-08-17,000,0000,000,0,79b394f1-0e9a-43fe-91e7-9a8cb9dd4b48,0000,,0
0,8be10457-9e3a-42d0-9f4f-b3ea1d47bd16,25548236-1301-45a0-8a26-341f2bfd94b0,7,000,0,0,001,76000001000025103,3.0,2079-06-06,Заволжский 4-й,7603,7603,54d56add-bc80-4a7e-8b57-2675b42b85ea,,78401000000,78701000001,21,6b1bab7d-ee45-4168-a2a6-4ce2880d90d3,000,760000010000251,150007,85838cb3-21ec-45d5-b432-f23c0d35687c,76,пер,2020-07-08,0251,,,2020-08-17,000,0000,000,0,8a11d1a4-84ca-4c7c-8b32-5c3542dba99d,0000,,0
1,8be10457-9e3a-42d0-9f4f-b3ea1d47bd16,54d56add-bc80-4a7e-8b57-2675b42b85ea,7,000,0,0,001,76000001000025100,0.0,2079-06-06,4-й Заволжский,7603,7603,,,78401000000,78701000001,20,6b1bab7d-ee45-4168-a2a6-4ce2880d90d3,000,760000010000251,150007,25548236-1301-45a0-8a26-341f2bfd94b0,76,пер,2020-08-17,0251,,,2020-08-17,000,0000,000,1,,0000,,0
0,d41d68d2-ac4b-45ae-b53c-99f82f9ef6d7,57fbc135-9bfe-4900-b6a9-31936edca84a,7,000,0,0,001,76000001000028801,1.0,2020-08-17,Иваньковская 3-я,7602,7602,64310cb5-7039-4157-a2fb-871227a9df8b,,78401362000,78701000,1,6b1bab7d-ee45-4168-a2a6-4ce2880d90d3,000,760000010000288,150042,,76,ул,1900-01-01,0288,,,2020-08-17,000,0000,000,0,,0000,,0
0,d41d68d2-ac4b-45ae-b53c-99f82f9ef6d7,64310cb5-7039-4157-a2fb-871227a9df8b,7,000,0,0,001,76000001000028802,2.0,2018-10-12,Иваньковская 3-я,7602,7602,c8c54925-b81b-43d3-952b-15cfff5c1b88,,78401362000,78701000,20,6b1bab7d-ee45-4168-a2a6-4ce2880d90d3,000,760000010000288,150042,57fbc135-9bfe-4900-b6a9-31936edca84a,76,ул,1900-01-01,0288,,,2020-08-17,000,0000,000,0,dbe28e72-5dfa-43bb-adea-42ae0b1cdba0,0000,,0
0,d41d68d2-ac4b-45ae-b53c-99f82f9ef6d7,c8c54925-b81b-43d3-952b-15cfff5c1b88,7,000,0,0,001,76000001000028803,3.0,2020-08-17,Иваньковская 3-я,7602,7602,89751782-d27a-4313-8aa4-7606583fe975,,78401362000,78701000001,21,6b1bab7d-ee45-4168-a2a6-4ce2880d90d3,000,760000010000288,150042,64310cb5-7039-4157-a2fb-871227a9df8b,76,ул,2018-10-12,0288,,,2020-08-17,000,0000,000,0,79b394f1-0e9a-43fe-91e7-9a8cb9dd4b48,0000,,0
0,d41d68d2-ac4b-45ae-b53c-99f82f9ef6d7,89751782-d27a-4313-8aa4-7606583fe975,7,000,0,0,001,76000001000028803,3.0,2079-06-06,Иваньковская 3-я,7602,7602,937955b9-34d0-4893-953f-b8cd1b7b7a05,,78401000000,78701000001,21,6b1bab7d-ee45-4168-a2a6-4ce2880d90d3,000,760000010000288,150042,c8c54925-b81b-43d3-952b-15cfff5c1b88,76,ул,2020-07-08,0288,,,2020-08-17,000,0000,000,0,8a11d1a4-84ca-4c7c-8b32-5c3542dba99d,0000,,0
1,d41d68d2-ac4b-45ae-b53c-99f82f9ef6d7,937955b9-34d0-4893-953f-b8cd1b7b7a05,7,000,0,0,001,76000001000028800,0.0,2079-06-06,3-я Иваньковская,7602,7602,,,78401000000,78701000001,20,6b1bab7d-ee45-4168-a2a6-4ce2880d90d3,000,760000010000288,150042,89751782-d27a-4313-8aa4-7606583fe975,76,ул,2020-08-17,0288,,,2020-08-17,000,0000,000,1,,0000,,0
0,9a06e39f-43fc-46e7-bea4-747e68a7be36,bbb9a04c-8252-4e61-9037-746c74ff4e30,7,000,0,0,001,76000001000076601,1.0,2020-08-17,Куропаткова 2-й,7602,7602,9f51ab7b-7e38-4513-8a3b-dc9613c07c3f,,78401362000,78701000,1,6b1bab7d-ee45-4168-a2a6-4ce2880d90d3,000,760000010000766,150018,,76,пер,1900-01-01,0766,,,2020-08-17,000,0000,000,0,,0000,,0
0,9a06e39f-43fc-46e7-bea4-747e68a7be36,9f51ab7b-7e38-4513-8a3b-dc9613c07c3f,7,000,0,0,001,76000001000076602,2.0,2018-10-12,Куропаткова 2-й,7602,7602,c9bdfd30-80b0-48dc-afe2-7480ccb7007c,,78401362000,78701000,20,6b1bab7d-ee45-4168-a2a6-4ce2880d90d3,000,760000010000766,150018,bbb9a04c-8252-4e61-9037-746c74ff4e30,76,пер,1900-01-01,0766,,,2020-08-17,000,0000,000,0,dbe28e72-5dfa-43bb-adea-42ae0b1cdba0,0000,,0
0,9a06e39f-43fc-46e7-bea4-747e68a7be36,c9bdfd30-80b0-48dc-afe2-7480ccb7007c,7,000,0,0,001,76000001000076603,3.0,2020-08-17,Куропаткова 2-й,7602,7602,65d3f1d6-0211-469f-bc27-192eea1bda4c,,78401362000,78701000001,21,6b1bab7d-ee45-4168-a2a6-4ce2880d90d3,000,760000010000766,150018,9f51ab7b-7e38-4513-8a3b-dc9613c07c3f,76,пер,2018-10-12,0766,,,2020-08-17,000,0000,000,0,79b394f1-0e9a-43fe-91e7-9a8cb9dd4b48,0000,,0
0,9a06e39f-43fc-46e7-bea4-747e68a7be36,65d3f1d6-0211-469f-bc27-192eea1bda4c,7,000,0,0,001,76000001000076603,3.0,2079-06-06,Куропаткова 2-й,7602,7602,94726ebf-1e0d-46cf-bf9e-d5554f567551,,78401000000,78701000001,21,6b1bab7d-ee45-4168-a2a6-4ce2880d90d3,000,760000010000766,150018,c9bdfd30-80b0-48dc-afe2-7480ccb7007c,76,пер,2020-07-08,0766,,,2020-08-17,000,0000,000,0,8a11d1a4-84ca-4c7c-8b32-5c3542dba99d,0000,,0
1,9a06e39f-43fc-46e7-bea4-747e68a7be36,94726ebf-1e0d-46cf-bf9e-d5554f567551,7,000,0,0,001,76000001000076600,0.0,2079-06-06,2-й Куропаткова,7602,7602,,,78401000000,78701000001,20,6b1bab7d-ee45-4168-a2a6-4ce2880d90d3,000,760000010000766,150018,65d3f1d6-0211-469f-bc27-192eea1bda4c,76,пер,2020-08-17,0766,,,2020-08-17,000,0000,000,1,,0000,,0
1,7343f075-d2f2-4813-b4f6-4856d8cf99b8,7343f075-d2f2-4813-b4f6-4856d8cf99b8,7,001,0,0,000,76001000573000300,0.0,2079-06-06,Медовая,7627,7627,,,78250885029,78650430406,10,3a1a3a6b-a045-4035-a0c1-2d95e3d36a79,573,760010005730003,150521,,76,ул,2020-08-18,0003,,,2020-08-20,000,0000,000,1,,0000,,0
0,5fbc6cac-6df0-4d14-8d2d-8950774ea23f,5fbc6cac-6df0-4d14-8d2d-8950774ea23f,90,017,0,0,000,76017000422000351,51.0,2016-09-29,Московское шоссе 1,7612,7612,f60e79c1-99fe-48b4-bccf-8ed53fc340ce,,78246835021,78646480201,10,bf70f107-8cda-4fd8-a5d8-2a9b7d38ecf3,422,760170004220003,152612,,76,промзона,2004-03-25,0000,,,2020-08-20,000,0000,000,0,31fce92c-2c4e-49bd-af88-bde8bd7ccb17,0000,,0
0,5fbc6cac-6df0-4d14-8d2d-8950774ea23f,f60e79c1-99fe-48b4-bccf-8ed53fc340ce,65,017,0,0,000,76017000422000399,99.0,2020-08-19,Московское шоссе 1,7612,7612,8b7ea089-0df2-47f0-abf4-68390ea54d8e,,78246835021,78646480201,50,bf70f107-8cda-4fd8-a5d8-2a9b7d38ecf3,422,760170004220003,152612,5fbc6cac-6df0-4d14-8d2d-8950774ea23f,76,промзона,2016-09-29,0000,,,2020-08-20,000,0000,000,0,,0003,,0
1,5fbc6cac-6df0-4d14-8d2d-8950774ea23f,8b7ea089-0df2-47f0-abf4-68390ea54d8e,65,017,0,0,000,76017000422000399,99.0,2079-06-06,Московское шоссе 1,7612,7612,,,78246835021,78646480201,30,bf70f107-8cda-4fd8-a5d8-2a9b7d38ecf3,422,760170004220003,152612,f60e79c1-99fe-48b4-bccf-8ed53fc340ce,76,промзона,2020-08-19,0000,,,2020-08-20,000,0000,000,0,,0003,,0
1,b6d4e4d0-a71c-4d89-b44e-3827c893b3fe,b6d4e4d0-a71c-4d89-b44e-3827c893b3fe,7,008,0,0,000,76008000185000200,0.0,2079-06-06,Лесной остров,7612,7612,,,78221830027,78621430231,10,fe9f130e-513b-41be-a804-e97ae618d0f4,185,760080001850002,152835,,76,ул,2020-08-21,0002,,,2020-08-22,000,0000,000,1,,0000,,0
1,fa97bc1a-b0c1-49e2-b80f-ae19b817ed1b,fa97bc1a-b0c1-49e2-b80f-ae19b817ed1b,7,006,0,0,001,76006001000011900,0.0,2079-06-06,Дорожная,7611,7611,,,78215501000,78615101001,10,825a7032-918c-414b-bea2-152d60cb22db,000,760060010000119,152070,,76,ул,2020-08-25,0119,,,2020-08-27,000,0000,000,1,,0045,,0
0,825a7032-918c-414b-bea2-152d60cb22db,825a7032-918c-414b-bea2-152d60cb22db,7,006,0,0,001,76006001000004501,1.0,2014-11-11,Гаражный,7611,7611,0ef33686-45d6-428f-b8b9-370baf0cc5f7,,78215000000,78615101,10,28068176-9b2e-4333-a320-9b748b98b9d3,000,760060010000045,152070,,76,кв-л,2010-02-25,0045,7617,7617,2020-08-27,000,0000,000,0,,0000,,0
0,825a7032-918c-414b-bea2-152d60cb22db,0ef33686-45d6-428f-b8b9-370baf0cc5f7,7,006,0,0,001,76006001000004502,2.0,2014-11-10,Гаражный,7611,7611,ad5ddd80-4e6f-4167-a44e-84d110d39a9a,,78215501000,78615101,20,28068176-9b2e-4333-a320-9b748b98b9d3,000,760060010000045,152070,825a7032-918c-414b-bea2-152d60cb22db,76,кв-л,2010-02-25,0000,7617,7617,2020-08-27,000,0000,000,0,,0045,,0
0,825a7032-918c-414b-bea2-152d60cb22db,ad5ddd80-4e6f-4167-a44e-84d110d39a9a,7,006,0,0,001,76006001000004551,51.0,2016-09-28,Гаражный,7611,7611,3dd1276a-b4a8-4bf1-9fad-12167305db05,,78215501000,78615101001,21,28068176-9b2e-4333-a320-9b748b98b9d3,000,760060010000045,152070,0ef33686-45d6-428f-b8b9-370baf0cc5f7,76,кв-л,2014-11-10,0000,7617,7617,2020-08-27,000,0000,000,0,,0045,,0
0,825a7032-918c-414b-bea2-152d60cb22db,3dd1276a-b4a8-4bf1-9fad-12167305db05,90,006,0,0,001,76006001000004551,51.0,2016-09-28,Гаражный,7611,7611,a483e1bd-431b-4ce9-a5c6-2c798cf338fb,,78215501000,78615101001,20,28068176-9b2e-4333-a320-9b748b98b9d3,000,760060010000045,152070,ad5ddd80-4e6f-4167-a44e-84d110d39a9a,76,гск,2014-11-11,0000,7617,7617,2020-08-27,000,0000,000,0,f4dad3b9-1d94-423a-bf94-e721456712d4,0000,,0
0,825a7032-918c-414b-bea2-152d60cb22db,a483e1bd-431b-4ce9-a5c6-2c798cf338fb,65,006,0,0,001,76006001000004503,3.0,2020-08-24,Гаражный,7611,7611,3db765b5-428c-4147-a0f9-1b1c61752709,,78215501000,78615101001,50,28068176-9b2e-4333-a320-9b748b98b9d3,000,760060010000045,152070,3dd1276a-b4a8-4bf1-9fad-12167305db05,76,гск,2016-09-28,0000,7617,7617,2020-08-27,000,0000,000,0,,0045,,0
0,825a7032-918c-414b-bea2-152d60cb22db,3db765b5-428c-4147-a0f9-1b1c61752709,65,006,0,0,001,76006001000004504,4.0,2020-08-24,Гаражный,7611,7611,ab1f2ba9-8566-44e3-98a0-c016b2458619,,78215501000,78615101001,21,28068176-9b2e-4333-a320-9b748b98b9d3,000,760060010000045,152070,a483e1bd-431b-4ce9-a5c6-2c798cf338fb,76,гск,2019-09-19,0000,,,2020-08-27,000,0000,000,0,d9a8f0a9-f5b0-4460-b0ee-8923378f5595,0045,,0
1,825a7032-918c-414b-bea2-152d60cb22db,ab1f2ba9-8566-44e3-98a0-c016b2458619,65,006,0,0,001,76006001000004500,0.0,2079-06-06,Гаражный,7611,7611,,,78215501000,78615101001,20,28068176-9b2e-4333-a320-9b748b98b9d3,000,760060010000045,152070,3db765b5-428c-4147-a0f9-1b1c61752709,76,тер. ГСК,2020-08-24,0000,,,2020-08-27,000,0000,000,1,,0045,,0
1,413a899b-1b52-4eaa-b8ed-c09ac678cbb5,413a899b-1b52-4eaa-b8ed-c09ac678cbb5,65,000,0,0,002,76000002000000600,0.0,2079-06-06,Валентина Вейнгарта,7608,7608,,,78405000000,78705000001,10,f147ed70-422e-40d0-9088-810f7b57ed59,000,760000020000006,,,76,парк,2020-08-25,0000,,,2020-08-27,000,0000,000,1,,0006,,0
