ACTSTATUS,AOGUID,AOID,AOLEVEL,AREACODE,AUTOCODE,CENTSTATUS,CITYCODE,CODE,CURRSTATUS,ENDDATE,FORMALNAME,IFNSFL,IFNSUL,NEXTID,OFFNAME,OKATO,OKTMO,OPERSTATUS,PARENTGUID,PLACECODE,PLAINCODE,POSTALCODE,PREVID,REGIONCODE,SHORTNAME,STARTDATE,STREETCODE,TERRIFNSFL,TERRIFNSUL,UPDATEDATE,CTARCODE,EXTRCODE,SEXTCODE,LIVESTATUS,NORMDOC,PLANCODE,CADNUM,DIVTYPE
1,53c4968b-4d7b-4197-98e3-04c19b8c3bfc,efab7164-d145-4baa-8433-debf2f2e6d82,65,000,0,0,000,92000000000145000,0.0,2079-06-06,ТСН СТ Кальфа-1,9203,9203,,,67263000000,67302000,20,6fdecb78-893a-4e3f-a5ba-aa062459463b,000,920000000001450,299043,e0aaddce-3908-41ad-8913-ad4cea6a6448,92,тер. ТСН,2020-08-28,0000,,,2020-08-30,000,0000,000,1,,1450,,0
0,53c4968b-4d7b-4197-98e3-04c19b8c3bfc,e0aaddce-3908-41ad-8913-ad4cea6a6448,65,000,0,0,000,92000000000145000,0.0,2079-06-06,ТСН СТ Кальфа-1,9203,9203,efab7164-d145-4baa-8433-debf2f2e6d82,,67263000000,67302000,21,6fdecb78-893a-4e3f-a5ba-aa062459463b,000,920000000001450,,53c4968b-4d7b-4197-98e3-04c19b8c3bfc,92,тер. ТСН,2017-01-04,0000,,,2020-08-30,000,0000,000,0,5d92b12c-cef8-408f-a8b4-500492665402,1450,,0
0,53c4968b-4d7b-4197-98e3-04c19b8c3bfc,53c4968b-4d7b-4197-98e3-04c19b8c3bfc,65,000,0,0,000,92000000000145001,1.0,2079-06-06,ТСН СТ Кальфа-1,9202,9202,e0aaddce-3908-41ad-8913-ad4cea6a6448,,67263000000,67302000,10,6fdecb78-893a-4e3f-a5ba-aa062459463b,000,920000000001450,299001,,92,тер. ТСН,2016-11-07,0000,,,2020-08-30,000,0000,000,0,bacbd7b2-b52a-41b7-8aee-cda8fdb7d80a,1450,,0
1,e089c4e1-dea3-40af-8042-73d971593471,292d1db9-307c-484f-a923-1a46b2e0bf72,7,000,0,0,000,92000000000098300,0.0,2079-06-06,Лесхозная,9201,9201,,,67264000000,67310000,20,6fdecb78-893a-4e3f-a5ba-aa062459463b,000,920000000000983,299020,f37adac8-4b85-40b2-9889-256eb90b23b0,92,ул,2020-08-28,0983,,,2020-08-30,000,0000,000,1,,0000,,0
0,e089c4e1-dea3-40af-8042-73d971593471,f37adac8-4b85-40b2-9889-256eb90b23b0,7,000,0,0,000,92000000000098300,0.0,2079-06-06,Лесхозная,9201,9201,292d1db9-307c-484f-a923-1a46b2e0bf72,,67264000000,67310000,20,6fdecb78-893a-4e3f-a5ba-aa062459463b,000,920000000000983,,04bda8d9-2b1e-4682-9f4b-9ee7093158fd,92,ул,2020-02-06,0983,,,2020-08-30,000,0000,000,0,,0000,,0
0,e089c4e1-dea3-40af-8042-73d971593471,04bda8d9-2b1e-4682-9f4b-9ee7093158fd,7,000,0,0,000,92000000000098300,0.0,2079-06-06,Лесхозная,9201,9201,f37adac8-4b85-40b2-9889-256eb90b23b0,,67269000000,67310000,20,6fdecb78-893a-4e3f-a5ba-aa062459463b,000,920000000000983,,330ef47c-6d8a-45a5-9f41-731b36e9cc4c,92,ул,2019-08-21,0983,,,2020-08-30,000,0000,000,0,ea60a874-b12d-42e1-ad3f-66ef48ef8721,0000,,0
0,e089c4e1-dea3-40af-8042-73d971593471,330ef47c-6d8a-45a5-9f41-731b36e9cc4c,7,000,0,0,000,92000000000098305,5.0,2019-08-21,Лесхозная,9201,9201,04bda8d9-2b1e-4682-9f4b-9ee7093158fd,,67269000000,67310000,21,6fdecb78-893a-4e3f-a5ba-aa062459463b,000,920000000000983,299055,220676d2-4d77-4b1e-88a0-affaa9579684,92,ул,2016-05-16,0983,,,2020-08-30,000,0000,000,0,,0000,,0
0,e089c4e1-dea3-40af-8042-73d971593471,220676d2-4d77-4b1e-88a0-affaa9579684,7,000,0,0,000,92000000000098304,4.0,2016-05-16,Лесхозная,9201,9201,330ef47c-6d8a-45a5-9f41-731b36e9cc4c,,67269000000,67310000,21,6fdecb78-893a-4e3f-a5ba-aa062459463b,000,920000000000983,299055,7c2c7109-a5ac-496c-a39d-556fa5f0ac2e,92,ул,2016-05-11,0983,,,2020-08-30,000,0000,000,0,,0000,,0
0,e089c4e1-dea3-40af-8042-73d971593471,7c2c7109-a5ac-496c-a39d-556fa5f0ac2e,7,000,0,0,000,92000000000098303,3.0,2019-08-21,Лесхозная,9201,9201,220676d2-4d77-4b1e-88a0-affaa9579684,,67000000000,67310000,21,6fdecb78-893a-4e3f-a5ba-aa062459463b,000,920000000000983,299055,658dea5e-0df7-4ec0-ad8a-77dc91c9cabf,92,ул,2015-07-15,0983,,,2020-08-30,000,0000,000,0,,0000,,0
0,e089c4e1-dea3-40af-8042-73d971593471,658dea5e-0df7-4ec0-ad8a-77dc91c9cabf,7,000,0,0,000,92000000000098302,2.0,2015-07-15,Лесхозная,9201,9201,7c2c7109-a5ac-496c-a39d-556fa5f0ac2e,,67000000000,67000000,21,6fdecb78-893a-4e3f-a5ba-aa062459463b,000,920000000000983,299055,e089c4e1-dea3-40af-8042-73d971593471,92,ул,2015-05-14,0983,,,2020-08-30,000,0000,000,0,,0000,,0
0,e089c4e1-dea3-40af-8042-73d971593471,e089c4e1-dea3-40af-8042-73d971593471,7,000,0,0,000,92000000000098301,1.0,2079-06-06,Лесхозная,9204,9204,658dea5e-0df7-4ec0-ad8a-77dc91c9cabf,,67000000000,67000000,10,6fdecb78-893a-4e3f-a5ba-aa062459463b,000,920000000000983,299055,,92,ул,2014-04-18,0983,,,2020-08-30,000,0000,000,0,,0000,,0
1,d4bccc32-905e-478a-828c-dba864d1717e,cd9292d2-f8e7-434b-b15d-dae61a7e0daf,65,000,0,0,000,92000000000147100,0.0,2079-06-06,ТСН СНТ Ветеран,9201,9201,,,67264000000,67310000,20,6fdecb78-893a-4e3f-a5ba-aa062459463b,000,920000000001471,,551fab8c-cf9b-40a5-8952-8eb4892714c9,92,тер.,2020-08-25,0000,,,2020-08-27,000,0000,000,1,,1471,,0
0,d4bccc32-905e-478a-828c-dba864d1717e,551fab8c-cf9b-40a5-8952-8eb4892714c9,65,000,0,0,000,92000000000147102,2.0,2020-08-25,ТСН СНТ Ветеран,9201,9201,cd9292d2-f8e7-434b-b15d-dae61a7e0daf,,67264000000,67310000,21,6fdecb78-893a-4e3f-a5ba-aa062459463b,000,920000000001471,,d4bccc32-905e-478a-828c-dba864d1717e,92,тер. ТСН,2017-03-10,0000,,,2020-08-27,000,0000,000,0,bd627e23-7d87-4940-bc1f-da49ace00017,1471,,0
0,d4bccc32-905e-478a-828c-dba864d1717e,d4bccc32-905e-478a-828c-dba864d1717e,65,000,0,0,000,92000000000147101,1.0,2020-08-25,ТСН СНТ Ветеран,9201,9200,551fab8c-cf9b-40a5-8952-8eb4892714c9,,67264000000,67310000,10,6fdecb78-893a-4e3f-a5ba-aa062459463b,000,920000000001471,299001,,92,тер. ТСН,2016-11-21,0000,,,2020-08-27,000,0000,000,0,bd627e23-7d87-4940-bc1f-da49ace00017,1471,,0
1,162d3b56-ec1d-4039-a784-a58a2005cb27,54474de1-7369-441e-9040-608551f12f0e,7,000,0,0,000,92000000016002799,99.0,2079-06-06,Прилесная,9203,9203,,,67263000000,67306000167,30,ceafa479-c56c-498e-8671-fea153be16fc,016,920000000160027,299811,5759d7d6-acfc-4755-947a-b5f014af15d5,92,ул,2020-08-24,0027,,,2020-08-27,000,0000,000,0,,0000,,0
0,162d3b56-ec1d-4039-a784-a58a2005cb27,5759d7d6-acfc-4755-947a-b5f014af15d5,7,000,0,0,000,92000000016002799,99.0,2020-08-24,Прилесная,9203,9203,54474de1-7369-441e-9040-608551f12f0e,,67263000000,67306000167,21,ceafa479-c56c-498e-8671-fea153be16fc,016,920000000160027,299811,aaf9ef2b-1591-4dba-825d-66f0066a71f3,92,ул,2019-12-26,0027,,,2020-08-27,000,0000,000,0,74a19c42-a50e-4d77-9216-c73c6055d6de,0000,,0
0,162d3b56-ec1d-4039-a784-a58a2005cb27,aaf9ef2b-1591-4dba-825d-66f0066a71f3,7,000,0,0,000,92000000016002706,6.0,2019-12-26,Прилесная,9203,9203,5759d7d6-acfc-4755-947a-b5f014af15d5,,67263000000,67306000,20,ceafa479-c56c-498e-8671-fea153be16fc,016,920000000160027,299811,4e14c51e-3d8f-493e-903f-9fd64745bce1,92,ул,2019-11-07,0027,,,2020-08-27,000,0000,000,0,ea60a874-b12d-42e1-ad3f-66ef48ef8721,0000,,0
0,162d3b56-ec1d-4039-a784-a58a2005cb27,4e14c51e-3d8f-493e-903f-9fd64745bce1,7,000,0,0,000,92000000016002705,5.0,2019-12-26,Прилесная,9203,9203,aaf9ef2b-1591-4dba-825d-66f0066a71f3,,67263000000,67306000,21,ceafa479-c56c-498e-8671-fea153be16fc,016,920000000160027,299811,19866b99-1724-4245-83f8-7d645a0b6241,92,ул,2017-04-24,0027,,,2020-08-27,000,0000,000,0,5eb65c4f-d798-4115-9b1e-001cb32403d5,0000,,0
0,162d3b56-ec1d-4039-a784-a58a2005cb27,19866b99-1724-4245-83f8-7d645a0b6241,7,000,0,0,000,92000000016002704,4.0,2017-04-24,Прилесная,9203,9203,4e14c51e-3d8f-493e-903f-9fd64745bce1,,67263807003,67306000167,21,ceafa479-c56c-498e-8671-fea153be16fc,016,920000000160027,299811,a83d2c12-9ddd-46bc-a904-36114c1e70f7,92,ул,2016-12-29,0027,,,2020-08-27,000,0000,000,0,ec7b6f64-7f79-46cb-b20d-4530a4f711d6,0000,,0
0,162d3b56-ec1d-4039-a784-a58a2005cb27,a83d2c12-9ddd-46bc-a904-36114c1e70f7,7,000,0,0,000,92000000016002703,3.0,2017-04-24,Прилесная,9202,9202,19866b99-1724-4245-83f8-7d645a0b6241,,67263807003,67306000167,21,ceafa479-c56c-498e-8671-fea153be16fc,016,920000000160027,299811,2b726ac6-44c4-4b7e-a35c-5b2700a18993,92,ул,2016-04-27,0027,,,2020-08-27,000,0000,000,0,,0000,,0
0,162d3b56-ec1d-4039-a784-a58a2005cb27,2b726ac6-44c4-4b7e-a35c-5b2700a18993,7,000,0,0,000,92000000016002702,2.0,2017-04-24,Прилесная,9202,9202,a83d2c12-9ddd-46bc-a904-36114c1e70f7,,67000000000,67306000167,21,ceafa479-c56c-498e-8671-fea153be16fc,016,920000000160027,299811,162d3b56-ec1d-4039-a784-a58a2005cb27,92,ул,2015-06-29,0027,,,2020-08-27,000,0000,000,0,,0000,,0
0,162d3b56-ec1d-4039-a784-a58a2005cb27,162d3b56-ec1d-4039-a784-a58a2005cb27,7,000,0,0,000,92000000016002701,1.0,2020-08-24,Прилесная,9202,9202,2b726ac6-44c4-4b7e-a35c-5b2700a18993,,67000000000,67000000,10,ceafa479-c56c-498e-8671-fea153be16fc,016,920000000160027,299811,,92,ул,2014-04-18,0027,,,2020-08-27,000,0000,000,0,,0000,,0
1,04a4bbde-b3b7-451d-950c-03ea8933bc60,5e54f858-f38d-4a43-8315-539a897ccec6,65,000,0,0,000,92000000000199900,0.0,2079-06-06,СПК Чайка,9203,9203,,,67269000000,67314000,20,6fdecb78-893a-4e3f-a5ba-aa062459463b,000,920000000001999,299001,04a4bbde-b3b7-451d-950c-03ea8933bc60,92,тер.,2020-08-25,0000,,,2020-08-27,000,0000,000,1,,1999,,0
0,04a4bbde-b3b7-451d-950c-03ea8933bc60,04a4bbde-b3b7-451d-950c-03ea8933bc60,65,000,0,0,000,92000000000199901,1.0,2020-08-25,СПК Чайка,9203,9203,5e54f858-f38d-4a43-8315-539a897ccec6,,67269000000,67314000,10,6fdecb78-893a-4e3f-a5ba-aa062459463b,000,920000000001999,299001,,92,тер. СПК,2017-03-16,0000,,,2020-08-27,000,0000,000,0,4d95f6b9-183b-4030-8be3-3d7144af158e,1999,,0
1,c9d996f1-ed11-4666-8bf2-6d3e3ba4c4b7,5b086bcb-b1af-49fa-a056-840c0f9a419f,65,000,0,0,000,92000000000141900,0.0,2079-06-06,ТСН СНТ Незабудка,9201,9201,,,67264000000,67310000,20,6fdecb78-893a-4e3f-a5ba-aa062459463b,000,920000000001419,299001,c9d996f1-ed11-4666-8bf2-6d3e3ba4c4b7,92,тер.,2020-08-25,0000,,,2020-08-27,000,0000,000,1,,1419,,0
0,c9d996f1-ed11-4666-8bf2-6d3e3ba4c4b7,c9d996f1-ed11-4666-8bf2-6d3e3ba4c4b7,65,000,0,0,000,92000000000141901,1.0,2020-08-25,ТСН СНТ Незабудка,9201,9201,5b086bcb-b1af-49fa-a056-840c0f9a419f,,67264000000,67310000,10,6fdecb78-893a-4e3f-a5ba-aa062459463b,000,920000000001419,299001,,92,тер. ТСН,2016-11-02,0000,,,2020-08-27,000,0000,000,0,a1270fd1-4225-4a31-9e52-879b3684ca4f,1419,,0
1,3d0a0ac4-7e6a-4a68-8013-b27fabfbed05,a81f6c21-632e-49a6-bee1-5c8468c5198f,65,000,0,0,000,92000000000192200,0.0,2079-06-06,СТСН Движенец,9203,9203,,,67269000000,67314000,20,6fdecb78-893a-4e3f-a5ba-aa062459463b,000,920000000001922,299001,3d0a0ac4-7e6a-4a68-8013-b27fabfbed05,92,тер.,2020-08-25,0000,,,2020-08-27,000,0000,000,1,,1922,,0
0,3d0a0ac4-7e6a-4a68-8013-b27fabfbed05,3d0a0ac4-7e6a-4a68-8013-b27fabfbed05,65,000,0,0,000,92000000000192201,1.0,2020-08-25,СТСН Движенец,9203,9203,a81f6c21-632e-49a6-bee1-5c8468c5198f,,67269000000,67314000,10,6fdecb78-893a-4e3f-a5ba-aa062459463b,000,920000000001922,299001,,92,тер. ТСН,2017-02-22,0000,,,2020-08-27,000,0000,000,0,1919a871-4650-462c-bf9f-c006c6c47158,1922,,0
1,86fd8261-53ca-4ff0-8137-fd110367371d,a36083fd-2345-4d4d-bec0-e90ba0ea4ab4,65,000,0,0,000,92000000000205500,0.0,2079-06-06,ПК СТ Шхуна,9203,9203,,,67263000000,67302000,20,6fdecb78-893a-4e3f-a5ba-aa062459463b,000,920000000002055,299001,86fd8261-53ca-4ff0-8137-fd110367371d,92,тер.,2020-08-24,0000,,,2020-08-27,000,0000,000,1,,2055,,0
0,86fd8261-53ca-4ff0-8137-fd110367371d,86fd8261-53ca-4ff0-8137-fd110367371d,65,000,0,0,000,92000000000205501,1.0,2020-08-24,ПК СТ Шхуна,9203,9203,a36083fd-2345-4d4d-bec0-e90ba0ea4ab4,,67263000000,67302000,10,6fdecb78-893a-4e3f-a5ba-aa062459463b,000,920000000002055,299001,,92,тер. СПК,2017-03-15,0000,,,2020-08-27,000,0000,000,0,dbfe6eb1-92f2-4dbd-b5ac-394d9b03dfdc,2055,,0
1,4863971d-7ced-4d97-ac43-7693b8d60576,2954ef9a-11eb-40a1-9fc7-ed821d43716e,65,000,0,0,000,92000000000144200,0.0,2079-06-06,СНТСН Южный,9201,9201,,,67264000000,67310000,20,6fdecb78-893a-4e3f-a5ba-aa062459463b,000,920000000001442,,4863971d-7ced-4d97-ac43-7693b8d60576,92,тер.,2020-08-25,0000,,,2020-08-27,000,0000,000,1,,1442,,0
0,4863971d-7ced-4d97-ac43-7693b8d60576,4863971d-7ced-4d97-ac43-7693b8d60576,65,000,0,0,000,92000000000144201,1.0,2020-08-25,СНТСН Южный,9201,9201,2954ef9a-11eb-40a1-9fc7-ed821d43716e,,67264000000,67310000,10,6fdecb78-893a-4e3f-a5ba-aa062459463b,000,920000000001442,,,92,тер. ТСН,2016-11-07,0000,,,2020-08-27,000,0000,000,0,8884a817-ad7f-4fb6-881b-f26b6faddec0,1442,,0
1,f8a251a7-11ae-47ff-96a1-b70a6b26d691,2c86d759-af83-458f-999d-090f0b090373,65,000,0,0,000,92000000000186400,0.0,2079-06-06,ТСН СНТ Первомайское-1,9203,9203,,,67263000000,67302000,20,6fdecb78-893a-4e3f-a5ba-aa062459463b,000,920000000001864,,f8a251a7-11ae-47ff-96a1-b70a6b26d691,92,тер.,2020-08-24,0000,,,2020-08-27,000,0000,000,1,,1864,,0
0,f8a251a7-11ae-47ff-96a1-b70a6b26d691,f8a251a7-11ae-47ff-96a1-b70a6b26d691,65,000,0,0,000,92000000000186401,1.0,2020-08-24,ТСН СНТ Первомайское-1,9203,9203,2c86d759-af83-458f-999d-090f0b090373,,67263000000,67302000,10,6fdecb78-893a-4e3f-a5ba-aa062459463b,000,920000000001864,,,92,тер. ТСН,2017-02-15,0000,,,2020-08-27,000,0000,000,0,4f3ef3d2-505f-4901-a98d-e6d1f0ebebab,1864,,0
1,a1731bb6-00e0-4b23-a585-8c4156bb0b51,d05d1e06-e6bd-469c-8da5-5089db4574cb,65,000,0,0,000,92000000000146800,0.0,2079-06-06,СНТСН Планер-2,9201,9201,,,67264000000,67310000,20,6fdecb78-893a-4e3f-a5ba-aa062459463b,000,920000000001468,299001,a1731bb6-00e0-4b23-a585-8c4156bb0b51,92,тер.,2020-08-25,0000,,,2020-08-27,000,0000,000,1,,1468,,0
0,a1731bb6-00e0-4b23-a585-8c4156bb0b51,a1731bb6-00e0-4b23-a585-8c4156bb0b51,65,000,0,0,000,92000000000146801,1.0,2020-08-25,СНТСН Планер-2,9201,9201,d05d1e06-e6bd-469c-8da5-5089db4574cb,,67264000000,67310000,10,6fdecb78-893a-4e3f-a5ba-aa062459463b,000,920000000001468,299001,,92,тер. ТСН,2016-11-21,0000,,,2020-08-27,000,0000,000,0,375c3147-b52b-4da4-97b4-5586204818b5,1468,,0
1,7dd8722a-d5bd-4a25-b5c5-7fd4489155ee,6deec873-93a1-4060-81c0-5bec66fd7470,65,000,0,0,000,92000000000146200,0.0,2079-06-06,СНТ Сосновый бор,9201,9201,,,67264000000,67310000,20,6fdecb78-893a-4e3f-a5ba-aa062459463b,000,920000000001462,299001,7dd8722a-d5bd-4a25-b5c5-7fd4489155ee,92,тер.,2020-08-25,0000,,,2020-08-27,000,0000,000,1,,1462,,0
0,7dd8722a-d5bd-4a25-b5c5-7fd4489155ee,7dd8722a-d5bd-4a25-b5c5-7fd4489155ee,65,000,0,0,000,92000000000146201,1.0,2020-08-25,СНТ Сосновый бор,9201,9201,6deec873-93a1-4060-81c0-5bec66fd7470,,67264000000,67310000,10,6fdecb78-893a-4e3f-a5ba-aa062459463b,000,920000000001462,299001,,92,тер. СНТ,2016-11-21,0000,,,2020-08-27,000,0000,000,0,f68cd053-64c7-4440-b810-aa31cb71d490,1462,,0
1,d271c480-481c-4c1c-b843-31fcba7f2c5e,e7062cc6-a42d-47ee-9b52-12b4c5942b59,65,000,0,0,000,92000000000202200,0.0,2079-06-06,СТСН Катран,9203,9203,,,67263000000,67302000,20,6fdecb78-893a-4e3f-a5ba-aa062459463b,000,920000000002022,299001,d271c480-481c-4c1c-b843-31fcba7f2c5e,92,тер.,2020-08-24,0000,,,2020-08-27,000,0000,000,1,,2022,,0
0,d271c480-481c-4c1c-b843-31fcba7f2c5e,d271c480-481c-4c1c-b843-31fcba7f2c5e,65,000,0,0,000,92000000000202201,1.0,2020-08-24,СТСН Катран,9203,9203,e7062cc6-a42d-47ee-9b52-12b4c5942b59,,67263000000,67302000,10,6fdecb78-893a-4e3f-a5ba-aa062459463b,000,920000000002022,299001,,92,тер. ТСН,2017-04-21,0000,,,2020-08-27,000,0000,000,0,77a89757-b140-45a6-8bc0-89f511a0355c,2022,,0
1,545a0198-f530-43ee-823d-8c272524831b,dfe3f6c1-c2d9-4d49-a4e1-0f5c70ddf277,65,000,0,0,000,92000000000192900,0.0,2079-06-06,СТСН Поиск,9203,9203,,,67263000000,67302000,20,6fdecb78-893a-4e3f-a5ba-aa062459463b,000,920000000001929,299001,545a0198-f530-43ee-823d-8c272524831b,92,тер.,2020-08-24,0000,,,2020-08-27,000,0000,000,1,,1929,,0
0,545a0198-f530-43ee-823d-8c272524831b,545a0198-f530-43ee-823d-8c272524831b,65,000,0,0,000,92000000000192901,1.0,2020-08-24,СТСН Поиск,9203,9203,dfe3f6c1-c2d9-4d49-a4e1-0f5c70ddf277,,67263000000,67302000,10,6fdecb78-893a-4e3f-a5ba-aa062459463b,000,920000000001929,299001,,92,тер. ТСН,2017-02-21,0000,,,2020-08-27,000,0000,000,0,938dd8d8-05d2-413c-8e8c-626512c160f8,1929,,0
1,2104bf66-58b7-48f7-8f2e-059c746b7718,ee99277c-5122-4bc2-8bfa-76b472cf5eb9,65,000,0,0,000,92000000000202100,0.0,2079-06-06,СНТСН Солнечный,9203,9203,,,67263000000,67302000,20,6fdecb78-893a-4e3f-a5ba-aa062459463b,000,920000000002021,299001,2104bf66-58b7-48f7-8f2e-059c746b7718,92,тер.,2020-08-24,0000,,,2020-08-27,000,0000,000,1,,2021,,0
0,2104bf66-58b7-48f7-8f2e-059c746b7718,2104bf66-58b7-48f7-8f2e-059c746b7718,65,000,0,0,000,92000000000202101,1.0,2020-08-24,СНТСН Солнечный,9203,9203,ee99277c-5122-4bc2-8bfa-76b472cf5eb9,,67263000000,67302000,10,6fdecb78-893a-4e3f-a5ba-aa062459463b,000,920000000002021,299001,,92,тер. СНТ,2017-04-22,0000,,,2020-08-27,000,0000,000,0,13cf5ad5-49e6-4698-b210-80ca057b6abd,2021,,0
1,f286c71c-f4c6-481f-8c69-db36032f4a69,bff865f9-9cef-4298-a9cf-0e668350c103,65,000,0,0,000,92000000000145300,0.0,2079-06-06,СТСН Гидростроитель,9203,9203,,,67263000000,67302000,20,6fdecb78-893a-4e3f-a5ba-aa062459463b,000,920000000001453,,f6ceaa72-0254-42b2-a61e-f8a218fa661a,92,тер.,2020-08-24,0000,,,2020-08-27,000,0000,000,1,,1453,,0
0,f286c71c-f4c6-481f-8c69-db36032f4a69,f6ceaa72-0254-42b2-a61e-f8a218fa661a,65,000,0,0,000,92000000000145302,2.0,2020-08-24,СТСН Гидростроитель,9203,9203,bff865f9-9cef-4298-a9cf-0e668350c103,,67263000000,67302000,21,6fdecb78-893a-4e3f-a5ba-aa062459463b,000,920000000001453,,f286c71c-f4c6-481f-8c69-db36032f4a69,92,тер. ТСН,2017-01-04,0000,,,2020-08-27,000,0000,000,0,17ab963a-306a-4b82-8d37-79ecbdd09fc4,1453,,0
0,f286c71c-f4c6-481f-8c69-db36032f4a69,f286c71c-f4c6-481f-8c69-db36032f4a69,65,000,0,0,000,92000000000145301,1.0,2020-08-24,СТСН Гидростроитель,9202,9202,f6ceaa72-0254-42b2-a61e-f8a218fa661a,,67263000000,67302000,10,6fdecb78-893a-4e3f-a5ba-aa062459463b,000,920000000001453,299001,,92,тер. ТСН,2016-11-10,0000,,,2020-08-27,000,0000,000,0,6b741395-9792-4325-b374-6aabb08c6cc4,1453,,0
1,73fc5ca6-f77d-4c2e-ae46-65124cfcbf7d,e0d86383-a74d-41a4-9626-a609ea51364a,65,000,0,0,000,92000000000204300,0.0,2079-06-06,ТСН Благодатный,9203,9203,,,67263000000,67302000,20,6fdecb78-893a-4e3f-a5ba-aa062459463b,000,920000000002043,299001,73fc5ca6-f77d-4c2e-ae46-65124cfcbf7d,92,тер.,2020-08-24,0000,,,2020-08-27,000,0000,000,1,,2043,,0
0,73fc5ca6-f77d-4c2e-ae46-65124cfcbf7d,73fc5ca6-f77d-4c2e-ae46-65124cfcbf7d,65,000,0,0,000,92000000000204301,1.0,2020-08-24,ТСН Благодатный,9203,9203,e0d86383-a74d-41a4-9626-a609ea51364a,,67263000000,67302000,10,6fdecb78-893a-4e3f-a5ba-aa062459463b,000,920000000002043,299001,,92,тер. ТСН,2017-03-15,0000,,,2020-08-27,000,0000,000,0,b96aeb6d-bee7-4e20-9bef-f4b36173ceb3,2043,,0
1,c1efcef3-1a31-4d3c-bcf2-353caa84b992,ca5f66ae-dcf2-4210-8866-248ecc6f79e3,7,000,0,0,001,92000001000004500,0.0,2079-06-06,Шевкопляса,9203,9203,,,67269000000,67304000001,20,4218a0b0-d1f0-46fc-8686-ad5674457d0b,000,920000010000045,299703,dcdc1021-1baa-4a1d-a4c8-4cb4ae1bab5b,92,пер,2020-08-25,0045,,,2020-08-27,000,0000,000,1,,0000,,0
0,c1efcef3-1a31-4d3c-bcf2-353caa84b992,dcdc1021-1baa-4a1d-a4c8-4cb4ae1bab5b,7,000,0,0,001,92000001000004500,0.0,2020-08-25,Шевкопляса,9203,9203,ca5f66ae-dcf2-4210-8866-248ecc6f79e3,,67263505000,67304000001,21,4218a0b0-d1f0-46fc-8686-ad5674457d0b,000,920000010000045,299703,297d6c9e-eabb-4e98-90c7-5be57a09bd5f,92,пер,2016-12-29,0045,,,2020-08-27,000,0000,000,0,e3479af8-328e-4c72-b57d-7bf43ea4e1f9,0000,,0
0,c1efcef3-1a31-4d3c-bcf2-353caa84b992,297d6c9e-eabb-4e98-90c7-5be57a09bd5f,7,000,0,0,001,92000001000004503,3.0,2016-12-29,Шевкопляса,9202,9202,dcdc1021-1baa-4a1d-a4c8-4cb4ae1bab5b,,67263505000,67304000001,21,4218a0b0-d1f0-46fc-8686-ad5674457d0b,000,920000010000045,299703,9fd5bc2f-2a73-44fc-955a-7e8b8600bae5,92,пер,2016-05-05,0045,,,2020-08-27,000,0000,000,0,,0000,,0
0,c1efcef3-1a31-4d3c-bcf2-353caa84b992,9fd5bc2f-2a73-44fc-955a-7e8b8600bae5,7,000,0,0,001,92000001000004502,2.0,2016-05-05,Шевкопляса,9202,9202,297d6c9e-eabb-4e98-90c7-5be57a09bd5f,,67000000000,67304000001,21,4218a0b0-d1f0-46fc-8686-ad5674457d0b,000,920000010000045,299703,c1efcef3-1a31-4d3c-bcf2-353caa84b992,92,пер,2015-07-07,0045,,,2020-08-27,000,0000,000,0,,0000,,0
0,c1efcef3-1a31-4d3c-bcf2-353caa84b992,c1efcef3-1a31-4d3c-bcf2-353caa84b992,7,000,0,0,001,92000001000004501,1.0,2079-06-06,Шевкопляса,9202,9202,9fd5bc2f-2a73-44fc-955a-7e8b8600bae5,,67000000000,67000000,10,4218a0b0-d1f0-46fc-8686-ad5674457d0b,000,920000010000045,299703,,92,пер,2014-04-18,0045,,,2020-08-27,000,0000,000,0,,0000,,0
1,b86324ad-eb4a-4308-a040-df3d7b15ec2d,958c0ed8-2a0d-4a01-a527-1625953a20b5,65,000,0,0,000,92000000000204200,0.0,2079-06-06,СТСН Скала-2,9203,9203,,,67263000000,67302000,20,6fdecb78-893a-4e3f-a5ba-aa062459463b,000,920000000002042,299001,b86324ad-eb4a-4308-a040-df3d7b15ec2d,92,тер.,2020-08-24,0000,,,2020-08-27,000,0000,000,1,,2042,,0
0,b86324ad-eb4a-4308-a040-df3d7b15ec2d,b86324ad-eb4a-4308-a040-df3d7b15ec2d,65,000,0,0,000,92000000000204201,1.0,2020-08-24,СТСН Скала-2,9203,9203,958c0ed8-2a0d-4a01-a527-1625953a20b5,,67263000000,67302000,10,6fdecb78-893a-4e3f-a5ba-aa062459463b,000,920000000002042,299001,,92,тер. ТСН,2017-04-21,0000,,,2020-08-27,000,0000,000,0,8fc4486d-e822-45f8-a883-d3668a4df8ca,2042,,0
1,a51a48a1-dff9-4c38-8c2f-74eeef484781,aef83de0-0362-4129-a49a-5a7faef3a31e,65,000,0,0,000,92000000000140700,0.0,2079-06-06,ТСН Водоканал1,9203,9203,,,67269000000,67314000,20,6fdecb78-893a-4e3f-a5ba-aa062459463b,000,920000000001407,299001,a51a48a1-dff9-4c38-8c2f-74eeef484781,92,тер.,2020-08-25,0000,,,2020-08-27,000,0000,000,1,,1407,,0
0,a51a48a1-dff9-4c38-8c2f-74eeef484781,a51a48a1-dff9-4c38-8c2f-74eeef484781,65,000,0,0,000,92000000000140701,1.0,2020-08-25,ТСН Водоканал1,9203,9203,aef83de0-0362-4129-a49a-5a7faef3a31e,,67269000000,67314000,10,6fdecb78-893a-4e3f-a5ba-aa062459463b,000,920000000001407,299001,,92,тер. ТСН,2016-11-02,0000,,,2020-08-27,000,0000,000,0,d8dba44f-e83c-4d7e-bfdd-e6b8b61fd2b0,1407,,0
1,aa82dc1a-37f0-4775-babb-447b47c6890e,0b3f7dd6-8de0-4205-a31a-c255c1e76e64,7,000,0,0,000,92000000016001999,99.0,2079-06-06,Линейный 23,9203,9203,,,67263807003,67306000167,30,ceafa479-c56c-498e-8671-fea153be16fc,016,920000000160019,299811,1940f94a-f77a-4de2-a876-24bdffc4e45d,92,км,2020-08-24,0019,,,2020-08-27,000,0000,000,0,,0000,,0
0,aa82dc1a-37f0-4775-babb-447b47c6890e,1940f94a-f77a-4de2-a876-24bdffc4e45d,7,000,0,0,000,92000000016001999,99.0,2020-08-24,Линейный 23,9203,9203,0b3f7dd6-8de0-4205-a31a-c255c1e76e64,,67263807003,67306000167,21,ceafa479-c56c-498e-8671-fea153be16fc,016,920000000160019,299811,2f5c3128-3050-4993-b2a0-e0a22c4b1713,92,км,2019-12-26,0019,,,2020-08-27,000,0000,000,0,74a19c42-a50e-4d77-9216-c73c6055d6de,0000,,0
0,aa82dc1a-37f0-4775-babb-447b47c6890e,2f5c3128-3050-4993-b2a0-e0a22c4b1713,7,000,0,0,000,92000000016001905,5.0,2019-12-26,Линейный 23,9203,9203,1940f94a-f77a-4de2-a876-24bdffc4e45d,,67263807003,67306000,21,ceafa479-c56c-498e-8671-fea153be16fc,016,920000000160019,299811,ae249c84-021e-4e9f-ab98-e9c14e1ad4fa,92,км,2017-04-24,0019,,,2020-08-27,000,0000,000,0,5eb65c4f-d798-4115-9b1e-001cb32403d5,0000,,0
0,aa82dc1a-37f0-4775-babb-447b47c6890e,ae249c84-021e-4e9f-ab98-e9c14e1ad4fa,7,000,0,0,000,92000000016001904,4.0,2017-04-24,Линейный 23,9203,9203,2f5c3128-3050-4993-b2a0-e0a22c4b1713,,67263807003,67306000167,21,ceafa479-c56c-498e-8671-fea153be16fc,016,920000000160019,299811,8f467465-4d78-4e26-a112-b33824690e96,92,км,2016-12-29,0019,,,2020-08-27,000,0000,000,0,ec7b6f64-7f79-46cb-b20d-4530a4f711d6,0000,,0
0,aa82dc1a-37f0-4775-babb-447b47c6890e,8f467465-4d78-4e26-a112-b33824690e96,7,000,0,0,000,92000000016001903,3.0,2016-12-29,Линейный 23,9202,9202,ae249c84-021e-4e9f-ab98-e9c14e1ad4fa,,67263807003,67306000167,21,ceafa479-c56c-498e-8671-fea153be16fc,016,920000000160019,299811,5558236b-a068-47ef-9599-acf528457272,92,км,2016-04-27,0019,,,2020-08-27,000,0000,000,0,,0000,,0
0,aa82dc1a-37f0-4775-babb-447b47c6890e,5558236b-a068-47ef-9599-acf528457272,7,000,0,0,000,92000000016001902,2.0,2017-04-24,Линейный 23,9202,9202,8f467465-4d78-4e26-a112-b33824690e96,,67000000000,67306000167,21,ceafa479-c56c-498e-8671-fea153be16fc,016,920000000160019,299811,aa82dc1a-37f0-4775-babb-447b47c6890e,92,км,2015-06-29,0019,,,2020-08-27,000,0000,000,0,,0000,,0
0,aa82dc1a-37f0-4775-babb-447b47c6890e,aa82dc1a-37f0-4775-babb-447b47c6890e,7,000,0,0,000,92000000016001901,1.0,2020-08-24,Линейный 23,9202,9202,5558236b-a068-47ef-9599-acf528457272,,67000000000,67000000,10,ceafa479-c56c-498e-8671-fea153be16fc,016,920000000160019,299811,,92,км,2014-04-18,0019,,,2020-08-27,000,0000,000,0,,0000,,0
1,6335c191-d46b-4b9f-b54b-a4a74a650c6d,2049ebdc-e3bc-4b76-94e6-af374f7047ea,65,000,0,0,000,92000000000142800,0.0,2079-06-06,СНТ Муссон,9201,9201,,,67264000000,67310000,20,6fdecb78-893a-4e3f-a5ba-aa062459463b,000,920000000001428,299001,6335c191-d46b-4b9f-b54b-a4a74a650c6d,92,тер.,2020-08-25,0000,,,2020-08-27,000,0000,000,1,,1428,,0
0,6335c191-d46b-4b9f-b54b-a4a74a650c6d,6335c191-d46b-4b9f-b54b-a4a74a650c6d,65,000,0,0,000,92000000000142801,1.0,2020-08-25,СНТ Муссон,9201,9201,2049ebdc-e3bc-4b76-94e6-af374f7047ea,,67264000000,67310000,10,6fdecb78-893a-4e3f-a5ba-aa062459463b,000,920000000001428,299001,,92,тер. СНТ,2016-11-07,0000,,,2020-08-27,000,0000,000,0,278e8f16-deb1-4229-a7e3-c82aa0f4742b,1428,,0
1,2576e8e6-c598-42e5-bf54-f52ffd60c00e,870d44c5-2f25-4296-9d9e-240d138911c5,65,000,0,0,000,92000000000143600,0.0,2079-06-06,СНТ Эллада,9203,9203,,,67263000000,67302000,20,6fdecb78-893a-4e3f-a5ba-aa062459463b,000,920000000001436,299001,2551fa29-bffe-4c4f-ad92-91d3b8d213eb,92,тер.,2020-08-24,0000,,,2020-08-27,000,0000,000,1,,1436,,0
0,2576e8e6-c598-42e5-bf54-f52ffd60c00e,2551fa29-bffe-4c4f-ad92-91d3b8d213eb,65,000,0,0,000,92000000000143602,2.0,2020-08-24,СНТ Эллада,9203,9203,870d44c5-2f25-4296-9d9e-240d138911c5,,67263000000,67302000,21,6fdecb78-893a-4e3f-a5ba-aa062459463b,000,920000000001436,299001,2576e8e6-c598-42e5-bf54-f52ffd60c00e,92,тер. СНТ,2017-01-04,0000,,,2020-08-27,000,0000,000,0,31a28e57-915f-41a8-88ea-6c630fbb4366,1436,,0
0,2576e8e6-c598-42e5-bf54-f52ffd60c00e,2576e8e6-c598-42e5-bf54-f52ffd60c00e,65,000,0,0,000,92000000000143601,1.0,2020-08-24,СНТ Эллада,9202,9202,2551fa29-bffe-4c4f-ad92-91d3b8d213eb,,67263000000,67302000,10,6fdecb78-893a-4e3f-a5ba-aa062459463b,000,920000000001436,299001,,92,тер. СНТ,2016-11-07,0000,,,2020-08-27,000,0000,000,0,fbea612e-645e-4947-a218-4d0ab82ae377,1436,,0
1,81c90cfe-6255-4c98-8a23-ead5a65425a1,65f6e400-4f72-4d1d-8791-a4300202931f,65,000,0,0,000,92000000000147800,0.0,2079-06-06,ТСН СТ Импульс-1,9203,9203,,,67263000000,67302000,20,6fdecb78-893a-4e3f-a5ba-aa062459463b,000,920000000001478,299001,dafb6ba6-9fae-4e64-a6bd-4bbc6d44ac5b,92,тер.,2020-08-24,0000,,,2020-08-27,000,0000,000,1,,1478,,0
0,81c90cfe-6255-4c98-8a23-ead5a65425a1,dafb6ba6-9fae-4e64-a6bd-4bbc6d44ac5b,65,000,0,0,000,92000000000147802,2.0,2020-08-24,ТСН СТ Импульс-1,9203,9203,65f6e400-4f72-4d1d-8791-a4300202931f,,67263000000,67302000,21,6fdecb78-893a-4e3f-a5ba-aa062459463b,000,920000000001478,299001,81c90cfe-6255-4c98-8a23-ead5a65425a1,92,тер. ТСН,2017-01-04,0000,,,2020-08-27,000,0000,000,0,f50e55c5-8015-4b20-85dd-3eb572c259ad,1478,,0
0,81c90cfe-6255-4c98-8a23-ead5a65425a1,81c90cfe-6255-4c98-8a23-ead5a65425a1,65,000,0,0,000,92000000000147801,1.0,2020-08-24,ТСН СТ Импульс-1,9202,9202,dafb6ba6-9fae-4e64-a6bd-4bbc6d44ac5b,,67263000000,67302000,10,6fdecb78-893a-4e3f-a5ba-aa062459463b,000,920000000001478,299001,,92,тер. ТСН,2016-11-30,0000,,,2020-08-27,000,0000,000,0,cedbd910-8696-4aa1-bf02-fe8bd405f681,1478,,0
1,1f78cb85-d268-4c75-a11e-e6115665513d,5785189a-4c5e-49b1-b7cb-a3a73e98e5fd,65,000,0,0,000,92000000000181000,0.0,2079-06-06,ТСН Первомайское,9203,9203,,,67263000000,67302000,20,6fdecb78-893a-4e3f-a5ba-aa062459463b,000,920000000001810,299055,1f78cb85-d268-4c75-a11e-e6115665513d,92,тер.,2020-08-24,0000,,,2020-08-27,000,0000,000,1,,1810,,0
0,1f78cb85-d268-4c75-a11e-e6115665513d,1f78cb85-d268-4c75-a11e-e6115665513d,65,000,0,0,000,92000000000181001,1.0,2020-08-24,ТСН Первомайское,9203,9203,5785189a-4c5e-49b1-b7cb-a3a73e98e5fd,,67263000000,67302000,10,6fdecb78-893a-4e3f-a5ba-aa062459463b,000,920000000001810,299055,,92,тер. ТСН,2017-01-27,0000,,,2020-08-27,000,0000,000,0,0780dccc-43dc-4721-ad4e-695d67415942,1810,,0
1,b5e85c4a-dee4-47ce-8882-b145beae2f96,7da06601-85cc-4c30-800b-9f1d2b957f5c,7,000,0,0,000,92000000019000999,99.0,2079-06-06,Стахановский,9203,9203,,,67263000000,67302000,30,9af33ba5-b3db-48ed-b346-8c9bf3ef9393,019,920000000190009,299806,64f2e72d-0b9e-436e-84de-210cb9c239bc,92,ал.,2020-08-24,0009,,,2020-08-27,000,0000,000,0,,0000,,0
0,b5e85c4a-dee4-47ce-8882-b145beae2f96,64f2e72d-0b9e-436e-84de-210cb9c239bc,7,000,0,0,000,92000000019000999,99.0,2020-08-24,Стахановский,9203,9203,7da06601-85cc-4c30-800b-9f1d2b957f5c,,67263000000,67302000,21,9af33ba5-b3db-48ed-b346-8c9bf3ef9393,019,920000000190009,299806,b5e85c4a-dee4-47ce-8882-b145beae2f96,92,ал.,2017-01-01,0009,,,2020-08-27,000,0000,000,0,6e3fd7cd-fc4d-4122-a9f6-d1acdedc6c8f,0000,,0
0,b5e85c4a-dee4-47ce-8882-b145beae2f96,b5e85c4a-dee4-47ce-8882-b145beae2f96,7,000,0,0,000,92000000019000901,1.0,2020-08-24,Стахановский,9202,9202,64f2e72d-0b9e-436e-84de-210cb9c239bc,,67263000000,67302000,10,9af33ba5-b3db-48ed-b346-8c9bf3ef9393,019,920000000190009,299806,,92,ал.,2016-12-12,0009,,,2020-08-27,000,0000,000,0,eebc3633-85e8-4aa4-98f2-a7a20669fe27,0000,,0
1,86112db4-385a-4af9-a818-b71867cf5963,78faff11-62fa-4053-bb46-b421700e2226,65,000,0,0,000,92000000000180500,0.0,2079-06-06,ТСН Ветеран,9203,9203,,,67269000000,67314000,20,6fdecb78-893a-4e3f-a5ba-aa062459463b,000,920000000001805,299001,86112db4-385a-4af9-a818-b71867cf5963,92,тер.,2020-08-25,0000,,,2020-08-27,000,0000,000,1,,1805,,0
0,86112db4-385a-4af9-a818-b71867cf5963,86112db4-385a-4af9-a818-b71867cf5963,65,000,0,0,000,92000000000180501,1.0,2020-08-25,ТСН Ветеран,9203,9203,78faff11-62fa-4053-bb46-b421700e2226,,67269000000,67314000,10,6fdecb78-893a-4e3f-a5ba-aa062459463b,000,920000000001805,299001,,92,тер. ТСН,2017-01-27,0000,,,2020-08-27,000,0000,000,0,1932e682-3a7b-4ccc-9acc-756f39f46b57,1805,,0
1,64014a66-e39f-4d3b-91f2-4d8b70d976b1,8b240caa-beb7-483a-848d-2a51ecfe5d35,65,000,0,0,000,92000000000192700,0.0,2079-06-06,СНТ Риф,9203,9203,,,67263000000,67302000,20,6fdecb78-893a-4e3f-a5ba-aa062459463b,000,920000000001927,299001,64014a66-e39f-4d3b-91f2-4d8b70d976b1,92,тер.,2020-08-24,0000,,,2020-08-27,000,0000,000,1,,1927,,0
0,64014a66-e39f-4d3b-91f2-4d8b70d976b1,64014a66-e39f-4d3b-91f2-4d8b70d976b1,65,000,0,0,000,92000000000192701,1.0,2020-08-24,СНТ Риф,9203,9203,8b240caa-beb7-483a-848d-2a51ecfe5d35,,67263000000,67302000,10,6fdecb78-893a-4e3f-a5ba-aa062459463b,000,920000000001927,299001,,92,тер. СНТ,2017-02-21,0000,,,2020-08-27,000,0000,000,0,0e53cccc-4300-46e7-9bc6-e046171375f9,1927,,0
1,304f07f3-d789-4f16-a5bd-8fa9f5f9099b,9f9cca58-d106-4cba-b70d-961ca4d51693,65,000,0,0,000,92000000000144900,0.0,2079-06-06,ПК СК Горнодолинный,9203,9203,,,67263000000,67302000,20,6fdecb78-893a-4e3f-a5ba-aa062459463b,000,920000000001449,299001,cd4a9d4c-eaf7-473f-96b7-909ace901b3d,92,тер.,2020-08-24,0000,,,2020-08-27,000,0000,000,1,,1449,,0
0,304f07f3-d789-4f16-a5bd-8fa9f5f9099b,cd4a9d4c-eaf7-473f-96b7-909ace901b3d,65,000,0,0,000,92000000000144902,2.0,2020-08-24,ПК СК Горнодолинный,9203,9203,9f9cca58-d106-4cba-b70d-961ca4d51693,,67263000000,67302000,21,6fdecb78-893a-4e3f-a5ba-aa062459463b,000,920000000001449,299001,304f07f3-d789-4f16-a5bd-8fa9f5f9099b,92,тер. СПК,2017-01-04,0000,,,2020-08-27,000,0000,000,0,1dc38593-c5a3-4888-8f4e-6d5142780887,1449,,0
0,304f07f3-d789-4f16-a5bd-8fa9f5f9099b,304f07f3-d789-4f16-a5bd-8fa9f5f9099b,65,000,0,0,000,92000000000144901,1.0,2020-08-24,ПК СК Горнодолинный,9202,9202,cd4a9d4c-eaf7-473f-96b7-909ace901b3d,,67263000000,67302000,10,6fdecb78-893a-4e3f-a5ba-aa062459463b,000,920000000001449,299001,,92,тер. СПК,2016-11-07,0000,,,2020-08-27,000,0000,000,0,c908cd83-05ff-4a61-a05b-cfdafe129137,1449,,0
1,4cd57ad1-da25-4208-87a4-672e87bf29da,bdddcf0d-467a-4e7c-993c-dd144894ecde,7,000,0,0,000,92000000016004099,99.0,2079-06-06,Южнобережное Шоссе 25-Й,9203,9203,,,67263807003,67306000167,30,ceafa479-c56c-498e-8671-fea153be16fc,016,920000000160040,299811,2e11625d-c7bc-48f9-9dfc-a21509ed980a,92,км,2020-08-24,0040,,,2020-08-27,000,0000,000,0,,0000,,0
0,4cd57ad1-da25-4208-87a4-672e87bf29da,2e11625d-c7bc-48f9-9dfc-a21509ed980a,7,000,0,0,000,92000000016004099,99.0,2020-08-24,Южнобережное Шоссе 25-Й,9203,9203,bdddcf0d-467a-4e7c-993c-dd144894ecde,,67263807003,67306000167,21,ceafa479-c56c-498e-8671-fea153be16fc,016,920000000160040,299811,af0390a9-de4a-4e17-8053-ec32414ccbcc,92,км,2019-12-26,0040,,,2020-08-27,000,0000,000,0,74a19c42-a50e-4d77-9216-c73c6055d6de,0000,,0
0,4cd57ad1-da25-4208-87a4-672e87bf29da,af0390a9-de4a-4e17-8053-ec32414ccbcc,7,000,0,0,000,92000000016004005,5.0,2019-12-26,Южнобережное Шоссе 25-Й,9203,9203,2e11625d-c7bc-48f9-9dfc-a21509ed980a,,67263807003,67306000,21,ceafa479-c56c-498e-8671-fea153be16fc,016,920000000160040,299811,7d6daf93-8559-47e5-80b3-77b1bb0f3d82,92,км,2017-04-24,0040,,,2020-08-27,000,0000,000,0,5eb65c4f-d798-4115-9b1e-001cb32403d5,0000,,0
0,4cd57ad1-da25-4208-87a4-672e87bf29da,7d6daf93-8559-47e5-80b3-77b1bb0f3d82,7,000,0,0,000,92000000016004004,4.0,2017-04-24,Южнобережное Шоссе 25-Й,9203,9203,af0390a9-de4a-4e17-8053-ec32414ccbcc,,67263807003,67306000167,21,ceafa479-c56c-498e-8671-fea153be16fc,016,920000000160040,299811,8ad98033-a1a6-43ea-9073-f23b6126ff3c,92,км,2016-12-29,0040,,,2020-08-27,000,0000,000,0,ec7b6f64-7f79-46cb-b20d-4530a4f711d6,0000,,0
0,4cd57ad1-da25-4208-87a4-672e87bf29da,8ad98033-a1a6-43ea-9073-f23b6126ff3c,7,000,0,0,000,92000000016004003,3.0,2016-12-29,Южнобережное Шоссе 25-Й,9202,9202,7d6daf93-8559-47e5-80b3-77b1bb0f3d82,,67263807003,67306000167,21,ceafa479-c56c-498e-8671-fea153be16fc,016,920000000160040,299811,33c92cfd-ddd1-4c57-bd85-ede7a785b314,92,км,2016-04-27,0040,,,2020-08-27,000,0000,000,0,,0000,,0
0,4cd57ad1-da25-4208-87a4-672e87bf29da,33c92cfd-ddd1-4c57-bd85-ede7a785b314,7,000,0,0,000,92000000016004002,2.0,2017-04-24,Южнобережное Шоссе 25-Й,9202,9202,8ad98033-a1a6-43ea-9073-f23b6126ff3c,,67000000000,67306000167,21,ceafa479-c56c-498e-8671-fea153be16fc,016,920000000160040,299811,4cd57ad1-da25-4208-87a4-672e87bf29da,92,км,2015-06-29,0040,,,2020-08-27,000,0000,000,0,,0000,,0
0,4cd57ad1-da25-4208-87a4-672e87bf29da,4cd57ad1-da25-4208-87a4-672e87bf29da,7,000,0,0,000,92000000016004001,1.0,2020-08-24,Южнобережное Шоссе 25-Й,9202,9202,33c92cfd-ddd1-4c57-bd85-ede7a785b314,,67000000000,67000000,10,ceafa479-c56c-498e-8671-fea153be16fc,016,920000000160040,299811,,92,км,2014-04-18,0040,,,2020-08-27,000,0000,000,0,,0000,,0
1,98b378db-35b6-4d4e-b7b0-ad27546288f3,a369bf8d-281c-41f8-8149-3d726f1678d8,7,000,0,0,000,92000000002001000,0.0,2079-06-06,Сус-106,9203,9203,,,67269000000,67320000106,20,c664c86c-c464-4222-9f57-7a51a660e85c,002,920000000020010,299814,e5e396a1-22aa-4061-955b-e6a61d861c7c,92,тер,2020-08-24,0010,,,2020-08-27,000,0000,000,1,,0000,,0
0,98b378db-35b6-4d4e-b7b0-ad27546288f3,e5e396a1-22aa-4061-955b-e6a61d861c7c,7,000,0,0,000,92000000002001000,0.0,2020-08-24,Сус-106,9203,9203,a369bf8d-281c-41f8-8149-3d726f1678d8,,67269553002,67320000106,21,c664c86c-c464-4222-9f57-7a51a660e85c,002,920000000020010,299814,5bfb6f71-8583-4188-889a-6c02cc2454a2,92,тер,2019-12-23,0010,,,2020-08-27,000,0000,000,0,b0e6d925-d290-4cdf-9110-255fe9bb5ab2,0000,,0
0,98b378db-35b6-4d4e-b7b0-ad27546288f3,5bfb6f71-8583-4188-889a-6c02cc2454a2,7,000,0,0,000,92000000002001004,4.0,2019-12-23,Сус-106,9203,9203,e5e396a1-22aa-4061-955b-e6a61d861c7c,,67269553002,67320000,21,c664c86c-c464-4222-9f57-7a51a660e85c,002,920000000020010,299814,ad1ad791-d334-4858-a285-126b837de018,92,тер,2017-04-24,0010,,,2020-08-27,000,0000,000,0,3662f73c-0729-4045-94e8-ce615b35907e,0000,,0
0,98b378db-35b6-4d4e-b7b0-ad27546288f3,ad1ad791-d334-4858-a285-126b837de018,7,000,0,0,000,92000000002001003,3.0,2020-08-24,Сус-106,9203,9203,5bfb6f71-8583-4188-889a-6c02cc2454a2,,67269553002,67320000106,21,c664c86c-c464-4222-9f57-7a51a660e85c,002,920000000020010,299814,6df5b7a8-b037-4ca9-a4d4-55f37f1e9bc8,92,тер,2016-04-27,0010,,,2020-08-27,000,0000,000,0,,0000,,0
0,98b378db-35b6-4d4e-b7b0-ad27546288f3,6df5b7a8-b037-4ca9-a4d4-55f37f1e9bc8,7,000,0,0,000,92000000002001002,2.0,2017-04-24,Сус-106,9203,9203,ad1ad791-d334-4858-a285-126b837de018,,67000000000,67320000106,21,c664c86c-c464-4222-9f57-7a51a660e85c,002,920000000020010,299814,b0c250ad-2f0e-4090-9466-79a116c694e9,92,тер,2015-06-29,0010,,,2020-08-27,000,0000,000,0,,0000,,0
0,98b378db-35b6-4d4e-b7b0-ad27546288f3,b0c250ad-2f0e-4090-9466-79a116c694e9,7,000,0,0,000,92000000002001001,1.0,2015-06-29,Сус-106,9203,9203,6df5b7a8-b037-4ca9-a4d4-55f37f1e9bc8,,67000000000,67000000,50,c664c86c-c464-4222-9f57-7a51a660e85c,002,920000000020010,299814,98b378db-35b6-4d4e-b7b0-ad27546288f3,92,тер,2014-04-18,0010,,,2020-08-27,000,0000,000,0,,0000,,0
0,98b378db-35b6-4d4e-b7b0-ad27546288f3,98b378db-35b6-4d4e-b7b0-ad27546288f3,7,000,0,0,000,92000000004004651,51.0,2079-06-06,Сус-106,9203,9203,b0c250ad-2f0e-4090-9466-79a116c694e9,,67000000000,67000000,10,c664c86c-c464-4222-9f57-7a51a660e85c,002,920000000040046,299814,,92,тер,2014-04-18,0010,,,2020-08-27,000,0000,000,0,,0000,,0
1,984de530-d274-4af5-8243-0d6019bc95b4,20411d49-1574-4003-bbe8-9e3cba08e7de,65,000,0,0,000,92000000000145800,0.0,2079-06-06,ПСК Космос,9201,9201,,,67264000000,67310000,20,6fdecb78-893a-4e3f-a5ba-aa062459463b,000,920000000001458,299001,984de530-d274-4af5-8243-0d6019bc95b4,92,тер.,2020-08-25,0000,,,2020-08-27,000,0000,000,1,,1458,,0
0,984de530-d274-4af5-8243-0d6019bc95b4,984de530-d274-4af5-8243-0d6019bc95b4,65,000,0,0,000,92000000000145801,1.0,2020-08-25,ПСК Космос,9201,9201,20411d49-1574-4003-bbe8-9e3cba08e7de,,67264000000,67310000,10,6fdecb78-893a-4e3f-a5ba-aa062459463b,000,920000000001458,299001,,92,тер. СПК,2016-11-16,0000,,,2020-08-27,000,0000,000,0,ae37ef91-139a-487d-8736-cf760aa0a579,1458,,0
1,9e28681c-a284-451d-9402-84669346b5d7,db2d048a-fca7-4cf4-a6b8-17b22d01deda,7,000,0,0,000,92000000016004199,99.0,2079-06-06,59-й км автодороги Ялта-Севастополь,9203,9203,,,67263807003,67306000167,30,ceafa479-c56c-498e-8671-fea153be16fc,016,920000000160041,299811,e2c8a340-df14-4a53-9840-e1c33646630e,92,ул,2020-08-24,0041,,,2020-08-27,000,0000,000,0,,0000,,0
0,9e28681c-a284-451d-9402-84669346b5d7,e2c8a340-df14-4a53-9840-e1c33646630e,7,000,0,0,000,92000000016004199,99.0,2020-08-24,59-й км автодороги Ялта-Севастополь,9203,9203,db2d048a-fca7-4cf4-a6b8-17b22d01deda,,67263807003,67306000167,21,ceafa479-c56c-498e-8671-fea153be16fc,016,920000000160041,299811,9b0074c3-e5f8-4691-9e7d-a09f449163f9,92,ул,2019-12-26,0041,,,2020-08-27,000,0000,000,0,74a19c42-a50e-4d77-9216-c73c6055d6de,0000,,0
0,9e28681c-a284-451d-9402-84669346b5d7,9b0074c3-e5f8-4691-9e7d-a09f449163f9,7,000,0,0,000,92000000016004105,5.0,2019-12-26,59-й км автодороги Ялта-Севастополь,9203,9203,e2c8a340-df14-4a53-9840-e1c33646630e,,67263807003,67306000,21,ceafa479-c56c-498e-8671-fea153be16fc,016,920000000160041,299811,70132bee-9350-43e7-b17f-0c5ad2ecf7c9,92,ул,2017-04-24,0041,,,2020-08-27,000,0000,000,0,5eb65c4f-d798-4115-9b1e-001cb32403d5,0000,,0
0,9e28681c-a284-451d-9402-84669346b5d7,70132bee-9350-43e7-b17f-0c5ad2ecf7c9,7,000,0,0,000,92000000016004104,4.0,2017-04-24,59-й км автодороги Ялта-Севастополь,9203,9203,9b0074c3-e5f8-4691-9e7d-a09f449163f9,,67263807003,67306000167,21,ceafa479-c56c-498e-8671-fea153be16fc,016,920000000160041,299811,bbcc8e23-17e5-4b54-a840-0414c10099e9,92,ул,2016-12-29,0041,,,2020-08-27,000,0000,000,0,ec7b6f64-7f79-46cb-b20d-4530a4f711d6,0000,,0
0,9e28681c-a284-451d-9402-84669346b5d7,bbcc8e23-17e5-4b54-a840-0414c10099e9,7,000,0,0,000,92000000016004103,3.0,2016-12-29,59-й км автодороги Ялта-Севастополь,9202,9202,70132bee-9350-43e7-b17f-0c5ad2ecf7c9,,67263807003,67306000167,21,ceafa479-c56c-498e-8671-fea153be16fc,016,920000000160041,299811,00974c03-7d42-404a-9c89-7340b35fb7bc,92,ул,2016-04-27,0041,,,2020-08-27,000,0000,000,0,,0000,,0
0,9e28681c-a284-451d-9402-84669346b5d7,00974c03-7d42-404a-9c89-7340b35fb7bc,7,000,0,0,000,92000000016004102,2.0,2017-04-24,59-й км автодороги Ялта-Севастополь,9202,9202,bbcc8e23-17e5-4b54-a840-0414c10099e9,,67000000000,67306000167,21,ceafa479-c56c-498e-8671-fea153be16fc,016,920000000160041,299811,9e28681c-a284-451d-9402-84669346b5d7,92,ул,2015-06-29,0041,,,2020-08-27,000,0000,000,0,,0000,,0
0,9e28681c-a284-451d-9402-84669346b5d7,9e28681c-a284-451d-9402-84669346b5d7,7,000,0,0,000,92000000016004101,1.0,2020-08-24,59-й км автодороги Ялта-Севастополь,9202,9202,00974c03-7d42-404a-9c89-7340b35fb7bc,,67000000000,67000000,10,ceafa479-c56c-498e-8671-fea153be16fc,016,920000000160041,299811,,92,ул,2015-02-09,0041,,,2020-08-27,000,0000,000,0,,0000,,0
1,01f82869-cb4e-4266-b4cd-0f334bd4b4f6,2065ddbc-433a-4236-b3a0-d5025a337de2,65,000,0,0,000,92000000000199400,0.0,2079-06-06,СТСН Ягодка,9203,9203,,,67263000000,67302000,20,6fdecb78-893a-4e3f-a5ba-aa062459463b,000,920000000001994,299001,01f82869-cb4e-4266-b4cd-0f334bd4b4f6,92,тер.,2020-08-24,0000,,,2020-08-27,000,0000,000,1,,1994,,0
0,01f82869-cb4e-4266-b4cd-0f334bd4b4f6,01f82869-cb4e-4266-b4cd-0f334bd4b4f6,65,000,0,0,000,92000000000199401,1.0,2020-08-24,СТСН Ягодка,9203,9203,2065ddbc-433a-4236-b3a0-d5025a337de2,,67263000000,67302000,10,6fdecb78-893a-4e3f-a5ba-aa062459463b,000,920000000001994,299001,,92,тер. ТСН,2017-03-10,0000,,,2020-08-27,000,0000,000,0,83dd11e2-48eb-4a44-a9e3-657741559775,1994,,0
1,69f62ce6-41b6-4280-a2e1-3d4d3c4af6f9,05d607dc-3a13-40df-91d7-089298474a29,65,000,0,0,000,92000000000132200,0.0,2079-06-06,ТСН Рыбак-6,9201,9201,,,67264000000,67310000,20,6fdecb78-893a-4e3f-a5ba-aa062459463b,000,920000000001322,,4f46fc22-2578-4930-9363-104375f0afb8,92,тер.,2020-08-25,0000,,,2020-08-27,000,0000,000,1,,1322,,0
0,69f62ce6-41b6-4280-a2e1-3d4d3c4af6f9,4f46fc22-2578-4930-9363-104375f0afb8,65,000,0,0,000,92000000000132201,1.0,2020-08-25,ТСН Рыбак-6,9201,9201,05d607dc-3a13-40df-91d7-089298474a29,,67264000000,67310000,50,6fdecb78-893a-4e3f-a5ba-aa062459463b,000,920000000001322,,69f62ce6-41b6-4280-a2e1-3d4d3c4af6f9,92,снт,2016-09-28,0000,,,2020-08-27,000,0000,000,0,,1322,,0
0,69f62ce6-41b6-4280-a2e1-3d4d3c4af6f9,69f62ce6-41b6-4280-a2e1-3d4d3c4af6f9,90,000,0,0,000,92000000000132251,51.0,2016-09-28,ТСН Рыбак-6,9201,9201,4f46fc22-2578-4930-9363-104375f0afb8,,67264000000,67310000,10,6fdecb78-893a-4e3f-a5ba-aa062459463b,000,920000000001322,299024,,92,снт,2016-09-05,0000,,,2020-08-27,000,0000,000,0,8549c584-a432-4245-b8bc-897515529874,0000,,0
1,5872037c-3113-40c9-8edf-58cde516a2c3,dcdbcc2f-87f6-4391-9029-cfc4fccad35e,65,000,0,0,000,92000000000135600,0.0,2079-06-06,ТСН Восход,9203,9203,,,67263000000,67302000,20,6fdecb78-893a-4e3f-a5ba-aa062459463b,000,920000000001356,299001,a6f7dc1e-3f39-4461-94e3-81ad2529da3a,92,тер.,2020-08-24,0000,,,2020-08-27,000,0000,000,1,,1356,,0
0,5872037c-3113-40c9-8edf-58cde516a2c3,a6f7dc1e-3f39-4461-94e3-81ad2529da3a,65,000,0,0,000,92000000000135602,2.0,2020-08-24,ТСН Восход,9203,9203,dcdbcc2f-87f6-4391-9029-cfc4fccad35e,,67263000000,67302000,21,6fdecb78-893a-4e3f-a5ba-aa062459463b,000,920000000001356,299001,5872037c-3113-40c9-8edf-58cde516a2c3,92,тер. ТСН,2017-01-04,0000,,,2020-08-27,000,0000,000,0,5da97ce3-8bbc-4459-a0d2-684b918f6580,1356,,0
0,5872037c-3113-40c9-8edf-58cde516a2c3,5872037c-3113-40c9-8edf-58cde516a2c3,65,000,0,0,000,92000000000135601,1.0,2020-08-24,ТСН Восход,9200,9200,a6f7dc1e-3f39-4461-94e3-81ad2529da3a,,67263000000,67302000,10,6fdecb78-893a-4e3f-a5ba-aa062459463b,000,920000000001356,299001,,92,тер. ТСН,2016-10-24,0000,,,2020-08-27,000,0000,000,0,1abf31a1-fcc6-42dd-a94e-0de330030a56,1356,,0
1,b443a79e-47b9-4638-9cb7-4a455c57699d,7033ec4e-7a73-4ea7-a8a4-b5c21229a8c8,65,000,0,0,000,92000000000136500,0.0,2079-06-06,СПК Солнечная поляна,9203,9203,,,67263000000,67302000,20,6fdecb78-893a-4e3f-a5ba-aa062459463b,000,920000000001365,299001,19d259a6-d611-4134-af4e-11416bd83bc7,92,тер.,2020-08-24,0000,,,2020-08-27,000,0000,000,1,,1365,,0
0,b443a79e-47b9-4638-9cb7-4a455c57699d,19d259a6-d611-4134-af4e-11416bd83bc7,65,000,0,0,000,92000000000136502,2.0,2020-08-24,СПК Солнечная поляна,9203,9203,7033ec4e-7a73-4ea7-a8a4-b5c21229a8c8,,67263000000,67302000,21,6fdecb78-893a-4e3f-a5ba-aa062459463b,000,920000000001365,299001,b443a79e-47b9-4638-9cb7-4a455c57699d,92,тер. СПК,2017-01-04,0000,,,2020-08-27,000,0000,000,0,f62f836a-462a-43fb-b369-1f27cd73c109,1365,,0
0,b443a79e-47b9-4638-9cb7-4a455c57699d,b443a79e-47b9-4638-9cb7-4a455c57699d,65,000,0,0,000,92000000000136501,1.0,2020-08-24,СПК Солнечная поляна,9200,9200,19d259a6-d611-4134-af4e-11416bd83bc7,,67263000000,67302000,10,6fdecb78-893a-4e3f-a5ba-aa062459463b,000,920000000001365,299001,,92,тер. СПК,2016-10-24,0000,,,2020-08-27,000,0000,000,0,8105963f-8476-41b6-b2cb-30e3242190cb,1365,,0
1,6e84614b-891b-416d-bcd1-1cb023f682b9,fedce6ea-92ad-485a-a91c-e43a8e357272,65,000,0,0,000,92000000000182700,0.0,2079-06-06,ПКИЗ Подводник,9203,9203,,,67269000000,67314000,20,6fdecb78-893a-4e3f-a5ba-aa062459463b,000,920000000001827,,6e84614b-891b-416d-bcd1-1cb023f682b9,92,тер.,2020-08-25,0000,,,2020-08-27,000,0000,000,1,,1827,,0
0,6e84614b-891b-416d-bcd1-1cb023f682b9,6e84614b-891b-416d-bcd1-1cb023f682b9,65,000,0,0,000,92000000000182701,1.0,2020-08-25,ПКИЗ Подводник,9203,9203,fedce6ea-92ad-485a-a91c-e43a8e357272,,67269000000,67314000,10,6fdecb78-893a-4e3f-a5ba-aa062459463b,000,920000000001827,,,92,тер. СПК,2017-02-09,0000,,,2020-08-27,000,0000,000,0,f2b5569c-5faa-408e-8fbe-1cc0e665d458,1827,,0
1,519909f1-18fe-49f1-bf2a-dc24f6ae8b8c,5ad3c040-7567-4c6a-afc4-e4c4743d0782,65,000,0,0,000,92000000000178100,0.0,2079-06-06,СТСН Электрон-2,9203,9203,,,67263000000,67302000,20,6fdecb78-893a-4e3f-a5ba-aa062459463b,000,920000000001781,299001,519909f1-18fe-49f1-bf2a-dc24f6ae8b8c,92,тер.,2020-08-24,0000,,,2020-08-27,000,0000,000,1,,1781,,0
0,519909f1-18fe-49f1-bf2a-dc24f6ae8b8c,519909f1-18fe-49f1-bf2a-dc24f6ae8b8c,65,000,0,0,000,92000000000178101,1.0,2020-08-24,СТСН Электрон-2,9203,9203,5ad3c040-7567-4c6a-afc4-e4c4743d0782,,67263000000,67302000,10,6fdecb78-893a-4e3f-a5ba-aa062459463b,000,920000000001781,299001,,92,тер. ТСН,2017-01-11,0000,,,2020-08-27,000,0000,000,0,0994dbb2-3502-4564-a25b-ccf50ea14eb0,1781,,0
1,14b0faea-1902-411b-8b04-87443cefeebb,56aa8ee2-fafb-4264-aba5-1d28e6d74168,65,000,0,0,000,92000000000202700,0.0,2079-06-06,ТСН СТ Миндаль,9201,9201,,,67264000000,67310000,20,6fdecb78-893a-4e3f-a5ba-aa062459463b,000,920000000002027,299001,14b0faea-1902-411b-8b04-87443cefeebb,92,тер.,2020-08-25,0000,,,2020-08-27,000,0000,000,1,,2027,,0
0,14b0faea-1902-411b-8b04-87443cefeebb,14b0faea-1902-411b-8b04-87443cefeebb,65,000,0,0,000,92000000000202701,1.0,2020-08-25,ТСН СТ Миндаль,9201,9201,56aa8ee2-fafb-4264-aba5-1d28e6d74168,,67264000000,67310000,10,6fdecb78-893a-4e3f-a5ba-aa062459463b,000,920000000002027,299001,,92,тер. ТСН,2017-04-21,0000,,,2020-08-27,000,0000,000,0,6acd00f6-c268-4211-bfdc-f15ea9fdf74a,2027,,0
1,2401c27a-a239-4a65-80bd-f01db64b6ca2,a7b67be5-84df-43b6-91d6-5f38708bbd5c,65,000,0,0,000,92000000000142400,0.0,2079-06-06,СНТ СН Дружный-2,9201,9201,,,67264000000,67310000,20,6fdecb78-893a-4e3f-a5ba-aa062459463b,000,920000000001424,299001,2401c27a-a239-4a65-80bd-f01db64b6ca2,92,тер.,2020-08-25,0000,,,2020-08-27,000,0000,000,1,,1424,,0
0,2401c27a-a239-4a65-80bd-f01db64b6ca2,2401c27a-a239-4a65-80bd-f01db64b6ca2,65,000,0,0,000,92000000000142401,1.0,2020-08-25,СНТ СН Дружный-2,9201,9201,a7b67be5-84df-43b6-91d6-5f38708bbd5c,,67264000000,67310000,10,6fdecb78-893a-4e3f-a5ba-aa062459463b,000,920000000001424,299001,,92,тер. ТСН,2016-11-02,0000,,,2020-08-27,000,0000,000,0,5c152bb9-30e3-42a1-9993-28d9738492cd,1424,,0
1,c46995f1-3d66-42a2-a500-6a8396fd0ee9,dbd5efba-e4db-42a2-8613-06538eef354e,7,000,0,0,000,92000000016002899,99.0,2079-06-06,Приозерная,9203,9203,,,67263807003,67306000167,30,ceafa479-c56c-498e-8671-fea153be16fc,016,920000000160028,299811,5b1da685-a101-4a52-ad0e-faf664d8891b,92,ул,2020-08-24,0028,,,2020-08-27,000,0000,000,0,,0000,,0
0,c46995f1-3d66-42a2-a500-6a8396fd0ee9,5b1da685-a101-4a52-ad0e-faf664d8891b,7,000,0,0,000,92000000016002899,99.0,2020-08-24,Приозерная,9203,9203,dbd5efba-e4db-42a2-8613-06538eef354e,,67263807003,67306000167,21,ceafa479-c56c-498e-8671-fea153be16fc,016,920000000160028,299811,bf1deedc-cf83-4e3a-b03d-5608724a39ad,92,ул,2019-12-26,0028,,,2020-08-27,000,0000,000,0,74a19c42-a50e-4d77-9216-c73c6055d6de,0000,,0
0,c46995f1-3d66-42a2-a500-6a8396fd0ee9,bf1deedc-cf83-4e3a-b03d-5608724a39ad,7,000,0,0,000,92000000016002806,6.0,2019-12-26,Приозерная,9203,9203,5b1da685-a101-4a52-ad0e-faf664d8891b,,67263807003,67306000,20,ceafa479-c56c-498e-8671-fea153be16fc,016,920000000160028,299811,3ce77c85-651a-4dae-af81-64f1622471e6,92,ул,2019-11-07,0028,,,2020-08-27,000,0000,000,0,ea60a874-b12d-42e1-ad3f-66ef48ef8721,0000,,0
0,c46995f1-3d66-42a2-a500-6a8396fd0ee9,3ce77c85-651a-4dae-af81-64f1622471e6,7,000,0,0,000,92000000016002805,5.0,2019-12-26,Приозерная,9203,9203,bf1deedc-cf83-4e3a-b03d-5608724a39ad,,67263807003,67306000,21,ceafa479-c56c-498e-8671-fea153be16fc,016,920000000160028,299811,de62b745-09bf-4c2f-9619-0afa2e0bcac7,92,ул,2017-04-24,0028,,,2020-08-27,000,0000,000,0,5eb65c4f-d798-4115-9b1e-001cb32403d5,0000,,0
0,c46995f1-3d66-42a2-a500-6a8396fd0ee9,de62b745-09bf-4c2f-9619-0afa2e0bcac7,7,000,0,0,000,92000000016002804,4.0,2017-04-24,Приозерная,9203,9203,3ce77c85-651a-4dae-af81-64f1622471e6,,67263807003,67306000167,21,ceafa479-c56c-498e-8671-fea153be16fc,016,920000000160028,299811,0e9bf1fb-131b-481a-823b-d72ebc2f3a93,92,ул,2016-12-29,0028,,,2020-08-27,000,0000,000,0,ec7b6f64-7f79-46cb-b20d-4530a4f711d6,0000,,0
0,c46995f1-3d66-42a2-a500-6a8396fd0ee9,0e9bf1fb-131b-481a-823b-d72ebc2f3a93,7,000,0,0,000,92000000016002803,3.0,2017-04-24,Приозерная,9202,9202,de62b745-09bf-4c2f-9619-0afa2e0bcac7,,67263807003,67306000167,21,ceafa479-c56c-498e-8671-fea153be16fc,016,920000000160028,299811,c7340b67-d819-4634-bbcb-ae0882133658,92,ул,2016-04-27,0028,,,2020-08-27,000,0000,000,0,,0000,,0
0,c46995f1-3d66-42a2-a500-6a8396fd0ee9,c7340b67-d819-4634-bbcb-ae0882133658,7,000,0,0,000,92000000016002802,2.0,2017-04-24,Приозерная,9202,9202,0e9bf1fb-131b-481a-823b-d72ebc2f3a93,,67000000000,67306000167,21,ceafa479-c56c-498e-8671-fea153be16fc,016,920000000160028,299811,c46995f1-3d66-42a2-a500-6a8396fd0ee9,92,ул,2015-06-29,0028,,,2020-08-27,000,0000,000,0,,0000,,0
0,c46995f1-3d66-42a2-a500-6a8396fd0ee9,c46995f1-3d66-42a2-a500-6a8396fd0ee9,7,000,0,0,000,92000000016002801,1.0,2020-08-24,Приозерная,9202,9202,c7340b67-d819-4634-bbcb-ae0882133658,,67000000000,67000000,10,ceafa479-c56c-498e-8671-fea153be16fc,016,920000000160028,299811,,92,ул,2014-04-18,0028,,,2020-08-27,000,0000,000,0,,0000,,0
1,04c49546-00cf-4287-aab0-cb675ff8885a,62bb8292-d25b-43b8-aa36-66b02835dc27,65,000,0,0,000,92000000000132000,0.0,2079-06-06,ТСН Родник,9203,9203,,,67263000000,67302000,20,6fdecb78-893a-4e3f-a5ba-aa062459463b,000,920000000001320,,712c46f4-e0c5-45e3-86f7-459b71ed9e09,92,тер.,2020-08-24,0000,,,2020-08-27,000,0000,000,1,,1320,,0
0,04c49546-00cf-4287-aab0-cb675ff8885a,712c46f4-e0c5-45e3-86f7-459b71ed9e09,65,000,0,0,000,92000000000132003,3.0,2020-08-24,ТСН Родник,9203,9203,62bb8292-d25b-43b8-aa36-66b02835dc27,,67263000000,67302000,20,6fdecb78-893a-4e3f-a5ba-aa062459463b,000,920000000001320,,8d0c08c7-c7fa-441d-9fe5-178cd4b6c3b5,92,снт,2017-06-17,0000,,,2020-08-27,000,0000,000,0,831064c3-3d50-4ba9-94ce-be1bc2a7da28,1320,,0
0,04c49546-00cf-4287-aab0-cb675ff8885a,8d0c08c7-c7fa-441d-9fe5-178cd4b6c3b5,65,000,0,0,000,92000000000132002,2.0,2017-06-17,Родник ТСН,9203,9203,712c46f4-e0c5-45e3-86f7-459b71ed9e09,,67263000000,67302000,21,6fdecb78-893a-4e3f-a5ba-aa062459463b,000,920000000001320,299014,b38ab1f0-e052-400e-9a94-68339880eefc,92,снт,2017-01-04,0000,,,2020-08-27,000,0000,000,0,1a1519ff-7430-4c63-9ed7-7b722f83f2cc,1320,,0
0,04c49546-00cf-4287-aab0-cb675ff8885a,b38ab1f0-e052-400e-9a94-68339880eefc,65,000,0,0,000,92000000000132001,1.0,2017-06-17,Родник ТСН,9202,9202,8d0c08c7-c7fa-441d-9fe5-178cd4b6c3b5,,67263000000,67302000,50,6fdecb78-893a-4e3f-a5ba-aa062459463b,000,920000000001320,299014,04c49546-00cf-4287-aab0-cb675ff8885a,92,снт,2016-09-29,0000,,,2020-08-27,000,0000,000,0,,1320,,0
0,04c49546-00cf-4287-aab0-cb675ff8885a,04c49546-00cf-4287-aab0-cb675ff8885a,90,000,0,0,000,92000000000132051,51.0,2016-09-29,Родник ТСН,9202,9202,b38ab1f0-e052-400e-9a94-68339880eefc,,67263000000,67302000,10,6fdecb78-893a-4e3f-a5ba-aa062459463b,000,920000000001320,299014,,92,снт,2016-08-25,0000,,,2020-08-27,000,0000,000,0,4ee3cf65-ff9f-4975-82fa-7dd325202634,0000,,0
1,7d863ab8-5b5d-46b6-ad6b-9fce78bd3eb7,0a442da7-ee36-4bd0-8b01-b9173f4743d3,65,000,0,0,000,92000000000179100,0.0,2079-06-06,СТСН Надежда,9204,9204,,,67266000000,67312000,20,6fdecb78-893a-4e3f-a5ba-aa062459463b,000,920000000001791,299001,b7d0fb81-0b47-4883-86f6-200a04354fd3,92,тер.,2020-08-24,0000,,,2020-08-27,000,0000,000,1,,1791,,0
0,7d863ab8-5b5d-46b6-ad6b-9fce78bd3eb7,b7d0fb81-0b47-4883-86f6-200a04354fd3,65,000,0,0,000,92000000000179102,2.0,2020-08-24,СТСН Надежда,,,0a442da7-ee36-4bd0-8b01-b9173f4743d3,,,67312000,20,6fdecb78-893a-4e3f-a5ba-aa062459463b,000,920000000001791,299001,7d863ab8-5b5d-46b6-ad6b-9fce78bd3eb7,92,тер. ТСН,2017-06-24,0000,,,2020-08-27,000,0000,000,0,0e6f0bf5-07f1-404c-a958-8db3fbb31731,1791,,0
0,7d863ab8-5b5d-46b6-ad6b-9fce78bd3eb7,7d863ab8-5b5d-46b6-ad6b-9fce78bd3eb7,65,000,0,0,000,92000000000179101,1.0,2020-08-24,СТСН Надежда,9203,9203,b7d0fb81-0b47-4883-86f6-200a04354fd3,,,,10,6fdecb78-893a-4e3f-a5ba-aa062459463b,000,920000000001791,299001,,92,тер. ТСН,2017-01-17,0000,,,2020-08-27,000,0000,000,0,3662fa17-ee72-48b7-b9ad-0eeda0f268e1,1791,,0
1,3062e198-4398-4560-bc14-b288b6162438,35d4f5ff-e1a8-41e9-a153-9f9ba4601c39,65,000,0,0,000,92000000000198100,0.0,2079-06-06,СНТ Янтарь,9201,9201,,,67264000000,67310000,20,6fdecb78-893a-4e3f-a5ba-aa062459463b,000,920000000001981,299001,3062e198-4398-4560-bc14-b288b6162438,92,тер.,2020-08-25,0000,,,2020-08-27,000,0000,000,1,,1981,,0
0,3062e198-4398-4560-bc14-b288b6162438,3062e198-4398-4560-bc14-b288b6162438,65,000,0,0,000,92000000000198101,1.0,2020-08-25,СНТ Янтарь,9201,9201,35d4f5ff-e1a8-41e9-a153-9f9ba4601c39,,67264000000,67310000,10,6fdecb78-893a-4e3f-a5ba-aa062459463b,000,920000000001981,299001,,92,тер. СНТ,2017-03-09,0000,,,2020-08-27,000,0000,000,0,37003edd-99b0-444e-aa37-b5e40d198ecd,1981,,0
1,ec16bd02-a693-4024-89f5-3ed5b06b18ec,24b423b2-6b94-4fd7-bf64-1a5f764fb226,65,000,0,0,000,92000000000141700,0.0,2079-06-06,ПК Сократ,9201,9201,,,67264000000,67310000,20,6fdecb78-893a-4e3f-a5ba-aa062459463b,000,920000000001417,299001,ec16bd02-a693-4024-89f5-3ed5b06b18ec,92,тер.,2020-08-25,0000,,,2020-08-27,000,0000,000,1,,1417,,0
0,ec16bd02-a693-4024-89f5-3ed5b06b18ec,ec16bd02-a693-4024-89f5-3ed5b06b18ec,65,000,0,0,000,92000000000141701,1.0,2020-08-25,ПК Сократ,9201,9201,24b423b2-6b94-4fd7-bf64-1a5f764fb226,,67264000000,67310000,10,6fdecb78-893a-4e3f-a5ba-aa062459463b,000,920000000001417,299001,,92,тер. ДПК,2016-11-02,0000,,,2020-08-27,000,0000,000,0,0bf0a28e-e0df-4af9-875a-afedc5f8b94a,1417,,0
1,ffcb0bf9-c58e-406e-9999-b42325a6421a,0c85fef9-133a-46a0-8af7-5400194ca089,65,000,0,0,000,92000000000191500,0.0,2079-06-06,СТСН Август,9201,9201,,,67264000000,67310000,20,6fdecb78-893a-4e3f-a5ba-aa062459463b,000,920000000001915,299001,ffcb0bf9-c58e-406e-9999-b42325a6421a,92,тер.,2020-08-25,0000,,,2020-08-27,000,0000,000,1,,1915,,0
0,ffcb0bf9-c58e-406e-9999-b42325a6421a,ffcb0bf9-c58e-406e-9999-b42325a6421a,65,000,0,0,000,92000000000191501,1.0,2020-08-25,СТСН Август,9201,9201,0c85fef9-133a-46a0-8af7-5400194ca089,,67264000000,67310000,10,6fdecb78-893a-4e3f-a5ba-aa062459463b,000,920000000001915,299001,,92,тер. ТСН,2017-02-21,0000,,,2020-08-27,000,0000,000,0,b69ca02f-1e97-42f1-821f-f0ab3bdfed1f,1915,,0
1,9cb1a335-65a5-4c5e-907a-8934e11ac836,a7bb3f5e-6fef-497d-8be7-02cd92083de0,65,000,0,0,000,92000000000191600,0.0,2079-06-06,ТСН СТ Восход-2,9203,9203,,,67269000000,67314000,20,6fdecb78-893a-4e3f-a5ba-aa062459463b,000,920000000001916,299001,9cb1a335-65a5-4c5e-907a-8934e11ac836,92,тер.,2020-08-25,0000,,,2020-08-27,000,0000,000,1,,1916,,0
0,9cb1a335-65a5-4c5e-907a-8934e11ac836,9cb1a335-65a5-4c5e-907a-8934e11ac836,65,000,0,0,000,92000000000191601,1.0,2020-08-25,ТСН СТ Восход-2,9203,9203,a7bb3f5e-6fef-497d-8be7-02cd92083de0,,67269000000,67314000,10,6fdecb78-893a-4e3f-a5ba-aa062459463b,000,920000000001916,299001,,92,тер. ТСН,2017-02-21,0000,,,2020-08-27,000,0000,000,0,9862b708-d12e-4bbd-8c7d-00612a960f03,1916,,0
1,47f72f91-24c3-41aa-92c8-37bb8edaa124,be7d0ff5-d8c3-46ac-a5d8-3149aaf240d5,65,000,0,0,000,92000000000148200,0.0,2079-06-06,ТСН СНТ Миндальный,9201,9201,,,67264000000,67310000,20,6fdecb78-893a-4e3f-a5ba-aa062459463b,000,920000000001482,299001,47f72f91-24c3-41aa-92c8-37bb8edaa124,92,тер.,2020-08-25,0000,,,2020-08-27,000,0000,000,1,,1482,,0
0,47f72f91-24c3-41aa-92c8-37bb8edaa124,47f72f91-24c3-41aa-92c8-37bb8edaa124,65,000,0,0,000,92000000000148201,1.0,2020-08-25,ТСН СНТ Миндальный,9201,9201,be7d0ff5-d8c3-46ac-a5d8-3149aaf240d5,,67264000000,67310000,10,6fdecb78-893a-4e3f-a5ba-aa062459463b,000,920000000001482,299001,,92,тер. ТСН,2016-11-30,0000,,,2020-08-27,000,0000,000,0,759316f9-afd0-4bd4-9d5b-f2aafdccb805,1482,,0
1,37a3e969-e715-40e4-bbb5-98ae83d54f3e,5394bed8-e546-49ee-83c0-b4e1d0c80f33,65,000,0,0,000,92000000000132100,0.0,2079-06-06,ТСН СНТ Эдельвейс,9201,9201,,,67264000000,67310000,20,6fdecb78-893a-4e3f-a5ba-aa062459463b,000,920000000001321,299014,3a6ca568-4737-4725-8abb-0049146f83f4,92,тер.,2020-08-25,0000,,,2020-08-27,000,0000,000,1,,1321,,0
0,37a3e969-e715-40e4-bbb5-98ae83d54f3e,3a6ca568-4737-4725-8abb-0049146f83f4,65,000,0,0,000,92000000000132101,1.0,2020-08-25,Эдельвейс ТСН СНТ,9201,9201,5394bed8-e546-49ee-83c0-b4e1d0c80f33,,67264000000,67310000,50,6fdecb78-893a-4e3f-a5ba-aa062459463b,000,920000000001321,299014,37a3e969-e715-40e4-bbb5-98ae83d54f3e,92,снт,2016-09-28,0000,,,2020-08-27,000,0000,000,0,,1321,,0
0,37a3e969-e715-40e4-bbb5-98ae83d54f3e,37a3e969-e715-40e4-bbb5-98ae83d54f3e,90,000,0,0,000,92000000000132151,51.0,2016-09-28,Эдельвейс ТСН СНТ,9201,9201,3a6ca568-4737-4725-8abb-0049146f83f4,,67264000000,67310000,10,6fdecb78-893a-4e3f-a5ba-aa062459463b,000,920000000001321,299014,,92,снт,2016-08-25,0000,,,2020-08-27,000,0000,000,0,97bc710c-9f7c-4bbb-9228-e0b6ea826581,0000,,0
1,14b7fc49-3372-4678-bf35-73cac57f8a35,774bd3a0-d2a6-4ce2-82ed-84e94a66ecc0,65,000,0,0,000,92000000000180700,0.0,2079-06-06,СТ Стрелец,9201,9201,,,67264000000,67310000,20,6fdecb78-893a-4e3f-a5ba-aa062459463b,000,920000000001807,,14b7fc49-3372-4678-bf35-73cac57f8a35,92,тер.,2020-08-25,0000,,,2020-08-27,000,0000,000,1,,1807,,0
0,14b7fc49-3372-4678-bf35-73cac57f8a35,14b7fc49-3372-4678-bf35-73cac57f8a35,65,000,0,0,000,92000000000180701,1.0,2020-08-25,СТ Стрелец,9201,9201,774bd3a0-d2a6-4ce2-82ed-84e94a66ecc0,,67264000000,67310000,10,6fdecb78-893a-4e3f-a5ba-aa062459463b,000,920000000001807,,,92,снт,2017-01-27,0000,,,2020-08-27,000,0000,000,0,c85e7584-69c6-4f4b-bacd-2b039a9c8ee8,1807,,0
1,af3595b6-f0b3-4bb1-9744-8b497424f558,0a6b61e0-4597-4e9c-b739-274bdecbb959,65,000,0,0,000,92000000000139600,0.0,2079-06-06,СНТ Мост,9201,9201,,,67264000000,67310000,20,6fdecb78-893a-4e3f-a5ba-aa062459463b,000,920000000001396,299001,af3595b6-f0b3-4bb1-9744-8b497424f558,92,тер.,2020-08-25,0000,,,2020-08-27,000,0000,000,1,,1396,,0
0,af3595b6-f0b3-4bb1-9744-8b497424f558,af3595b6-f0b3-4bb1-9744-8b497424f558,65,000,0,0,000,92000000000139601,1.0,2020-08-25,СНТ Мост,9201,9201,0a6b61e0-4597-4e9c-b739-274bdecbb959,,67264000000,67310000,10,6fdecb78-893a-4e3f-a5ba-aa062459463b,000,920000000001396,299001,,92,тер. СНТ,2016-11-01,0000,,,2020-08-27,000,0000,000,0,6400a0ff-0749-47d1-85d3-e0a3cf4a3bad,1396,,0
1,4ece16b0-e6e0-4a9e-9145-270e7ab22bf8,04a52dbc-7769-4b2a-a125-bad77d66e035,65,000,0,0,000,92000000000205400,0.0,2079-06-06,СНТ Степной Фазан,9203,9203,,,67263000000,67302000,20,6fdecb78-893a-4e3f-a5ba-aa062459463b,000,920000000002054,,4ece16b0-e6e0-4a9e-9145-270e7ab22bf8,92,тер.,2020-08-24,0000,,,2020-08-27,000,0000,000,1,,2054,,0
0,4ece16b0-e6e0-4a9e-9145-270e7ab22bf8,4ece16b0-e6e0-4a9e-9145-270e7ab22bf8,65,000,0,0,000,92000000000205401,1.0,2020-08-24,СНТ Степной Фазан,9203,9203,04a52dbc-7769-4b2a-a125-bad77d66e035,,67263000000,67302000,10,6fdecb78-893a-4e3f-a5ba-aa062459463b,000,920000000002054,,,92,тер. СНТ,2017-03-15,0000,,,2020-08-27,000,0000,000,0,84468cfb-9cef-47df-9a73-3c84fcbf74fa,2054,,0
1,036e78d3-0f65-4802-b4a9-e50a1164ca50,0470e8e7-e209-466b-8d41-c9b25b9b4aef,7,000,0,0,000,92000000020000499,99.0,2079-06-06,Ефременко,9203,9203,,,67263807011,67306000121,30,a0c06ac3-6f14-4203-8007-d20fd2a5ee66,020,920000000200004,299809,ae2606f8-c60c-4ab5-9c56-4843b2dc8205,92,ул,2020-08-24,0004,,,2020-08-27,000,0000,000,0,,0000,,0
0,036e78d3-0f65-4802-b4a9-e50a1164ca50,ae2606f8-c60c-4ab5-9c56-4843b2dc8205,7,000,0,0,000,92000000020000499,99.0,2020-08-24,Ефременко,9203,9203,0470e8e7-e209-466b-8d41-c9b25b9b4aef,,67263807011,67306000121,21,a0c06ac3-6f14-4203-8007-d20fd2a5ee66,020,920000000200004,299809,ac62d18f-a3e6-421d-b641-a36c269a2ce6,92,ул,2017-01-01,0004,,,2020-08-27,000,0000,000,0,32d0954d-f270-4a79-bfe9-3acdabb4098f,0000,,0
0,036e78d3-0f65-4802-b4a9-e50a1164ca50,ac62d18f-a3e6-421d-b641-a36c269a2ce6,7,000,0,0,000,92000000020000403,3.0,2017-01-01,Ефременко,9202,9202,ae2606f8-c60c-4ab5-9c56-4843b2dc8205,,67263807011,67306000121,21,a0c06ac3-6f14-4203-8007-d20fd2a5ee66,020,920000000200004,299809,7e7ba407-4e3b-480a-8ba1-648200aa4b06,92,ул,2016-04-27,0004,,,2020-08-27,000,0000,000,0,,0000,,0
0,036e78d3-0f65-4802-b4a9-e50a1164ca50,7e7ba407-4e3b-480a-8ba1-648200aa4b06,7,000,0,0,000,92000000020000402,2.0,2017-01-01,Ефременко,9202,9202,ac62d18f-a3e6-421d-b641-a36c269a2ce6,,67000000000,67306000121,21,a0c06ac3-6f14-4203-8007-d20fd2a5ee66,020,920000000200004,299809,fb51f0f1-29b4-4652-9b1c-2298f3c8eefd,92,ул,2015-06-30,0004,,,2020-08-27,000,0000,000,0,,0000,,0
0,036e78d3-0f65-4802-b4a9-e50a1164ca50,fb51f0f1-29b4-4652-9b1c-2298f3c8eefd,7,000,0,0,000,92000000020000401,1.0,2015-06-30,Ефременко,9202,9202,7e7ba407-4e3b-480a-8ba1-648200aa4b06,,67000000000,67000000,50,a0c06ac3-6f14-4203-8007-d20fd2a5ee66,020,920000000200004,299809,036e78d3-0f65-4802-b4a9-e50a1164ca50,92,ул,2014-04-18,0004,,,2020-08-27,000,0000,000,0,,0000,,0
0,036e78d3-0f65-4802-b4a9-e50a1164ca50,036e78d3-0f65-4802-b4a9-e50a1164ca50,7,000,0,0,000,92000000028000851,51.0,2020-08-24,Ефременко,9202,9202,fb51f0f1-29b4-4652-9b1c-2298f3c8eefd,,67000000000,67000000,10,9dd4ef92-e2fe-4799-a502-f8f5b3a6914f,028,920000000280008,299809,,92,ул,2014-04-18,0008,,,2020-08-27,000,0000,000,0,,0000,,0
1,d7c5b4fe-d71c-4fcb-8581-462d15c062be,e60e946f-5db6-4668-a96f-6400fdd2bfc0,65,000,0,0,000,92000000000162400,0.0,2079-06-06,СТСН Югрыба,9203,9203,,,67263000000,67302000,20,6fdecb78-893a-4e3f-a5ba-aa062459463b,000,920000000001624,299001,625ddcdd-53af-469a-a536-bc9d1af49a36,92,тер.,2020-08-24,0000,,,2020-08-27,000,0000,000,1,,1624,,0
0,d7c5b4fe-d71c-4fcb-8581-462d15c062be,625ddcdd-53af-469a-a536-bc9d1af49a36,65,000,0,0,000,92000000000162402,2.0,2020-08-24,СТСН Югрыба,9203,9203,e60e946f-5db6-4668-a96f-6400fdd2bfc0,,67263000000,67302000,21,6fdecb78-893a-4e3f-a5ba-aa062459463b,000,920000000001624,299001,d7c5b4fe-d71c-4fcb-8581-462d15c062be,92,тер. ТСН,2017-01-04,0000,,,2020-08-27,000,0000,000,0,e5041d1c-737c-4b17-9cd7-d702568e4963,1624,,0
0,d7c5b4fe-d71c-4fcb-8581-462d15c062be,d7c5b4fe-d71c-4fcb-8581-462d15c062be,65,000,0,0,000,92000000000162401,1.0,2020-08-24,СТСН Югрыба,9202,9202,625ddcdd-53af-469a-a536-bc9d1af49a36,,67263000000,67302000,10,6fdecb78-893a-4e3f-a5ba-aa062459463b,000,920000000001624,299001,,92,тер. ТСН,2016-12-15,0000,,,2020-08-27,000,0000,000,0,6d65359b-f811-4c21-a391-b551b816e95e,1624,,0
1,f87be500-06f5-492b-be95-cb1664b0168a,7a00f413-6848-4349-a0c9-4d0c7c4dcab4,65,000,0,0,000,92000000000140000,0.0,2079-06-06,СТСН Водолаз,9203,9203,,,67263000000,67302000,20,6fdecb78-893a-4e3f-a5ba-aa062459463b,000,920000000001400,,a741debd-c874-439b-bb33-ede5f4558556,92,тер.,2020-08-24,0000,,,2020-08-27,000,0000,000,1,,1400,,0
0,f87be500-06f5-492b-be95-cb1664b0168a,a741debd-c874-439b-bb33-ede5f4558556,65,000,0,0,000,92000000000140002,2.0,2020-08-24,СТСН Водолаз,9203,9203,7a00f413-6848-4349-a0c9-4d0c7c4dcab4,,67263000000,67302000,21,6fdecb78-893a-4e3f-a5ba-aa062459463b,000,920000000001400,,f87be500-06f5-492b-be95-cb1664b0168a,92,тер. ТСН,2017-01-04,0000,,,2020-08-27,000,0000,000,0,92334972-2ccd-4900-930d-85242600a080,1400,,0
0,f87be500-06f5-492b-be95-cb1664b0168a,f87be500-06f5-492b-be95-cb1664b0168a,65,000,0,0,000,92000000000140001,1.0,2020-08-24,СТСН Водолаз,9202,9202,a741debd-c874-439b-bb33-ede5f4558556,,67263000000,67302000,10,6fdecb78-893a-4e3f-a5ba-aa062459463b,000,920000000001400,299001,,92,тер. ТСН,2016-11-02,0000,,,2020-08-27,000,0000,000,0,e3a994b6-eaa7-436a-a29a-597383b3caaa,1400,,0
1,01ebaa4e-e0cb-404b-9618-86290a8653a7,295ed9cd-6c9e-4539-a03b-30665f516fde,65,000,0,0,000,92000000000187100,0.0,2079-06-06,ПК СТ Заречный,9203,9203,,,67269000000,67314000,20,6fdecb78-893a-4e3f-a5ba-aa062459463b,000,920000000001871,,01ebaa4e-e0cb-404b-9618-86290a8653a7,92,тер.,2020-08-25,0000,,,2020-08-27,000,0000,000,1,,1871,,0
0,01ebaa4e-e0cb-404b-9618-86290a8653a7,01ebaa4e-e0cb-404b-9618-86290a8653a7,65,000,0,0,000,92000000000187101,1.0,2020-08-25,ПК СТ Заречный,9203,9203,295ed9cd-6c9e-4539-a03b-30665f516fde,,67269000000,67300000,10,6fdecb78-893a-4e3f-a5ba-aa062459463b,000,920000000001871,,,92,тер. СПК,2017-02-15,0000,,,2020-08-27,000,0000,000,0,b0426c79-96b2-4bb2-a3d8-1f5d4b2870d9,1871,,0
1,e7fae07c-2c9a-4af5-9452-d305abf1b981,30dd6d9f-73b2-46b9-9ecd-77e9fd4cf82e,7,000,0,0,000,92000000000098600,0.0,2079-06-06,Линейный 15,9203,9203,,,67263000000,67302000,20,6fdecb78-893a-4e3f-a5ba-aa062459463b,000,920000000000986,299805,076937b1-3a52-4528-8228-38949edd0d2b,92,км,2020-08-25,0986,,,2020-08-27,000,0000,000,1,,0000,,0
0,e7fae07c-2c9a-4af5-9452-d305abf1b981,076937b1-3a52-4528-8228-38949edd0d2b,7,000,0,0,000,92000000000098600,0.0,2020-08-25,Линейный 15,9203,9203,30dd6d9f-73b2-46b9-9ecd-77e9fd4cf82e,,67263501000,67302000,21,6fdecb78-893a-4e3f-a5ba-aa062459463b,000,920000000000986,299805,bd828fee-0f86-4e61-ae8a-cfc1029bce24,92,км,2017-01-03,0986,,,2020-08-27,000,0000,000,0,98d545a0-55ca-43ce-8fc0-c2c62ae23e27,0000,,0
0,e7fae07c-2c9a-4af5-9452-d305abf1b981,bd828fee-0f86-4e61-ae8a-cfc1029bce24,7,000,0,0,000,92000000000098604,4.0,2020-08-25,Линейный 15,9202,9202,076937b1-3a52-4528-8228-38949edd0d2b,,67263501000,67302000,21,6fdecb78-893a-4e3f-a5ba-aa062459463b,000,920000000000986,299805,c27e267f-6c26-4b06-b303-112cafdb0517,92,км,2016-05-16,0986,,,2020-08-27,000,0000,000,0,,0000,,0
0,e7fae07c-2c9a-4af5-9452-d305abf1b981,c27e267f-6c26-4b06-b303-112cafdb0517,7,000,0,0,000,92000000000098603,3.0,2016-05-16,Линейный 15,9202,9202,bd828fee-0f86-4e61-ae8a-cfc1029bce24,,67269000000,67302000,21,6fdecb78-893a-4e3f-a5ba-aa062459463b,000,920000000000986,299805,021c0467-bf4d-41e3-8c6d-554f4f5c31b0,92,км,2016-05-11,0986,,,2020-08-27,000,0000,000,0,,0000,,0
0,e7fae07c-2c9a-4af5-9452-d305abf1b981,021c0467-bf4d-41e3-8c6d-554f4f5c31b0,7,000,0,0,000,92000000000098602,2.0,2016-05-11,Линейный 15,9202,9202,c27e267f-6c26-4b06-b303-112cafdb0517,,67000000000,67302000,21,6fdecb78-893a-4e3f-a5ba-aa062459463b,000,920000000000986,299805,e7fae07c-2c9a-4af5-9452-d305abf1b981,92,км,2015-07-15,0986,,,2020-08-27,000,0000,000,0,,0000,,0
0,e7fae07c-2c9a-4af5-9452-d305abf1b981,e7fae07c-2c9a-4af5-9452-d305abf1b981,7,000,0,0,000,92000000000098601,1.0,2079-06-06,Линейный 15,9202,9202,021c0467-bf4d-41e3-8c6d-554f4f5c31b0,,67000000000,67000000,10,6fdecb78-893a-4e3f-a5ba-aa062459463b,000,920000000000986,299805,,92,км,2014-04-18,0986,,,2020-08-27,000,0000,000,0,,0000,,0
1,b508118a-d594-4798-ac7b-602e33e4e439,84bb3510-14f5-472a-83ab-74c2864ee3e0,65,000,0,0,000,92000000000202400,0.0,2079-06-06,ПК СТ Бриз,9203,9203,,,67263000000,67302000,20,6fdecb78-893a-4e3f-a5ba-aa062459463b,000,920000000002024,299001,b508118a-d594-4798-ac7b-602e33e4e439,92,тер.,2020-08-24,0000,,,2020-08-27,000,0000,000,1,,2024,,0
0,b508118a-d594-4798-ac7b-602e33e4e439,b508118a-d594-4798-ac7b-602e33e4e439,65,000,0,0,000,92000000000202401,1.0,2020-08-24,ПК СТ Бриз,9203,9203,84bb3510-14f5-472a-83ab-74c2864ee3e0,,67263000000,67302000,10,6fdecb78-893a-4e3f-a5ba-aa062459463b,000,920000000002024,299001,,92,тер. СПК,2017-04-21,0000,,,2020-08-27,000,0000,000,0,7caf97bd-0389-4cb4-8a59-5a9a0c169893,2024,,0
1,73430ac7-4acf-4d75-a173-766e498ab7e7,4e31a4e8-2b4d-415c-8d7f-36c14099f5fc,65,000,0,0,000,92000000000180600,0.0,2079-06-06,ЖСК Омега,9201,9201,,,67264000000,67310000,20,6fdecb78-893a-4e3f-a5ba-aa062459463b,000,920000000001806,,73430ac7-4acf-4d75-a173-766e498ab7e7,92,тер.,2020-08-25,0000,,,2020-08-27,000,0000,000,1,,1806,,0
0,73430ac7-4acf-4d75-a173-766e498ab7e7,73430ac7-4acf-4d75-a173-766e498ab7e7,65,000,0,0,000,92000000000180601,1.0,2020-08-25,ЖСК Омега,9201,9201,4e31a4e8-2b4d-415c-8d7f-36c14099f5fc,,67264000000,67310000,10,6fdecb78-893a-4e3f-a5ba-aa062459463b,000,920000000001806,,,92,снт,2017-01-27,0000,,,2020-08-27,000,0000,000,0,9c7d67a8-e8a6-41de-817d-519d87d9a750,1806,,0
1,b631e347-d5d5-4415-8dfa-c4c87711d74f,da49fcbf-5342-470e-b8d2-5f1d869489cd,65,000,0,0,000,92000000000197800,0.0,2079-06-06,ТСН Лира,9203,9203,,,67263000000,67302000,20,6fdecb78-893a-4e3f-a5ba-aa062459463b,000,920000000001978,299001,b631e347-d5d5-4415-8dfa-c4c87711d74f,92,тер.,2020-08-24,0000,,,2020-08-27,000,0000,000,1,,1978,,0
0,b631e347-d5d5-4415-8dfa-c4c87711d74f,b631e347-d5d5-4415-8dfa-c4c87711d74f,65,000,0,0,000,92000000000197801,1.0,2020-08-24,ТСН Лира,9203,9203,da49fcbf-5342-470e-b8d2-5f1d869489cd,,67263000000,67302000,10,6fdecb78-893a-4e3f-a5ba-aa062459463b,000,920000000001978,299001,,92,тер. ТСН,2017-03-09,0000,,,2020-08-27,000,0000,000,0,a8725499-fd74-4f71-b386-59ee8784a3d9,1978,,0
1,e1aa3741-fd26-436e-b562-00b3db78ef2f,ddf101ec-8ef6-4617-a836-1bb258737eae,65,000,0,0,000,92000000000135400,0.0,2079-06-06,СК Теремок,9203,9203,,,67263000000,67302000,20,6fdecb78-893a-4e3f-a5ba-aa062459463b,000,920000000001354,,f4c41d69-229a-4ca0-8fdf-d4fbf09eb516,92,тер.,2020-08-24,0000,,,2020-08-27,000,0000,000,1,,1354,,0
0,e1aa3741-fd26-436e-b562-00b3db78ef2f,f4c41d69-229a-4ca0-8fdf-d4fbf09eb516,65,000,0,0,000,92000000000135402,2.0,2020-08-24,СК Теремок,9203,9203,ddf101ec-8ef6-4617-a836-1bb258737eae,,67263000000,67302000,21,6fdecb78-893a-4e3f-a5ba-aa062459463b,000,920000000001354,,e1aa3741-fd26-436e-b562-00b3db78ef2f,92,тер. СНТ,2017-01-04,0000,,,2020-08-27,000,0000,000,0,52132aca-0577-43e1-881f-4915adad6810,1354,,0
0,e1aa3741-fd26-436e-b562-00b3db78ef2f,e1aa3741-fd26-436e-b562-00b3db78ef2f,65,000,0,0,000,92000000000135401,1.0,2020-08-24,СК Теремок,9200,9200,f4c41d69-229a-4ca0-8fdf-d4fbf09eb516,,67263000000,67302000,10,6fdecb78-893a-4e3f-a5ba-aa062459463b,000,920000000001354,299001,,92,тер. СНТ,2016-10-24,0000,,,2020-08-27,000,0000,000,0,1827bb3a-8fb8-4530-92a0-533ab7e656f2,1354,,0
1,49b2c914-3545-4a63-8b43-bb6bf6642851,59b7d611-2fc2-4935-a5a3-5f78b49195eb,65,000,0,0,000,92000000000192600,0.0,2079-06-06,ТСН Бодрость,9203,9203,,,67263000000,67302000,20,6fdecb78-893a-4e3f-a5ba-aa062459463b,000,920000000001926,,49b2c914-3545-4a63-8b43-bb6bf6642851,92,тер.,2020-08-24,0000,,,2020-08-27,000,0000,000,1,,1926,,0
0,49b2c914-3545-4a63-8b43-bb6bf6642851,49b2c914-3545-4a63-8b43-bb6bf6642851,65,000,0,0,000,92000000000192601,1.0,2020-08-24,ТСН Бодрость,9203,9203,59b7d611-2fc2-4935-a5a3-5f78b49195eb,,67263000000,67302000,10,6fdecb78-893a-4e3f-a5ba-aa062459463b,000,920000000001926,,,92,тер. ТСН,2017-02-21,0000,,,2020-08-27,000,0000,000,0,8b2b3d12-ca3d-4e07-ae51-6bdb7f05474c,1926,,0
1,e3a533cf-ec6c-4b92-9b4a-45000727e078,e3a533cf-ec6c-4b92-9b4a-45000727e078,7,000,0,0,000,92000000000263600,0.0,2079-06-06,143,9203,9203,,,67263000000,67302000,10,c9943c01-1ae0-47b0-8b06-93633e95b4bc,000,920000000002636,,,92,км,2020-08-25,2636,,,2020-08-27,000,0000,000,1,,2633,,0
1,a38c8965-2122-4b8e-a1e6-aff352998334,a36df583-b13b-48ea-82ba-952ac80db329,65,000,0,0,000,92000000000147400,0.0,2079-06-06,ПК ДНТ Лесовод,9203,9203,,,67269000000,67314000,20,6fdecb78-893a-4e3f-a5ba-aa062459463b,000,920000000001474,299001,a38c8965-2122-4b8e-a1e6-aff352998334,92,тер.,2020-08-25,0000,,,2020-08-27,000,0000,000,1,,1474,,0
0,a38c8965-2122-4b8e-a1e6-aff352998334,a38c8965-2122-4b8e-a1e6-aff352998334,65,000,0,0,000,92000000000147401,1.0,2020-08-25,ПК ДНТ Лесовод,9203,9203,a36df583-b13b-48ea-82ba-952ac80db329,,67269000000,67314000,10,6fdecb78-893a-4e3f-a5ba-aa062459463b,000,920000000001474,299001,,92,тер. ДПК,2016-11-24,0000,,,2020-08-27,000,0000,000,0,e5b1d9ed-68ad-48b6-b929-829073002b40,1474,,0
1,818d0438-0240-4477-bce3-aa1443e54c8a,f2378b54-f268-4b81-82f2-a69677351e55,65,000,0,0,000,92000000000205200,0.0,2079-06-06,ТСН Орешек,9201,9201,,,67264000000,67310000,20,6fdecb78-893a-4e3f-a5ba-aa062459463b,000,920000000002052,299001,818d0438-0240-4477-bce3-aa1443e54c8a,92,тер.,2020-08-25,0000,,,2020-08-27,000,0000,000,1,,2052,,0
0,818d0438-0240-4477-bce3-aa1443e54c8a,818d0438-0240-4477-bce3-aa1443e54c8a,65,000,0,0,000,92000000000205201,1.0,2020-08-25,ТСН Орешек,9201,9201,f2378b54-f268-4b81-82f2-a69677351e55,,67264000000,67310000,10,6fdecb78-893a-4e3f-a5ba-aa062459463b,000,920000000002052,299001,,92,тер. ТСН,2017-03-15,0000,,,2020-08-27,000,0000,000,0,0509ecaf-6286-4104-a5be-cdb72104e0e6,2052,,0
1,b56a9bb1-ddf4-48f5-984c-2b0c73691e75,1134e167-d8d5-4f0c-8fe2-afb5a773f884,65,000,0,0,000,92000000000164400,0.0,2079-06-06,СТ Строитель-1,9201,9201,,,67264000000,67310000,20,6fdecb78-893a-4e3f-a5ba-aa062459463b,000,920000000001644,,b56a9bb1-ddf4-48f5-984c-2b0c73691e75,92,тер.,2020-08-25,0000,,,2020-08-27,000,0000,000,1,,1644,,0
0,b56a9bb1-ddf4-48f5-984c-2b0c73691e75,b56a9bb1-ddf4-48f5-984c-2b0c73691e75,65,000,0,0,000,92000000000164401,1.0,2020-08-25,СТ Строитель-1,9201,9201,1134e167-d8d5-4f0c-8fe2-afb5a773f884,,67264000000,67310000,10,6fdecb78-893a-4e3f-a5ba-aa062459463b,000,920000000001644,,,92,снт,2014-12-23,0000,,,2020-08-27,000,0000,000,0,ef014abf-ca8b-490a-90dd-3b7fa2dbe14d,1644,,0
1,5c3a4e96-4885-4a85-bfe9-e98e4c79668c,659271ad-96f0-4eb3-b0ca-523f65240e82,65,000,0,0,000,92000000000198200,0.0,2079-06-06,ПК СТ Дергачи-2,9203,9203,,,67263000000,67302000,20,6fdecb78-893a-4e3f-a5ba-aa062459463b,000,920000000001982,299001,5c3a4e96-4885-4a85-bfe9-e98e4c79668c,92,тер.,2020-08-24,0000,,,2020-08-27,000,0000,000,1,,1982,,0
0,5c3a4e96-4885-4a85-bfe9-e98e4c79668c,5c3a4e96-4885-4a85-bfe9-e98e4c79668c,65,000,0,0,000,92000000000198201,1.0,2020-08-24,ПК СТ Дергачи-2,9203,9203,659271ad-96f0-4eb3-b0ca-523f65240e82,,67263000000,67302000,10,6fdecb78-893a-4e3f-a5ba-aa062459463b,000,920000000001982,299001,,92,тер. СПК,2017-03-09,0000,,,2020-08-27,000,0000,000,0,a5fffdf9-ce48-4a65-a5d0-c2ef33dfd8b7,1982,,0
1,df7d4861-73d1-4094-a0bc-2e653f6b58b4,3c5112a3-e2b1-4612-aaf4-3719bcf98d81,7,000,0,0,000,92000000008003699,99.0,2079-06-06,С/Х Садовод,9203,9203,,,67269805001,67316000101,30,7f622eb7-f980-4381-86d9-5f4d758cb1ab,008,920000000080036,299001,51b00ad3-7ee4-430c-aebf-0e15ba6555a0,92,тер,2020-08-24,0036,,,2020-08-27,000,0000,000,0,,0000,,0
0,df7d4861-73d1-4094-a0bc-2e653f6b58b4,51b00ad3-7ee4-430c-aebf-0e15ba6555a0,7,000,0,0,000,92000000008003699,99.0,2020-08-24,С/Х Садовод,9203,9203,3c5112a3-e2b1-4612-aaf4-3719bcf98d81,,67269805001,67316000101,21,7f622eb7-f980-4381-86d9-5f4d758cb1ab,008,920000000080036,299001,df901ff9-8f05-44c7-a9ee-8bc348a04804,92,тер,2016-04-27,0036,,,2020-08-27,000,0000,000,0,,0000,,0
0,df7d4861-73d1-4094-a0bc-2e653f6b58b4,df901ff9-8f05-44c7-a9ee-8bc348a04804,7,000,0,0,000,92000000008003602,2.0,2016-04-27,С/Х Садовод,9203,9203,51b00ad3-7ee4-430c-aebf-0e15ba6555a0,,67000000000,67316000101,21,7f622eb7-f980-4381-86d9-5f4d758cb1ab,008,920000000080036,299001,df7d4861-73d1-4094-a0bc-2e653f6b58b4,92,тер,2015-06-17,0036,,,2020-08-27,000,0000,000,0,,0000,,0
0,df7d4861-73d1-4094-a0bc-2e653f6b58b4,df7d4861-73d1-4094-a0bc-2e653f6b58b4,7,000,0,0,000,92000000008003601,1.0,2020-08-24,С/Х Садовод,9203,9203,df901ff9-8f05-44c7-a9ee-8bc348a04804,,67000000000,67000000,10,7f622eb7-f980-4381-86d9-5f4d758cb1ab,008,920000000080036,299001,,92,тер,2014-04-18,0036,,,2020-08-27,000,0000,000,0,,0000,,0
1,8af803f8-86ba-42d1-be70-562d0dce39f4,6fc25ece-15c0-4f07-83b6-3a6919537dac,65,000,0,0,000,92000000000139500,0.0,2079-06-06,СНТСН Бриг,9201,9201,,,67264000000,67310000,20,6fdecb78-893a-4e3f-a5ba-aa062459463b,000,920000000001395,299001,8af803f8-86ba-42d1-be70-562d0dce39f4,92,тер.,2020-08-25,0000,,,2020-08-27,000,0000,000,1,,1395,,0
0,8af803f8-86ba-42d1-be70-562d0dce39f4,8af803f8-86ba-42d1-be70-562d0dce39f4,65,000,0,0,000,92000000000139501,1.0,2020-08-25,СНТСН Бриг,9201,9201,6fc25ece-15c0-4f07-83b6-3a6919537dac,,67264000000,67310000,10,6fdecb78-893a-4e3f-a5ba-aa062459463b,000,920000000001395,299001,,92,тер. ТСН,2016-11-01,0000,,,2020-08-27,000,0000,000,0,4551445a-9dcd-4196-9c6c-66b21ff9d00e,1395,,0
1,8e87592a-75ac-4e84-bf8e-12a28f56e760,3b69e1a0-7437-4ec3-9490-ca0baddeb6e1,65,000,0,0,000,92000000000136300,0.0,2079-06-06,СНТ Скиф,9203,9203,,,67263000000,67302000,20,6fdecb78-893a-4e3f-a5ba-aa062459463b,000,920000000001363,299001,89bb514b-196c-462c-88c0-68235e951fdb,92,тер.,2020-08-24,0000,,,2020-08-27,000,0000,000,1,,1363,,0
0,8e87592a-75ac-4e84-bf8e-12a28f56e760,89bb514b-196c-462c-88c0-68235e951fdb,65,000,0,0,000,92000000000136302,2.0,2020-08-24,СНТ Скиф,9203,9203,3b69e1a0-7437-4ec3-9490-ca0baddeb6e1,,67263000000,67302000,21,6fdecb78-893a-4e3f-a5ba-aa062459463b,000,920000000001363,299001,8e87592a-75ac-4e84-bf8e-12a28f56e760,92,тер. СНТ,2017-01-04,0000,,,2020-08-27,000,0000,000,0,cba52764-f950-438f-8df9-71f0f25ad3b8,1363,,0
0,8e87592a-75ac-4e84-bf8e-12a28f56e760,8e87592a-75ac-4e84-bf8e-12a28f56e760,65,000,0,0,000,92000000000136301,1.0,2020-08-24,СНТ Скиф,9200,9200,89bb514b-196c-462c-88c0-68235e951fdb,,67263000000,67302000,10,6fdecb78-893a-4e3f-a5ba-aa062459463b,000,920000000001363,299001,,92,тер. СНТ,2016-10-24,0000,,,2020-08-27,000,0000,000,0,7f47f609-839e-49f9-9525-f50af37903b9,1363,,0
1,da08259e-2b46-4f88-a48b-8a848c62b007,7b7ef5fb-8b98-4282-b2e8-44f1b8fd4d59,65,000,0,0,000,92000000000198300,0.0,2079-06-06,ПК ЖСК Алькадар-2,9203,9203,,,67269000000,67314000,20,6fdecb78-893a-4e3f-a5ba-aa062459463b,000,920000000001983,299001,da08259e-2b46-4f88-a48b-8a848c62b007,92,тер.,2020-08-25,0000,,,2020-08-27,000,0000,000,1,,1983,,0
0,da08259e-2b46-4f88-a48b-8a848c62b007,da08259e-2b46-4f88-a48b-8a848c62b007,65,000,0,0,000,92000000000198301,1.0,2020-08-25,ПК ЖСК Алькадар-2,9203,9203,7b7ef5fb-8b98-4282-b2e8-44f1b8fd4d59,,67269000000,67314000,10,6fdecb78-893a-4e3f-a5ba-aa062459463b,000,920000000001983,299001,,92,тер. СПК,2017-03-09,0000,,,2020-08-27,000,0000,000,0,d0b58acd-9e1c-4073-86e9-00c23998ecaf,1983,,0
1,176f1c4f-18d1-4f20-887e-f9fd28ae16d6,65913591-6688-4400-96ff-e19842d172d4,7,000,0,0,000,92000000019000899,99.0,2079-06-06,Интернациональная,9203,9203,,,67263000000,67302000,30,9af33ba5-b3db-48ed-b346-8c9bf3ef9393,019,920000000190008,299806,a96f7da1-5260-4534-861b-da632e9644f5,92,ул,2020-08-24,0008,,,2020-08-27,000,0000,000,0,,0000,,0
0,176f1c4f-18d1-4f20-887e-f9fd28ae16d6,a96f7da1-5260-4534-861b-da632e9644f5,7,000,0,0,000,92000000019000899,99.0,2020-08-24,Интернациональная,9203,9203,65913591-6688-4400-96ff-e19842d172d4,,67263000000,67302000,21,9af33ba5-b3db-48ed-b346-8c9bf3ef9393,019,920000000190008,299806,176f1c4f-18d1-4f20-887e-f9fd28ae16d6,92,ул,2017-01-01,0008,,,2020-08-27,000,0000,000,0,6e3fd7cd-fc4d-4122-a9f6-d1acdedc6c8f,0000,,0
0,176f1c4f-18d1-4f20-887e-f9fd28ae16d6,176f1c4f-18d1-4f20-887e-f9fd28ae16d6,7,000,0,0,000,92000000019000801,1.0,2020-08-24,Интернациональная,9202,9202,a96f7da1-5260-4534-861b-da632e9644f5,,67263000000,67302000,10,9af33ba5-b3db-48ed-b346-8c9bf3ef9393,019,920000000190008,299806,,92,ул,2016-12-12,0008,,,2020-08-27,000,0000,000,0,f527df3a-0aef-4bfe-bbff-924cea7e57f7,0000,,0
1,3dc65429-4cdb-4a8d-befc-94701285cf7f,39ebe224-2dbc-4866-9f2b-43d442ee8431,65,000,0,0,000,92000000000179300,0.0,2079-06-06,СТ Авто,9201,9201,,,67264000000,67310000,20,6fdecb78-893a-4e3f-a5ba-aa062459463b,000,920000000001793,299001,3dc65429-4cdb-4a8d-befc-94701285cf7f,92,тер.,2020-08-25,0000,,,2020-08-27,000,0000,000,1,,1793,,0
0,3dc65429-4cdb-4a8d-befc-94701285cf7f,3dc65429-4cdb-4a8d-befc-94701285cf7f,65,000,0,0,000,92000000000179301,1.0,2020-08-25,СТ Авто,9201,9201,39ebe224-2dbc-4866-9f2b-43d442ee8431,,67264000000,67310000,10,6fdecb78-893a-4e3f-a5ba-aa062459463b,000,920000000001793,299001,,92,тер. СПК,2017-01-17,0000,,,2020-08-27,000,0000,000,0,a535cae3-fbaf-43c0-b7f7-5a45afd034b5,1793,,0
1,8ce4ca5b-4b71-4e2c-9958-933f66380896,28a90861-2acf-409b-be59-c9adef2d0f22,65,000,0,0,000,92000000000143900,0.0,2079-06-06,ПК СТ Троллейбусник-1,9201,9201,,,67264000000,67310000,20,6fdecb78-893a-4e3f-a5ba-aa062459463b,000,920000000001439,299001,8ce4ca5b-4b71-4e2c-9958-933f66380896,92,тер.,2020-08-25,0000,,,2020-08-27,000,0000,000,1,,1439,,0
0,8ce4ca5b-4b71-4e2c-9958-933f66380896,8ce4ca5b-4b71-4e2c-9958-933f66380896,65,000,0,0,000,92000000000143901,1.0,2020-08-25,ПК СТ Троллейбусник-1,9201,9201,28a90861-2acf-409b-be59-c9adef2d0f22,,67264000000,67310000,10,6fdecb78-893a-4e3f-a5ba-aa062459463b,000,920000000001439,299001,,92,тер. СПК,2016-11-07,0000,,,2020-08-27,000,0000,000,0,9dcd2024-7c18-4613-bd79-564a118e7f56,1439,,0
1,e987f862-23c9-43f4-9a66-2f588d25e574,d01ea6d4-17dd-4f01-8d46-9cade15fe0a4,65,000,0,0,000,92000000000131900,0.0,2079-06-06,СНТСН Парус,9203,9203,,,67269000000,67314000,20,6fdecb78-893a-4e3f-a5ba-aa062459463b,000,920000000001319,299002,8d558fed-d7b4-4cd9-b4da-4e8ed049a401,92,тер.,2020-08-25,0000,,,2020-08-27,000,0000,000,1,,1319,,0
0,e987f862-23c9-43f4-9a66-2f588d25e574,8d558fed-d7b4-4cd9-b4da-4e8ed049a401,65,000,0,0,000,92000000000131903,3.0,2020-08-25,СНТСН Парус,,,d01ea6d4-17dd-4f01-8d46-9cade15fe0a4,,67269000000,67314000,20,6fdecb78-893a-4e3f-a5ba-aa062459463b,000,920000000001319,299002,dad7d8a6-ade9-4c43-9965-8ac6533bbf9e,92,снт,2019-11-18,0000,,,2020-08-27,000,0000,000,0,3bcfa7b7-65f7-4277-9d5f-b869b4e5dc2f,1319,,0
0,e987f862-23c9-43f4-9a66-2f588d25e574,dad7d8a6-ade9-4c43-9965-8ac6533bbf9e,65,000,0,0,000,92000000000131902,2.0,2019-11-18,СНТСН Парус,,,8d558fed-d7b4-4cd9-b4da-4e8ed049a401,,67269000000,67314000,20,6fdecb78-893a-4e3f-a5ba-aa062459463b,000,920000000001319,299002,a013b4f3-98f7-46e8-9353-cb6488c89b3b,92,снт,2017-06-28,0000,,,2020-08-27,000,0000,000,0,929bf18a-f099-4028-af9a-ad013429c73e,1319,,0
0,e987f862-23c9-43f4-9a66-2f588d25e574,a013b4f3-98f7-46e8-9353-cb6488c89b3b,65,000,0,0,000,92000000000131901,1.0,2020-08-25,СНТСН Парус,,,dad7d8a6-ade9-4c43-9965-8ac6533bbf9e,,67269000000,67314000,50,6fdecb78-893a-4e3f-a5ba-aa062459463b,000,920000000001319,299002,e987f862-23c9-43f4-9a66-2f588d25e574,92,снт,2016-09-28,0000,,,2020-08-27,000,0000,000,0,,1319,,0
0,e987f862-23c9-43f4-9a66-2f588d25e574,e987f862-23c9-43f4-9a66-2f588d25e574,90,000,0,0,000,92000000000131951,51.0,2016-09-28,СНТСН Парус,9200,9200,a013b4f3-98f7-46e8-9353-cb6488c89b3b,,67269000000,67314000,10,6fdecb78-893a-4e3f-a5ba-aa062459463b,000,920000000001319,299002,,92,снт,2016-08-23,0000,,,2020-08-27,000,0000,000,0,74a1e463-19c9-4442-acfd-8ebba2b2ae22,0000,,0
1,ae38b369-0502-4ff2-bd84-7f63b8516e50,33d5f707-e9e9-46e1-b79b-3b817d06288a,7,000,0,0,000,92000000019000600,0.0,2079-06-06,Изумрудная,9203,9203,,,67263000000,67306000116,20,9af33ba5-b3db-48ed-b346-8c9bf3ef9393,019,920000000190006,,7e077530-af88-4124-a1c7-9f91f7762f4b,92,ул,2020-08-24,0006,,,2020-08-27,000,0000,000,1,,0000,,0
0,ae38b369-0502-4ff2-bd84-7f63b8516e50,7e077530-af88-4124-a1c7-9f91f7762f4b,7,000,0,0,000,92000000019000600,0.0,2020-08-24,Изумрудная,9203,9203,33d5f707-e9e9-46e1-b79b-3b817d06288a,,67263000000,67306000,20,9af33ba5-b3db-48ed-b346-8c9bf3ef9393,019,920000000190006,,72b4b8d0-211a-4c71-9563-0ea66a77093e,92,ул,2017-03-23,0006,,,2020-08-27,000,0000,000,0,02480408-2780-4287-81a8-6a5d42b5c4dc,0000,,0
0,ae38b369-0502-4ff2-bd84-7f63b8516e50,72b4b8d0-211a-4c71-9563-0ea66a77093e,7,000,0,0,000,92000000019000604,4.0,2017-03-23,Изумрудная,9203,9203,7e077530-af88-4124-a1c7-9f91f7762f4b,,67263807009,67306000116,21,9af33ba5-b3db-48ed-b346-8c9bf3ef9393,019,920000000190006,299806,f588f65f-6218-415b-b48f-5df86ba91be0,92,ул,2017-01-01,0006,,,2020-08-27,000,0000,000,0,6e3fd7cd-fc4d-4122-a9f6-d1acdedc6c8f,0000,,0
0,ae38b369-0502-4ff2-bd84-7f63b8516e50,f588f65f-6218-415b-b48f-5df86ba91be0,7,000,0,0,000,92000000019000603,3.0,2017-03-23,Изумрудная,9202,9202,72b4b8d0-211a-4c71-9563-0ea66a77093e,,67263807009,67306000116,21,9af33ba5-b3db-48ed-b346-8c9bf3ef9393,019,920000000190006,299806,095bb22f-af5d-40de-b98a-6fc7d8e6d6a7,92,ул,2016-04-27,0006,,,2020-08-27,000,0000,000,0,,0000,,0
0,ae38b369-0502-4ff2-bd84-7f63b8516e50,095bb22f-af5d-40de-b98a-6fc7d8e6d6a7,7,000,0,0,000,92000000019000602,2.0,2017-03-23,Изумрудная,9202,9202,f588f65f-6218-415b-b48f-5df86ba91be0,,67000000000,67306000116,21,9af33ba5-b3db-48ed-b346-8c9bf3ef9393,019,920000000190006,299806,b97fbae8-d6f1-4e81-a8ce-440590f7bd86,92,ул,2015-06-30,0006,,,2020-08-27,000,0000,000,0,,0000,,0
0,ae38b369-0502-4ff2-bd84-7f63b8516e50,b97fbae8-d6f1-4e81-a8ce-440590f7bd86,7,000,0,0,000,92000000019000601,1.0,2015-06-30,Изумрудная,9202,9202,095bb22f-af5d-40de-b98a-6fc7d8e6d6a7,,67000000000,67000000,50,9af33ba5-b3db-48ed-b346-8c9bf3ef9393,019,920000000190006,299806,ae38b369-0502-4ff2-bd84-7f63b8516e50,92,ул,2014-04-18,0006,,,2020-08-27,000,0000,000,0,,0000,,0
0,ae38b369-0502-4ff2-bd84-7f63b8516e50,ae38b369-0502-4ff2-bd84-7f63b8516e50,7,000,0,0,000,92000000022001051,51.0,2079-06-06,Изумрудная,9202,9202,b97fbae8-d6f1-4e81-a8ce-440590f7bd86,,67000000000,67000000,10,9af33ba5-b3db-48ed-b346-8c9bf3ef9393,019,920000000220010,299806,,92,ул,2014-04-18,0006,,,2020-08-27,000,0000,000,0,,0000,,0
1,6d2a52c2-a59c-4609-99cd-12c35430f35d,b30b4557-a38b-4f20-963a-5c7a3c270645,65,000,0,0,000,92000000000146700,0.0,2079-06-06,ТСН СНТ Восход,9201,9201,,,67264000000,67310000,20,6fdecb78-893a-4e3f-a5ba-aa062459463b,000,920000000001467,299001,6d2a52c2-a59c-4609-99cd-12c35430f35d,92,тер.,2020-08-25,0000,,,2020-08-27,000,0000,000,1,,1467,,0
0,6d2a52c2-a59c-4609-99cd-12c35430f35d,6d2a52c2-a59c-4609-99cd-12c35430f35d,65,000,0,0,000,92000000000146701,1.0,2020-08-25,ТСН СНТ Восход,9201,9201,b30b4557-a38b-4f20-963a-5c7a3c270645,,67264000000,67310000,10,6fdecb78-893a-4e3f-a5ba-aa062459463b,000,920000000001467,299001,,92,тер. ТСН,2016-11-21,0000,,,2020-08-27,000,0000,000,0,fae681fc-639d-4343-b5af-dfb734414c93,1467,,0
1,22153373-a5ff-420e-afa5-aba5c9a2e1ca,22153373-a5ff-420e-afa5-aba5c9a2e1ca,65,000,0,0,000,92000000000263500,0.0,2079-06-06,ГСК Восточный,9201,9201,,,67264000000,67310000,10,6fdecb78-893a-4e3f-a5ba-aa062459463b,000,920000000002635,299001,,92,тер.,2020-08-24,0000,,,2020-08-27,000,0000,000,1,,2635,,0
1,03768abc-8ec9-4a9b-862d-3c71c490426f,ee2b3dae-d6cd-462e-8771-bfa9a3ed0402,65,000,0,0,000,92000000000204100,0.0,2079-06-06,ТСН Афганец,9201,9201,,,67264000000,67310000,20,6fdecb78-893a-4e3f-a5ba-aa062459463b,000,920000000002041,299001,03768abc-8ec9-4a9b-862d-3c71c490426f,92,тер.,2020-08-25,0000,,,2020-08-27,000,0000,000,1,,2041,,0
0,03768abc-8ec9-4a9b-862d-3c71c490426f,03768abc-8ec9-4a9b-862d-3c71c490426f,65,000,0,0,000,92000000000204101,1.0,2020-08-25,ТСН Афганец,9201,9201,ee2b3dae-d6cd-462e-8771-bfa9a3ed0402,,67264000000,67310000,10,6fdecb78-893a-4e3f-a5ba-aa062459463b,000,920000000002041,299001,,92,тер. ТСН,2017-04-21,0000,,,2020-08-27,000,0000,000,0,61ed6336-f88b-4af0-98d2-d90e29cf315b,2041,,0
1,1dc449ab-59ff-4834-8eb2-c0510e54fe5b,fed54caa-49f8-4eb6-a4fd-d911c9840478,65,000,0,0,000,92000000000136400,0.0,2079-06-06,СТ Дружный,9201,9201,,,67264000000,67310000,20,6fdecb78-893a-4e3f-a5ba-aa062459463b,000,920000000001364,299001,1dc449ab-59ff-4834-8eb2-c0510e54fe5b,92,тер.,2020-08-26,0000,,,2020-08-27,000,0000,000,1,,1364,,0
0,1dc449ab-59ff-4834-8eb2-c0510e54fe5b,1dc449ab-59ff-4834-8eb2-c0510e54fe5b,65,000,0,0,000,92000000000136401,1.0,2020-08-26,СТ Дружный,,,fed54caa-49f8-4eb6-a4fd-d911c9840478,,67264000000,67310000,10,6fdecb78-893a-4e3f-a5ba-aa062459463b,000,920000000001364,299001,,92,тер. ТСН,2016-10-24,0000,,,2020-08-27,000,0000,000,0,a2564e9f-4174-45bb-a3fe-a0609fe03315,1364,,0
1,48da3c2a-8d96-4228-bb7a-5d6b90ffaa54,571b3f1f-63ec-4f8a-84e3-6f9729b15f86,65,000,0,0,000,92000000000141200,0.0,2079-06-06,СНТ СН Бриг-2,9201,9201,,,67264000000,67310000,20,6fdecb78-893a-4e3f-a5ba-aa062459463b,000,920000000001412,299001,48da3c2a-8d96-4228-bb7a-5d6b90ffaa54,92,тер.,2020-08-25,0000,,,2020-08-27,000,0000,000,1,,1412,,0
0,48da3c2a-8d96-4228-bb7a-5d6b90ffaa54,48da3c2a-8d96-4228-bb7a-5d6b90ffaa54,65,000,0,0,000,92000000000141201,1.0,2020-08-25,СНТ СН Бриг-2,9201,9201,571b3f1f-63ec-4f8a-84e3-6f9729b15f86,,67264000000,67310000,10,6fdecb78-893a-4e3f-a5ba-aa062459463b,000,920000000001412,299001,,92,тер. ТСН,2016-11-02,0000,,,2020-08-27,000,0000,000,0,03c69b5a-3559-4f46-983c-e01c6cf44af1,1412,,0
1,7158285c-231c-413a-84d6-cd2dac2eb4dd,8f570b8f-228a-4f4d-adb0-0280382374e3,65,000,0,0,000,92000000000147000,0.0,2079-06-06,ТСН Берёзка,9201,9201,,,67264000000,67310000,20,6fdecb78-893a-4e3f-a5ba-aa062459463b,000,920000000001470,299001,7158285c-231c-413a-84d6-cd2dac2eb4dd,92,тер.,2020-08-25,0000,,,2020-08-27,000,0000,000,1,,1470,,0
0,7158285c-231c-413a-84d6-cd2dac2eb4dd,7158285c-231c-413a-84d6-cd2dac2eb4dd,65,000,0,0,000,92000000000147001,1.0,2020-08-25,ТСН Берёзка,9201,9201,8f570b8f-228a-4f4d-adb0-0280382374e3,,67264000000,67310000,10,6fdecb78-893a-4e3f-a5ba-aa062459463b,000,920000000001470,299001,,92,тер. ТСН,2016-11-21,0000,,,2020-08-27,000,0000,000,0,070db08c-a519-4784-b752-596e89b175fd,1470,,0
1,6748b1df-3e71-4dba-b943-6cbc427e4b2b,c03a53a2-ddc6-497c-b279-5254ac9e0878,65,000,0,0,000,92000000000148400,0.0,2079-06-06,СНТ СН Дергачи-4,9203,9203,,,67263000000,67302000,20,6fdecb78-893a-4e3f-a5ba-aa062459463b,000,920000000001484,299001,ff9e316e-8df1-48ab-bbc7-ac90fba29a38,92,тер.,2020-08-24,0000,,,2020-08-27,000,0000,000,1,,1484,,0
0,6748b1df-3e71-4dba-b943-6cbc427e4b2b,ff9e316e-8df1-48ab-bbc7-ac90fba29a38,65,000,0,0,000,92000000000148402,2.0,2020-08-24,СНТ СН Дергачи-4,9203,9203,c03a53a2-ddc6-497c-b279-5254ac9e0878,,67263000000,67302000,21,6fdecb78-893a-4e3f-a5ba-aa062459463b,000,920000000001484,299001,6748b1df-3e71-4dba-b943-6cbc427e4b2b,92,тер. ТСН,2017-01-04,0000,,,2020-08-27,000,0000,000,0,ed46ae88-c60b-42ed-8b70-08accc69b34a,1484,,0
0,6748b1df-3e71-4dba-b943-6cbc427e4b2b,6748b1df-3e71-4dba-b943-6cbc427e4b2b,65,000,0,0,000,92000000000148401,1.0,2020-08-24,СНТ СН Дергачи-4,9202,9202,ff9e316e-8df1-48ab-bbc7-ac90fba29a38,,67263000000,67302000,10,6fdecb78-893a-4e3f-a5ba-aa062459463b,000,920000000001484,299001,,92,тер. ТСН,2016-11-30,0000,,,2020-08-27,000,0000,000,0,d942e971-dd71-4e7a-af7c-e4fe79cbbc77,1484,,0
1,fa0a33cf-735a-48eb-aba2-e2ed86e095a6,320a797d-4fe0-47dc-8b69-1dc6b4e40775,65,000,0,0,000,92000000000140300,0.0,2079-06-06,ТСН СНТ Риф,9201,9201,,,67264000000,67310000,20,6fdecb78-893a-4e3f-a5ba-aa062459463b,000,920000000001403,299001,fa0a33cf-735a-48eb-aba2-e2ed86e095a6,92,тер.,2020-08-25,0000,,,2020-08-27,000,0000,000,1,,1403,,0
0,fa0a33cf-735a-48eb-aba2-e2ed86e095a6,fa0a33cf-735a-48eb-aba2-e2ed86e095a6,65,000,0,0,000,92000000000140301,1.0,2020-08-25,ТСН СНТ Риф,9201,9201,320a797d-4fe0-47dc-8b69-1dc6b4e40775,,67264000000,67310000,10,6fdecb78-893a-4e3f-a5ba-aa062459463b,000,920000000001403,299001,,92,тер. ТСН,2016-11-02,0000,,,2020-08-27,000,0000,000,0,d4c53ea6-0ccf-420a-badd-98d5023f2e4d,1403,,0
1,144d31dc-e9d6-45de-9000-047e925e7b55,3e9ec63d-6247-4de7-8f0f-728d4f75ac29,65,000,0,0,000,92000000000202300,0.0,2079-06-06,СТСН Авиатор-плюс,9203,9203,,,67263000000,67302000,20,6fdecb78-893a-4e3f-a5ba-aa062459463b,000,920000000002023,299001,144d31dc-e9d6-45de-9000-047e925e7b55,92,тер.,2020-08-24,0000,,,2020-08-27,000,0000,000,1,,2023,,0
0,144d31dc-e9d6-45de-9000-047e925e7b55,144d31dc-e9d6-45de-9000-047e925e7b55,65,000,0,0,000,92000000000202301,1.0,2020-08-24,СТСН Авиатор-плюс,9203,9203,3e9ec63d-6247-4de7-8f0f-728d4f75ac29,,67263000000,67302000,10,6fdecb78-893a-4e3f-a5ba-aa062459463b,000,920000000002023,299001,,92,тер. ТСН,2017-04-21,0000,,,2020-08-27,000,0000,000,0,01e94c16-9204-457f-8c59-136ae35b7a13,2023,,0
1,e74e471f-d78e-4889-b036-ba1e6ce0ebdf,e531592c-180e-4a7c-95ad-7f03a4378f76,65,000,0,0,000,92000000000145600,0.0,2079-06-06,ТСН СНТ Селена,9201,9201,,,67264000000,67310000,20,6fdecb78-893a-4e3f-a5ba-aa062459463b,000,920000000001456,299001,e74e471f-d78e-4889-b036-ba1e6ce0ebdf,92,тер.,2020-08-25,0000,,,2020-08-27,000,0000,000,1,,1456,,0
0,e74e471f-d78e-4889-b036-ba1e6ce0ebdf,e74e471f-d78e-4889-b036-ba1e6ce0ebdf,65,000,0,0,000,92000000000145601,1.0,2020-08-25,ТСН СНТ Селена,9201,9201,e531592c-180e-4a7c-95ad-7f03a4378f76,,67264000000,67310000,10,6fdecb78-893a-4e3f-a5ba-aa062459463b,000,920000000001456,299001,,92,тер. ТСН,2016-11-16,0000,,,2020-08-27,000,0000,000,0,08fb065b-6a0b-4e16-8b2d-dbe8e7c5dfd5,1456,,0
1,51e1c771-6d51-4c5e-9240-20771d00c42d,2b85d8ce-32b6-4cbb-9501-184f76690cc6,6,000,0,0,000,9200000000700,0.0,2079-06-06,Солнечное,9203,9203,,,67269000000,67318000106,20,6fdecb78-893a-4e3f-a5ba-aa062459463b,007,92000000007,299815,faccf21a-73fa-4f89-a783-67679045768b,92,с,2020-08-19,0000,,,2020-08-20,000,0000,000,1,,0000,,0
0,51e1c771-6d51-4c5e-9240-20771d00c42d,faccf21a-73fa-4f89-a783-67679045768b,6,000,0,0,000,9200000000705,5.0,2020-08-19,Солнечое,9203,9203,2b85d8ce-32b6-4cbb-9501-184f76690cc6,,67269000000,67318000106,20,6fdecb78-893a-4e3f-a5ba-aa062459463b,007,92000000007,299815,df2b04ea-c3ff-468a-abfd-900c3a1a957f,92,с,2019-12-27,0000,,,2020-08-20,000,0000,000,0,,0000,,0
0,51e1c771-6d51-4c5e-9240-20771d00c42d,df2b04ea-c3ff-468a-abfd-900c3a1a957f,6,000,0,0,000,9200000000705,5.0,2020-08-19,Солнечое,9203,9203,faccf21a-73fa-4f89-a783-67679045768b,,67269000000,67318000106,20,6fdecb78-893a-4e3f-a5ba-aa062459463b,007,92000000007,299815,3592cb18-34d8-474d-80cb-685cbd01ce7f,92,с,2019-12-27,0000,,,2020-08-20,000,0000,000,0,97e99165-2f9a-48c6-bc09-e2b335da042f,0000,,0
0,51e1c771-6d51-4c5e-9240-20771d00c42d,3592cb18-34d8-474d-80cb-685cbd01ce7f,6,000,0,0,000,9200000000704,4.0,2019-12-27,Солнечный,9203,9203,df2b04ea-c3ff-468a-abfd-900c3a1a957f,,67269000000,67318000106,21,6fdecb78-893a-4e3f-a5ba-aa062459463b,007,92000000007,299815,5e9a68b1-f9a3-47ee-b052-4ee24e1222e9,92,п,2019-12-25,0000,,,2020-08-20,000,0000,000,0,e8c574b8-0823-4a27-825d-49cf21ea52ba,0000,,0
0,51e1c771-6d51-4c5e-9240-20771d00c42d,5e9a68b1-f9a3-47ee-b052-4ee24e1222e9,6,000,0,0,000,9200000000703,3.0,2019-12-25,Солнечный,9203,9203,3592cb18-34d8-474d-80cb-685cbd01ce7f,,67269000000,67318000,21,6fdecb78-893a-4e3f-a5ba-aa062459463b,007,92000000007,299815,c6061a31-66b3-4554-b53e-61888bbd0397,92,п,2016-05-05,0000,,,2020-08-20,000,0000,000,0,,0000,,0
0,51e1c771-6d51-4c5e-9240-20771d00c42d,c6061a31-66b3-4554-b53e-61888bbd0397,6,000,0,0,000,9200000000702,2.0,2016-05-05,Солнечный,9203,9203,5e9a68b1-f9a3-47ee-b052-4ee24e1222e9,,67000000000,67318000106,21,6fdecb78-893a-4e3f-a5ba-aa062459463b,007,92000000007,299815,c7b2d9dc-718b-4f92-b858-72c70e73b226,92,п,2015-06-30,0000,,,2020-08-20,000,0000,000,0,,0000,,0
0,51e1c771-6d51-4c5e-9240-20771d00c42d,c7b2d9dc-718b-4f92-b858-72c70e73b226,6,000,0,0,000,9200000000701,1.0,2015-06-30,Солнечный,9203,9203,c6061a31-66b3-4554-b53e-61888bbd0397,,67000000000,67000000,40,6fdecb78-893a-4e3f-a5ba-aa062459463b,007,92000000007,299815,b0dab76f-33bf-4013-bdbb-09355317805a,92,п,2014-05-16,0000,,,2020-08-20,000,0000,000,0,,0000,,0
0,51e1c771-6d51-4c5e-9240-20771d00c42d,b0dab76f-33bf-4013-bdbb-09355317805a,6,000,0,0,000,9200000000751,51.0,2019-12-27,Солнечный,,,c7b2d9dc-718b-4f92-b858-72c70e73b226,,67000000000,67000000,1,6fdecb78-893a-4e3f-a5ba-aa062459463b,007,92000000007,,,92,п,1900-01-01,0000,,,2020-08-20,000,0000,000,0,,0000,,0
1,c21359fa-dd11-4cb5-bc66-ef1a99d908cd,c08a278b-276c-46d7-b7bd-0bbb9f54f339,7,000,0,0,000,92000000020000500,0.0,2079-06-06,Аллы Оношко,9203,9203,,,67263000000,67306000121,20,a0c06ac3-6f14-4203-8007-d20fd2a5ee66,020,920000000200005,,678bebec-d1c5-4ad7-8c91-07b0495c489d,92,ул,2020-08-14,0005,,,2020-08-16,000,0000,000,1,,0000,,0
0,c21359fa-dd11-4cb5-bc66-ef1a99d908cd,678bebec-d1c5-4ad7-8c91-07b0495c489d,7,000,0,0,000,92000000020000500,0.0,2079-06-06,Аллы Оношко,9203,9203,c08a278b-276c-46d7-b7bd-0bbb9f54f339,,67263807011,67306000121,20,a0c06ac3-6f14-4203-8007-d20fd2a5ee66,020,920000000200005,,ffeaa2d3-36bb-4ab3-9a91-f0c8a64109a8,92,ул,2017-11-14,0005,,,2020-08-16,000,0000,000,0,8bf7ee16-27fd-4f16-888d-1d1d64184134,0000,,0
0,c21359fa-dd11-4cb5-bc66-ef1a99d908cd,ffeaa2d3-36bb-4ab3-9a91-f0c8a64109a8,7,000,0,0,000,92000000020000504,4.0,2017-11-14,Оношко,9203,9203,678bebec-d1c5-4ad7-8c91-07b0495c489d,,67263807011,67306000121,21,a0c06ac3-6f14-4203-8007-d20fd2a5ee66,020,920000000200005,299809,1b7e537f-4da3-413e-8f0e-911e40902bcb,92,ул,2017-01-01,0005,,,2020-08-16,000,0000,000,0,32d0954d-f270-4a79-bfe9-3acdabb4098f,0000,,0
0,c21359fa-dd11-4cb5-bc66-ef1a99d908cd,1b7e537f-4da3-413e-8f0e-911e40902bcb,7,000,0,0,000,92000000020000503,3.0,2017-01-01,Оношко,9202,9202,ffeaa2d3-36bb-4ab3-9a91-f0c8a64109a8,,67263807011,67306000121,21,a0c06ac3-6f14-4203-8007-d20fd2a5ee66,020,920000000200005,299809,cf27d89a-7c39-4485-9227-d5839273f976,92,ул,2016-04-27,0005,,,2020-08-16,000,0000,000,0,,0000,,0
0,c21359fa-dd11-4cb5-bc66-ef1a99d908cd,cf27d89a-7c39-4485-9227-d5839273f976,7,000,0,0,000,92000000020000502,2.0,2017-11-14,Оношко,9202,9202,1b7e537f-4da3-413e-8f0e-911e40902bcb,,67000000000,67306000121,21,a0c06ac3-6f14-4203-8007-d20fd2a5ee66,020,920000000200005,299809,523761da-f449-4647-96c4-6f18f2b99795,92,ул,2015-06-30,0005,,,2020-08-16,000,0000,000,0,,0000,,0
0,c21359fa-dd11-4cb5-bc66-ef1a99d908cd,523761da-f449-4647-96c4-6f18f2b99795,7,000,0,0,000,92000000020000501,1.0,2015-06-30,Оношко,9202,9202,cf27d89a-7c39-4485-9227-d5839273f976,,67000000000,67000000,50,a0c06ac3-6f14-4203-8007-d20fd2a5ee66,020,920000000200005,299809,c21359fa-dd11-4cb5-bc66-ef1a99d908cd,92,ул,2014-04-18,0005,,,2020-08-16,000,0000,000,0,,0000,,0
0,c21359fa-dd11-4cb5-bc66-ef1a99d908cd,c21359fa-dd11-4cb5-bc66-ef1a99d908cd,7,000,0,0,000,92000000028001451,51.0,2017-11-14,Оношко,9202,9202,523761da-f449-4647-96c4-6f18f2b99795,,67000000000,67000000,10,a0c06ac3-6f14-4203-8007-d20fd2a5ee66,020,920000000280014,299809,,92,ул,2014-04-18,0005,,,2020-08-16,000,0000,000,0,,0000,,0
1,14313bf8-d347-4177-b4f4-841bd12ff9b9,3edff687-5f05-4f88-84d3-62dcf83031be,7,000,0,0,000,92000000000130800,0.0,2079-06-06,1-й Папоротниковый,9201,9201,,,67264000000,67310000,20,6fdecb78-893a-4e3f-a5ba-aa062459463b,000,920000000001308,299058,80a2c8b3-6e67-404f-bc1c-5758de34ced1,92,пер,2020-08-14,1308,,,2020-08-16,000,0000,000,1,,0000,,0
0,14313bf8-d347-4177-b4f4-841bd12ff9b9,80a2c8b3-6e67-404f-bc1c-5758de34ced1,7,000,0,0,000,92000000000130800,0.0,2020-08-14,1-й Папоротниковый,9201,9201,3edff687-5f05-4f88-84d3-62dcf83031be,,67269000000,67310000,21,6fdecb78-893a-4e3f-a5ba-aa062459463b,000,920000000001308,299058,52bde18c-4403-49c8-bdfe-8f3fd4f64500,92,пер,2016-05-16,1308,,,2020-08-16,000,0000,000,0,,0000,,0
0,14313bf8-d347-4177-b4f4-841bd12ff9b9,52bde18c-4403-49c8-bdfe-8f3fd4f64500,7,000,0,0,000,92000000000130802,2.0,2016-05-16,1-й Папоротниковый,9201,9201,80a2c8b3-6e67-404f-bc1c-5758de34ced1,,67269000000,67310000,21,6fdecb78-893a-4e3f-a5ba-aa062459463b,000,920000000001308,299058,14313bf8-d347-4177-b4f4-841bd12ff9b9,92,пер,2016-05-11,1308,,,2020-08-16,000,0000,000,0,,0000,,0
0,14313bf8-d347-4177-b4f4-841bd12ff9b9,14313bf8-d347-4177-b4f4-841bd12ff9b9,7,000,0,0,000,92000000000130801,1.0,2079-06-06,1-й Папоротниковый,9201,9201,52bde18c-4403-49c8-bdfe-8f3fd4f64500,,67000000000,67310000,10,6fdecb78-893a-4e3f-a5ba-aa062459463b,000,920000000001308,299058,,92,пер,2015-06-19,1308,,,2020-08-16,000,0000,000,0,,0000,,0
1,6c92c2d5-82cd-4019-b098-ba41b728ba8a,8873a478-3769-436c-82dc-d1299732783c,7,000,0,0,000,92000000016001000,0.0,2079-06-06,Гранитная,9203,9203,,,67263000000,67306000167,20,ceafa479-c56c-498e-8671-fea153be16fc,016,920000000160010,299811,71ff810a-e218-4c5d-9361-f6852ae0e15c,92,ул,2020-08-14,0010,,,2020-08-16,000,0000,000,1,,0000,,0
0,6c92c2d5-82cd-4019-b098-ba41b728ba8a,71ff810a-e218-4c5d-9361-f6852ae0e15c,7,000,0,0,000,92000000016001000,0.0,2020-08-14,Гранитная,9203,9203,8873a478-3769-436c-82dc-d1299732783c,,67263807003,67306000167,21,ceafa479-c56c-498e-8671-fea153be16fc,016,920000000160010,299811,57491a61-4719-4000-b1db-e2538ebcb7dc,92,ул,2019-12-26,0010,,,2020-08-16,000,0000,000,0,74a19c42-a50e-4d77-9216-c73c6055d6de,0000,,0
0,6c92c2d5-82cd-4019-b098-ba41b728ba8a,57491a61-4719-4000-b1db-e2538ebcb7dc,7,000,0,0,000,92000000016001006,6.0,2019-12-26,Гранитная,9203,9203,71ff810a-e218-4c5d-9361-f6852ae0e15c,,67263807003,67306000,20,ceafa479-c56c-498e-8671-fea153be16fc,016,920000000160010,299811,3d8b5e4d-37a1-4f8e-9bcc-7e4f51886d6b,92,ул,2019-11-07,0010,,,2020-08-16,000,0000,000,0,ea60a874-b12d-42e1-ad3f-66ef48ef8721,0000,,0
0,6c92c2d5-82cd-4019-b098-ba41b728ba8a,3d8b5e4d-37a1-4f8e-9bcc-7e4f51886d6b,7,000,0,0,000,92000000016001005,5.0,2019-12-26,Гранитная,9203,9203,57491a61-4719-4000-b1db-e2538ebcb7dc,,67263807003,67306000,21,ceafa479-c56c-498e-8671-fea153be16fc,016,920000000160010,299811,a81630bd-15de-41d7-98ac-c8d75eea9e47,92,ул,2017-04-24,0010,,,2020-08-16,000,0000,000,0,5eb65c4f-d798-4115-9b1e-001cb32403d5,0000,,0
0,6c92c2d5-82cd-4019-b098-ba41b728ba8a,a81630bd-15de-41d7-98ac-c8d75eea9e47,7,000,0,0,000,92000000016001004,4.0,2017-04-24,Гранитная,9203,9203,3d8b5e4d-37a1-4f8e-9bcc-7e4f51886d6b,,67263807003,67306000167,21,ceafa479-c56c-498e-8671-fea153be16fc,016,920000000160010,299811,7b8abcd4-4ac2-45e5-9ce3-8d7c9e0817f0,92,ул,2016-12-29,0010,,,2020-08-16,000,0000,000,0,ec7b6f64-7f79-46cb-b20d-4530a4f711d6,0000,,0
0,6c92c2d5-82cd-4019-b098-ba41b728ba8a,7b8abcd4-4ac2-45e5-9ce3-8d7c9e0817f0,7,000,0,0,000,92000000016001003,3.0,2017-04-24,Гранитная,9202,9202,a81630bd-15de-41d7-98ac-c8d75eea9e47,,67263807003,67306000167,21,ceafa479-c56c-498e-8671-fea153be16fc,016,920000000160010,299811,8d3a8da9-d8eb-4fe6-a18c-58fa79e505a7,92,ул,2016-04-27,0010,,,2020-08-16,000,0000,000,0,,0000,,0
0,6c92c2d5-82cd-4019-b098-ba41b728ba8a,8d3a8da9-d8eb-4fe6-a18c-58fa79e505a7,7,000,0,0,000,92000000016001002,2.0,2017-04-24,Гранитная,9202,9202,7b8abcd4-4ac2-45e5-9ce3-8d7c9e0817f0,,67000000000,67306000167,21,ceafa479-c56c-498e-8671-fea153be16fc,016,920000000160010,299811,6c92c2d5-82cd-4019-b098-ba41b728ba8a,92,ул,2015-06-29,0010,,,2020-08-16,000,0000,000,0,,0000,,0
0,6c92c2d5-82cd-4019-b098-ba41b728ba8a,6c92c2d5-82cd-4019-b098-ba41b728ba8a,7,000,0,0,000,92000000016001001,1.0,2079-06-06,Гранитная,9202,9202,8d3a8da9-d8eb-4fe6-a18c-58fa79e505a7,,67000000000,67000000,10,ceafa479-c56c-498e-8671-fea153be16fc,016,920000000160010,299811,,92,ул,2014-04-18,0010,,,2020-08-16,000,0000,000,0,,0000,,0
1,b47821fe-a755-421d-a84c-769833700717,f6d18fad-af30-4095-99f4-9fad90ca4330,7,000,0,0,000,92000000016001700,0.0,2079-06-06,Концевая,9203,9203,,,67263000000,67306000167,20,ceafa479-c56c-498e-8671-fea153be16fc,016,920000000160017,299811,894538f6-ea09-4433-9839-2b3938341932,92,ул,2020-08-14,0017,,,2020-08-16,000,0000,000,1,,0000,,0
0,b47821fe-a755-421d-a84c-769833700717,894538f6-ea09-4433-9839-2b3938341932,7,000,0,0,000,92000000016001700,0.0,2020-08-14,Концевая,9203,9203,f6d18fad-af30-4095-99f4-9fad90ca4330,,67263807003,67306000167,21,ceafa479-c56c-498e-8671-fea153be16fc,016,920000000160017,299811,f3d7360b-b49c-48e7-90d4-3990ebc8e3e3,92,ул,2019-12-26,0017,,,2020-08-16,000,0000,000,0,74a19c42-a50e-4d77-9216-c73c6055d6de,0000,,0
0,b47821fe-a755-421d-a84c-769833700717,f3d7360b-b49c-48e7-90d4-3990ebc8e3e3,7,000,0,0,000,92000000016001705,5.0,2019-12-26,Концевая,9203,9203,894538f6-ea09-4433-9839-2b3938341932,,67263807003,67306000167,20,ceafa479-c56c-498e-8671-fea153be16fc,016,920000000160017,299811,a87bc497-6b9b-42e5-b898-fed47d863c66,92,ул,2019-11-07,0017,,,2020-08-16,000,0000,000,0,ea60a874-b12d-42e1-ad3f-66ef48ef8721,0000,,0
0,b47821fe-a755-421d-a84c-769833700717,a87bc497-6b9b-42e5-b898-fed47d863c66,7,000,0,0,000,92000000016001704,4.0,2019-11-07,Концевая,9203,9203,f3d7360b-b49c-48e7-90d4-3990ebc8e3e3,,67263807003,67306000167,21,ceafa479-c56c-498e-8671-fea153be16fc,016,920000000160017,299811,933fedf9-bc19-4338-9068-e67439477273,92,ул,2016-12-29,0017,,,2020-08-16,000,0000,000,0,ec7b6f64-7f79-46cb-b20d-4530a4f711d6,0000,,0
0,b47821fe-a755-421d-a84c-769833700717,933fedf9-bc19-4338-9068-e67439477273,7,000,0,0,000,92000000016001703,3.0,2016-12-29,Концевая,9202,9202,a87bc497-6b9b-42e5-b898-fed47d863c66,,67263807003,67306000167,21,ceafa479-c56c-498e-8671-fea153be16fc,016,920000000160017,299811,c9fc786d-dbb9-431a-a627-8619ed8d5371,92,ул,2016-04-27,0017,,,2020-08-16,000,0000,000,0,,0000,,0
0,b47821fe-a755-421d-a84c-769833700717,c9fc786d-dbb9-431a-a627-8619ed8d5371,7,000,0,0,000,92000000016001702,2.0,2016-12-29,Концевая,9202,9202,933fedf9-bc19-4338-9068-e67439477273,,67000000000,67306000167,21,ceafa479-c56c-498e-8671-fea153be16fc,016,920000000160017,299811,b47821fe-a755-421d-a84c-769833700717,92,ул,2015-06-29,0017,,,2020-08-16,000,0000,000,0,,0000,,0
0,b47821fe-a755-421d-a84c-769833700717,b47821fe-a755-421d-a84c-769833700717,7,000,0,0,000,92000000016001701,1.0,2079-06-06,Концевая,9202,9202,c9fc786d-dbb9-431a-a627-8619ed8d5371,,67000000000,67000000,10,ceafa479-c56c-498e-8671-fea153be16fc,016,920000000160017,299811,,92,ул,2014-04-18,0017,,,2020-08-16,000,0000,000,0,,0000,,0
1,4b42d21f-828a-492e-96ad-dc5703881d76,95accb29-aadf-4239-bc99-0e50ee0808e5,7,000,0,0,000,92000000000019900,0.0,2079-06-06,Героев Сталинграда,9201,9201,,,67264000000,67310000,20,6fdecb78-893a-4e3f-a5ba-aa062459463b,000,920000000000199,,db89e529-4f50-40d2-b42f-6eac0cfb5601,92,пр-кт,2020-08-14,0199,,,2020-08-16,000,0000,000,1,,0000,,0
0,4b42d21f-828a-492e-96ad-dc5703881d76,db89e529-4f50-40d2-b42f-6eac0cfb5601,7,000,0,0,000,92000000000019900,0.0,2020-08-14,Героев Сталинграда,9201,9201,95accb29-aadf-4239-bc99-0e50ee0808e5,,67269000000,67310000,21,6fdecb78-893a-4e3f-a5ba-aa062459463b,000,920000000000199,,fde3ac67-a721-44be-ac5f-1acc170653d9,92,пр-кт,2016-05-16,0199,,,2020-08-16,000,0000,000,0,,0000,,0
0,4b42d21f-828a-492e-96ad-dc5703881d76,fde3ac67-a721-44be-ac5f-1acc170653d9,7,000,0,0,000,92000000000019906,6.0,2016-05-16,Героев Сталинграда,9201,9201,db89e529-4f50-40d2-b42f-6eac0cfb5601,,67269000000,67310000,21,6fdecb78-893a-4e3f-a5ba-aa062459463b,000,920000000000199,,11ce3c86-5f43-4dcb-9c16-ff917e762c67,92,пр-кт,2016-05-11,0199,,,2020-08-16,000,0000,000,0,,0000,,0
0,4b42d21f-828a-492e-96ad-dc5703881d76,11ce3c86-5f43-4dcb-9c16-ff917e762c67,7,000,0,0,000,92000000000019905,5.0,2016-05-11,Героев Сталинграда,9201,9201,fde3ac67-a721-44be-ac5f-1acc170653d9,,67000000000,67310000,21,6fdecb78-893a-4e3f-a5ba-aa062459463b,000,920000000000199,,0d5203b5-46da-487f-b985-8d8e7516c9b2,92,пр-кт,2015-08-07,0199,,,2020-08-16,000,0000,000,0,,0000,,0
0,4b42d21f-828a-492e-96ad-dc5703881d76,0d5203b5-46da-487f-b985-8d8e7516c9b2,7,000,0,0,000,92000000000019904,4.0,2015-08-07,Героев Сталинграда,9201,9201,11ce3c86-5f43-4dcb-9c16-ff917e762c67,,67264000000,67310000,21,6fdecb78-893a-4e3f-a5ba-aa062459463b,000,920000000000199,,299b65bc-f398-44b9-9fc7-596c761f6c4a,92,пр-кт,2015-07-30,0199,,,2020-08-16,000,0000,000,0,,0000,,0
0,4b42d21f-828a-492e-96ad-dc5703881d76,299b65bc-f398-44b9-9fc7-596c761f6c4a,7,000,0,0,000,92000000000019903,3.0,2016-05-16,Героев Сталинграда,9201,9201,0d5203b5-46da-487f-b985-8d8e7516c9b2,,67000000000,67310000,21,6fdecb78-893a-4e3f-a5ba-aa062459463b,000,920000000000199,,e26dce1a-32ee-4f41-bb4d-d145d881ed1c,92,пр-кт,2015-07-06,0199,,,2020-08-16,000,0000,000,0,,0000,,0
0,4b42d21f-828a-492e-96ad-dc5703881d76,e26dce1a-32ee-4f41-bb4d-d145d881ed1c,7,000,0,0,000,92000000000019902,2.0,2015-07-06,Героев Сталинграда,9201,9201,299b65bc-f398-44b9-9fc7-596c761f6c4a,,67000000000,67000000,21,6fdecb78-893a-4e3f-a5ba-aa062459463b,000,920000000000199,,95d3f594-6d51-47c1-8e54-3ed3b63db3fc,92,пр-кт,2014-05-15,0199,,,2020-08-16,000,0000,000,0,,0000,,0
0,4b42d21f-828a-492e-96ad-dc5703881d76,95d3f594-6d51-47c1-8e54-3ed3b63db3fc,7,000,0,0,000,92000000000019901,1.0,2079-06-06,Героев Сталинграда,9201,9201,e26dce1a-32ee-4f41-bb4d-d145d881ed1c,,67000000000,67000000,1,6fdecb78-893a-4e3f-a5ba-aa062459463b,000,920000000000199,299014,,92,пр-кт,1900-01-01,0199,,,2020-08-16,000,0000,000,0,,0000,,0
1,89171301-86c5-4440-8224-6ec64523e26e,10ba40cc-9441-4a0a-b265-7197bbf5f959,7,000,0,0,000,92000000000097900,0.0,2079-06-06,Лавандовый,9201,9201,,,67264000000,67310000,20,6fdecb78-893a-4e3f-a5ba-aa062459463b,000,920000000000979,299014,ba7a03d9-b452-4202-999b-26df9628920e,92,проезд,2020-08-14,0979,,,2020-08-16,000,0000,000,1,,0000,,0
0,89171301-86c5-4440-8224-6ec64523e26e,ba7a03d9-b452-4202-999b-26df9628920e,7,000,0,0,000,92000000000097900,0.0,2020-08-14,Лавандовый,9201,9201,10ba40cc-9441-4a0a-b265-7197bbf5f959,,67269000000,67310000,20,6fdecb78-893a-4e3f-a5ba-aa062459463b,000,920000000000979,299014,70fb6a88-1fa3-43ab-8fa5-61a04230a1c4,92,проезд,2019-12-20,0979,,,2020-08-16,000,0000,000,0,ea60a874-b12d-42e1-ad3f-66ef48ef8721,0000,,0
0,89171301-86c5-4440-8224-6ec64523e26e,70fb6a88-1fa3-43ab-8fa5-61a04230a1c4,7,000,0,0,000,92000000000097904,4.0,2019-12-20,Лавандовый,9201,9201,ba7a03d9-b452-4202-999b-26df9628920e,,67269000000,67310000,21,6fdecb78-893a-4e3f-a5ba-aa062459463b,000,920000000000979,299014,9778693f-a0bb-45d4-b036-b3d63988eb85,92,проезд,2016-05-16,0979,,,2020-08-16,000,0000,000,0,,0000,,0
0,89171301-86c5-4440-8224-6ec64523e26e,9778693f-a0bb-45d4-b036-b3d63988eb85,7,000,0,0,000,92000000000097903,3.0,2016-05-16,Лавандовый,9201,9201,70fb6a88-1fa3-43ab-8fa5-61a04230a1c4,,67269000000,67310000,21,6fdecb78-893a-4e3f-a5ba-aa062459463b,000,920000000000979,299014,75b0f8f4-93aa-4aa9-9281-fb6a503537a7,92,проезд,2016-05-11,0979,,,2020-08-16,000,0000,000,0,,0000,,0
0,89171301-86c5-4440-8224-6ec64523e26e,75b0f8f4-93aa-4aa9-9281-fb6a503537a7,7,000,0,0,000,92000000000097902,2.0,2016-05-11,Лавандовый,9201,9201,9778693f-a0bb-45d4-b036-b3d63988eb85,,67000000000,67310000,21,6fdecb78-893a-4e3f-a5ba-aa062459463b,000,920000000000979,299014,89171301-86c5-4440-8224-6ec64523e26e,92,проезд,2015-07-15,0979,,,2020-08-16,000,0000,000,0,,0000,,0
0,89171301-86c5-4440-8224-6ec64523e26e,89171301-86c5-4440-8224-6ec64523e26e,7,000,0,0,000,92000000000097901,1.0,2079-06-06,Лавандовый,9201,9201,75b0f8f4-93aa-4aa9-9281-fb6a503537a7,,67000000000,67000000,10,6fdecb78-893a-4e3f-a5ba-aa062459463b,000,920000000000979,299014,,92,проезд,2014-04-18,0979,,,2020-08-16,000,0000,000,0,,0000,,0
1,a44bed38-694f-4192-b8c0-20202c4a6805,0bf03d5e-0f48-4bd1-bf12-7efa205180ee,7,000,0,0,000,92000000016002900,0.0,2079-06-06,Раздольная,9203,9203,,,67263000000,67306000167,20,ceafa479-c56c-498e-8671-fea153be16fc,016,920000000160029,299811,f1fc781e-0204-4579-aa83-ac827c42a41a,92,ул,2020-08-14,0029,,,2020-08-16,000,0000,000,1,,0000,,0
0,a44bed38-694f-4192-b8c0-20202c4a6805,f1fc781e-0204-4579-aa83-ac827c42a41a,7,000,0,0,000,92000000016002900,0.0,2020-08-14,Раздольная,9203,9203,0bf03d5e-0f48-4bd1-bf12-7efa205180ee,,67263807003,67306000167,21,ceafa479-c56c-498e-8671-fea153be16fc,016,920000000160029,299811,f26e052e-9a8c-421f-a0b2-66edd84c41dd,92,ул,2019-12-26,0029,,,2020-08-16,000,0000,000,0,74a19c42-a50e-4d77-9216-c73c6055d6de,0000,,0
0,a44bed38-694f-4192-b8c0-20202c4a6805,f26e052e-9a8c-421f-a0b2-66edd84c41dd,7,000,0,0,000,92000000016002906,6.0,2019-12-26,Раздольная,9203,9203,f1fc781e-0204-4579-aa83-ac827c42a41a,,67263807003,67306000,20,ceafa479-c56c-498e-8671-fea153be16fc,016,920000000160029,299811,7ae5fd93-4f7e-451b-8113-caa16d87f481,92,ул,2019-11-07,0029,,,2020-08-16,000,0000,000,0,ea60a874-b12d-42e1-ad3f-66ef48ef8721,0000,,0
0,a44bed38-694f-4192-b8c0-20202c4a6805,7ae5fd93-4f7e-451b-8113-caa16d87f481,7,000,0,0,000,92000000016002905,5.0,2019-12-26,Раздольная,9203,9203,f26e052e-9a8c-421f-a0b2-66edd84c41dd,,67263807003,67306000,21,ceafa479-c56c-498e-8671-fea153be16fc,016,920000000160029,299811,132fe26f-f01b-4263-999b-056a6bc61f1d,92,ул,2017-04-24,0029,,,2020-08-16,000,0000,000,0,5eb65c4f-d798-4115-9b1e-001cb32403d5,0000,,0
0,a44bed38-694f-4192-b8c0-20202c4a6805,132fe26f-f01b-4263-999b-056a6bc61f1d,7,000,0,0,000,92000000016002904,4.0,2017-04-24,Раздольная,9203,9203,7ae5fd93-4f7e-451b-8113-caa16d87f481,,67263807003,67306000167,21,ceafa479-c56c-498e-8671-fea153be16fc,016,920000000160029,299811,40fcfe52-ffef-46f1-8b4c-2d9040bfcf1c,92,ул,2016-12-29,0029,,,2020-08-16,000,0000,000,0,ec7b6f64-7f79-46cb-b20d-4530a4f711d6,0000,,0
0,a44bed38-694f-4192-b8c0-20202c4a6805,40fcfe52-ffef-46f1-8b4c-2d9040bfcf1c,7,000,0,0,000,92000000016002903,3.0,2017-04-24,Раздольная,9202,9202,132fe26f-f01b-4263-999b-056a6bc61f1d,,67263807003,67306000167,21,ceafa479-c56c-498e-8671-fea153be16fc,016,920000000160029,299811,e56e1c99-0b49-477d-af7a-d821caa99bfb,92,ул,2016-04-27,0029,,,2020-08-16,000,0000,000,0,,0000,,0
0,a44bed38-694f-4192-b8c0-20202c4a6805,e56e1c99-0b49-477d-af7a-d821caa99bfb,7,000,0,0,000,92000000016002902,2.0,2017-04-24,Раздольная,9202,9202,40fcfe52-ffef-46f1-8b4c-2d9040bfcf1c,,67000000000,67306000167,21,ceafa479-c56c-498e-8671-fea153be16fc,016,920000000160029,299811,a44bed38-694f-4192-b8c0-20202c4a6805,92,ул,2015-06-29,0029,,,2020-08-16,000,0000,000,0,,0000,,0
0,a44bed38-694f-4192-b8c0-20202c4a6805,a44bed38-694f-4192-b8c0-20202c4a6805,7,000,0,0,000,92000000016002901,1.0,2079-06-06,Раздольная,9202,9202,e56e1c99-0b49-477d-af7a-d821caa99bfb,,67000000000,67000000,10,ceafa479-c56c-498e-8671-fea153be16fc,016,920000000160029,299811,,92,ул,2014-04-18,0029,,,2020-08-16,000,0000,000,0,,0000,,0
1,6468a636-b36b-4ff9-8e00-d325842f2b8b,94cf6017-f346-4bb5-a2aa-54d9d972f4ba,7,000,0,0,000,92000000016002200,0.0,2079-06-06,Мягкого,9203,9203,,,67263000000,67306000167,20,ceafa479-c56c-498e-8671-fea153be16fc,016,920000000160022,299811,9313c8c4-4493-4a35-b88e-309b3bd81db6,92,ул,2020-08-14,0022,,,2020-08-16,000,0000,000,1,,0000,,0
0,6468a636-b36b-4ff9-8e00-d325842f2b8b,9313c8c4-4493-4a35-b88e-309b3bd81db6,7,000,0,0,000,92000000016002200,0.0,2020-08-14,Мягкого,9203,9203,94cf6017-f346-4bb5-a2aa-54d9d972f4ba,,67263807003,67306000167,21,ceafa479-c56c-498e-8671-fea153be16fc,016,920000000160022,299811,b8194a0f-dbcf-46ac-88a6-92d0988aa5d5,92,ул,2019-12-26,0022,,,2020-08-16,000,0000,000,0,74a19c42-a50e-4d77-9216-c73c6055d6de,0000,,0
0,6468a636-b36b-4ff9-8e00-d325842f2b8b,b8194a0f-dbcf-46ac-88a6-92d0988aa5d5,7,000,0,0,000,92000000016002206,6.0,2019-12-26,Мягкого,9203,9203,9313c8c4-4493-4a35-b88e-309b3bd81db6,,67263807003,67306000,20,ceafa479-c56c-498e-8671-fea153be16fc,016,920000000160022,299811,1d61cac7-072c-45e3-a285-8877e9c2a311,92,ул,2019-11-07,0022,,,2020-08-16,000,0000,000,0,ea60a874-b12d-42e1-ad3f-66ef48ef8721,0000,,0
0,6468a636-b36b-4ff9-8e00-d325842f2b8b,1d61cac7-072c-45e3-a285-8877e9c2a311,7,000,0,0,000,92000000016002205,5.0,2019-12-26,Мягкого,9203,9203,b8194a0f-dbcf-46ac-88a6-92d0988aa5d5,,67263807003,67306000,21,ceafa479-c56c-498e-8671-fea153be16fc,016,920000000160022,299811,d7d130f2-5163-4210-bdd4-37b5015e1a40,92,ул,2017-04-24,0022,,,2020-08-16,000,0000,000,0,5eb65c4f-d798-4115-9b1e-001cb32403d5,0000,,0
0,6468a636-b36b-4ff9-8e00-d325842f2b8b,d7d130f2-5163-4210-bdd4-37b5015e1a40,7,000,0,0,000,92000000016002204,4.0,2017-04-24,Мягкого,9203,9203,1d61cac7-072c-45e3-a285-8877e9c2a311,,67263807003,67306000167,21,ceafa479-c56c-498e-8671-fea153be16fc,016,920000000160022,299811,10df74b9-a1f7-4475-93f3-3916ca282ca7,92,ул,2016-12-29,0022,,,2020-08-16,000,0000,000,0,ec7b6f64-7f79-46cb-b20d-4530a4f711d6,0000,,0
0,6468a636-b36b-4ff9-8e00-d325842f2b8b,10df74b9-a1f7-4475-93f3-3916ca282ca7,7,000,0,0,000,92000000016002203,3.0,2017-04-24,Мягкого,9202,9202,d7d130f2-5163-4210-bdd4-37b5015e1a40,,67263807003,67306000167,21,ceafa479-c56c-498e-8671-fea153be16fc,016,920000000160022,299811,f3d39a82-afef-4cfb-baeb-b1a3af769143,92,ул,2016-04-27,0022,,,2020-08-16,000,0000,000,0,,0000,,0
0,6468a636-b36b-4ff9-8e00-d325842f2b8b,f3d39a82-afef-4cfb-baeb-b1a3af769143,7,000,0,0,000,92000000016002202,2.0,2017-04-24,Мягкого,9202,9202,10df74b9-a1f7-4475-93f3-3916ca282ca7,,67000000000,67306000167,21,ceafa479-c56c-498e-8671-fea153be16fc,016,920000000160022,299811,6468a636-b36b-4ff9-8e00-d325842f2b8b,92,ул,2015-06-29,0022,,,2020-08-16,000,0000,000,0,,0000,,0
0,6468a636-b36b-4ff9-8e00-d325842f2b8b,6468a636-b36b-4ff9-8e00-d325842f2b8b,7,000,0,0,000,92000000016002201,1.0,2079-06-06,Мягкого,9202,9202,f3d39a82-afef-4cfb-baeb-b1a3af769143,,67000000000,67000000,10,ceafa479-c56c-498e-8671-fea153be16fc,016,920000000160022,299811,,92,ул,2014-04-18,0022,,,2020-08-16,000,0000,000,0,,0000,,0
1,650af40c-1617-4eb3-a7f9-d3c8732abc1b,c50c0834-06ae-43bb-aa9e-31ecd2cc47df,7,000,0,0,000,92000000000059200,0.0,2079-06-06,Прудовой,9201,9201,,,67264000000,67310000,20,6fdecb78-893a-4e3f-a5ba-aa062459463b,000,920000000000592,299058,384014bd-1865-4c76-a2d1-8c7bf96fb419,92,пер,2020-08-14,0592,,,2020-08-16,000,0000,000,1,,0000,,0
0,650af40c-1617-4eb3-a7f9-d3c8732abc1b,384014bd-1865-4c76-a2d1-8c7bf96fb419,7,000,0,0,000,92000000000059200,0.0,2020-08-14,Прудовой,9201,9201,c50c0834-06ae-43bb-aa9e-31ecd2cc47df,,67269000000,67310000,21,6fdecb78-893a-4e3f-a5ba-aa062459463b,000,920000000000592,299058,c9b64498-53ef-4bf1-aa91-92a7a72e24c7,92,пер,2016-05-16,0592,,,2020-08-16,000,0000,000,0,,0000,,0
0,650af40c-1617-4eb3-a7f9-d3c8732abc1b,c9b64498-53ef-4bf1-aa91-92a7a72e24c7,7,000,0,0,000,92000000000059204,4.0,2016-05-16,Прудовой,9201,9201,384014bd-1865-4c76-a2d1-8c7bf96fb419,,67269000000,67310000,21,6fdecb78-893a-4e3f-a5ba-aa062459463b,000,920000000000592,299058,50592a66-66aa-4d9f-a64e-971c59f12a94,92,пер,2016-05-11,0592,,,2020-08-16,000,0000,000,0,,0000,,0
0,650af40c-1617-4eb3-a7f9-d3c8732abc1b,50592a66-66aa-4d9f-a64e-971c59f12a94,7,000,0,0,000,92000000000059203,3.0,2016-05-16,Прудовой,9201,9201,c9b64498-53ef-4bf1-aa91-92a7a72e24c7,,67000000000,67310000,21,6fdecb78-893a-4e3f-a5ba-aa062459463b,000,920000000000592,299058,ed55c6af-4473-4965-a669-a72c9ea95fed,92,пер,2015-07-17,0592,,,2020-08-16,000,0000,000,0,,0000,,0
0,650af40c-1617-4eb3-a7f9-d3c8732abc1b,ed55c6af-4473-4965-a669-a72c9ea95fed,7,000,0,0,000,92000000000059202,2.0,2015-07-17,Прудовой,9201,9201,50592a66-66aa-4d9f-a64e-971c59f12a94,,67000000000,67000000,21,6fdecb78-893a-4e3f-a5ba-aa062459463b,000,920000000000592,299058,da05d8cd-043c-468f-a277-954b61e50553,92,пер,2014-05-06,0592,,,2020-08-16,000,0000,000,0,,0000,,0
0,650af40c-1617-4eb3-a7f9-d3c8732abc1b,da05d8cd-043c-468f-a277-954b61e50553,7,000,0,0,000,92000000000059201,1.0,2079-06-06,Прудовой,,,ed55c6af-4473-4965-a669-a72c9ea95fed,,67000000000,67000000,1,6fdecb78-893a-4e3f-a5ba-aa062459463b,000,920000000000592,,,92,пер,1900-01-01,0592,,,2020-08-16,000,0000,000,0,,0000,,0
1,19cdcb8f-7fd1-4eba-b025-aabbc7cf193b,77e1551b-fee0-45fd-84d8-420b0db2637f,7,000,0,0,000,92000000016002500,0.0,2079-06-06,Орлиновская,9203,9203,,,67263000000,67306000167,20,ceafa479-c56c-498e-8671-fea153be16fc,016,920000000160025,299811,a3879ce0-ef8f-46e5-8841-864330513381,92,ул,2020-08-14,0025,,,2020-08-16,000,0000,000,1,,0000,,0
0,19cdcb8f-7fd1-4eba-b025-aabbc7cf193b,a3879ce0-ef8f-46e5-8841-864330513381,7,000,0,0,000,92000000016002500,0.0,2020-08-14,Орлиновская,9203,9203,77e1551b-fee0-45fd-84d8-420b0db2637f,,67263807003,67306000167,21,ceafa479-c56c-498e-8671-fea153be16fc,016,920000000160025,299811,c734cad8-dd7a-4e9e-8c6d-80359194d240,92,ул,2019-12-26,0025,,,2020-08-16,000,0000,000,0,74a19c42-a50e-4d77-9216-c73c6055d6de,0000,,0
0,19cdcb8f-7fd1-4eba-b025-aabbc7cf193b,c734cad8-dd7a-4e9e-8c6d-80359194d240,7,000,0,0,000,92000000016002506,6.0,2019-12-26,Орлиновская,9203,9203,a3879ce0-ef8f-46e5-8841-864330513381,,67263807003,67306000,20,ceafa479-c56c-498e-8671-fea153be16fc,016,920000000160025,299811,3f928e73-ae44-4c71-b0dd-59683642e74a,92,ул,2019-11-07,0025,,,2020-08-16,000,0000,000,0,ea60a874-b12d-42e1-ad3f-66ef48ef8721,0000,,0
0,19cdcb8f-7fd1-4eba-b025-aabbc7cf193b,3f928e73-ae44-4c71-b0dd-59683642e74a,7,000,0,0,000,92000000016002505,5.0,2019-12-26,Орлиновская,9203,9203,c734cad8-dd7a-4e9e-8c6d-80359194d240,,67263807003,67306000,21,ceafa479-c56c-498e-8671-fea153be16fc,016,920000000160025,299811,9c98f88f-9d31-4e1b-a156-d4066c395aef,92,ул,2017-04-24,0025,,,2020-08-16,000,0000,000,0,5eb65c4f-d798-4115-9b1e-001cb32403d5,0000,,0
0,19cdcb8f-7fd1-4eba-b025-aabbc7cf193b,9c98f88f-9d31-4e1b-a156-d4066c395aef,7,000,0,0,000,92000000016002504,4.0,2017-04-24,Орлиновская,9203,9203,3f928e73-ae44-4c71-b0dd-59683642e74a,,67263807003,67306000167,21,ceafa479-c56c-498e-8671-fea153be16fc,016,920000000160025,299811,eb473413-5c0e-4f3a-9dc9-8fb4b0405d5d,92,ул,2016-12-29,0025,,,2020-08-16,000,0000,000,0,ec7b6f64-7f79-46cb-b20d-4530a4f711d6,0000,,0
0,19cdcb8f-7fd1-4eba-b025-aabbc7cf193b,eb473413-5c0e-4f3a-9dc9-8fb4b0405d5d,7,000,0,0,000,92000000016002503,3.0,2016-12-29,Орлиновская,9202,9202,9c98f88f-9d31-4e1b-a156-d4066c395aef,,67263807003,67306000167,21,ceafa479-c56c-498e-8671-fea153be16fc,016,920000000160025,299811,3f599c8d-1761-4ee9-9ebe-cb3cfe9fbd04,92,ул,2016-04-27,0025,,,2020-08-16,000,0000,000,0,,0000,,0
0,19cdcb8f-7fd1-4eba-b025-aabbc7cf193b,3f599c8d-1761-4ee9-9ebe-cb3cfe9fbd04,7,000,0,0,000,92000000016002502,2.0,2017-04-24,Орлиновская,9202,9202,eb473413-5c0e-4f3a-9dc9-8fb4b0405d5d,,67000000000,67306000167,21,ceafa479-c56c-498e-8671-fea153be16fc,016,920000000160025,299811,19cdcb8f-7fd1-4eba-b025-aabbc7cf193b,92,ул,2015-06-29,0025,,,2020-08-16,000,0000,000,0,,0000,,0
0,19cdcb8f-7fd1-4eba-b025-aabbc7cf193b,19cdcb8f-7fd1-4eba-b025-aabbc7cf193b,7,000,0,0,000,92000000016002501,1.0,2079-06-06,Орлиновская,9202,9202,3f599c8d-1761-4ee9-9ebe-cb3cfe9fbd04,,67000000000,67000000,10,ceafa479-c56c-498e-8671-fea153be16fc,016,920000000160025,299811,,92,ул,2014-04-18,0025,,,2020-08-16,000,0000,000,0,,0000,,0
1,76938822-12ae-4a98-b14e-859f21c11304,44c86a1a-2523-40c0-b579-6ed1b7fa745e,7,000,0,0,000,92000000016001600,0.0,2079-06-06,Конноармейская,9203,9203,,,67263000000,67306000167,20,ceafa479-c56c-498e-8671-fea153be16fc,016,920000000160016,299811,6817c497-32f9-46bf-820f-824a63f7d7cf,92,ул,2020-08-14,0016,,,2020-08-16,000,0000,000,1,,0000,,0
0,76938822-12ae-4a98-b14e-859f21c11304,6817c497-32f9-46bf-820f-824a63f7d7cf,7,000,0,0,000,92000000016001600,0.0,2020-08-14,Конноармейская,9203,9203,44c86a1a-2523-40c0-b579-6ed1b7fa745e,,67263807003,67306000167,21,ceafa479-c56c-498e-8671-fea153be16fc,016,920000000160016,299811,20ace33a-bad7-48df-a2dd-789d83b23e62,92,ул,2019-12-26,0016,,,2020-08-16,000,0000,000,0,74a19c42-a50e-4d77-9216-c73c6055d6de,0000,,0
0,76938822-12ae-4a98-b14e-859f21c11304,20ace33a-bad7-48df-a2dd-789d83b23e62,7,000,0,0,000,92000000016001606,6.0,2019-12-26,Конноармейская,9203,9203,6817c497-32f9-46bf-820f-824a63f7d7cf,,67263807003,67306000167,20,ceafa479-c56c-498e-8671-fea153be16fc,016,920000000160016,299811,51a9aaae-6f6e-41ac-b774-0c4588141996,92,ул,2019-11-07,0016,,,2020-08-16,000,0000,000,0,ea60a874-b12d-42e1-ad3f-66ef48ef8721,0000,,0
0,76938822-12ae-4a98-b14e-859f21c11304,51a9aaae-6f6e-41ac-b774-0c4588141996,7,000,0,0,000,92000000016001605,5.0,2019-11-07,Конноармейская,9203,9203,20ace33a-bad7-48df-a2dd-789d83b23e62,,67263807003,67306000,21,ceafa479-c56c-498e-8671-fea153be16fc,016,920000000160016,299811,6761d1c9-705e-401f-8d2b-0ea8db2afaff,92,ул,2017-04-24,0016,,,2020-08-16,000,0000,000,0,5eb65c4f-d798-4115-9b1e-001cb32403d5,0000,,0
0,76938822-12ae-4a98-b14e-859f21c11304,6761d1c9-705e-401f-8d2b-0ea8db2afaff,7,000,0,0,000,92000000016001604,4.0,2017-04-24,Конноармейская,9203,9203,51a9aaae-6f6e-41ac-b774-0c4588141996,,67263807003,67306000167,21,ceafa479-c56c-498e-8671-fea153be16fc,016,920000000160016,299811,1a1d5552-390f-49f5-8ab7-711e53bf046d,92,ул,2016-12-29,0016,,,2020-08-16,000,0000,000,0,ec7b6f64-7f79-46cb-b20d-4530a4f711d6,0000,,0
0,76938822-12ae-4a98-b14e-859f21c11304,1a1d5552-390f-49f5-8ab7-711e53bf046d,7,000,0,0,000,92000000016001603,3.0,2017-04-24,Конноармейская,9202,9202,6761d1c9-705e-401f-8d2b-0ea8db2afaff,,67263807003,67306000167,21,ceafa479-c56c-498e-8671-fea153be16fc,016,920000000160016,299811,285da2ed-91b2-4709-b5f5-f2829b754d9a,92,ул,2016-04-27,0016,,,2020-08-16,000,0000,000,0,,0000,,0
0,76938822-12ae-4a98-b14e-859f21c11304,285da2ed-91b2-4709-b5f5-f2829b754d9a,7,000,0,0,000,92000000016001602,2.0,2017-04-24,Конноармейская,9202,9202,1a1d5552-390f-49f5-8ab7-711e53bf046d,,67000000000,67306000167,21,ceafa479-c56c-498e-8671-fea153be16fc,016,920000000160016,299811,76938822-12ae-4a98-b14e-859f21c11304,92,ул,2015-06-29,0016,,,2020-08-16,000,0000,000,0,,0000,,0
0,76938822-12ae-4a98-b14e-859f21c11304,76938822-12ae-4a98-b14e-859f21c11304,7,000,0,0,000,92000000016001601,1.0,2079-06-06,Конноармейская,9202,9202,285da2ed-91b2-4709-b5f5-f2829b754d9a,,67000000000,67000000,10,ceafa479-c56c-498e-8671-fea153be16fc,016,920000000160016,299811,,92,ул,2014-04-18,0016,,,2020-08-16,000,0000,000,0,,0000,,0
1,92840400-35da-423c-bbe1-0002cac0a9c6,653f95f6-4ab3-4af1-b4cd-6ed67066be2b,7,000,0,0,000,92000000000093700,0.0,2079-06-06,Камышовый,9201,9201,,,67264000000,67310000,20,6fdecb78-893a-4e3f-a5ba-aa062459463b,000,920000000000937,299058,e7062a9c-820f-44ab-8b7c-edb60db50818,92,пер,2020-08-14,0937,,,2020-08-16,000,0000,000,1,,0000,,0
0,92840400-35da-423c-bbe1-0002cac0a9c6,e7062a9c-820f-44ab-8b7c-edb60db50818,7,000,0,0,000,92000000000093700,0.0,2020-08-14,Камышовый,9201,9201,653f95f6-4ab3-4af1-b4cd-6ed67066be2b,,67269000000,67310000,21,6fdecb78-893a-4e3f-a5ba-aa062459463b,000,920000000000937,299058,bea4ea4c-afa2-42c6-9bfa-4d37b3bec9d5,92,пер,2016-05-16,0937,,,2020-08-16,000,0000,000,0,,0000,,0
0,92840400-35da-423c-bbe1-0002cac0a9c6,bea4ea4c-afa2-42c6-9bfa-4d37b3bec9d5,7,000,0,0,000,92000000000093703,3.0,2016-05-16,Камышовый,9201,9201,e7062a9c-820f-44ab-8b7c-edb60db50818,,67269000000,67310000,21,6fdecb78-893a-4e3f-a5ba-aa062459463b,000,920000000000937,299058,ee3bbb7c-4d35-4974-bca4-5ca9c90c138d,92,пер,2016-05-11,0937,,,2020-08-16,000,0000,000,0,,0000,,0
0,92840400-35da-423c-bbe1-0002cac0a9c6,ee3bbb7c-4d35-4974-bca4-5ca9c90c138d,7,000,0,0,000,92000000000093702,2.0,2016-05-11,Камышовый,9201,9201,bea4ea4c-afa2-42c6-9bfa-4d37b3bec9d5,,67000000000,67310000,21,6fdecb78-893a-4e3f-a5ba-aa062459463b,000,920000000000937,299058,92840400-35da-423c-bbe1-0002cac0a9c6,92,пер,2015-07-09,0937,,,2020-08-16,000,0000,000,0,,0000,,0
0,92840400-35da-423c-bbe1-0002cac0a9c6,92840400-35da-423c-bbe1-0002cac0a9c6,7,000,0,0,000,92000000000093701,1.0,2079-06-06,Камышовый,9201,9201,ee3bbb7c-4d35-4974-bca4-5ca9c90c138d,,67000000000,67000000,10,6fdecb78-893a-4e3f-a5ba-aa062459463b,000,920000000000937,299058,,92,пер,2014-04-18,0937,,,2020-08-16,000,0000,000,0,,0000,,0
1,35218526-8402-4a2c-98d9-d0129a2dc97f,72fb236d-30b8-4302-bd09-ca6a355efff0,7,000,0,0,000,92000000016002600,0.0,2079-06-06,Подлесная,9203,9203,,,67263000000,67306000167,20,ceafa479-c56c-498e-8671-fea153be16fc,016,920000000160026,299811,88338b4a-8ee6-49df-9410-2e5f6ff23bed,92,ул,2020-08-14,0026,,,2020-08-16,000,0000,000,1,,0000,,0
0,35218526-8402-4a2c-98d9-d0129a2dc97f,88338b4a-8ee6-49df-9410-2e5f6ff23bed,7,000,0,0,000,92000000016002600,0.0,2020-08-14,Подлесная,9203,9203,72fb236d-30b8-4302-bd09-ca6a355efff0,,67263807003,67306000167,21,ceafa479-c56c-498e-8671-fea153be16fc,016,920000000160026,299811,4833ebb7-2f5d-4621-8a7a-4dd856b92b3a,92,ул,2019-12-26,0026,,,2020-08-16,000,0000,000,0,74a19c42-a50e-4d77-9216-c73c6055d6de,0000,,0
0,35218526-8402-4a2c-98d9-d0129a2dc97f,4833ebb7-2f5d-4621-8a7a-4dd856b92b3a,7,000,0,0,000,92000000016002605,5.0,2019-12-26,Подлесная,9203,9203,88338b4a-8ee6-49df-9410-2e5f6ff23bed,,67263807003,67306000167,20,ceafa479-c56c-498e-8671-fea153be16fc,016,920000000160026,299811,e329f522-9c87-4c70-9f40-11f289d3bf0a,92,ул,2019-11-07,0026,,,2020-08-16,000,0000,000,0,ea60a874-b12d-42e1-ad3f-66ef48ef8721,0000,,0
0,35218526-8402-4a2c-98d9-d0129a2dc97f,e329f522-9c87-4c70-9f40-11f289d3bf0a,7,000,0,0,000,92000000016002604,4.0,2019-11-07,Подлесная,9203,9203,4833ebb7-2f5d-4621-8a7a-4dd856b92b3a,,67263807003,67306000167,21,ceafa479-c56c-498e-8671-fea153be16fc,016,920000000160026,299811,750123d8-3866-4346-8889-edebf5de1f86,92,ул,2016-12-29,0026,,,2020-08-16,000,0000,000,0,ec7b6f64-7f79-46cb-b20d-4530a4f711d6,0000,,0
0,35218526-8402-4a2c-98d9-d0129a2dc97f,750123d8-3866-4346-8889-edebf5de1f86,7,000,0,0,000,92000000016002603,3.0,2016-12-29,Подлесная,9202,9202,e329f522-9c87-4c70-9f40-11f289d3bf0a,,67263807003,67306000167,21,ceafa479-c56c-498e-8671-fea153be16fc,016,920000000160026,299811,3efc1485-1362-4aa6-9aa4-b2f1202d6942,92,ул,2016-04-27,0026,,,2020-08-16,000,0000,000,0,,0000,,0
0,35218526-8402-4a2c-98d9-d0129a2dc97f,3efc1485-1362-4aa6-9aa4-b2f1202d6942,7,000,0,0,000,92000000016002602,2.0,2016-12-29,Подлесная,9202,9202,750123d8-3866-4346-8889-edebf5de1f86,,67000000000,67306000167,21,ceafa479-c56c-498e-8671-fea153be16fc,016,920000000160026,299811,35218526-8402-4a2c-98d9-d0129a2dc97f,92,ул,2015-06-29,0026,,,2020-08-16,000,0000,000,0,,0000,,0
0,35218526-8402-4a2c-98d9-d0129a2dc97f,35218526-8402-4a2c-98d9-d0129a2dc97f,7,000,0,0,000,92000000016002601,1.0,2079-06-06,Подлесная,9202,9202,3efc1485-1362-4aa6-9aa4-b2f1202d6942,,67000000000,67000000,10,ceafa479-c56c-498e-8671-fea153be16fc,016,920000000160026,299811,,92,ул,2014-04-18,0026,,,2020-08-16,000,0000,000,0,,0000,,0
1,526e5221-b24f-4f92-b8fd-0e88d221f4bd,e986fb04-234b-4f04-a087-026cdec59a40,7,000,0,0,000,92000000020000200,0.0,2079-06-06,Водоканальская,9203,9203,,,67263000000,67306000121,20,a0c06ac3-6f14-4203-8007-d20fd2a5ee66,020,920000000200002,299809,0bd5538b-ccaa-4071-b429-da81fd2fd046,92,ул,2020-08-14,0002,,,2020-08-16,000,0000,000,1,,0000,,0
0,526e5221-b24f-4f92-b8fd-0e88d221f4bd,0bd5538b-ccaa-4071-b429-da81fd2fd046,7,000,0,0,000,92000000020000200,0.0,2079-06-06,Водоканальская,9203,9203,e986fb04-234b-4f04-a087-026cdec59a40,,67263807011,67306000121,20,a0c06ac3-6f14-4203-8007-d20fd2a5ee66,020,920000000200002,299809,b3418808-da7d-49d4-b1f7-9ab8c1c2dd08,92,ул,2018-08-01,0002,,,2020-08-16,000,0000,000,0,2f429624-b2b8-4cb3-932d-1829afd5393f,0000,,0
0,526e5221-b24f-4f92-b8fd-0e88d221f4bd,b3418808-da7d-49d4-b1f7-9ab8c1c2dd08,7,000,0,0,000,92000000020000204,4.0,2018-08-01,Водоканальная,9203,9203,0bd5538b-ccaa-4071-b429-da81fd2fd046,,67263807011,67306000121,21,a0c06ac3-6f14-4203-8007-d20fd2a5ee66,020,920000000200002,299809,0e3f2ca5-3966-4f57-b99a-5ca34c0fdea4,92,ул,2017-01-01,0002,,,2020-08-16,000,0000,000,0,32d0954d-f270-4a79-bfe9-3acdabb4098f,0000,,0
0,526e5221-b24f-4f92-b8fd-0e88d221f4bd,0e3f2ca5-3966-4f57-b99a-5ca34c0fdea4,7,000,0,0,000,92000000020000203,3.0,2018-08-01,Водоканальная,9202,9202,b3418808-da7d-49d4-b1f7-9ab8c1c2dd08,,67263807011,67306000121,21,a0c06ac3-6f14-4203-8007-d20fd2a5ee66,020,920000000200002,299809,cb4f95fd-dab7-41aa-b808-f3a1a7e77717,92,ул,2016-04-27,0002,,,2020-08-16,000,0000,000,0,,0000,,0
0,526e5221-b24f-4f92-b8fd-0e88d221f4bd,cb4f95fd-dab7-41aa-b808-f3a1a7e77717,7,000,0,0,000,92000000020000202,2.0,2018-08-01,Водоканальная,9202,9202,0e3f2ca5-3966-4f57-b99a-5ca34c0fdea4,,67000000000,67306000121,21,a0c06ac3-6f14-4203-8007-d20fd2a5ee66,020,920000000200002,299809,9b7de76b-3c96-4d74-9416-04f53d658add,92,ул,2015-06-30,0002,,,2020-08-16,000,0000,000,0,,0000,,0
0,526e5221-b24f-4f92-b8fd-0e88d221f4bd,9b7de76b-3c96-4d74-9416-04f53d658add,7,000,0,0,000,92000000020000201,1.0,2015-06-30,Водоканальная,9202,9202,cb4f95fd-dab7-41aa-b808-f3a1a7e77717,,67000000000,67000000,50,a0c06ac3-6f14-4203-8007-d20fd2a5ee66,020,920000000200002,299809,526e5221-b24f-4f92-b8fd-0e88d221f4bd,92,ул,2014-04-18,0002,,,2020-08-16,000,0000,000,0,,0000,,0
0,526e5221-b24f-4f92-b8fd-0e88d221f4bd,526e5221-b24f-4f92-b8fd-0e88d221f4bd,7,000,0,0,000,92000000028000551,51.0,2018-08-01,Водоканальная,9202,9202,9b7de76b-3c96-4d74-9416-04f53d658add,,67000000000,67000000,10,a0c06ac3-6f14-4203-8007-d20fd2a5ee66,020,920000000280005,299809,,92,ул,2014-04-18,0002,,,2020-08-16,000,0000,000,0,,0000,,0
1,35eb6afe-d523-4125-8de1-3077d6527280,af06abec-8ac8-4ca7-a9ab-1ab3045dc321,7,000,0,0,000,92000000016003700,0.0,2079-06-06,Тепличный,9203,9203,,,67263000000,67306000167,20,ceafa479-c56c-498e-8671-fea153be16fc,016,920000000160037,299811,19277d51-396f-4be5-ba87-1ad67b536d10,92,пер,2020-08-14,0037,,,2020-08-16,000,0000,000,1,,0000,,0
0,35eb6afe-d523-4125-8de1-3077d6527280,19277d51-396f-4be5-ba87-1ad67b536d10,7,000,0,0,000,92000000016003700,0.0,2020-08-14,Тепличный,9203,9203,af06abec-8ac8-4ca7-a9ab-1ab3045dc321,,67263807003,67306000167,21,ceafa479-c56c-498e-8671-fea153be16fc,016,920000000160037,299811,5e6753e8-efd5-429e-a3a9-348134d92cc6,92,пер,2019-12-26,0037,,,2020-08-16,000,0000,000,0,74a19c42-a50e-4d77-9216-c73c6055d6de,0000,,0
0,35eb6afe-d523-4125-8de1-3077d6527280,5e6753e8-efd5-429e-a3a9-348134d92cc6,7,000,0,0,000,92000000016003706,6.0,2019-12-26,Тепличный,9203,9203,19277d51-396f-4be5-ba87-1ad67b536d10,,67263807003,67306000,20,ceafa479-c56c-498e-8671-fea153be16fc,016,920000000160037,299811,fe3d17af-1153-4c04-acb7-cc3666984409,92,пер,2019-11-07,0037,,,2020-08-16,000,0000,000,0,ea60a874-b12d-42e1-ad3f-66ef48ef8721,0000,,0
0,35eb6afe-d523-4125-8de1-3077d6527280,fe3d17af-1153-4c04-acb7-cc3666984409,7,000,0,0,000,92000000016003705,5.0,2019-12-26,Тепличный,9203,9203,5e6753e8-efd5-429e-a3a9-348134d92cc6,,67263807003,67306000,21,ceafa479-c56c-498e-8671-fea153be16fc,016,920000000160037,299811,61bd0fa5-06df-4d29-9e0c-2490baee2c48,92,пер,2017-04-24,0037,,,2020-08-16,000,0000,000,0,5eb65c4f-d798-4115-9b1e-001cb32403d5,0000,,0
0,35eb6afe-d523-4125-8de1-3077d6527280,61bd0fa5-06df-4d29-9e0c-2490baee2c48,7,000,0,0,000,92000000016003704,4.0,2017-04-24,Тепличный,9203,9203,fe3d17af-1153-4c04-acb7-cc3666984409,,67263807003,67306000167,21,ceafa479-c56c-498e-8671-fea153be16fc,016,920000000160037,299811,f1cf4fa0-68b3-4e27-a5f4-a720c2a28062,92,пер,2016-12-29,0037,,,2020-08-16,000,0000,000,0,ec7b6f64-7f79-46cb-b20d-4530a4f711d6,0000,,0
0,35eb6afe-d523-4125-8de1-3077d6527280,f1cf4fa0-68b3-4e27-a5f4-a720c2a28062,7,000,0,0,000,92000000016003703,3.0,2017-04-24,Тепличный,9202,9202,61bd0fa5-06df-4d29-9e0c-2490baee2c48,,67263807003,67306000167,21,ceafa479-c56c-498e-8671-fea153be16fc,016,920000000160037,299811,c4b0db2c-7f33-4f9b-8c29-4a47a0863d0e,92,пер,2016-04-27,0037,,,2020-08-16,000,0000,000,0,,0000,,0
0,35eb6afe-d523-4125-8de1-3077d6527280,c4b0db2c-7f33-4f9b-8c29-4a47a0863d0e,7,000,0,0,000,92000000016003702,2.0,2017-04-24,Тепличный,9202,9202,f1cf4fa0-68b3-4e27-a5f4-a720c2a28062,,67000000000,67306000167,21,ceafa479-c56c-498e-8671-fea153be16fc,016,920000000160037,299811,35eb6afe-d523-4125-8de1-3077d6527280,92,пер,2015-06-29,0037,,,2020-08-16,000,0000,000,0,,0000,,0
0,35eb6afe-d523-4125-8de1-3077d6527280,35eb6afe-d523-4125-8de1-3077d6527280,7,000,0,0,000,92000000016003701,1.0,2079-06-06,Тепличный,9202,9202,c4b0db2c-7f33-4f9b-8c29-4a47a0863d0e,,67000000000,67000000,10,ceafa479-c56c-498e-8671-fea153be16fc,016,920000000160037,299811,,92,пер,2014-04-18,0037,,,2020-08-16,000,0000,000,0,,0000,,0
1,f2414076-ecd0-4554-982f-0c7b66e69917,e9c61249-55da-48a4-a38e-bac942980061,7,000,0,0,000,92000000016002400,0.0,2079-06-06,Новоселов,9203,9203,,,67263000000,67306000167,20,ceafa479-c56c-498e-8671-fea153be16fc,016,920000000160024,299811,795e76d8-718d-4d75-9f4e-071372cca60a,92,ул,2020-08-14,0024,,,2020-08-16,000,0000,000,1,,0000,,0
0,f2414076-ecd0-4554-982f-0c7b66e69917,795e76d8-718d-4d75-9f4e-071372cca60a,7,000,0,0,000,92000000016002400,0.0,2020-08-14,Новоселов,9203,9203,e9c61249-55da-48a4-a38e-bac942980061,,67263807003,67306000167,21,ceafa479-c56c-498e-8671-fea153be16fc,016,920000000160024,299811,9ceb9969-786c-437a-bca7-a633950b01aa,92,ул,2019-12-26,0024,,,2020-08-16,000,0000,000,0,74a19c42-a50e-4d77-9216-c73c6055d6de,0000,,0
0,f2414076-ecd0-4554-982f-0c7b66e69917,9ceb9969-786c-437a-bca7-a633950b01aa,7,000,0,0,000,92000000016002406,6.0,2019-12-26,Новоселов,9203,9203,795e76d8-718d-4d75-9f4e-071372cca60a,,67263807003,67306000,20,ceafa479-c56c-498e-8671-fea153be16fc,016,920000000160024,299811,cf964f27-2eeb-42a0-b447-f233a421a867,92,ул,2019-11-07,0024,,,2020-08-16,000,0000,000,0,ea60a874-b12d-42e1-ad3f-66ef48ef8721,0000,,0
0,f2414076-ecd0-4554-982f-0c7b66e69917,cf964f27-2eeb-42a0-b447-f233a421a867,7,000,0,0,000,92000000016002405,5.0,2019-12-26,Новоселов,9203,9203,9ceb9969-786c-437a-bca7-a633950b01aa,,67263807003,67306000,21,ceafa479-c56c-498e-8671-fea153be16fc,016,920000000160024,299811,7de207cf-185d-45ed-ad7a-33a429932d40,92,ул,2017-04-24,0024,,,2020-08-16,000,0000,000,0,5eb65c4f-d798-4115-9b1e-001cb32403d5,0000,,0
0,f2414076-ecd0-4554-982f-0c7b66e69917,7de207cf-185d-45ed-ad7a-33a429932d40,7,000,0,0,000,92000000016002404,4.0,2017-04-24,Новоселов,9203,9203,cf964f27-2eeb-42a0-b447-f233a421a867,,67263807003,67306000167,21,ceafa479-c56c-498e-8671-fea153be16fc,016,920000000160024,299811,30af01cf-4390-41e0-850f-2bdef49992bf,92,ул,2016-12-29,0024,,,2020-08-16,000,0000,000,0,ec7b6f64-7f79-46cb-b20d-4530a4f711d6,0000,,0
0,f2414076-ecd0-4554-982f-0c7b66e69917,30af01cf-4390-41e0-850f-2bdef49992bf,7,000,0,0,000,92000000016002403,3.0,2016-12-29,Новоселов,9202,9202,7de207cf-185d-45ed-ad7a-33a429932d40,,67263807003,67306000167,21,ceafa479-c56c-498e-8671-fea153be16fc,016,920000000160024,299811,be61a247-dd67-4f8f-a30f-4c71b7e3418f,92,ул,2016-04-27,0024,,,2020-08-16,000,0000,000,0,,0000,,0
0,f2414076-ecd0-4554-982f-0c7b66e69917,be61a247-dd67-4f8f-a30f-4c71b7e3418f,7,000,0,0,000,92000000016002402,2.0,2017-04-24,Новоселов,9202,9202,30af01cf-4390-41e0-850f-2bdef49992bf,,67000000000,67306000167,21,ceafa479-c56c-498e-8671-fea153be16fc,016,920000000160024,299811,f2414076-ecd0-4554-982f-0c7b66e69917,92,ул,2015-06-29,0024,,,2020-08-16,000,0000,000,0,,0000,,0
0,f2414076-ecd0-4554-982f-0c7b66e69917,f2414076-ecd0-4554-982f-0c7b66e69917,7,000,0,0,000,92000000016002401,1.0,2079-06-06,Новоселов,9202,9202,be61a247-dd67-4f8f-a30f-4c71b7e3418f,,67000000000,67000000,10,ceafa479-c56c-498e-8671-fea153be16fc,016,920000000160024,299811,,92,ул,2014-04-18,0024,,,2020-08-16,000,0000,000,0,,0000,,0
1,e389ebce-3201-45f9-8006-1234eef129da,601aaa64-a658-4fdd-86d3-bcaa0fca16ca,7,000,0,0,000,92000000000093000,0.0,2079-06-06,Зеленый,9201,9201,,,67264000000,67310000,20,6fdecb78-893a-4e3f-a5ba-aa062459463b,000,920000000000930,299814,7ad25ded-981b-4746-aed0-255bd03a74f9,92,пер,2020-08-14,0930,,,2020-08-16,000,0000,000,1,,0000,,0
0,e389ebce-3201-45f9-8006-1234eef129da,7ad25ded-981b-4746-aed0-255bd03a74f9,7,000,0,0,000,92000000000093000,0.0,2020-08-14,Зеленый,9201,9201,601aaa64-a658-4fdd-86d3-bcaa0fca16ca,,67269000000,67310000,21,6fdecb78-893a-4e3f-a5ba-aa062459463b,000,920000000000930,299814,b5fd530c-7605-4d6e-b4f5-8782da9802b0,92,пер,2016-05-16,0930,,,2020-08-16,000,0000,000,0,,0000,,0
0,e389ebce-3201-45f9-8006-1234eef129da,b5fd530c-7605-4d6e-b4f5-8782da9802b0,7,000,0,0,000,92000000000093003,3.0,2016-05-16,Зеленый,9201,9201,7ad25ded-981b-4746-aed0-255bd03a74f9,,67269000000,67310000,21,6fdecb78-893a-4e3f-a5ba-aa062459463b,000,920000000000930,299014,5e49a1ef-ef58-4229-a7e2-b0122e46b60e,92,пер,2016-05-11,0930,,,2020-08-16,000,0000,000,0,,0000,,0
0,e389ebce-3201-45f9-8006-1234eef129da,5e49a1ef-ef58-4229-a7e2-b0122e46b60e,7,000,0,0,000,92000000000093002,2.0,2016-05-11,Зеленый,9201,9201,b5fd530c-7605-4d6e-b4f5-8782da9802b0,,67000000000,67310000,21,6fdecb78-893a-4e3f-a5ba-aa062459463b,000,920000000000930,299014,e389ebce-3201-45f9-8006-1234eef129da,92,пер,2015-07-09,0930,,,2020-08-16,000,0000,000,0,,0000,,0
0,e389ebce-3201-45f9-8006-1234eef129da,e389ebce-3201-45f9-8006-1234eef129da,7,000,0,0,000,92000000000093001,1.0,2079-06-06,Зеленый,9201,9201,5e49a1ef-ef58-4229-a7e2-b0122e46b60e,,67000000000,67000000,10,6fdecb78-893a-4e3f-a5ba-aa062459463b,000,920000000000930,299014,,92,пер,2014-04-18,0930,,,2020-08-16,000,0000,000,0,,0000,,0
1,62cd9814-1ba2-42df-9787-83f5b40cc996,4ffd040e-a6ae-41e9-aeb7-7bb9393c47dc,7,000,0,0,000,92000000016002100,0.0,2079-06-06,Молодежная,9203,9203,,,67263000000,67306000167,20,ceafa479-c56c-498e-8671-fea153be16fc,016,920000000160021,299811,aa1b1a37-427a-4c06-a85c-9ac2f33d9913,92,ул,2020-08-14,0021,,,2020-08-16,000,0000,000,1,,0000,,0
0,62cd9814-1ba2-42df-9787-83f5b40cc996,aa1b1a37-427a-4c06-a85c-9ac2f33d9913,7,000,0,0,000,92000000016002100,0.0,2020-08-14,Молодежная,9203,9203,4ffd040e-a6ae-41e9-aeb7-7bb9393c47dc,,67263807003,67306000167,21,ceafa479-c56c-498e-8671-fea153be16fc,016,920000000160021,299811,22cdb77b-ced4-4cc5-9c64-381fdedfa6f8,92,ул,2019-12-26,0021,,,2020-08-16,000,0000,000,0,74a19c42-a50e-4d77-9216-c73c6055d6de,0000,,0
0,62cd9814-1ba2-42df-9787-83f5b40cc996,22cdb77b-ced4-4cc5-9c64-381fdedfa6f8,7,000,0,0,000,92000000016002106,6.0,2019-12-26,Молодежная,9203,9203,aa1b1a37-427a-4c06-a85c-9ac2f33d9913,,67263807003,67306000,20,ceafa479-c56c-498e-8671-fea153be16fc,016,920000000160021,299811,e8b76f58-46c4-4aab-b97f-7b2de1bbd8ed,92,ул,2019-11-07,0021,,,2020-08-16,000,0000,000,0,ea60a874-b12d-42e1-ad3f-66ef48ef8721,0000,,0
0,62cd9814-1ba2-42df-9787-83f5b40cc996,e8b76f58-46c4-4aab-b97f-7b2de1bbd8ed,7,000,0,0,000,92000000016002105,5.0,2019-12-26,Молодежная,9203,9203,22cdb77b-ced4-4cc5-9c64-381fdedfa6f8,,67263807003,67306000,21,ceafa479-c56c-498e-8671-fea153be16fc,016,920000000160021,299811,3b68d0c3-20c6-438c-9e31-1d7152898704,92,ул,2017-04-24,0021,,,2020-08-16,000,0000,000,0,5eb65c4f-d798-4115-9b1e-001cb32403d5,0000,,0
0,62cd9814-1ba2-42df-9787-83f5b40cc996,3b68d0c3-20c6-438c-9e31-1d7152898704,7,000,0,0,000,92000000016002104,4.0,2017-04-24,Молодежная,9203,9203,e8b76f58-46c4-4aab-b97f-7b2de1bbd8ed,,67263807003,67306000167,21,ceafa479-c56c-498e-8671-fea153be16fc,016,920000000160021,299811,3642636f-2f3a-437f-b585-66aabe097414,92,ул,2016-12-29,0021,,,2020-08-16,000,0000,000,0,ec7b6f64-7f79-46cb-b20d-4530a4f711d6,0000,,0
0,62cd9814-1ba2-42df-9787-83f5b40cc996,3642636f-2f3a-437f-b585-66aabe097414,7,000,0,0,000,92000000016002103,3.0,2016-12-29,Молодежная,9202,9202,3b68d0c3-20c6-438c-9e31-1d7152898704,,67263807003,67306000167,21,ceafa479-c56c-498e-8671-fea153be16fc,016,920000000160021,299811,c30ef0a7-b944-4c59-b368-5c39a6217d06,92,ул,2016-04-27,0021,,,2020-08-16,000,0000,000,0,,0000,,0
0,62cd9814-1ba2-42df-9787-83f5b40cc996,c30ef0a7-b944-4c59-b368-5c39a6217d06,7,000,0,0,000,92000000016002102,2.0,2017-04-24,Молодежная,9202,9202,3642636f-2f3a-437f-b585-66aabe097414,,67000000000,67306000167,21,ceafa479-c56c-498e-8671-fea153be16fc,016,920000000160021,299811,62cd9814-1ba2-42df-9787-83f5b40cc996,92,ул,2015-06-29,0021,,,2020-08-16,000,0000,000,0,,0000,,0
0,62cd9814-1ba2-42df-9787-83f5b40cc996,62cd9814-1ba2-42df-9787-83f5b40cc996,7,000,0,0,000,92000000016002101,1.0,2079-06-06,Молодежная,9202,9202,c30ef0a7-b944-4c59-b368-5c39a6217d06,,67000000000,67000000,10,ceafa479-c56c-498e-8671-fea153be16fc,016,920000000160021,299811,,92,ул,2014-04-18,0021,,,2020-08-16,000,0000,000,0,,0000,,0
1,048a663e-a6d4-48a5-94cc-264b4240f076,ae8185be-c1e1-41ab-bdae-c9d25468407f,7,000,0,0,000,92000000016001100,0.0,2079-06-06,Дружная,9203,9203,,,67263000000,67306000167,20,ceafa479-c56c-498e-8671-fea153be16fc,016,920000000160011,299811,50034d4d-aa33-496a-bff8-74b9f01f725c,92,ул,2020-08-14,0011,,,2020-08-16,000,0000,000,1,,0000,,0
0,048a663e-a6d4-48a5-94cc-264b4240f076,50034d4d-aa33-496a-bff8-74b9f01f725c,7,000,0,0,000,92000000016001100,0.0,2020-08-14,Дружная,9203,9203,ae8185be-c1e1-41ab-bdae-c9d25468407f,,67263807003,67306000167,21,ceafa479-c56c-498e-8671-fea153be16fc,016,920000000160011,299811,c080d55f-663b-49e2-b41b-d1010f1a06e1,92,ул,2019-12-26,0011,,,2020-08-16,000,0000,000,0,74a19c42-a50e-4d77-9216-c73c6055d6de,0000,,0
0,048a663e-a6d4-48a5-94cc-264b4240f076,c080d55f-663b-49e2-b41b-d1010f1a06e1,7,000,0,0,000,92000000016001107,7.0,2019-12-26,Дружная,9203,9203,50034d4d-aa33-496a-bff8-74b9f01f725c,,67263807003,67306000167,20,ceafa479-c56c-498e-8671-fea153be16fc,016,920000000160011,299811,068f39be-0d21-42d0-bf15-d0f7a717a1c4,92,ул,2019-11-07,0011,,,2020-08-16,000,0000,000,0,ea60a874-b12d-42e1-ad3f-66ef48ef8721,0000,,0
0,048a663e-a6d4-48a5-94cc-264b4240f076,068f39be-0d21-42d0-bf15-d0f7a717a1c4,7,000,0,0,000,92000000016001106,6.0,2019-12-26,Дружная,9203,9203,c080d55f-663b-49e2-b41b-d1010f1a06e1,,67263807003,67306000167,20,ceafa479-c56c-498e-8671-fea153be16fc,016,920000000160011,299811,0ef6cc0c-827f-4b00-ae55-6008050e9c72,92,ул,2019-06-24,0011,,,2020-08-16,000,0000,000,0,5eb65c4f-d798-4115-9b1e-001cb32403d5,0000,,0
0,048a663e-a6d4-48a5-94cc-264b4240f076,0ef6cc0c-827f-4b00-ae55-6008050e9c72,7,000,0,0,000,92000000016001105,5.0,2019-06-24,Дружная,9203,9203,068f39be-0d21-42d0-bf15-d0f7a717a1c4,,67263807003,67306000,21,ceafa479-c56c-498e-8671-fea153be16fc,016,920000000160011,299811,1e7e3dc7-e639-4459-9d22-133076ba5fe1,92,ул,2017-04-24,0011,,,2020-08-16,000,0000,000,0,5eb65c4f-d798-4115-9b1e-001cb32403d5,0000,,0
0,048a663e-a6d4-48a5-94cc-264b4240f076,1e7e3dc7-e639-4459-9d22-133076ba5fe1,7,000,0,0,000,92000000016001104,4.0,2017-04-24,Дружная,9203,9203,0ef6cc0c-827f-4b00-ae55-6008050e9c72,,67263807003,67306000167,21,ceafa479-c56c-498e-8671-fea153be16fc,016,920000000160011,299811,02418475-12ce-46b8-93e0-f60c9b3f0c0a,92,ул,2016-12-29,0011,,,2020-08-16,000,0000,000,0,ec7b6f64-7f79-46cb-b20d-4530a4f711d6,0000,,0
0,048a663e-a6d4-48a5-94cc-264b4240f076,02418475-12ce-46b8-93e0-f60c9b3f0c0a,7,000,0,0,000,92000000016001103,3.0,2017-04-24,Дружная,9202,9202,1e7e3dc7-e639-4459-9d22-133076ba5fe1,,67263807003,67306000167,21,ceafa479-c56c-498e-8671-fea153be16fc,016,920000000160011,299811,2dc16adf-262a-4426-93d8-b50064cdc0aa,92,ул,2016-04-27,0011,,,2020-08-16,000,0000,000,0,,0000,,0
0,048a663e-a6d4-48a5-94cc-264b4240f076,2dc16adf-262a-4426-93d8-b50064cdc0aa,7,000,0,0,000,92000000016001102,2.0,2017-04-24,Дружная,9202,9202,02418475-12ce-46b8-93e0-f60c9b3f0c0a,,67000000000,67306000167,21,ceafa479-c56c-498e-8671-fea153be16fc,016,920000000160011,299811,048a663e-a6d4-48a5-94cc-264b4240f076,92,ул,2015-06-29,0011,,,2020-08-16,000,0000,000,0,,0000,,0
0,048a663e-a6d4-48a5-94cc-264b4240f076,048a663e-a6d4-48a5-94cc-264b4240f076,7,000,0,0,000,92000000016001101,1.0,2079-06-06,Дружная,9202,9202,2dc16adf-262a-4426-93d8-b50064cdc0aa,,67000000000,67000000,10,ceafa479-c56c-498e-8671-fea153be16fc,016,920000000160011,299811,,92,ул,2014-04-18,0011,,,2020-08-16,000,0000,000,0,,0000,,0
1,78b8f674-d006-41f3-8c39-8955058f8a6c,120edbd5-b472-47ab-a12a-59fc94426455,7,000,0,0,000,92000000002000400,0.0,2079-06-06,Дружбы,9203,9203,,,67269000000,67320000106,20,c664c86c-c464-4222-9f57-7a51a660e85c,002,920000000020004,299814,ff3729cf-5e29-41fd-bfe3-091dfd0415d9,92,ул,2020-08-14,0004,,,2020-08-16,000,0000,000,1,,0000,,0
0,78b8f674-d006-41f3-8c39-8955058f8a6c,ff3729cf-5e29-41fd-bfe3-091dfd0415d9,7,000,0,0,000,92000000002000400,0.0,2020-08-14,Дружбы,9203,9203,120edbd5-b472-47ab-a12a-59fc94426455,,67000000000,67320000106,21,c664c86c-c464-4222-9f57-7a51a660e85c,002,920000000020004,299814,82d1ce2f-85c1-4e3c-b4d0-42ea1b60fbc0,92,ул,2019-12-23,0004,,,2020-08-16,000,0000,000,0,b0e6d925-d290-4cdf-9110-255fe9bb5ab2,0000,,0
0,78b8f674-d006-41f3-8c39-8955058f8a6c,82d1ce2f-85c1-4e3c-b4d0-42ea1b60fbc0,7,000,0,0,000,92000000002000404,4.0,2019-12-23,Дружбы,9203,9203,ff3729cf-5e29-41fd-bfe3-091dfd0415d9,,67000000000,67320000106,20,c664c86c-c464-4222-9f57-7a51a660e85c,002,920000000020004,299814,533796d0-ebe5-4510-b3b7-d031d99734e0,92,ул,2019-11-06,0004,,,2020-08-16,000,0000,000,0,ea60a874-b12d-42e1-ad3f-66ef48ef8721,0000,,0
0,78b8f674-d006-41f3-8c39-8955058f8a6c,533796d0-ebe5-4510-b3b7-d031d99734e0,7,000,0,0,000,92000000002000403,3.0,2019-11-06,Дружбы,9203,9203,82d1ce2f-85c1-4e3c-b4d0-42ea1b60fbc0,,67000000000,67320000106,21,c664c86c-c464-4222-9f57-7a51a660e85c,002,920000000020004,299814,84d5dde8-d9ed-4475-85ff-2f7448ede869,92,ул,2016-04-27,0004,,,2020-08-16,000,0000,000,0,,0000,,0
0,78b8f674-d006-41f3-8c39-8955058f8a6c,84d5dde8-d9ed-4475-85ff-2f7448ede869,7,000,0,0,000,92000000002000402,2.0,2016-04-27,Дружбы,9203,9203,533796d0-ebe5-4510-b3b7-d031d99734e0,,67000000000,67320000106,21,c664c86c-c464-4222-9f57-7a51a660e85c,002,920000000020004,299814,e780672e-30b3-454a-a33c-4bdcd027a670,92,ул,2015-06-29,0004,,,2020-08-16,000,0000,000,0,,0000,,0
0,78b8f674-d006-41f3-8c39-8955058f8a6c,e780672e-30b3-454a-a33c-4bdcd027a670,7,000,0,0,000,92000000002000401,1.0,2015-06-29,Дружбы,9203,9203,84d5dde8-d9ed-4475-85ff-2f7448ede869,,67000000000,67000000,50,c664c86c-c464-4222-9f57-7a51a660e85c,002,920000000020004,299814,78b8f674-d006-41f3-8c39-8955058f8a6c,92,ул,2014-04-18,0004,,,2020-08-16,000,0000,000,0,,0000,,0
0,78b8f674-d006-41f3-8c39-8955058f8a6c,78b8f674-d006-41f3-8c39-8955058f8a6c,7,000,0,0,000,92000000004001151,51.0,2079-06-06,Дружбы,9203,9203,e780672e-30b3-454a-a33c-4bdcd027a670,,67000000000,67000000,10,c664c86c-c464-4222-9f57-7a51a660e85c,002,920000000040011,299814,,92,ул,2014-04-18,0004,,,2020-08-16,000,0000,000,0,,0000,,0
1,5b522042-1376-4671-a3e0-2708889fc54c,c91ae4e9-2631-41f3-8a89-4d7689e79f75,7,000,0,0,000,92000000016003500,0.0,2079-06-06,Сельский,9203,9203,,,67263000000,67306000167,20,ceafa479-c56c-498e-8671-fea153be16fc,016,920000000160035,299811,3888511e-e067-46b1-9862-0e8852c46587,92,пер,2020-08-14,0035,,,2020-08-16,000,0000,000,1,,0000,,0
0,5b522042-1376-4671-a3e0-2708889fc54c,3888511e-e067-46b1-9862-0e8852c46587,7,000,0,0,000,92000000016003500,0.0,2020-08-14,Сельский,9203,9203,c91ae4e9-2631-41f3-8a89-4d7689e79f75,,67263807003,67306000167,21,ceafa479-c56c-498e-8671-fea153be16fc,016,920000000160035,299811,a6251527-b065-4cfe-ab08-2f83f69a1477,92,пер,2019-12-26,0035,,,2020-08-16,000,0000,000,0,74a19c42-a50e-4d77-9216-c73c6055d6de,0000,,0
0,5b522042-1376-4671-a3e0-2708889fc54c,a6251527-b065-4cfe-ab08-2f83f69a1477,7,000,0,0,000,92000000016003506,6.0,2019-12-26,Сельский,9203,9203,3888511e-e067-46b1-9862-0e8852c46587,,67263807003,67306000,20,ceafa479-c56c-498e-8671-fea153be16fc,016,920000000160035,299811,b4c9ae1d-899e-4f9b-a5c3-7b35a3bd5d07,92,пер,2019-11-07,0035,,,2020-08-16,000,0000,000,0,ea60a874-b12d-42e1-ad3f-66ef48ef8721,0000,,0
0,5b522042-1376-4671-a3e0-2708889fc54c,b4c9ae1d-899e-4f9b-a5c3-7b35a3bd5d07,7,000,0,0,000,92000000016003505,5.0,2019-12-26,Сельский,9203,9203,a6251527-b065-4cfe-ab08-2f83f69a1477,,67263807003,67306000,21,ceafa479-c56c-498e-8671-fea153be16fc,016,920000000160035,299811,0552e6f5-3a7c-4ee1-9235-09b588ea1ce9,92,пер,2017-04-24,0035,,,2020-08-16,000,0000,000,0,5eb65c4f-d798-4115-9b1e-001cb32403d5,0000,,0
0,5b522042-1376-4671-a3e0-2708889fc54c,0552e6f5-3a7c-4ee1-9235-09b588ea1ce9,7,000,0,0,000,92000000016003504,4.0,2017-04-24,Сельский,9203,9203,b4c9ae1d-899e-4f9b-a5c3-7b35a3bd5d07,,67263807003,67306000167,21,ceafa479-c56c-498e-8671-fea153be16fc,016,920000000160035,299811,ae1dc67f-35b0-43d4-a5d1-f1db0d159f2c,92,пер,2016-12-29,0035,,,2020-08-16,000,0000,000,0,ec7b6f64-7f79-46cb-b20d-4530a4f711d6,0000,,0
0,5b522042-1376-4671-a3e0-2708889fc54c,ae1dc67f-35b0-43d4-a5d1-f1db0d159f2c,7,000,0,0,000,92000000016003503,3.0,2017-04-24,Сельский,9202,9202,0552e6f5-3a7c-4ee1-9235-09b588ea1ce9,,67263807003,67306000167,21,ceafa479-c56c-498e-8671-fea153be16fc,016,920000000160035,299811,4ce6b6df-24a9-499e-a281-f148663362de,92,пер,2016-04-27,0035,,,2020-08-16,000,0000,000,0,,0000,,0
0,5b522042-1376-4671-a3e0-2708889fc54c,4ce6b6df-24a9-499e-a281-f148663362de,7,000,0,0,000,92000000016003502,2.0,2017-04-24,Сельский,9202,9202,ae1dc67f-35b0-43d4-a5d1-f1db0d159f2c,,67000000000,67306000167,21,ceafa479-c56c-498e-8671-fea153be16fc,016,920000000160035,299811,5b522042-1376-4671-a3e0-2708889fc54c,92,пер,2015-06-29,0035,,,2020-08-16,000,0000,000,0,,0000,,0
0,5b522042-1376-4671-a3e0-2708889fc54c,5b522042-1376-4671-a3e0-2708889fc54c,7,000,0,0,000,92000000016003501,1.0,2079-06-06,Сельский,9202,9202,4ce6b6df-24a9-499e-a281-f148663362de,,67000000000,67000000,10,ceafa479-c56c-498e-8671-fea153be16fc,016,920000000160035,299811,,92,пер,2014-04-18,0035,,,2020-08-16,000,0000,000,0,,0000,,0
1,930e93c9-92a9-4386-86d9-65b099a511e7,475a10e5-df02-417c-8542-c6580aaa512c,7,000,0,0,000,92000000016002000,0.0,2079-06-06,Механическая,9203,9203,,,67263000000,67306000167,20,ceafa479-c56c-498e-8671-fea153be16fc,016,920000000160020,299811,cd8a3b63-89f7-4298-a3c0-43eb4ef7c85d,92,ул,2020-08-14,0020,,,2020-08-16,000,0000,000,1,,0000,,0
0,930e93c9-92a9-4386-86d9-65b099a511e7,cd8a3b63-89f7-4298-a3c0-43eb4ef7c85d,7,000,0,0,000,92000000016002000,0.0,2020-08-14,Механическая,9203,9203,475a10e5-df02-417c-8542-c6580aaa512c,,67263807003,67306000167,21,ceafa479-c56c-498e-8671-fea153be16fc,016,920000000160020,299811,accb40d8-3f4c-4eac-b541-e40395aef819,92,ул,2019-12-26,0020,,,2020-08-16,000,0000,000,0,74a19c42-a50e-4d77-9216-c73c6055d6de,0000,,0
0,930e93c9-92a9-4386-86d9-65b099a511e7,accb40d8-3f4c-4eac-b541-e40395aef819,7,000,0,0,000,92000000016002006,6.0,2019-12-26,Механическая,9203,9203,cd8a3b63-89f7-4298-a3c0-43eb4ef7c85d,,67263807003,67306000,20,ceafa479-c56c-498e-8671-fea153be16fc,016,920000000160020,299811,2ae15c7c-fc03-475d-a517-f009a846b732,92,ул,2019-11-07,0020,,,2020-08-16,000,0000,000,0,ea60a874-b12d-42e1-ad3f-66ef48ef8721,0000,,0
0,930e93c9-92a9-4386-86d9-65b099a511e7,2ae15c7c-fc03-475d-a517-f009a846b732,7,000,0,0,000,92000000016002005,5.0,2019-12-26,Механическая,9203,9203,accb40d8-3f4c-4eac-b541-e40395aef819,,67263807003,67306000,21,ceafa479-c56c-498e-8671-fea153be16fc,016,920000000160020,299811,fc43824c-af08-4aa7-a931-00751d15c2fa,92,ул,2017-04-24,0020,,,2020-08-16,000,0000,000,0,5eb65c4f-d798-4115-9b1e-001cb32403d5,0000,,0
0,930e93c9-92a9-4386-86d9-65b099a511e7,fc43824c-af08-4aa7-a931-00751d15c2fa,7,000,0,0,000,92000000016002004,4.0,2017-04-24,Механическая,9203,9203,2ae15c7c-fc03-475d-a517-f009a846b732,,67263807003,67306000167,21,ceafa479-c56c-498e-8671-fea153be16fc,016,920000000160020,299811,d425e22d-61e8-414f-8d01-997e4ba4a275,92,ул,2016-12-29,0020,,,2020-08-16,000,0000,000,0,ec7b6f64-7f79-46cb-b20d-4530a4f711d6,0000,,0
0,930e93c9-92a9-4386-86d9-65b099a511e7,d425e22d-61e8-414f-8d01-997e4ba4a275,7,000,0,0,000,92000000016002003,3.0,2017-04-24,Механическая,9202,9202,fc43824c-af08-4aa7-a931-00751d15c2fa,,67263807003,67306000167,21,ceafa479-c56c-498e-8671-fea153be16fc,016,920000000160020,299811,00934a49-7732-41ec-92f2-850f126351b4,92,ул,2016-04-27,0020,,,2020-08-16,000,0000,000,0,,0000,,0
0,930e93c9-92a9-4386-86d9-65b099a511e7,00934a49-7732-41ec-92f2-850f126351b4,7,000,0,0,000,92000000016002002,2.0,2017-04-24,Механическая,9202,9202,d425e22d-61e8-414f-8d01-997e4ba4a275,,67000000000,67306000167,21,ceafa479-c56c-498e-8671-fea153be16fc,016,920000000160020,299811,930e93c9-92a9-4386-86d9-65b099a511e7,92,ул,2015-06-29,0020,,,2020-08-16,000,0000,000,0,,0000,,0
0,930e93c9-92a9-4386-86d9-65b099a511e7,930e93c9-92a9-4386-86d9-65b099a511e7,7,000,0,0,000,92000000016002001,1.0,2079-06-06,Механическая,9202,9202,00934a49-7732-41ec-92f2-850f126351b4,,67000000000,67000000,10,ceafa479-c56c-498e-8671-fea153be16fc,016,920000000160020,299811,,92,ул,2014-04-18,0020,,,2020-08-16,000,0000,000,0,,0000,,0
1,c7a00013-5a36-4b0b-bb8a-a44fc10c4dd7,486a139b-d1c4-4464-8f0b-425ec475851a,7,000,0,0,000,92000000002000900,0.0,2079-06-06,Подгорная,9203,9203,,,67269000000,67320000106,20,c664c86c-c464-4222-9f57-7a51a660e85c,002,920000000020009,299814,f69df724-12bd-4b5d-8561-ad94beb5f1c5,92,ул,2020-08-14,0009,,,2020-08-16,000,0000,000,1,,0000,,0
0,c7a00013-5a36-4b0b-bb8a-a44fc10c4dd7,f69df724-12bd-4b5d-8561-ad94beb5f1c5,7,000,0,0,000,92000000002000900,0.0,2020-08-14,Подгорная,9203,9203,486a139b-d1c4-4464-8f0b-425ec475851a,,67269553002,67320000106,21,c664c86c-c464-4222-9f57-7a51a660e85c,002,920000000020009,299814,d9a4c78d-f3e1-41b5-84b2-c0e42e9c9ef5,92,ул,2019-12-23,0009,,,2020-08-16,000,0000,000,0,b0e6d925-d290-4cdf-9110-255fe9bb5ab2,0000,,0
0,c7a00013-5a36-4b0b-bb8a-a44fc10c4dd7,d9a4c78d-f3e1-41b5-84b2-c0e42e9c9ef5,7,000,0,0,000,92000000002000905,5.0,2019-12-23,Подгорная,9203,9203,f69df724-12bd-4b5d-8561-ad94beb5f1c5,,67269553002,67320000,20,c664c86c-c464-4222-9f57-7a51a660e85c,002,920000000020009,299814,64e05c63-c5e6-43c2-b2a3-a2e5fbae4cef,92,ул,2019-11-06,0009,,,2020-08-16,000,0000,000,0,ea60a874-b12d-42e1-ad3f-66ef48ef8721,0000,,0
0,c7a00013-5a36-4b0b-bb8a-a44fc10c4dd7,64e05c63-c5e6-43c2-b2a3-a2e5fbae4cef,7,000,0,0,000,92000000002000904,4.0,2019-12-23,Подгорная,9203,9203,d9a4c78d-f3e1-41b5-84b2-c0e42e9c9ef5,,67269553002,67320000,21,c664c86c-c464-4222-9f57-7a51a660e85c,002,920000000020009,299814,5174c7ed-fe0b-4d1b-b9f8-bc2148f1c6fa,92,ул,2017-04-24,0009,,,2020-08-16,000,0000,000,0,3662f73c-0729-4045-94e8-ce615b35907e,0000,,0
0,c7a00013-5a36-4b0b-bb8a-a44fc10c4dd7,5174c7ed-fe0b-4d1b-b9f8-bc2148f1c6fa,7,000,0,0,000,92000000002000903,3.0,2017-04-24,Подгорная,9203,9203,64e05c63-c5e6-43c2-b2a3-a2e5fbae4cef,,67269553002,67320000106,21,c664c86c-c464-4222-9f57-7a51a660e85c,002,920000000020009,299814,e9c64b3c-1566-46a7-90be-87192b30a4b1,92,ул,2016-04-27,0009,,,2020-08-16,000,0000,000,0,,0000,,0
0,c7a00013-5a36-4b0b-bb8a-a44fc10c4dd7,e9c64b3c-1566-46a7-90be-87192b30a4b1,7,000,0,0,000,92000000002000902,2.0,2017-04-24,Подгорная,9203,9203,5174c7ed-fe0b-4d1b-b9f8-bc2148f1c6fa,,67000000000,67320000106,21,c664c86c-c464-4222-9f57-7a51a660e85c,002,920000000020009,299814,166501e7-bcc3-402c-8798-0ca70003bef2,92,ул,2015-06-29,0009,,,2020-08-16,000,0000,000,0,,0000,,0
0,c7a00013-5a36-4b0b-bb8a-a44fc10c4dd7,166501e7-bcc3-402c-8798-0ca70003bef2,7,000,0,0,000,92000000002000901,1.0,2015-06-29,Подгорная,9203,9203,e9c64b3c-1566-46a7-90be-87192b30a4b1,,67000000000,67000000,50,c664c86c-c464-4222-9f57-7a51a660e85c,002,920000000020009,299814,c7a00013-5a36-4b0b-bb8a-a44fc10c4dd7,92,ул,2014-04-18,0009,,,2020-08-16,000,0000,000,0,,0000,,0
0,c7a00013-5a36-4b0b-bb8a-a44fc10c4dd7,c7a00013-5a36-4b0b-bb8a-a44fc10c4dd7,7,000,0,0,000,92000000004003651,51.0,2079-06-06,Подгорная,9203,9203,166501e7-bcc3-402c-8798-0ca70003bef2,,67000000000,67000000,10,c664c86c-c464-4222-9f57-7a51a660e85c,002,920000000040036,299814,,92,ул,2014-04-18,0009,,,2020-08-16,000,0000,000,0,,0000,,0
1,c8a7cd0f-0481-4466-a6fd-ec5f05b0726f,6952d8ec-5033-4013-8378-bfcd7093b154,7,000,0,0,000,92000000000042200,0.0,2079-06-06,Адмирала Грейга,9204,9204,,,67266000000,67312000,20,6fdecb78-893a-4e3f-a5ba-aa062459463b,000,920000000000422,299055,5a3660ba-a2d6-48b1-b603-b0f190651b6c,92,проезд,2020-08-14,0422,,,2020-08-16,000,0000,000,1,,0000,,0
0,c8a7cd0f-0481-4466-a6fd-ec5f05b0726f,5a3660ba-a2d6-48b1-b603-b0f190651b6c,7,000,0,0,000,92000000000042200,0.0,2020-08-14,Адмирала Грейга,9204,9204,6952d8ec-5033-4013-8378-bfcd7093b154,,67269000000,67312000,21,6fdecb78-893a-4e3f-a5ba-aa062459463b,000,920000000000422,299055,f1b9eae0-6a6b-4658-b5e5-40b2b2b6dcbf,92,проезд,2016-05-16,0422,,,2020-08-16,000,0000,000,0,,0000,,0
0,c8a7cd0f-0481-4466-a6fd-ec5f05b0726f,f1b9eae0-6a6b-4658-b5e5-40b2b2b6dcbf,7,000,0,0,000,92000000000042203,3.0,2016-05-16,Адмирала Грейга,9204,9204,5a3660ba-a2d6-48b1-b603-b0f190651b6c,,67269000000,67312000,21,6fdecb78-893a-4e3f-a5ba-aa062459463b,000,920000000000422,299055,15e5dada-dbe2-4d9f-ac79-4101d0e843a0,92,проезд,2016-05-11,0422,,,2020-08-16,000,0000,000,0,,0000,,0
0,c8a7cd0f-0481-4466-a6fd-ec5f05b0726f,15e5dada-dbe2-4d9f-ac79-4101d0e843a0,7,000,0,0,000,92000000000042202,2.0,2016-05-16,Адмирала Грейга,9204,9204,f1b9eae0-6a6b-4658-b5e5-40b2b2b6dcbf,,67000000000,67312000,21,6fdecb78-893a-4e3f-a5ba-aa062459463b,000,920000000000422,299055,e672fb25-7c06-4ad5-a2f5-6e8eb6af78a5,92,проезд,2015-07-03,0422,,,2020-08-16,000,0000,000,0,,0000,,0
0,c8a7cd0f-0481-4466-a6fd-ec5f05b0726f,e672fb25-7c06-4ad5-a2f5-6e8eb6af78a5,7,000,0,0,000,92000000000042201,1.0,2079-06-06,Адмирала Грейга,9204,9204,15e5dada-dbe2-4d9f-ac79-4101d0e843a0,,67000000000,67000000,1,6fdecb78-893a-4e3f-a5ba-aa062459463b,000,920000000000422,299055,,92,проезд,1900-01-01,0422,,,2020-08-16,000,0000,000,0,,0000,,0
1,7a4130c3-450d-4b65-a6ef-4bea4d48412f,4b181c36-123f-481b-85a5-8a017f055cc3,7,000,0,0,000,92000000016001500,0.0,2079-06-06,Кичигина,9203,9203,,,67263000000,67306000167,20,ceafa479-c56c-498e-8671-fea153be16fc,016,920000000160015,299811,f3f3dcba-38f6-43e7-ad54-93e6824e8ac3,92,ул,2020-08-14,0015,,,2020-08-16,000,0000,000,1,,0000,,0
0,7a4130c3-450d-4b65-a6ef-4bea4d48412f,f3f3dcba-38f6-43e7-ad54-93e6824e8ac3,7,000,0,0,000,92000000016001500,0.0,2020-08-14,Кичигина,9203,9203,4b181c36-123f-481b-85a5-8a017f055cc3,,67263807003,67306000167,21,ceafa479-c56c-498e-8671-fea153be16fc,016,920000000160015,299811,3d0d287c-d7fa-4efc-aea5-16102beccf47,92,ул,2019-12-26,0015,,,2020-08-16,000,0000,000,0,74a19c42-a50e-4d77-9216-c73c6055d6de,0000,,0
0,7a4130c3-450d-4b65-a6ef-4bea4d48412f,3d0d287c-d7fa-4efc-aea5-16102beccf47,7,000,0,0,000,92000000016001506,6.0,2019-12-26,Кичигина,9203,9203,f3f3dcba-38f6-43e7-ad54-93e6824e8ac3,,67263807003,67306000,20,ceafa479-c56c-498e-8671-fea153be16fc,016,920000000160015,299811,fff47ebc-874d-492a-b9a3-b3983e2b5066,92,ул,2019-11-07,0015,,,2020-08-16,000,0000,000,0,ea60a874-b12d-42e1-ad3f-66ef48ef8721,0000,,0
0,7a4130c3-450d-4b65-a6ef-4bea4d48412f,fff47ebc-874d-492a-b9a3-b3983e2b5066,7,000,0,0,000,92000000016001505,5.0,2019-12-26,Кичигина,9203,9203,3d0d287c-d7fa-4efc-aea5-16102beccf47,,67263807003,67306000,21,ceafa479-c56c-498e-8671-fea153be16fc,016,920000000160015,299811,c1add8d3-082b-4ef4-b3d8-2cb1ec705e7d,92,ул,2017-04-24,0015,,,2020-08-16,000,0000,000,0,5eb65c4f-d798-4115-9b1e-001cb32403d5,0000,,0
0,7a4130c3-450d-4b65-a6ef-4bea4d48412f,c1add8d3-082b-4ef4-b3d8-2cb1ec705e7d,7,000,0,0,000,92000000016001504,4.0,2017-04-24,Кичигина,9203,9203,fff47ebc-874d-492a-b9a3-b3983e2b5066,,67263807003,67306000167,21,ceafa479-c56c-498e-8671-fea153be16fc,016,920000000160015,299811,a053c466-6bb0-4480-8ba0-3222a962a679,92,ул,2016-12-29,0015,,,2020-08-16,000,0000,000,0,ec7b6f64-7f79-46cb-b20d-4530a4f711d6,0000,,0
0,7a4130c3-450d-4b65-a6ef-4bea4d48412f,a053c466-6bb0-4480-8ba0-3222a962a679,7,000,0,0,000,92000000016001503,3.0,2017-04-24,Кичигина,9202,9202,c1add8d3-082b-4ef4-b3d8-2cb1ec705e7d,,67263807003,67306000167,21,ceafa479-c56c-498e-8671-fea153be16fc,016,920000000160015,299811,3532b034-3bf6-487f-bcb8-169aa46e8a30,92,ул,2016-04-27,0015,,,2020-08-16,000,0000,000,0,,0000,,0
0,7a4130c3-450d-4b65-a6ef-4bea4d48412f,3532b034-3bf6-487f-bcb8-169aa46e8a30,7,000,0,0,000,92000000016001502,2.0,2017-04-24,Кичигина,9202,9202,a053c466-6bb0-4480-8ba0-3222a962a679,,67000000000,67306000167,21,ceafa479-c56c-498e-8671-fea153be16fc,016,920000000160015,299811,7a4130c3-450d-4b65-a6ef-4bea4d48412f,92,ул,2015-06-29,0015,,,2020-08-16,000,0000,000,0,,0000,,0
0,7a4130c3-450d-4b65-a6ef-4bea4d48412f,7a4130c3-450d-4b65-a6ef-4bea4d48412f,7,000,0,0,000,92000000016001501,1.0,2079-06-06,Кичигина,9202,9202,3532b034-3bf6-487f-bcb8-169aa46e8a30,,67000000000,67000000,10,ceafa479-c56c-498e-8671-fea153be16fc,016,920000000160015,299811,,92,ул,2014-04-18,0015,,,2020-08-16,000,0000,000,0,,0000,,0
1,bea3dea0-abab-4b45-86e6-862c030da56d,1e2f632b-b04f-4799-9532-587125d60bb2,7,000,0,0,000,92000000020000300,0.0,2079-06-06,Братьев Дельяновых,9203,9203,,,67263000000,67306000121,20,a0c06ac3-6f14-4203-8007-d20fd2a5ee66,020,920000000200003,299809,ee405a0b-6567-4dae-8525-3521f99a3280,92,ул,2020-08-14,0003,,,2020-08-16,000,0000,000,1,,0000,,0
0,bea3dea0-abab-4b45-86e6-862c030da56d,ee405a0b-6567-4dae-8525-3521f99a3280,7,000,0,0,000,92000000020000300,0.0,2079-06-06,Братьев Дельяновых,9203,9203,1e2f632b-b04f-4799-9532-587125d60bb2,,67263807011,67306000121,20,a0c06ac3-6f14-4203-8007-d20fd2a5ee66,020,920000000200003,299809,b09e8ae0-0324-408b-bfb1-97f8e25f388c,92,ул,2018-08-02,0003,,,2020-08-16,000,0000,000,0,f721066d-5bf7-4951-af1f-32f0b1f87bf2,0000,,0
0,bea3dea0-abab-4b45-86e6-862c030da56d,b09e8ae0-0324-408b-bfb1-97f8e25f388c,7,000,0,0,000,92000000020000304,4.0,2018-08-02,Демьяновых Братьев,9203,9203,ee405a0b-6567-4dae-8525-3521f99a3280,,67263807011,67306000121,21,a0c06ac3-6f14-4203-8007-d20fd2a5ee66,020,920000000200003,299809,f5b742cf-0e9a-471e-971a-35196b394fda,92,ул,2017-01-01,0003,,,2020-08-16,000,0000,000,0,32d0954d-f270-4a79-bfe9-3acdabb4098f,0000,,0
0,bea3dea0-abab-4b45-86e6-862c030da56d,f5b742cf-0e9a-471e-971a-35196b394fda,7,000,0,0,000,92000000020000303,3.0,2018-08-02,Демьяновых Братьев,9202,9202,b09e8ae0-0324-408b-bfb1-97f8e25f388c,,67263807011,67306000121,21,a0c06ac3-6f14-4203-8007-d20fd2a5ee66,020,920000000200003,299809,3d13bac0-bf69-4bb1-bd42-87edf6fc58f5,92,ул,2016-04-27,0003,,,2020-08-16,000,0000,000,0,,0000,,0
0,bea3dea0-abab-4b45-86e6-862c030da56d,3d13bac0-bf69-4bb1-bd42-87edf6fc58f5,7,000,0,0,000,92000000020000302,2.0,2018-08-02,Демьяновых Братьев,9202,9202,f5b742cf-0e9a-471e-971a-35196b394fda,,67000000000,67306000121,21,a0c06ac3-6f14-4203-8007-d20fd2a5ee66,020,920000000200003,299809,be2678ab-48b2-48b7-8a36-0b51664f93a2,92,ул,2015-06-30,0003,,,2020-08-16,000,0000,000,0,,0000,,0
0,bea3dea0-abab-4b45-86e6-862c030da56d,be2678ab-48b2-48b7-8a36-0b51664f93a2,7,000,0,0,000,92000000020000301,1.0,2015-06-30,Демьяновых Братьев,9202,9202,3d13bac0-bf69-4bb1-bd42-87edf6fc58f5,,67000000000,67000000,50,a0c06ac3-6f14-4203-8007-d20fd2a5ee66,020,920000000200003,299809,bea3dea0-abab-4b45-86e6-862c030da56d,92,ул,2014-04-18,0003,,,2020-08-16,000,0000,000,0,,0000,,0
0,bea3dea0-abab-4b45-86e6-862c030da56d,bea3dea0-abab-4b45-86e6-862c030da56d,7,000,0,0,000,92000000028000751,51.0,2018-08-02,Демьяновых Братьев,9202,9202,be2678ab-48b2-48b7-8a36-0b51664f93a2,,67000000000,67000000,10,a0c06ac3-6f14-4203-8007-d20fd2a5ee66,020,920000000280007,299809,,92,ул,2014-04-18,0003,,,2020-08-16,000,0000,000,0,,0000,,0
1,8780da98-9d9e-4008-9768-ed4aca2a4eb1,a2a625cd-3e8d-40ec-aae7-d91724559789,7,000,0,0,000,92000000000086200,0.0,2079-06-06,Вербеновый,9201,9201,,,67264000000,67310000,20,6fdecb78-893a-4e3f-a5ba-aa062459463b,000,920000000000862,299024,77de8406-4971-41fe-b25b-9a79e89e5792,92,проезд,2020-08-14,0862,,,2020-08-16,000,0000,000,1,,0000,,0
0,8780da98-9d9e-4008-9768-ed4aca2a4eb1,77de8406-4971-41fe-b25b-9a79e89e5792,7,000,0,0,000,92000000000086200,0.0,2020-08-14,Вербеновый,9201,9201,a2a625cd-3e8d-40ec-aae7-d91724559789,,67269000000,67310000,21,6fdecb78-893a-4e3f-a5ba-aa062459463b,000,920000000000862,299024,792e355a-e7d4-462f-8b0b-1b6a1b10c732,92,проезд,2016-05-16,0862,,,2020-08-16,000,0000,000,0,,0000,,0
0,8780da98-9d9e-4008-9768-ed4aca2a4eb1,792e355a-e7d4-462f-8b0b-1b6a1b10c732,7,000,0,0,000,92000000000086203,3.0,2016-05-16,Вербеновый,9201,9201,77de8406-4971-41fe-b25b-9a79e89e5792,,67269000000,67310000,21,6fdecb78-893a-4e3f-a5ba-aa062459463b,000,920000000000862,299024,f74c9aa6-746b-46e8-aa73-2524673c4e9e,92,проезд,2016-05-11,0862,,,2020-08-16,000,0000,000,0,,0000,,0
0,8780da98-9d9e-4008-9768-ed4aca2a4eb1,f74c9aa6-746b-46e8-aa73-2524673c4e9e,7,000,0,0,000,92000000000086202,2.0,2016-05-11,Вербеновый,9201,9201,792e355a-e7d4-462f-8b0b-1b6a1b10c732,,67000000000,67310000,21,6fdecb78-893a-4e3f-a5ba-aa062459463b,000,920000000000862,299024,8780da98-9d9e-4008-9768-ed4aca2a4eb1,92,проезд,2015-07-03,0862,,,2020-08-16,000,0000,000,0,,0000,,0
0,8780da98-9d9e-4008-9768-ed4aca2a4eb1,8780da98-9d9e-4008-9768-ed4aca2a4eb1,7,000,0,0,000,92000000000086201,1.0,2079-06-06,Вербеновый,9201,9201,f74c9aa6-746b-46e8-aa73-2524673c4e9e,,67000000000,67000000,10,6fdecb78-893a-4e3f-a5ba-aa062459463b,000,920000000000862,299014,,92,проезд,2014-04-18,0862,,,2020-08-16,000,0000,000,0,,0000,,0
1,a5f79543-2b46-40a7-980a-30e8601bfc25,e832ba35-f6f4-4efb-86b8-681a96c0dd2d,7,000,0,0,000,92000000002000700,0.0,2079-06-06,Киселева,9203,9203,,,67269000000,67320000106,20,c664c86c-c464-4222-9f57-7a51a660e85c,002,920000000020007,299814,e0493918-ddfb-4bfa-bf0f-bc9450c12155,92,ул,2020-08-14,0007,,,2020-08-16,000,0000,000,1,,0000,,0
0,a5f79543-2b46-40a7-980a-30e8601bfc25,e0493918-ddfb-4bfa-bf0f-bc9450c12155,7,000,0,0,000,92000000002000700,0.0,2020-08-14,Киселева,9203,9203,e832ba35-f6f4-4efb-86b8-681a96c0dd2d,,67269553002,67320000106,21,c664c86c-c464-4222-9f57-7a51a660e85c,002,920000000020007,299814,be4e7ede-3612-4b67-ba5a-ef61ad1ad2f1,92,ул,2019-12-23,0007,,,2020-08-16,000,0000,000,0,b0e6d925-d290-4cdf-9110-255fe9bb5ab2,0000,,0
0,a5f79543-2b46-40a7-980a-30e8601bfc25,be4e7ede-3612-4b67-ba5a-ef61ad1ad2f1,7,000,0,0,000,92000000002000705,5.0,2019-12-23,Киселева,9203,9203,e0493918-ddfb-4bfa-bf0f-bc9450c12155,,67269553002,67320000106,20,c664c86c-c464-4222-9f57-7a51a660e85c,002,920000000020007,299814,3d23c91f-08e7-46c5-b1b7-dc976739a1f2,92,ул,2019-11-06,0007,,,2020-08-16,000,0000,000,0,ea60a874-b12d-42e1-ad3f-66ef48ef8721,0000,,0
0,a5f79543-2b46-40a7-980a-30e8601bfc25,3d23c91f-08e7-46c5-b1b7-dc976739a1f2,7,000,0,0,000,92000000002000704,4.0,2019-11-06,Киселева,9203,9203,be4e7ede-3612-4b67-ba5a-ef61ad1ad2f1,,67269553002,67320000,21,c664c86c-c464-4222-9f57-7a51a660e85c,002,920000000020007,299814,6d1e1606-82b2-48df-987f-4fabf80be43a,92,ул,2017-04-24,0007,,,2020-08-16,000,0000,000,0,3662f73c-0729-4045-94e8-ce615b35907e,0000,,0
0,a5f79543-2b46-40a7-980a-30e8601bfc25,6d1e1606-82b2-48df-987f-4fabf80be43a,7,000,0,0,000,92000000002000703,3.0,2017-04-24,Киселева,9203,9203,3d23c91f-08e7-46c5-b1b7-dc976739a1f2,,67269553002,67320000106,21,c664c86c-c464-4222-9f57-7a51a660e85c,002,920000000020007,299814,a687ea74-3779-458a-927d-10bb964b5e2b,92,ул,2016-04-27,0007,,,2020-08-16,000,0000,000,0,,0000,,0
0,a5f79543-2b46-40a7-980a-30e8601bfc25,a687ea74-3779-458a-927d-10bb964b5e2b,7,000,0,0,000,92000000002000702,2.0,2017-04-24,Киселева,9203,9203,6d1e1606-82b2-48df-987f-4fabf80be43a,,67000000000,67320000106,21,c664c86c-c464-4222-9f57-7a51a660e85c,002,920000000020007,299814,e2926a7c-4b66-426b-bfa1-b04acdbbb7dc,92,ул,2015-06-29,0007,,,2020-08-16,000,0000,000,0,,0000,,0
0,a5f79543-2b46-40a7-980a-30e8601bfc25,e2926a7c-4b66-426b-bfa1-b04acdbbb7dc,7,000,0,0,000,92000000002000701,1.0,2015-06-29,Киселева,9203,9203,a687ea74-3779-458a-927d-10bb964b5e2b,,67000000000,67000000,50,c664c86c-c464-4222-9f57-7a51a660e85c,002,920000000020007,299814,a5f79543-2b46-40a7-980a-30e8601bfc25,92,ул,2014-04-18,0007,,,2020-08-16,000,0000,000,0,,0000,,0
0,a5f79543-2b46-40a7-980a-30e8601bfc25,a5f79543-2b46-40a7-980a-30e8601bfc25,7,000,0,0,000,92000000004002351,51.0,2079-06-06,Киселева,9203,9203,e2926a7c-4b66-426b-bfa1-b04acdbbb7dc,,67000000000,67000000,10,c664c86c-c464-4222-9f57-7a51a660e85c,002,920000000040023,299814,,92,ул,2014-04-18,0007,,,2020-08-16,000,0000,000,0,,0000,,0
1,41cba4a0-60ee-4b13-93a9-7e6109b589f7,9465615c-530a-4625-bc83-06c2c2d2238f,7,000,0,0,000,92000000016001300,0.0,2079-06-06,Дрыгина,9203,9203,,,67263000000,67306000167,20,ceafa479-c56c-498e-8671-fea153be16fc,016,920000000160013,299811,8fdf7126-1bb4-413b-9897-0299b817e5ca,92,ул,2020-08-14,0013,,,2020-08-16,000,0000,000,1,,0000,,0
0,41cba4a0-60ee-4b13-93a9-7e6109b589f7,8fdf7126-1bb4-413b-9897-0299b817e5ca,7,000,0,0,000,92000000016001300,0.0,2020-08-14,Дрыгина,9203,9203,9465615c-530a-4625-bc83-06c2c2d2238f,,67263807003,67306000167,21,ceafa479-c56c-498e-8671-fea153be16fc,016,920000000160013,299811,5cc999aa-9157-40d1-8155-cb12befb57ae,92,ул,2019-12-26,0013,,,2020-08-16,000,0000,000,0,74a19c42-a50e-4d77-9216-c73c6055d6de,0000,,0
0,41cba4a0-60ee-4b13-93a9-7e6109b589f7,5cc999aa-9157-40d1-8155-cb12befb57ae,7,000,0,0,000,92000000016001306,6.0,2019-12-26,Дрыгина,9203,9203,8fdf7126-1bb4-413b-9897-0299b817e5ca,,67263807003,67306000,20,ceafa479-c56c-498e-8671-fea153be16fc,016,920000000160013,299811,f738b040-986a-41fc-b63e-e2e597b9a093,92,ул,2019-11-07,0013,,,2020-08-16,000,0000,000,0,ea60a874-b12d-42e1-ad3f-66ef48ef8721,0000,,0
0,41cba4a0-60ee-4b13-93a9-7e6109b589f7,f738b040-986a-41fc-b63e-e2e597b9a093,7,000,0,0,000,92000000016001305,5.0,2019-12-26,Дрыгина,9203,9203,5cc999aa-9157-40d1-8155-cb12befb57ae,,67263807003,67306000,21,ceafa479-c56c-498e-8671-fea153be16fc,016,920000000160013,299811,0623759c-06d4-4b35-b51e-7bfc5514464e,92,ул,2017-04-24,0013,,,2020-08-16,000,0000,000,0,5eb65c4f-d798-4115-9b1e-001cb32403d5,0000,,0
0,41cba4a0-60ee-4b13-93a9-7e6109b589f7,0623759c-06d4-4b35-b51e-7bfc5514464e,7,000,0,0,000,92000000016001304,4.0,2017-04-24,Дрыгина,9203,9203,f738b040-986a-41fc-b63e-e2e597b9a093,,67263807003,67306000167,21,ceafa479-c56c-498e-8671-fea153be16fc,016,920000000160013,299811,58c68e40-ddeb-45fe-a53c-e7b74d914481,92,ул,2016-12-29,0013,,,2020-08-16,000,0000,000,0,ec7b6f64-7f79-46cb-b20d-4530a4f711d6,0000,,0
0,41cba4a0-60ee-4b13-93a9-7e6109b589f7,58c68e40-ddeb-45fe-a53c-e7b74d914481,7,000,0,0,000,92000000016001303,3.0,2017-04-24,Дрыгина,9202,9202,0623759c-06d4-4b35-b51e-7bfc5514464e,,67263807003,67306000167,21,ceafa479-c56c-498e-8671-fea153be16fc,016,920000000160013,299811,d1f05bda-fa96-463f-864f-632d7b12b576,92,ул,2016-04-27,0013,,,2020-08-16,000,0000,000,0,,0000,,0
0,41cba4a0-60ee-4b13-93a9-7e6109b589f7,d1f05bda-fa96-463f-864f-632d7b12b576,7,000,0,0,000,92000000016001302,2.0,2017-04-24,Дрыгина,9202,9202,58c68e40-ddeb-45fe-a53c-e7b74d914481,,67000000000,67306000167,21,ceafa479-c56c-498e-8671-fea153be16fc,016,920000000160013,299811,41cba4a0-60ee-4b13-93a9-7e6109b589f7,92,ул,2015-06-29,0013,,,2020-08-16,000,0000,000,0,,0000,,0
0,41cba4a0-60ee-4b13-93a9-7e6109b589f7,41cba4a0-60ee-4b13-93a9-7e6109b589f7,7,000,0,0,000,92000000016001301,1.0,2079-06-06,Дрыгина,9202,9202,d1f05bda-fa96-463f-864f-632d7b12b576,,67000000000,67000000,10,ceafa479-c56c-498e-8671-fea153be16fc,016,920000000160013,299811,,92,ул,2014-04-18,0013,,,2020-08-16,000,0000,000,0,,0000,,0
1,d86098ae-e9b4-4def-80af-bb49497380a0,3112beda-96c9-44d2-a922-8ad0ad14d301,7,000,0,0,000,92000000016000400,0.0,2079-06-06,Варнаутская,9203,9203,,,67263000000,67306000167,20,ceafa479-c56c-498e-8671-fea153be16fc,016,920000000160004,299811,7e6c2dc9-1be9-462a-ae88-257cc1d9450b,92,ул,2020-08-14,0004,,,2020-08-16,000,0000,000,1,,0000,,0
0,d86098ae-e9b4-4def-80af-bb49497380a0,7e6c2dc9-1be9-462a-ae88-257cc1d9450b,7,000,0,0,000,92000000016000400,0.0,2020-08-14,Варнаутская,9203,9203,3112beda-96c9-44d2-a922-8ad0ad14d301,,67263807003,67306000167,21,ceafa479-c56c-498e-8671-fea153be16fc,016,920000000160004,299811,d0a800c1-0ad1-4910-8f7a-2a88af60eaf2,92,ул,2019-12-26,0004,,,2020-08-16,000,0000,000,0,74a19c42-a50e-4d77-9216-c73c6055d6de,0000,,0
0,d86098ae-e9b4-4def-80af-bb49497380a0,d0a800c1-0ad1-4910-8f7a-2a88af60eaf2,7,000,0,0,000,92000000016000405,5.0,2019-12-26,Варнаутская,9203,9203,7e6c2dc9-1be9-462a-ae88-257cc1d9450b,,67263807003,67306000167,20,ceafa479-c56c-498e-8671-fea153be16fc,016,920000000160004,299811,3d31b9db-7e37-45d3-b5e5-0ccf582d889d,92,ул,2019-11-07,0004,,,2020-08-16,000,0000,000,0,ea60a874-b12d-42e1-ad3f-66ef48ef8721,0000,,0
0,d86098ae-e9b4-4def-80af-bb49497380a0,3d31b9db-7e37-45d3-b5e5-0ccf582d889d,7,000,0,0,000,92000000016000404,4.0,2019-11-07,Варнаутская,9203,9203,d0a800c1-0ad1-4910-8f7a-2a88af60eaf2,,67263807003,67306000167,21,ceafa479-c56c-498e-8671-fea153be16fc,016,920000000160004,299811,5439da6d-8f7d-455c-a2d9-1f94ddb7ea0f,92,ул,2016-12-29,0004,,,2020-08-16,000,0000,000,0,ec7b6f64-7f79-46cb-b20d-4530a4f711d6,0000,,0
0,d86098ae-e9b4-4def-80af-bb49497380a0,5439da6d-8f7d-455c-a2d9-1f94ddb7ea0f,7,000,0,0,000,92000000016000403,3.0,2016-12-29,Варнаутская,9202,9202,3d31b9db-7e37-45d3-b5e5-0ccf582d889d,,67263807003,67306000167,21,ceafa479-c56c-498e-8671-fea153be16fc,016,920000000160004,299811,df442043-bf9b-428b-99cf-767aab5a3f6a,92,ул,2016-04-27,0004,,,2020-08-16,000,0000,000,0,,0000,,0
0,d86098ae-e9b4-4def-80af-bb49497380a0,df442043-bf9b-428b-99cf-767aab5a3f6a,7,000,0,0,000,92000000016000402,2.0,2016-12-29,Варнаутская,9202,9202,5439da6d-8f7d-455c-a2d9-1f94ddb7ea0f,,67000000000,67306000167,21,ceafa479-c56c-498e-8671-fea153be16fc,016,920000000160004,299811,d86098ae-e9b4-4def-80af-bb49497380a0,92,ул,2015-06-29,0004,,,2020-08-16,000,0000,000,0,,0000,,0
0,d86098ae-e9b4-4def-80af-bb49497380a0,d86098ae-e9b4-4def-80af-bb49497380a0,7,000,0,0,000,92000000016000401,1.0,2079-06-06,Варнаутская,9202,9202,df442043-bf9b-428b-99cf-767aab5a3f6a,,67000000000,67000000,10,ceafa479-c56c-498e-8671-fea153be16fc,016,920000000160004,299811,,92,ул,2014-04-18,0004,,,2020-08-16,000,0000,000,0,,0000,,0
1,4870ae78-f3b2-4ca7-b1b3-fbc2dff1fe9c,ddb2463a-6726-416e-b4f2-82dd958a8424,7,000,0,0,000,92000000002000600,0.0,2079-06-06,Качинская,9203,9203,,,67269000000,67320000106,20,c664c86c-c464-4222-9f57-7a51a660e85c,002,920000000020006,299814,508944e7-2d95-4ea9-9c2e-6d35bc4a5b9f,92,ул,2020-08-14,0006,,,2020-08-16,000,0000,000,1,,0000,,0
0,4870ae78-f3b2-4ca7-b1b3-fbc2dff1fe9c,508944e7-2d95-4ea9-9c2e-6d35bc4a5b9f,7,000,0,0,000,92000000002000600,0.0,2020-08-14,Качинская,9203,9203,ddb2463a-6726-416e-b4f2-82dd958a8424,,67000000000,67320000106,21,c664c86c-c464-4222-9f57-7a51a660e85c,002,920000000020006,299814,3e98aa99-10c5-4a58-ada2-a7a3ae13b81c,92,ул,2019-12-23,0006,,,2020-08-16,000,0000,000,0,b0e6d925-d290-4cdf-9110-255fe9bb5ab2,0000,,0
0,4870ae78-f3b2-4ca7-b1b3-fbc2dff1fe9c,3e98aa99-10c5-4a58-ada2-a7a3ae13b81c,7,000,0,0,000,92000000002000605,5.0,2019-12-23,Качинская,9203,9203,508944e7-2d95-4ea9-9c2e-6d35bc4a5b9f,,67000000000,67320000106,20,c664c86c-c464-4222-9f57-7a51a660e85c,002,920000000020006,299814,3dc86715-101d-443c-9589-b39e074491d0,92,ул,2019-11-06,0006,,,2020-08-16,000,0000,000,0,ea60a874-b12d-42e1-ad3f-66ef48ef8721,0000,,0
0,4870ae78-f3b2-4ca7-b1b3-fbc2dff1fe9c,3dc86715-101d-443c-9589-b39e074491d0,7,000,0,0,000,92000000002000604,4.0,2019-11-06,Качинская,9203,9203,3e98aa99-10c5-4a58-ada2-a7a3ae13b81c,,67000000000,67320000,21,c664c86c-c464-4222-9f57-7a51a660e85c,002,920000000020006,299814,6e5355c7-8de4-4f7b-8e28-00997a9eb047,92,ул,2017-04-24,0006,,,2020-08-16,000,0000,000,0,3662f73c-0729-4045-94e8-ce615b35907e,0000,,0
0,4870ae78-f3b2-4ca7-b1b3-fbc2dff1fe9c,6e5355c7-8de4-4f7b-8e28-00997a9eb047,7,000,0,0,000,92000000002000603,3.0,2017-04-24,Качинская,9203,9203,3dc86715-101d-443c-9589-b39e074491d0,,67000000000,67320000106,21,c664c86c-c464-4222-9f57-7a51a660e85c,002,920000000020006,299814,c225abbd-3853-49bb-912a-77e06c218bda,92,ул,2016-04-27,0006,,,2020-08-16,000,0000,000,0,,0000,,0
0,4870ae78-f3b2-4ca7-b1b3-fbc2dff1fe9c,c225abbd-3853-49bb-912a-77e06c218bda,7,000,0,0,000,92000000002000602,2.0,2017-04-24,Качинская,9203,9203,6e5355c7-8de4-4f7b-8e28-00997a9eb047,,67000000000,67320000106,21,c664c86c-c464-4222-9f57-7a51a660e85c,002,920000000020006,299814,12565c53-c5a5-4586-83e4-b89ab248d3eb,92,ул,2015-06-29,0006,,,2020-08-16,000,0000,000,0,,0000,,0
0,4870ae78-f3b2-4ca7-b1b3-fbc2dff1fe9c,12565c53-c5a5-4586-83e4-b89ab248d3eb,7,000,0,0,000,92000000002000601,1.0,2015-06-29,Качинская,9203,9203,c225abbd-3853-49bb-912a-77e06c218bda,,67000000000,67000000,50,c664c86c-c464-4222-9f57-7a51a660e85c,002,920000000020006,299814,4870ae78-f3b2-4ca7-b1b3-fbc2dff1fe9c,92,ул,2014-04-18,0006,,,2020-08-16,000,0000,000,0,,0000,,0
0,4870ae78-f3b2-4ca7-b1b3-fbc2dff1fe9c,4870ae78-f3b2-4ca7-b1b3-fbc2dff1fe9c,7,000,0,0,000,92000000004002151,51.0,2079-06-06,Качинская,9203,9203,12565c53-c5a5-4586-83e4-b89ab248d3eb,,67000000000,67000000,10,c664c86c-c464-4222-9f57-7a51a660e85c,002,920000000040021,299814,,92,ул,2014-04-18,0006,,,2020-08-16,000,0000,000,0,,0000,,0
1,96db32da-7aab-4590-81de-44e7ddf65f63,28b9b356-2403-414a-90e2-85a30a02d917,7,000,0,0,000,92000000016003000,0.0,2079-06-06,Резервная,9203,9203,,,67263000000,67306000167,20,ceafa479-c56c-498e-8671-fea153be16fc,016,920000000160030,299811,dd8dfa79-5fab-4758-ba64-547829c0c556,92,ул,2020-08-14,0030,,,2020-08-16,000,0000,000,1,,0000,,0
0,96db32da-7aab-4590-81de-44e7ddf65f63,dd8dfa79-5fab-4758-ba64-547829c0c556,7,000,0,0,000,92000000016003000,0.0,2020-08-14,Резервная,9203,9203,28b9b356-2403-414a-90e2-85a30a02d917,,67263807003,67306000167,21,ceafa479-c56c-498e-8671-fea153be16fc,016,920000000160030,299811,3be58904-be26-44b2-b9eb-ba91ba30c5a9,92,ул,2019-12-26,0030,,,2020-08-16,000,0000,000,0,74a19c42-a50e-4d77-9216-c73c6055d6de,0000,,0
0,96db32da-7aab-4590-81de-44e7ddf65f63,3be58904-be26-44b2-b9eb-ba91ba30c5a9,7,000,0,0,000,92000000016003006,6.0,2019-12-26,Резервная,9203,9203,dd8dfa79-5fab-4758-ba64-547829c0c556,,67263807003,67306000,20,ceafa479-c56c-498e-8671-fea153be16fc,016,920000000160030,299811,1ab82326-109b-4048-9be7-ecdd01ee7b4d,92,ул,2019-11-07,0030,,,2020-08-16,000,0000,000,0,ea60a874-b12d-42e1-ad3f-66ef48ef8721,0000,,0
0,96db32da-7aab-4590-81de-44e7ddf65f63,1ab82326-109b-4048-9be7-ecdd01ee7b4d,7,000,0,0,000,92000000016003005,5.0,2019-12-26,Резервная,9203,9203,3be58904-be26-44b2-b9eb-ba91ba30c5a9,,67263807003,67306000,21,ceafa479-c56c-498e-8671-fea153be16fc,016,920000000160030,299811,c12be00a-4887-4282-b0a5-3f5379b919b7,92,ул,2017-04-24,0030,,,2020-08-16,000,0000,000,0,5eb65c4f-d798-4115-9b1e-001cb32403d5,0000,,0
0,96db32da-7aab-4590-81de-44e7ddf65f63,c12be00a-4887-4282-b0a5-3f5379b919b7,7,000,0,0,000,92000000016003004,4.0,2017-04-24,Резервная,9203,9203,1ab82326-109b-4048-9be7-ecdd01ee7b4d,,67263807003,67306000167,21,ceafa479-c56c-498e-8671-fea153be16fc,016,920000000160030,299811,2e4f3296-0ae3-4e4c-a511-cd4fbdbc33a0,92,ул,2016-12-29,0030,,,2020-08-16,000,0000,000,0,ec7b6f64-7f79-46cb-b20d-4530a4f711d6,0000,,0
0,96db32da-7aab-4590-81de-44e7ddf65f63,2e4f3296-0ae3-4e4c-a511-cd4fbdbc33a0,7,000,0,0,000,92000000016003003,3.0,2017-04-24,Резервная,9202,9202,c12be00a-4887-4282-b0a5-3f5379b919b7,,67263807003,67306000167,21,ceafa479-c56c-498e-8671-fea153be16fc,016,920000000160030,299811,6da14e67-cb64-4852-a9e1-6c44ced5b3a8,92,ул,2016-04-27,0030,,,2020-08-16,000,0000,000,0,,0000,,0
0,96db32da-7aab-4590-81de-44e7ddf65f63,6da14e67-cb64-4852-a9e1-6c44ced5b3a8,7,000,0,0,000,92000000016003002,2.0,2017-04-24,Резервная,9202,9202,2e4f3296-0ae3-4e4c-a511-cd4fbdbc33a0,,67000000000,67306000167,21,ceafa479-c56c-498e-8671-fea153be16fc,016,920000000160030,299811,96db32da-7aab-4590-81de-44e7ddf65f63,92,ул,2015-06-29,0030,,,2020-08-16,000,0000,000,0,,0000,,0
0,96db32da-7aab-4590-81de-44e7ddf65f63,96db32da-7aab-4590-81de-44e7ddf65f63,7,000,0,0,000,92000000016003001,1.0,2079-06-06,Резервная,9202,9202,6da14e67-cb64-4852-a9e1-6c44ced5b3a8,,67000000000,67000000,10,ceafa479-c56c-498e-8671-fea153be16fc,016,920000000160030,299811,,92,ул,2014-04-18,0030,,,2020-08-16,000,0000,000,0,,0000,,0
1,e4d6c81e-2a3f-40f9-b47a-872eb274be3f,6869920b-c42e-43e6-8e6f-4f73f918c347,7,000,0,0,000,92000000020000100,0.0,2079-06-06,Вилина,9203,9203,,,67263000000,67306000121,20,a0c06ac3-6f14-4203-8007-d20fd2a5ee66,020,920000000200001,299809,45bf8f65-26d4-49ce-856b-9593c52fdd93,92,ул,2020-08-14,0001,,,2020-08-16,000,0000,000,1,,0000,,0
0,e4d6c81e-2a3f-40f9-b47a-872eb274be3f,45bf8f65-26d4-49ce-856b-9593c52fdd93,7,000,0,0,000,92000000020000100,0.0,2020-08-14,Вилина,9203,9203,6869920b-c42e-43e6-8e6f-4f73f918c347,,67263807011,67306000121,21,a0c06ac3-6f14-4203-8007-d20fd2a5ee66,020,920000000200001,299809,883136b4-3ce3-45cb-8e04-9b0a139fec0a,92,ул,2017-01-01,0001,,,2020-08-16,000,0000,000,0,32d0954d-f270-4a79-bfe9-3acdabb4098f,0000,,0
0,e4d6c81e-2a3f-40f9-b47a-872eb274be3f,883136b4-3ce3-45cb-8e04-9b0a139fec0a,7,000,0,0,000,92000000020000103,3.0,2017-01-01,Вилина,9202,9202,45bf8f65-26d4-49ce-856b-9593c52fdd93,,67263807011,67306000121,21,a0c06ac3-6f14-4203-8007-d20fd2a5ee66,020,920000000200001,299809,2c30317b-7384-47bb-a2c5-463db8f180e2,92,ул,2016-04-27,0001,,,2020-08-16,000,0000,000,0,,0000,,0
0,e4d6c81e-2a3f-40f9-b47a-872eb274be3f,2c30317b-7384-47bb-a2c5-463db8f180e2,7,000,0,0,000,92000000020000102,2.0,2017-01-01,Вилина,9202,9202,883136b4-3ce3-45cb-8e04-9b0a139fec0a,,67000000000,67306000121,21,a0c06ac3-6f14-4203-8007-d20fd2a5ee66,020,920000000200001,299809,6b2398d2-a38c-491b-8ad9-5d5ddc79ba90,92,ул,2015-06-30,0001,,,2020-08-16,000,0000,000,0,,0000,,0
0,e4d6c81e-2a3f-40f9-b47a-872eb274be3f,6b2398d2-a38c-491b-8ad9-5d5ddc79ba90,7,000,0,0,000,92000000020000101,1.0,2015-06-30,Вилина,9202,9202,2c30317b-7384-47bb-a2c5-463db8f180e2,,67000000000,67000000,50,a0c06ac3-6f14-4203-8007-d20fd2a5ee66,020,920000000200001,299809,e4d6c81e-2a3f-40f9-b47a-872eb274be3f,92,ул,2014-04-18,0001,,,2020-08-16,000,0000,000,0,,0000,,0
0,e4d6c81e-2a3f-40f9-b47a-872eb274be3f,e4d6c81e-2a3f-40f9-b47a-872eb274be3f,7,000,0,0,000,92000000028000451,51.0,2079-06-06,Вилина,9202,9202,6b2398d2-a38c-491b-8ad9-5d5ddc79ba90,,67000000000,67000000,10,a0c06ac3-6f14-4203-8007-d20fd2a5ee66,020,920000000280004,299809,,92,ул,2014-04-18,0001,,,2020-08-16,000,0000,000,0,,0000,,0
1,ad9bf2e4-415b-453c-856c-7625eabcd9db,03a4a793-1fb2-4e24-97e5-ebc440076766,7,000,0,0,000,92000000000044400,0.0,2079-06-06,Школьный,9204,9204,,,67266000000,67312000,20,6fdecb78-893a-4e3f-a5ba-aa062459463b,000,920000000000444,299007,94ca6f78-e279-483c-8d08-2f6d92b30bed,92,пер,2020-08-14,0444,,,2020-08-16,000,0000,000,1,,0000,,0
0,ad9bf2e4-415b-453c-856c-7625eabcd9db,94ca6f78-e279-483c-8d08-2f6d92b30bed,7,000,0,0,000,92000000000044400,0.0,2020-08-14,Школьный,9204,9204,03a4a793-1fb2-4e24-97e5-ebc440076766,,67269000000,67312000,20,6fdecb78-893a-4e3f-a5ba-aa062459463b,000,920000000000444,299007,bad8ff8a-eb7b-4bef-bec5-34a229531afc,92,пер,2018-01-17,0444,,,2020-08-16,000,0000,000,0,d7fa7071-4d8c-4fba-abe8-60718865a55c,0000,,0
0,ad9bf2e4-415b-453c-856c-7625eabcd9db,bad8ff8a-eb7b-4bef-bec5-34a229531afc,7,000,0,0,000,92000000000044404,4.0,2018-01-17,Школьный,9204,9204,94ca6f78-e279-483c-8d08-2f6d92b30bed,,67269000000,67312000,21,6fdecb78-893a-4e3f-a5ba-aa062459463b,000,920000000000444,299007,48dc91a4-8448-4677-8b26-b3672e1980a3,92,пер,2016-05-16,0444,,,2020-08-16,000,0000,000,0,,0000,,0
0,ad9bf2e4-415b-453c-856c-7625eabcd9db,48dc91a4-8448-4677-8b26-b3672e1980a3,7,000,0,0,000,92000000000044403,3.0,2016-05-16,Школьный,9204,9204,bad8ff8a-eb7b-4bef-bec5-34a229531afc,,67269000000,67312000,21,6fdecb78-893a-4e3f-a5ba-aa062459463b,000,920000000000444,299007,8b5ee565-84ea-48ad-969e-86ea94e54cd4,92,пер,2016-05-11,0444,,,2020-08-16,000,0000,000,0,,0000,,0
0,ad9bf2e4-415b-453c-856c-7625eabcd9db,8b5ee565-84ea-48ad-969e-86ea94e54cd4,7,000,0,0,000,92000000000044402,2.0,2018-01-17,Школьный,9204,9204,48dc91a4-8448-4677-8b26-b3672e1980a3,,67000000000,67312000,21,6fdecb78-893a-4e3f-a5ba-aa062459463b,000,920000000000444,299007,cbac34d9-4cf8-4fd8-a8ca-e5caaa662a0d,92,пер,2015-07-27,0444,,,2020-08-16,000,0000,000,0,,0000,,0
0,ad9bf2e4-415b-453c-856c-7625eabcd9db,cbac34d9-4cf8-4fd8-a8ca-e5caaa662a0d,7,000,0,0,000,92000000000044401,1.0,2079-06-06,Школьный,9204,9204,8b5ee565-84ea-48ad-969e-86ea94e54cd4,,67000000000,67000000,1,6fdecb78-893a-4e3f-a5ba-aa062459463b,000,920000000000444,299007,,92,пер,1900-01-01,0444,,,2020-08-16,000,0000,000,0,,0000,,0
1,810bf4a6-7438-4d1f-8440-a1ec25b028ef,ad1cc640-77f5-4ffc-8f31-6e1561476a3f,7,000,0,0,000,92000000002000800,0.0,2079-06-06,Мира,9203,9203,,,67269000000,67320000106,20,c664c86c-c464-4222-9f57-7a51a660e85c,002,920000000020008,299814,e89465fe-63de-4484-acdd-5362f778433a,92,ул,2020-08-14,0008,,,2020-08-16,000,0000,000,1,,0000,,0
0,810bf4a6-7438-4d1f-8440-a1ec25b028ef,e89465fe-63de-4484-acdd-5362f778433a,7,000,0,0,000,92000000002000800,0.0,2020-08-14,Мира,9203,9203,ad1cc640-77f5-4ffc-8f31-6e1561476a3f,,67269553002,67320000106,21,c664c86c-c464-4222-9f57-7a51a660e85c,002,920000000020008,299814,2b4b5d6e-51fd-40c8-b65d-42b190291748,92,ул,2019-12-23,0008,,,2020-08-16,000,0000,000,0,b0e6d925-d290-4cdf-9110-255fe9bb5ab2,0000,,0
0,810bf4a6-7438-4d1f-8440-a1ec25b028ef,2b4b5d6e-51fd-40c8-b65d-42b190291748,7,000,0,0,000,92000000002000805,5.0,2019-12-23,Мира,9203,9203,e89465fe-63de-4484-acdd-5362f778433a,,67269553002,67320000106,20,c664c86c-c464-4222-9f57-7a51a660e85c,002,920000000020008,299814,c1e8fe97-1518-45c9-9be6-beb098a97067,92,ул,2019-11-06,0008,,,2020-08-16,000,0000,000,0,ea60a874-b12d-42e1-ad3f-66ef48ef8721,0000,,0
0,810bf4a6-7438-4d1f-8440-a1ec25b028ef,c1e8fe97-1518-45c9-9be6-beb098a97067,7,000,0,0,000,92000000002000804,4.0,2019-11-06,Мира,9203,9203,2b4b5d6e-51fd-40c8-b65d-42b190291748,,67269553002,67320000,21,c664c86c-c464-4222-9f57-7a51a660e85c,002,920000000020008,299814,a39a3de1-671b-4e62-8358-3437069b09d9,92,ул,2017-04-24,0008,,,2020-08-16,000,0000,000,0,3662f73c-0729-4045-94e8-ce615b35907e,0000,,0
0,810bf4a6-7438-4d1f-8440-a1ec25b028ef,a39a3de1-671b-4e62-8358-3437069b09d9,7,000,0,0,000,92000000002000803,3.0,2017-04-24,Мира,9203,9203,c1e8fe97-1518-45c9-9be6-beb098a97067,,67269553002,67320000106,21,c664c86c-c464-4222-9f57-7a51a660e85c,002,920000000020008,299814,06286190-838f-4823-ac28-6f92a22c0ded,92,ул,2016-04-27,0008,,,2020-08-16,000,0000,000,0,,0000,,0
0,810bf4a6-7438-4d1f-8440-a1ec25b028ef,06286190-838f-4823-ac28-6f92a22c0ded,7,000,0,0,000,92000000002000802,2.0,2017-04-24,Мира,9203,9203,a39a3de1-671b-4e62-8358-3437069b09d9,,67000000000,67320000106,21,c664c86c-c464-4222-9f57-7a51a660e85c,002,920000000020008,299814,9f2f354b-9f4c-4771-8441-b3aa39a346ff,92,ул,2015-06-29,0008,,,2020-08-16,000,0000,000,0,,0000,,0
0,810bf4a6-7438-4d1f-8440-a1ec25b028ef,9f2f354b-9f4c-4771-8441-b3aa39a346ff,7,000,0,0,000,92000000002000801,1.0,2015-06-29,Мира,9203,9203,06286190-838f-4823-ac28-6f92a22c0ded,,67000000000,67000000,50,c664c86c-c464-4222-9f57-7a51a660e85c,002,920000000020008,299814,810bf4a6-7438-4d1f-8440-a1ec25b028ef,92,ул,2014-04-18,0008,,,2020-08-16,000,0000,000,0,,0000,,0
0,810bf4a6-7438-4d1f-8440-a1ec25b028ef,810bf4a6-7438-4d1f-8440-a1ec25b028ef,7,000,0,0,000,92000000004003051,51.0,2079-06-06,Мира,9203,9203,9f2f354b-9f4c-4771-8441-b3aa39a346ff,,67000000000,67000000,10,c664c86c-c464-4222-9f57-7a51a660e85c,002,920000000040030,299814,,92,ул,2014-04-18,0008,,,2020-08-16,000,0000,000,0,,0000,,0
1,ed74319c-5893-430f-9c1d-d151da67d690,fa0a7198-dfaa-4863-8b9e-081b3f93cf92,7,000,0,0,000,92000000000088400,0.0,2079-06-06,Героев Подводников,9201,9201,,,67264000000,67310000,20,6fdecb78-893a-4e3f-a5ba-aa062459463b,000,920000000000884,299028,1762a517-7a40-4e71-bb71-0106b3a91f85,92,проезд,2020-08-14,0884,,,2020-08-16,000,0000,000,1,,0000,,0
0,ed74319c-5893-430f-9c1d-d151da67d690,1762a517-7a40-4e71-bb71-0106b3a91f85,7,000,0,0,000,92000000000088400,0.0,2020-08-14,Героев Подводников,9201,9201,fa0a7198-dfaa-4863-8b9e-081b3f93cf92,,67269000000,67310000,21,6fdecb78-893a-4e3f-a5ba-aa062459463b,000,920000000000884,299028,0b3b4cc9-7b48-4c68-8657-a1480f32531b,92,проезд,2016-05-16,0884,,,2020-08-16,000,0000,000,0,,0000,,0
0,ed74319c-5893-430f-9c1d-d151da67d690,0b3b4cc9-7b48-4c68-8657-a1480f32531b,7,000,0,0,000,92000000000088403,3.0,2016-05-16,Героев Подводников,9201,9201,1762a517-7a40-4e71-bb71-0106b3a91f85,,67269000000,67310000,21,6fdecb78-893a-4e3f-a5ba-aa062459463b,000,920000000000884,299028,7b06d955-a98d-4286-a158-2166a3866950,92,проезд,2016-05-11,0884,,,2020-08-16,000,0000,000,0,,0000,,0
0,ed74319c-5893-430f-9c1d-d151da67d690,7b06d955-a98d-4286-a158-2166a3866950,7,000,0,0,000,92000000000088402,2.0,2016-05-11,Героев Подводников,9201,9201,0b3b4cc9-7b48-4c68-8657-a1480f32531b,,67000000000,67310000,21,6fdecb78-893a-4e3f-a5ba-aa062459463b,000,920000000000884,299028,ed74319c-5893-430f-9c1d-d151da67d690,92,проезд,2015-07-06,0884,,,2020-08-16,000,0000,000,0,,0000,,0
0,ed74319c-5893-430f-9c1d-d151da67d690,ed74319c-5893-430f-9c1d-d151da67d690,7,000,0,0,000,92000000000088401,1.0,2079-06-06,Героев Подводников,9201,9201,7b06d955-a98d-4286-a158-2166a3866950,,67000000000,67000000,10,6fdecb78-893a-4e3f-a5ba-aa062459463b,000,920000000000884,299028,,92,проезд,2014-04-18,0884,,,2020-08-16,000,0000,000,0,,0000,,0
1,19391070-e0c9-44a7-ae63-90e7314d244d,eeec91ed-2b7e-49b9-a586-6840304a2673,7,000,0,0,000,92000000002000500,0.0,2079-06-06,Заречная,9203,9203,,,67269000000,67320000106,20,c664c86c-c464-4222-9f57-7a51a660e85c,002,920000000020005,299814,c19a9f4c-add8-4ecc-98b9-737f0a55fdcd,92,ул,2020-08-14,0005,,,2020-08-16,000,0000,000,1,,0000,,0
0,19391070-e0c9-44a7-ae63-90e7314d244d,c19a9f4c-add8-4ecc-98b9-737f0a55fdcd,7,000,0,0,000,92000000002000500,0.0,2020-08-14,Заречная,9203,9203,eeec91ed-2b7e-49b9-a586-6840304a2673,,67269553002,67320000106,21,c664c86c-c464-4222-9f57-7a51a660e85c,002,920000000020005,299814,59e5d193-be53-4b74-b609-b26cb70d0908,92,ул,2019-12-23,0005,,,2020-08-16,000,0000,000,0,b0e6d925-d290-4cdf-9110-255fe9bb5ab2,0000,,0
0,19391070-e0c9-44a7-ae63-90e7314d244d,59e5d193-be53-4b74-b609-b26cb70d0908,7,000,0,0,000,92000000002000505,5.0,2019-12-23,Заречная,9203,9203,c19a9f4c-add8-4ecc-98b9-737f0a55fdcd,,67269553002,67320000,20,c664c86c-c464-4222-9f57-7a51a660e85c,002,920000000020005,299814,f9f8cb73-9417-4c4e-8aa6-7e1fbf9baf25,92,ул,2019-11-06,0005,,,2020-08-16,000,0000,000,0,ea60a874-b12d-42e1-ad3f-66ef48ef8721,0000,,0
0,19391070-e0c9-44a7-ae63-90e7314d244d,f9f8cb73-9417-4c4e-8aa6-7e1fbf9baf25,7,000,0,0,000,92000000002000504,4.0,2019-12-23,Заречная,9203,9203,59e5d193-be53-4b74-b609-b26cb70d0908,,67269553002,67320000,21,c664c86c-c464-4222-9f57-7a51a660e85c,002,920000000020005,299814,b9f7a166-b834-4b47-a315-2a10372604c5,92,ул,2017-04-24,0005,,,2020-08-16,000,0000,000,0,3662f73c-0729-4045-94e8-ce615b35907e,0000,,0
0,19391070-e0c9-44a7-ae63-90e7314d244d,b9f7a166-b834-4b47-a315-2a10372604c5,7,000,0,0,000,92000000002000503,3.0,2017-04-24,Заречная,9203,9203,f9f8cb73-9417-4c4e-8aa6-7e1fbf9baf25,,67269553002,67320000106,21,c664c86c-c464-4222-9f57-7a51a660e85c,002,920000000020005,299814,814c8912-0daf-4e95-aa06-2b6fa6fc01b1,92,ул,2016-04-27,0005,,,2020-08-16,000,0000,000,0,,0000,,0
0,19391070-e0c9-44a7-ae63-90e7314d244d,814c8912-0daf-4e95-aa06-2b6fa6fc01b1,7,000,0,0,000,92000000002000502,2.0,2017-04-24,Заречная,9203,9203,b9f7a166-b834-4b47-a315-2a10372604c5,,67000000000,67320000106,21,c664c86c-c464-4222-9f57-7a51a660e85c,002,920000000020005,299814,6bb2dbbf-d7dc-4cb6-93a4-ac1ffbd473c3,92,ул,2015-06-29,0005,,,2020-08-16,000,0000,000,0,,0000,,0
0,19391070-e0c9-44a7-ae63-90e7314d244d,6bb2dbbf-d7dc-4cb6-93a4-ac1ffbd473c3,7,000,0,0,000,92000000002000501,1.0,2015-06-29,Заречная,9203,9203,814c8912-0daf-4e95-aa06-2b6fa6fc01b1,,67000000000,67000000,50,c664c86c-c464-4222-9f57-7a51a660e85c,002,920000000020005,299814,19391070-e0c9-44a7-ae63-90e7314d244d,92,ул,2014-04-18,0005,,,2020-08-16,000,0000,000,0,,0000,,0
0,19391070-e0c9-44a7-ae63-90e7314d244d,19391070-e0c9-44a7-ae63-90e7314d244d,7,000,0,0,000,92000000004001451,51.0,2079-06-06,Заречная,9203,9203,6bb2dbbf-d7dc-4cb6-93a4-ac1ffbd473c3,,67000000000,67000000,10,c664c86c-c464-4222-9f57-7a51a660e85c,002,920000000040014,299814,,92,ул,2014-04-18,0005,,,2020-08-16,000,0000,000,0,,0000,,0
1,b660d827-f20c-4335-997f-ce4da8d36137,9d588214-85a1-4b11-928e-9159445c38a1,7,000,0,0,000,92000000002000200,0.0,2079-06-06,Верхняя,9203,9203,,,67269000000,67320000106,20,c664c86c-c464-4222-9f57-7a51a660e85c,002,920000000020002,299814,fdb51eef-7a81-46b3-a4b3-523fa98ceb55,92,ул,2020-08-14,0002,,,2020-08-16,000,0000,000,1,,0000,,0
0,b660d827-f20c-4335-997f-ce4da8d36137,fdb51eef-7a81-46b3-a4b3-523fa98ceb55,7,000,0,0,000,92000000002000200,0.0,2020-08-14,Верхняя,9203,9203,9d588214-85a1-4b11-928e-9159445c38a1,,67269553002,67320000106,21,c664c86c-c464-4222-9f57-7a51a660e85c,002,920000000020002,299814,bb396283-fd5f-4cd4-b122-008744043710,92,ул,2019-12-23,0002,,,2020-08-16,000,0000,000,0,b0e6d925-d290-4cdf-9110-255fe9bb5ab2,0000,,0
0,b660d827-f20c-4335-997f-ce4da8d36137,bb396283-fd5f-4cd4-b122-008744043710,7,000,0,0,000,92000000002000204,4.0,2019-12-23,Верхняя,9203,9203,fdb51eef-7a81-46b3-a4b3-523fa98ceb55,,67269553002,67320000,21,c664c86c-c464-4222-9f57-7a51a660e85c,002,920000000020002,299814,504e18d9-05a7-45e4-93eb-86764448551d,92,ул,2017-04-24,0002,,,2020-08-16,000,0000,000,0,3662f73c-0729-4045-94e8-ce615b35907e,0000,,0
0,b660d827-f20c-4335-997f-ce4da8d36137,504e18d9-05a7-45e4-93eb-86764448551d,7,000,0,0,000,92000000002000203,3.0,2017-04-24,Верхняя,9203,9203,bb396283-fd5f-4cd4-b122-008744043710,,67269553002,67320000106,21,c664c86c-c464-4222-9f57-7a51a660e85c,002,920000000020002,299814,5042be77-d3c5-4b63-8197-873445aa48f3,92,ул,2016-04-27,0002,,,2020-08-16,000,0000,000,0,,0000,,0
0,b660d827-f20c-4335-997f-ce4da8d36137,5042be77-d3c5-4b63-8197-873445aa48f3,7,000,0,0,000,92000000002000202,2.0,2017-04-24,Верхняя,9203,9203,504e18d9-05a7-45e4-93eb-86764448551d,,67000000000,67320000106,21,c664c86c-c464-4222-9f57-7a51a660e85c,002,920000000020002,299814,fc9f25b1-8b71-4a23-bdb0-49e590505999,92,ул,2015-06-29,0002,,,2020-08-16,000,0000,000,0,,0000,,0
0,b660d827-f20c-4335-997f-ce4da8d36137,fc9f25b1-8b71-4a23-bdb0-49e590505999,7,000,0,0,000,92000000002000201,1.0,2015-06-29,Верхняя,9203,9203,5042be77-d3c5-4b63-8197-873445aa48f3,,67000000000,67000000,50,c664c86c-c464-4222-9f57-7a51a660e85c,002,920000000020002,299814,b660d827-f20c-4335-997f-ce4da8d36137,92,ул,2014-04-18,0002,,,2020-08-16,000,0000,000,0,,0000,,0
0,b660d827-f20c-4335-997f-ce4da8d36137,b660d827-f20c-4335-997f-ce4da8d36137,7,000,0,0,000,92000000004000351,51.0,2079-06-06,Верхняя,9203,9203,fc9f25b1-8b71-4a23-bdb0-49e590505999,,67000000000,67000000,10,c664c86c-c464-4222-9f57-7a51a660e85c,002,920000000040003,299814,,92,ул,2014-04-18,0002,,,2020-08-16,000,0000,000,0,,0000,,0
